{
  "type": "FeatureCollection",
  "features": [
    {
      "type": "Feature",
      "properties": {
        "object_id": "10-232-01442",
        "stname": "BIHAR",
        "dtname": "Buxar",
        "sdtname": "Chausa",
        "st_area_sh": 0.0,
        "st_length_": 0.0,
        "remarks": "",
        "dist_lgd": 194,
        "state_lgd": 10,
        "subdt_lgd": 1442,
        "ac_no": null,
        "st_length(shape)": 99103.08457070828,
        "st_area(shape)": 138502720.57991108
      },
      "geometry": {
        "type": "Polygon",
        "coordinates": [
          [
            [
              83.91996014290503,
              25.526173586731154
            ],
            [
              83.9200333349394,
              25.525853841642515
            ],
            [
              83.92169840813261,
              25.52596369838199
            ],
            [
              83.92209234004595,
              25.525872546153792
            ],
            [
              83.92280736667276,
              25.52507570982645
            ],
            [
              83.9235256101666,
              25.524436863890504
            ],
            [
              83.92441274142544,
              25.524282422873306
            ],
            [
              83.92526220093451,
              25.524384866924695
            ],
            [
              83.92530053114936,
              25.524060292928908
            ],
            [
              83.92471907502217,
              25.52219108076476
            ],
            [
              83.92418660133245,
              25.51903163266983
            ],
            [
              83.92392170342653,
              25.517323350026253
            ],
            [
              83.92368505484133,
              25.516224463095206
            ],
            [
              83.92359636686825,
              25.514779540099163
            ],
            [
              83.92321722661438,
              25.513516877743886
            ],
            [
              83.92308216131818,
              25.512676242091405
            ],
            [
              83.92354577195482,
              25.51258571699794
            ],
            [
              83.92492437330222,
              25.512950154264317
            ],
            [
              83.92627381892876,
              25.51280444694239
            ],
            [
              83.92833407179526,
              25.5126922076106
            ],
            [
              83.92968117641216,
              25.51276748703592
            ],
            [
              83.92972870807048,
              25.514798800048858
            ],
            [
              83.92999399135364,
              25.516471071076346
            ],
            [
              83.93019977023243,
              25.517217569632745
            ],
            [
              83.93193685417543,
              25.51710232595404
            ],
            [
              83.93220314806331,
              25.518684341914728
            ],
            [
              83.93233758723379,
              25.519588142131347
            ],
            [
              83.93260918836836,
              25.520682722811433
            ],
            [
              83.93299742855605,
              25.520654659155305
            ],
            [
              83.93427704184735,
              25.52053523573263
            ],
            [
              83.93452219837658,
              25.52086238907183
            ],
            [
              83.93461368819501,
              25.5220547007336
            ],
            [
              83.93481364778738,
              25.52334267819076
            ],
            [
              83.93598129326503,
              25.522996654798543
            ],
            [
              83.93857734179115,
              25.52256863605138
            ],
            [
              83.94170368469405,
              25.521856532167135
            ],
            [
              83.9419984578714,
              25.52128146905548
            ],
            [
              83.94283140634558,
              25.519677723995084
            ],
            [
              83.9440018770248,
              25.5195302421666
            ],
            [
              83.94585109856301,
              25.51915863093157
            ],
            [
              83.94699199041487,
              25.518523382914633
            ],
            [
              83.94734947228724,
              25.518120438879855
            ],
            [
              83.94738475272172,
              25.518080138970372
            ],
            [
              83.9474982386882,
              25.51769748412576
            ],
            [
              83.94744795638847,
              25.515891802197235
            ],
            [
              83.94741438275305,
              25.515313843050507
            ],
            [
              83.94760351495127,
              25.51438129209473
            ],
            [
              83.94739866942211,
              25.51354005364842
            ],
            [
              83.94698243862847,
              25.51292707877503
            ],
            [
              83.9471293239572,
              25.51221987364121
            ],
            [
              83.94735360543588,
              25.51125604662896
            ],
            [
              83.94733083494006,
              25.51012762735753
            ],
            [
              83.94712603163167,
              25.509290805222836
            ],
            [
              83.94844022556984,
              25.509171671280487
            ],
            [
              83.94925788381954,
              25.50898938827194
            ],
            [
              83.95149141002624,
              25.50894157211612
            ],
            [
              83.95536315159573,
              25.508718587629275
            ],
            [
              83.9551271758487,
              25.507525077357364
            ],
            [
              83.95488919326532,
              25.50652559831722
            ],
            [
              83.9543818059282,
              25.504205853377748
            ],
            [
              83.95428861829389,
              25.50268867833409
            ],
            [
              83.95349979506649,
              25.500403346813954
            ],
            [
              83.95300851182752,
              25.498914443836284
            ],
            [
              83.95221170796711,
              25.497170102990456
            ],
            [
              83.94881241466007,
              25.496945895002973
            ],
            [
              83.94689889261211,
              25.49683418491451
            ],
            [
              83.94565704719027,
              25.496696723624176
            ],
            [
              83.94508287460339,
              25.49736397520693
            ],
            [
              83.94482798662469,
              25.49794384104044
            ],
            [
              83.94460411118452,
              25.49887138801096
            ],
            [
              83.94262580712984,
              25.498307752737063
            ],
            [
              83.94149374931047,
              25.49813524711935
            ],
            [
              83.94092651620916,
              25.49816622201295
            ],
            [
              83.9398560352076,
              25.49873428418846
            ],
            [
              83.93925396004965,
              25.498760521338447
            ],
            [
              83.93884457891004,
              25.49753391162388
            ],
            [
              83.93842423113746,
              25.49685334719987
            ],
            [
              83.93804121465317,
              25.4964031960688
            ],
            [
              83.938046183235,
              25.495951945382565
            ],
            [
              83.93819513828215,
              25.495050797892684
            ],
            [
              83.9385182533067,
              25.494607035123334
            ],
            [
              83.93874084415599,
              25.493801239794823
            ],
            [
              83.93893695267074,
              25.492228190880983
            ],
            [
              83.93883878926805,
              25.491198528208894
            ],
            [
              83.93904133690674,
              25.490861857169854
            ],
            [
              83.9375783756693,
              25.490492320618014
            ],
            [
              83.93643113093178,
              25.490351190988587
            ],
            [
              83.93564400013038,
              25.490019183341957
            ],
            [
              83.93532542878451,
              25.4895921546981
            ],
            [
              83.93522845475127,
              25.488909917042648
            ],
            [
              83.93527494077061,
              25.48783644122604
            ],
            [
              83.93520530606473,
              25.48737999136935
            ],
            [
              83.93471093711273,
              25.487113840325968
            ],
            [
              83.93270131060073,
              25.48716348481398
            ],
            [
              83.9313388636571,
              25.487151232223457
            ],
            [
              83.92915142910931,
              25.48709550035499
            ],
            [
              83.92681898940673,
              25.487110522151283
            ],
            [
              83.92585041778256,
              25.487002541140004
            ],
            [
              83.92539122056886,
              25.48670508868421
            ],
            [
              83.924608875093,
              25.48594893887922
            ],
            [
              83.92411559220419,
              25.485132263138212
            ],
            [
              83.92380345279577,
              25.48412318795892
            ],
            [
              83.92359636956321,
              25.483503109348582
            ],
            [
              83.92342315461349,
              25.482522376079626
            ],
            [
              83.92329256292737,
              25.481740534862794
            ],
            [
              83.92315794589047,
              25.48086387161349
            ],
            [
              83.9234129641249,
              25.480279524019554
            ],
            [
              83.92359949390378,
              25.47959535779445
            ],
            [
              83.92352363836454,
              25.476990958333218
            ],
            [
              83.9228030493695,
              25.47695282935518
            ],
            [
              83.92165955060666,
              25.476942508245763
            ],
            [
              83.92072984100002,
              25.476478320968734
            ],
            [
              83.91667046831714,
              25.477091331794416
            ],
            [
              83.9164570519618,
              25.47705777423513
            ],
            [
              83.91618126108473,
              25.475918135959237
            ],
            [
              83.91601662684263,
              25.474612548038223
            ],
            [
              83.91311326196289,
              25.474563518765354
            ],
            [
              83.91210900925563,
              25.474545382868186
            ],
            [
              83.9103514760635,
              25.47475944840137
            ],
            [
              83.90963767024714,
              25.474554447167712
            ],
            [
              83.90909936559292,
              25.474224597703202
            ],
            [
              83.90828406003095,
              25.473761415285875
            ],
            [
              83.90763989071714,
              25.47356146397364
            ],
            [
              83.90684937596204,
              25.473554207283897
            ],
            [
              83.90669390184088,
              25.471436444347543
            ],
            [
              83.90660150292736,
              25.469905856747847
            ],
            [
              83.9067376003879,
              25.46750196909743
            ],
            [
              83.90667050881257,
              25.467271189170912
            ],
            [
              83.90494610997968,
              25.46719223405065
            ],
            [
              83.9040881317468,
              25.46699037482148
            ],
            [
              83.90332225059342,
              25.46566564763591
            ],
            [
              83.90337949573491,
              25.46365364564432
            ],
            [
              83.90322899828041,
              25.461540439352877
            ],
            [
              83.90286053360538,
              25.45757506716079
            ],
            [
              83.90442413669733,
              25.45689899225821
            ],
            [
              83.90465674106713,
              25.454762141883712
            ],
            [
              83.90743417741538,
              25.454471720717088
            ],
            [
              83.90979180408192,
              25.454371454916295
            ],
            [
              83.91159446504066,
              25.454103585069724
            ],
            [
              83.91229464790571,
              25.453730919012532
            ],
            [
              83.9124759423031,
              25.453073770343426
            ],
            [
              83.91253785329417,
              25.451517457677355
            ],
            [
              83.91257160120274,
              25.4507146027452
            ],
            [
              83.91212342811424,
              25.45033139190749
            ],
            [
              83.91080892874889,
              25.450066690317627
            ],
            [
              83.91071714428304,
              25.445788019689733
            ],
            [
              83.91162109380063,
              25.445859417380397
            ],
            [
              83.9121140443128,
              25.444889204008234
            ],
            [
              83.9134062007804,
              25.440875761310135
            ],
            [
              83.91417928821899,
              25.439750146115326
            ],
            [
              83.91477351299964,
              25.43950286399113
            ],
            [
              83.91481702469706,
              25.438718078363355
            ],
            [
              83.91479155925538,
              25.43786947911082
            ],
            [
              83.9142092003213,
              25.437042940977296
            ],
            [
              83.91411667025378,
              25.436414788061974
            ],
            [
              83.91482180912428,
              25.435130680828806
            ],
            [
              83.91307298599712,
              25.43505152128546
            ],
            [
              83.91161667408944,
              25.435038254199952
            ],
            [
              83.91030021729505,
              25.434963076184506
            ],
            [
              83.90918895727118,
              25.43520560238689
            ],
            [
              83.90800687496856,
              25.43556940862227
            ],
            [
              83.90676345839334,
              25.435183470864928
            ],
            [
              83.90531068225461,
              25.434854259027095
            ],
            [
              83.90399564839164,
              25.434652674123353
            ],
            [
              83.90205576438338,
              25.434761231052885
            ],
            [
              83.89990644355649,
              25.434931006057962
            ],
            [
              83.89986007880972,
              25.43285482685984
            ],
            [
              83.89667407699214,
              25.43282541466792
            ],
            [
              83.89627006238807,
              25.431621359928123
            ],
            [
              83.89606483866812,
              25.431308140643576
            ],
            [
              83.89543786580377,
              25.431365500609502
            ],
            [
              83.8945361432098,
              25.43154668276654
            ],
            [
              83.89377774592106,
              25.43135018709787
            ],
            [
              83.89267158563304,
              25.43115044521635
            ],
            [
              83.89175502736212,
              25.43265362882685
            ],
            [
              83.89097681593317,
              25.43377916836332
            ],
            [
              83.89026553617943,
              25.435595654684505
            ],
            [
              83.89025068612943,
              25.43691766905831
            ],
            [
              83.89064972406686,
              25.438559459731582
            ],
            [
              83.88787276113075,
              25.43884506738194
            ],
            [
              83.88634539697566,
              25.438957266146097
            ],
            [
              83.88343693864827,
              25.438993359650773
            ],
            [
              83.8814876870082,
              25.439480658626962
            ],
            [
              83.88101624216392,
              25.438533104800296
            ],
            [
              83.88013794942918,
              25.43619647239913
            ],
            [
              83.8794706017844,
              25.43411446589407
            ],
            [
              83.8790652001815,
              25.433036632256982
            ],
            [
              83.87810877827157,
              25.4318995609504
            ],
            [
              83.87827423626878,
              25.429581651625547
            ],
            [
              83.87952248667855,
              25.42953009390504
            ],
            [
              83.87990729260694,
              25.42934415865717
            ],
            [
              83.88066951671878,
              25.429193344400115
            ],
            [
              83.8812630731529,
              25.429013876194308
            ],
            [
              83.88137704241298,
              25.428162059971086
            ],
            [
              83.88166245155179,
              25.427537414225252
            ],
            [
              83.88221415278183,
              25.427542574870174
            ],
            [
              83.88339281429981,
              25.427490424843267
            ],
            [
              83.88420932540092,
              25.427371652829393
            ],
            [
              83.8838983133782,
              25.42409709464672
            ],
            [
              83.88344962106343,
              25.420694961608902
            ],
            [
              83.88362570613049,
              25.41742495229055
            ],
            [
              83.88359021459193,
              25.414405600287804
            ],
            [
              83.88333037240444,
              25.41276516663322
            ],
            [
              83.88293565805847,
              25.411186572981975
            ],
            [
              83.88274326767069,
              25.409740741024777
            ],
            [
              83.88263112109233,
              25.40734798691894
            ],
            [
              83.88244726380144,
              25.405144111060565
            ],
            [
              83.88206970368415,
              25.40205835365394
            ],
            [
              83.87769692406997,
              25.40245537007239
            ],
            [
              83.87701614840833,
              25.401568998867262
            ],
            [
              83.87444784165481,
              25.40192402835684
            ],
            [
              83.87375929915923,
              25.401285781125864
            ],
            [
              83.8732113663618,
              25.400969302053294
            ],
            [
              83.87154384436113,
              25.401201890387075
            ],
            [
              83.87108051489716,
              25.399563930709675
            ],
            [
              83.87109555898321,
              25.398241891341613
            ],
            [
              83.87091046291555,
              25.39616425420688
            ],
            [
              83.87064512303849,
              25.39502911470358
            ],
            [
              83.86668342687139,
              25.395998185944382
            ],
            [
              83.86558042056832,
              25.395545537146027
            ],
            [
              83.86468175494123,
              25.395478442304142
            ],
            [
              83.86273750062911,
              25.396024147667482
            ],
            [
              83.86321995971707,
              25.402066644402346
            ],
            [
              83.86114354615864,
              25.401988440152603
            ],
            [
              83.86066920873917,
              25.40695239038086
            ],
            [
              83.85908929763153,
              25.407343597079965
            ],
            [
              83.85911020591976,
              25.405516144363503
            ],
            [
              83.85633565316355,
              25.405647760313855
            ],
            [
              83.85561620502892,
              25.40510844316559
            ],
            [
              83.85440269696278,
              25.405191729095865
            ],
            [
              83.8532249660994,
              25.40518057416116
            ],
            [
              83.85169834035949,
              25.405260843902404
            ],
            [
              83.85006633594853,
              25.405430261226968
            ],
            [
              83.8484725431748,
              25.405731015848463
            ],
            [
              83.84859907627246,
              25.40381430798127
            ],
            [
              83.84884154234742,
              25.40089245387663
            ],
            [
              83.84932677543298,
              25.400612763655413
            ],
            [
              83.84924756558448,
              25.398441337178078
            ],
            [
              83.84872966885689,
              25.39853125190191
            ],
            [
              83.84836780859584,
              25.39673170796754
            ],
            [
              83.84809032798773,
              25.39666585700663
            ],
            [
              83.84665651708126,
              25.397753322834184
            ],
            [
              83.846363251277,
              25.396464347016476
            ],
            [
              83.84444908334032,
              25.39697859985801
            ],
            [
              83.84295658908962,
              25.397122300231118
            ],
            [
              83.84157449778733,
              25.3971721911948
            ],
            [
              83.83952657339987,
              25.397215814934174
            ],
            [
              83.8377241891222,
              25.397514352735904
            ],
            [
              83.83623174877043,
              25.397653473201018
            ],
            [
              83.83501570026864,
              25.39795763925153
            ],
            [
              83.83355424460761,
              25.39841738116812
            ],
            [
              83.83254691876378,
              25.398719128680426
            ],
            [
              83.83174683156106,
              25.39914464735077
            ],
            [
              83.83151735063349,
              25.39794650961581
            ],
            [
              83.83104446668817,
              25.39715672889345
            ],
            [
              83.8310574230895,
              25.39605581102926
            ],
            [
              83.831104678965,
              25.39498673097812
            ],
            [
              83.83142713732109,
              25.393762342244667
            ],
            [
              83.83397356291088,
              25.393146072605912
            ],
            [
              83.83374677333593,
              25.388739514806655
            ],
            [
              83.83351817635065,
              25.387888914692013
            ],
            [
              83.83306823537765,
              25.387695090155496
            ],
            [
              83.83234574015758,
              25.38743986723418
            ],
            [
              83.83151787974121,
              25.38727397281701
            ],
            [
              83.8302041951478,
              25.387008579256722
            ],
            [
              83.82916796511135,
              25.38680905771869
            ],
            [
              83.82886190460252,
              25.386210427012042
            ],
            [
              83.82883495514399,
              25.385546807943868
            ],
            [
              83.82870463295244,
              25.38479192203876
            ],
            [
              83.82850327378488,
              25.38416271536908
            ],
            [
              83.82844118043582,
              25.38353034589845
            ],
            [
              83.8285535273385,
              25.38284091473653
            ],
            [
              83.8283550742209,
              25.382396787891967
            ],
            [
              83.82835350666072,
              25.38168374316311
            ],
            [
              83.8274089056816,
              25.381300019072306
            ],
            [
              83.82673423676722,
              25.381212261748367
            ],
            [
              83.82623092239164,
              25.38133378510763
            ],
            [
              83.82529524797147,
              25.38104493521581
            ],
            [
              83.82422654383753,
              25.380655506723915
            ],
            [
              83.82346753569442,
              25.380553427251268
            ],
            [
              83.82276071877098,
              25.38023065414071
            ],
            [
              83.82231401712289,
              25.379770541850405
            ],
            [
              83.8217314273218,
              25.379453542121524
            ],
            [
              83.82087532926276,
              25.37873669622943
            ],
            [
              83.81913810967417,
              25.3777405727987
            ],
            [
              83.8182500953714,
              25.376775172131502
            ],
            [
              83.81710649240404,
              25.375581739875
            ],
            [
              83.81792636320428,
              25.374732279974236
            ],
            [
              83.81722674178626,
              25.3742380532564
            ],
            [
              83.81586254672108,
              25.373629164198945
            ],
            [
              83.81498203335093,
              25.373304645373885
            ],
            [
              83.81467998202316,
              25.372796298812673
            ],
            [
              83.81435340219657,
              25.37226056530438
            ],
            [
              83.81399418298244,
              25.371972751318655
            ],
            [
              83.81365172273827,
              25.371937808993774
            ],
            [
              83.81316209958592,
              25.372167688722666
            ],
            [
              83.81277784791808,
              25.37230833835327
            ],
            [
              83.81196038819604,
              25.372535042145607
            ],
            [
              83.811234804568,
              25.372546065360837
            ],
            [
              83.81087596893451,
              25.372226653879306
            ],
            [
              83.81008698760363,
              25.371389656341268
            ],
            [
              83.80992785194938,
              25.371547544338995
            ],
            [
              83.8098260503698,
              25.37155201583523
            ],
            [
              83.80972424699357,
              25.37155648733133
            ],
            [
              83.80970510658982,
              25.371544201877164
            ],
            [
              83.8095553709067,
              25.371448090232597
            ],
            [
              83.8092028064122,
              25.371041720374077
            ],
            [
              83.80890495111512,
              25.370707574605984
            ],
            [
              83.80865668910992,
              25.370486273162033
            ],
            [
              83.80837353923408,
              25.370418407099073
            ],
            [
              83.80831393421833,
              25.3704093479524
            ],
            [
              83.80817478158755,
              25.370409299251666
            ],
            [
              83.80804062987798,
              25.370526641974312
            ],
            [
              83.807806908004,
              25.37095531028295
            ],
            [
              83.80764280736115,
              25.371117711755975
            ],
            [
              83.80719554606266,
              25.37137927505331
            ],
            [
              83.80664907931575,
              25.371482831404574
            ],
            [
              83.80610756318441,
              25.371482607383204
            ],
            [
              83.80591873641336,
              25.371563723378838
            ],
            [
              83.80564534224146,
              25.371694550069048
            ],
            [
              83.80553113402951,
              25.37170800918285
            ],
            [
              83.80516355688998,
              25.371640122702683
            ],
            [
              83.80479105788099,
              25.37143228292301
            ],
            [
              83.8045526450046,
              25.371310316980423
            ],
            [
              83.80423477703964,
              25.371192844339465
            ],
            [
              83.80378774301492,
              25.371034606858156
            ],
            [
              83.80355925831901,
              25.370908118670343
            ],
            [
              83.80328615430297,
              25.37075911038931
            ],
            [
              83.80289870103947,
              25.3706776099303
            ],
            [
              83.80260051426403,
              25.370754220038663
            ],
            [
              83.80234206356691,
              25.37093014510478
            ],
            [
              83.80192468023476,
              25.37118715288454
            ],
            [
              83.80167614693836,
              25.37134953294246
            ],
            [
              83.8012735741303,
              25.371525405194795
            ],
            [
              83.80100532191513,
              25.371547840598957
            ],
            [
              83.8009011137489,
              25.371439464595934
            ],
            [
              83.80094594417315,
              25.37110094094592
            ],
            [
              83.80104047299218,
              25.37088888683093
            ],
            [
              83.80117479268672,
              25.370640702160273
            ],
            [
              83.80125439240406,
              25.370401499829924
            ],
            [
              83.80127941407798,
              25.370207462976293
            ],
            [
              83.80133930475797,
              25.369742591757614
            ],
            [
              83.80147365589357,
              25.36934091095473
            ],
            [
              83.80160804026679,
              25.36897090333922
            ],
            [
              83.80170254572963,
              25.368740712332702
            ],
            [
              83.80174742106963,
              25.36853763462903
            ],
            [
              83.80174751988432,
              25.368352555057317
            ],
            [
              83.80173276595409,
              25.368023108059166
            ],
            [
              83.80171295540713,
              25.367887678325758
            ],
            [
              83.80164348688959,
              25.367756712772014
            ],
            [
              83.80148465666251,
              25.36764838531719
            ],
            [
              83.80119650406884,
              25.367630140794727
            ],
            [
              83.80083383442569,
              25.367679638907468
            ],
            [
              83.80052074100645,
              25.367837471687604
            ],
            [
              83.80021758924246,
              25.368004318134293
            ],
            [
              83.79980519515343,
              25.36808986263453
            ],
            [
              83.79957666733839,
              25.368103236921968
            ],
            [
              83.79940272116004,
              25.368166376168645
            ],
            [
              83.7991692085935,
              25.368256456296148
            ],
            [
              83.79890560875317,
              25.368730257765016
            ],
            [
              83.79871150258319,
              25.369271769089046
            ],
            [
              83.79859714075934,
              25.369515511785686
            ],
            [
              83.7984429808734,
              25.3696959426877
            ],
            [
              83.79807529413941,
              25.369799583273355
            ],
            [
              83.79769775378507,
              25.369790343075007
            ],
            [
              83.7971812269883,
              25.369555353327346
            ],
            [
              83.79649588608838,
              25.369162314747285
            ],
            [
              83.79585031180943,
              25.36880091292998
            ],
            [
              83.79520970521402,
              25.368439414252116
            ],
            [
              83.79488197015397,
              25.36827229567727
            ],
            [
              83.79454423414985,
              25.36803741661463
            ],
            [
              83.79423649828298,
              25.367707759339485
            ],
            [
              83.7940130917634,
              25.36748189633806
            ],
            [
              83.79384426598216,
              25.36730579904128
            ],
            [
              83.79361591244029,
              25.3670935661853
            ],
            [
              83.79340726613916,
              25.367025699028506
            ],
            [
              83.79325822485372,
              25.367066249194558
            ],
            [
              83.79311912881681,
              25.367120326343038
            ],
            [
              83.79299967624024,
              25.367350445760025
            ],
            [
              83.7928304803531,
              25.367797179088054
            ],
            [
              83.79269114805926,
              25.368212392708156
            ],
            [
              83.79256176011563,
              25.368541783183534
            ],
            [
              83.79234303831025,
              25.368726772367793
            ],
            [
              83.79185611279871,
              25.368785106085745
            ],
            [
              83.79146874218021,
              25.368572819821203
            ],
            [
              83.79096736996226,
              25.368080520031935
            ],
            [
              83.79061981357545,
              25.367750797126952
            ],
            [
              83.79045599769856,
              25.36761529971746
            ],
            [
              83.79021761266993,
              25.367502331656677
            ],
            [
              83.79011332455364,
              25.367502325163066
            ],
            [
              83.78996421319962,
              25.367574456712696
            ],
            [
              83.78956149576281,
              25.36802101388653
            ],
            [
              83.78929780609096,
              25.368544434167415
            ],
            [
              83.78924436711134,
              25.368640272958537
            ],
            [
              83.78886005166312,
              25.36932950676632
            ],
            [
              83.78858674103455,
              25.369460300161556
            ],
            [
              83.78828874919357,
              25.36944203724392
            ],
            [
              83.78810502664994,
              25.369261433885246
            ],
            [
              83.78785680596728,
              25.368940830278248
            ],
            [
              83.78770796231125,
              25.368674381007608
            ],
            [
              83.78755406742832,
              25.36852533588084
            ],
            [
              83.78729088171133,
              25.368443966220916
            ],
            [
              83.78710697680975,
              25.368488959923138
            ],
            [
              83.78692809169395,
              25.368588182698232
            ],
            [
              83.78662973783189,
              25.369021296194724
            ],
            [
              83.7864406783972,
              25.369391336123357
            ],
            [
              83.78620695831982,
              25.369698061993496
            ],
            [
              83.78602013299526,
              25.36984093769774
            ],
            [
              83.78585897882655,
              25.36996418027568
            ],
            [
              83.78541175705391,
              25.370108368964786
            ],
            [
              83.7849497822494,
              25.370094468930066
            ],
            [
              83.78442833537977,
              25.36978273192375
            ],
            [
              83.78428450522134,
              25.369453196292774
            ],
            [
              83.78432965005594,
              25.368974800255415
            ],
            [
              83.78438942934483,
              25.36864077783015
            ],
            [
              83.78446910272402,
              25.36844228033661
            ],
            [
              83.78443937028472,
              25.368297829917584
            ],
            [
              83.78434508131588,
              25.3682661357378
            ],
            [
              83.78428538826525,
              25.368266092718063
            ],
            [
              83.78424566027181,
              25.368266124374117
            ],
            [
              83.78396251578586,
              25.368297471149294
            ],
            [
              83.78384815126701,
              25.36835612488137
            ],
            [
              83.78362950312349,
              25.368423700705193
            ],
            [
              83.78341097265928,
              25.36840545792317
            ],
            [
              83.78316266843328,
              25.36830151013349
            ],
            [
              83.78308322681941,
              25.3682112401033
            ],
            [
              83.78286487601828,
              25.36795376982088
            ],
            [
              83.78270603860469,
              25.367714485060144
            ],
            [
              83.78255215809483,
              25.367574459147804
            ],
            [
              83.78236849394173,
              25.36744798925366
            ],
            [
              83.7822343700799,
              25.367407211939984
            ],
            [
              83.78213991492272,
              25.367407194082606
            ],
            [
              83.78190148318173,
              25.36745222063885
            ],
            [
              83.78164303787445,
              25.367555829869357
            ],
            [
              83.78064433136578,
              25.367762772087065
            ],
            [
              83.7801425827537,
              25.367798606050204
            ],
            [
              83.77966568603401,
              25.36774860392259
            ],
            [
              83.77925840964713,
              25.367689704763137
            ],
            [
              83.77896531272611,
              25.367698492195174
            ],
            [
              83.77873170583645,
              25.367811191401145
            ],
            [
              83.77863214735018,
              25.367996167093352
            ],
            [
              83.77873134471373,
              25.368303180597575
            ],
            [
              83.7790439000421,
              25.36873222530175
            ],
            [
              83.77917794844544,
              25.36891278562022
            ],
            [
              83.7792471411802,
              25.369319087963795
            ],
            [
              83.77899838779655,
              25.369828945086585
            ],
            [
              83.77847618185051,
              25.37055530800297
            ],
            [
              83.77826215823409,
              25.371033555739576
            ],
            [
              83.77828690592185,
              25.371164476346312
            ],
            [
              83.77844560679151,
              25.371476049076666
            ],
            [
              83.77899652109738,
              25.372090274336383
            ],
            [
              83.779428348441,
              25.37259602086162
            ],
            [
              83.7795919882481,
              25.372984294370596
            ],
            [
              83.77957195671556,
              25.37324158104997
            ],
            [
              83.77946251406618,
              25.373372421344794
            ],
            [
              83.77925869081979,
              25.373593387969333
            ],
            [
              83.7791542311253,
              25.373742271006275
            ],
            [
              83.77878144465545,
              25.373958668960366
            ],
            [
              83.77840369229867,
              25.374175071396742
            ],
            [
              83.77775274429771,
              25.374346188123138
            ],
            [
              83.7771416249015,
              25.374404473675476
            ],
            [
              83.77706705305482,
              25.37443151061062
            ],
            [
              83.77702721097536,
              25.374535225052544
            ],
            [
              83.7770668680019,
              25.37467524939119
            ],
            [
              83.77718096033117,
              25.374860340380454
            ],
            [
              83.77747888479851,
              25.37512687259501
            ],
            [
              83.77772718363464,
              25.37521278216317
            ],
            [
              83.77815936042286,
              25.375316874972913
            ],
            [
              83.7784673576995,
              25.37540282904644
            ],
            [
              83.778904350356,
              25.37556106161796
            ],
            [
              83.7791278709616,
              25.37570564133258
            ],
            [
              83.77945044609868,
              25.376094067175305
            ],
            [
              83.77969846735536,
              25.376640376357294
            ],
            [
              83.77970795985294,
              25.3771458936206
            ],
            [
              83.77958357103387,
              25.377448198325617
            ],
            [
              83.77933997308166,
              25.377628588973266
            ],
            [
              83.77891263821277,
              25.37772762568367
            ],
            [
              83.77829651160718,
              25.377758759791973
            ],
            [
              83.77755122702668,
              25.377758313395795
            ],
            [
              83.77707433479853,
              25.377757935176497
            ],
            [
              83.77689048469416,
              25.377771423645044
            ],
            [
              83.77681599639081,
              25.37778483338408
            ],
            [
              83.77665690565229,
              25.37782988772629
            ],
            [
              83.77643335809722,
              25.377883921098952
            ],
            [
              83.77631399894541,
              25.377928948620504
            ],
            [
              83.77624945409393,
              25.377951463186612
            ],
            [
              83.77616488938804,
              25.378028139293882
            ],
            [
              83.7761548956305,
              25.37807326578018
            ],
            [
              83.77611505085606,
              25.37828544769559
            ],
            [
              83.77607994738972,
              25.378696155661665
            ],
            [
              83.77601996867483,
              25.379061672013005
            ],
            [
              83.7759052160838,
              25.379720596621137
            ],
            [
              83.77584515741886,
              25.380221564076972
            ],
            [
              83.77583474863965,
              25.38081733676933
            ],
            [
              83.77582421858787,
              25.38150334964449
            ],
            [
              83.77589830534433,
              25.382054033234684
            ],
            [
              83.77597267776498,
              25.38224817523428
            ],
            [
              83.77606698200522,
              25.382401694814863
            ],
            [
              83.77635986243226,
              25.38267274721194
            ],
            [
              83.77659307765641,
              25.382984357620792
            ],
            [
              83.7767022391331,
              25.383201035248383
            ],
            [
              83.77672178467705,
              25.383625330370098
            ],
            [
              83.7766171390313,
              25.38402697422502
            ],
            [
              83.77637842701591,
              25.384247965183565
            ],
            [
              83.77603558588604,
              25.38432897602809
            ],
            [
              83.77566791172845,
              25.3842971156214
            ],
            [
              83.77522574208098,
              25.384274241894264
            ],
            [
              83.775076679236,
              25.38420648827236
            ],
            [
              83.77488306264789,
              25.384084441084056
            ],
            [
              83.77474899987149,
              25.384016674370276
            ],
            [
              83.77460990113966,
              25.3839850086622
            ],
            [
              83.77447569732779,
              25.383984925068688
            ],
            [
              83.77431668294608,
              25.38401635135851
            ],
            [
              83.7741178687057,
              25.384083902190362
            ],
            [
              83.77396377888837,
              25.38417858269328
            ],
            [
              83.77375998259146,
              25.384345490163813
            ],
            [
              83.77339185298803,
              25.384828174596276
            ],
            [
              83.77298903134663,
              25.385288230284065
            ],
            [
              83.77279012996968,
              25.38549123032152
            ],
            [
              83.77265085696466,
              25.385608460192078
            ],
            [
              83.77249179676886,
              25.385703142745864
            ],
            [
              83.77230789456225,
              25.385788818361466
            ],
            [
              83.77222339363671,
              25.385829396315394
            ],
            [
              83.77216868803252,
              25.38586543998663
            ],
            [
              83.77212883786822,
              25.38596473208084
            ],
            [
              83.7721486430253,
              25.386127239979018
            ],
            [
              83.7722577739593,
              25.386312336953612
            ],
            [
              83.77253079173704,
              25.38658783203432
            ],
            [
              83.77280386521038,
              25.38680918107712
            ],
            [
              83.77319617656295,
              25.387066722355037
            ],
            [
              83.77365805434944,
              25.3873558857146
            ],
            [
              83.77428384682747,
              25.387645203390132
            ],
            [
              83.77454212325145,
              25.387749247340977
            ],
            [
              83.77464149309155,
              25.387785361856547
            ],
            [
              83.77485015556238,
              25.387839717834158
            ],
            [
              83.77517803614953,
              25.38790761306362
            ],
            [
              83.77533694093675,
              25.387975450634084
            ],
            [
              83.77567967157383,
              25.388097569364405
            ],
            [
              83.77585350456445,
              25.38819697892211
            ],
            [
              83.77608697491019,
              25.38833253115443
            ],
            [
              83.77638977902616,
              25.38857641068418
            ],
            [
              83.77669759394477,
              25.388978384603053
            ],
            [
              83.77680169521149,
              25.389195067705234
            ],
            [
              83.77696043381039,
              25.389520176030526
            ],
            [
              83.77725830617547,
              25.389908529847936
            ],
            [
              83.77732273873751,
              25.389984526401882
            ],
            [
              83.77752631315057,
              25.390224624849523
            ],
            [
              83.77778948000295,
              25.39045950702615
            ],
            [
              83.77801786498586,
              25.39067636519766
            ],
            [
              83.77813205073991,
              25.39083437974076
            ],
            [
              83.77829083874619,
              25.39110074198458
            ],
            [
              83.7784099355899,
              25.391303964348737
            ],
            [
              83.77854895527001,
              25.3914575381496
            ],
            [
              83.77870784837916,
              25.39161561010071
            ],
            [
              83.77891638688247,
              25.39174657413103
            ],
            [
              83.77914485810362,
              25.39183700510949
            ],
            [
              83.77940321268102,
              25.391904941913708
            ],
            [
              83.77976094697998,
              25.391905125320456
            ],
            [
              83.78031252244593,
              25.391928081189878
            ],
            [
              83.78077460684491,
              25.391973481649313
            ],
            [
              83.78120678003988,
              25.392005370868592
            ],
            [
              83.78141047842044,
              25.392055117871504
            ],
            [
              83.78147506728939,
              25.392073206136374
            ],
            [
              83.78169357080414,
              25.392231320292463
            ],
            [
              83.78178794421466,
              25.39233520285366
            ],
            [
              83.78181293983741,
              25.392381981139838
            ],
            [
              83.78187720980442,
              25.39250225891947
            ],
            [
              83.78190193233934,
              25.392700857266625
            ],
            [
              83.78186704177371,
              25.39289047735631
            ],
            [
              83.78170765009959,
              25.39337780281774
            ],
            [
              83.78159802778715,
              25.393756893686884
            ],
            [
              83.78152333826118,
              25.393991483335107
            ],
            [
              83.78146337571596,
              25.39435709134309
            ],
            [
              83.78139342659973,
              25.394880624715213
            ],
            [
              83.78141307365333,
              25.395178489869224
            ],
            [
              83.78146745676231,
              25.39554409915055
            ],
            [
              83.78150701677079,
              25.39577887278345
            ],
            [
              83.78161619980703,
              25.395995545301172
            ],
            [
              83.78187429117804,
              25.396302704302464
            ],
            [
              83.78205804785766,
              25.396478799896084
            ],
            [
              83.78229640234353,
              25.39671368937847
            ],
            [
              83.78238080984427,
              25.39678139378281
            ],
            [
              83.78247016975718,
              25.396831138005737
            ],
            [
              83.78270754597771,
              25.397130682206583
            ],
            [
              83.7828214146265,
              25.39707174138261
            ],
            [
              83.78333984136015,
              25.3968180979921
            ],
            [
              83.78334011444797,
              25.396817993308414
            ],
            [
              83.78432391610946,
              25.396448611147658
            ],
            [
              83.78471315881701,
              25.396328595359147
            ],
            [
              83.78480600329489,
              25.396299967908366
            ],
            [
              83.78480608593992,
              25.396299957358806
            ],
            [
              83.7862720771948,
              25.396115796757655
            ],
            [
              83.78782222981201,
              25.396274725237973
            ],
            [
              83.78965049455296,
              25.39677225627509
            ],
            [
              83.79112578337104,
              25.39755394808376
            ],
            [
              83.79237224882836,
              25.398777896664292
            ],
            [
              83.7937578004411,
              25.40004093804009
            ],
            [
              83.79447783517563,
              25.400697291811834
            ],
            [
              83.79543139505309,
              25.40155536212409
            ],
            [
              83.79592810860798,
              25.401898649725002
            ],
            [
              83.79686200077062,
              25.40227377092143
            ],
            [
              83.79768672067677,
              25.40256307312525
            ],
            [
              83.79879469556165,
              25.40294731874777
            ],
            [
              83.80004167216038,
              25.403426364065343
            ],
            [
              83.8008065642686,
              25.403959345603262
            ],
            [
              83.80162616287933,
              25.404632320873944
            ],
            [
              83.80278336903508,
              25.405661964603738
            ],
            [
              83.80317904188342,
              25.405949157053456
            ],
            [
              83.80339935909676,
              25.406109068217496
            ],
            [
              83.80417927283317,
              25.406542753893827
            ],
            [
              83.8048188930784,
              25.40687473295874
            ],
            [
              83.80523254301222,
              25.407089425131513
            ],
            [
              83.8058137206617,
              25.407401106392037
            ],
            [
              83.80669798180321,
              25.407929606711715
            ],
            [
              83.80709532461965,
              25.40829541591543
            ],
            [
              83.80783535495411,
              25.409099182366766
            ],
            [
              83.80823255943,
              25.40985309914463
            ],
            [
              83.80867424668217,
              25.410832749726648
            ],
            [
              83.8090264886815,
              25.412042497183588
            ],
            [
              83.8092447658208,
              25.41271058738984
            ],
            [
              83.80960696744168,
              25.41375789665572
            ],
            [
              83.81011334597069,
              25.41480524388596
            ],
            [
              83.81059011602797,
              25.41550962379152
            ],
            [
              83.81132504932145,
              25.416480312289423
            ],
            [
              83.81230857969177,
              25.417600089665665
            ],
            [
              83.81248602570645,
              25.417787148914353
            ],
            [
              83.81336654626311,
              25.418715364986497
            ],
            [
              83.81400230015936,
              25.419555198637898
            ],
            [
              83.81422078211455,
              25.420029176049027
            ],
            [
              83.81432978908103,
              25.420602434660488
            ],
            [
              83.81439412103177,
              25.421207231284686
            ],
            [
              83.81411531361199,
              25.42210988600201
            ],
            [
              83.81378711681789,
              25.422524946887975
            ],
            [
              83.81347890933549,
              25.422836163118728
            ],
            [
              83.81347876740168,
              25.42283630591215
            ],
            [
              83.81316493107568,
              25.423018850937066
            ],
            [
              83.81302160666874,
              25.4231022153665
            ],
            [
              83.81302140724276,
              25.42310233219721
            ],
            [
              83.81235032260639,
              25.4232962012685
            ],
            [
              83.81153513202877,
              25.423390587323183
            ],
            [
              83.81082937242243,
              25.42342638692447
            ],
            [
              83.80997946285738,
              25.42357493994385
            ],
            [
              83.80941774900516,
              25.42366500468639
            ],
            [
              83.8085677370322,
              25.42381355335512
            ],
            [
              83.80714116924189,
              25.424110818897415
            ],
            [
              83.80575427374946,
              25.424439620354264
            ],
            [
              83.8049391289859,
              25.424588201332213
            ],
            [
              83.80439894595442,
              25.424640720951505
            ],
            [
              83.80415371037344,
              25.424664563848363
            ],
            [
              83.80277194695623,
              25.424889555601382
            ],
            [
              83.80214562267554,
              25.42497496324293
            ],
            [
              83.80141979829901,
              25.42520935182396
            ],
            [
              83.80095750638915,
              25.425488938760218
            ],
            [
              83.80095745338856,
              25.425488977703015
            ],
            [
              83.80070382305126,
              25.425727976752384
            ],
            [
              83.80034562342499,
              25.426197273820698
            ],
            [
              83.80006680612371,
              25.427018516373995
            ],
            [
              83.8000613623331,
              25.427754233327388
            ],
            [
              83.80022006859267,
              25.428300479827453
            ],
            [
              83.80060739788867,
              25.42890544064706
            ],
            [
              83.80156111856456,
              25.42983121596058
            ],
            [
              83.80227167158127,
              25.430215240835345
            ],
            [
              83.80319108739307,
              25.43049105022109
            ],
            [
              83.80324106606221,
              25.430497409803532
            ],
            [
              83.80450807329515,
              25.430658644860898
            ],
            [
              83.8059695253629,
              25.43054652923076
            ],
            [
              83.80759998556988,
              25.430163616049914
            ],
            [
              83.80879305157342,
              25.429825688715425
            ],
            [
              83.81027449115625,
              25.429492340117203
            ],
            [
              83.811283514816,
              25.42941148129008
            ],
            [
              83.81239673765879,
              25.429624144075298
            ],
            [
              83.81408122793687,
              25.430545576794678
            ],
            [
              83.81458187880764,
              25.430845153272614
            ],
            [
              83.81585515538292,
              25.431607033761182
            ],
            [
              83.81771360621238,
              25.432690937053774
            ],
            [
              83.81875717907792,
              25.433196891220003
            ],
            [
              83.81960701138786,
              25.43357183473762
            ],
            [
              83.82150535639909,
              25.43433530425752
            ],
            [
              83.8231703074214,
              25.43488206689207
            ],
            [
              83.82466127902768,
              25.435365563984
            ],
            [
              83.82570501897989,
              25.43566373882371
            ],
            [
              83.82767826192628,
              25.43598487906802
            ],
            [
              83.82914445799702,
              25.436206491167212
            ],
            [
              83.82957703992545,
              25.436223385160854
            ],
            [
              83.83066052314246,
              25.436265694362692
            ],
            [
              83.83184355765924,
              25.43616671786994
            ],
            [
              83.8326538838596,
              25.43581937672075
            ],
            [
              83.83265393416528,
              25.43581934021499
            ],
            [
              83.83287765060363,
              25.435656965781586
            ],
            [
              83.83314118396864,
              25.435291478916334
            ],
            [
              83.8332059686703,
              25.434785994333858
            ],
            [
              83.83260485021813,
              25.433923752958428
            ],
            [
              83.83227693190177,
              25.43350389787579
            ],
            [
              83.83186464740717,
              25.432867390013225
            ],
            [
              83.83181010799133,
              25.432591959246714
            ],
            [
              83.83179034505508,
              25.432167691928917
            ],
            [
              83.83186506063221,
              25.431797637597963
            ],
            [
              83.83232247558836,
              25.431296760158308
            ],
            [
              83.83232263369185,
              25.43129669687929
            ],
            [
              83.83299355842809,
              25.431026189371984
            ],
            [
              83.83351713430493,
              25.431037376800322
            ],
            [
              83.833634821692,
              25.431039891740543
            ],
            [
              83.83486725726121,
              25.43148703835614
            ],
            [
              83.83592885033137,
              25.43178239309883
            ],
            [
              83.83602032398011,
              25.431807843322957
            ],
            [
              83.83761572743312,
              25.43228666203144
            ],
            [
              83.83832642238363,
              25.432413240029735
            ],
            [
              83.83941985534074,
              25.432715949005722
            ],
            [
              83.84042391041864,
              25.432919226189913
            ],
            [
              83.84242191542577,
              25.43340716466819
            ],
            [
              83.84388319861026,
              25.433746030312896
            ],
            [
              83.84555818740758,
              25.434116471304886
            ],
            [
              83.84592821155792,
              25.43422576776594
            ],
            [
              83.8463534264027,
              25.434351365361124
            ],
            [
              83.84674101980342,
              25.434707945971503
            ],
            [
              83.84702420830685,
              25.435348987065677
            ],
            [
              83.8470140375812,
              25.436382552018653
            ],
            [
              83.84695178702694,
              25.436750384092125
            ],
            [
              83.8468895346761,
              25.437118215042425
            ],
            [
              83.84674025623542,
              25.43789902473464
            ],
            [
              83.84652128829165,
              25.438797137339893
            ],
            [
              83.84607368742996,
              25.439984102783892
            ],
            [
              83.84572061538735,
              25.44059335625174
            ],
            [
              83.84517354497258,
              25.441662959177133
            ],
            [
              83.84474579598036,
              25.44271454575565
            ],
            [
              83.84430810263795,
              25.44383381979385
            ],
            [
              83.84376093161188,
              25.445119983050795
            ],
            [
              83.84333813772678,
              25.445909790292184
            ],
            [
              83.84301491759936,
              25.4462934142978
            ],
            [
              83.8427244347758,
              25.446509741334946
            ],
            [
              83.84262715172211,
              25.44658218905811
            ],
            [
              83.8422118686511,
              25.44678120207144
            ],
            [
              83.84192113070603,
              25.446920529317403
            ],
            [
              83.84030040284684,
              25.447348941621375
            ],
            [
              83.83929125701621,
              25.44742089727624
            ],
            [
              83.83815787058857,
              25.447488300656786
            ],
            [
              83.83690011869803,
              25.447533105085363
            ],
            [
              83.83498123999603,
              25.447496468229165
            ],
            [
              83.83410136263312,
              25.447410504684743
            ],
            [
              83.83279405967149,
              25.447274677357363
            ],
            [
              83.83157124236403,
              25.44699905727557
            ],
            [
              83.82998564941221,
              25.446632968872883
            ],
            [
              83.82932455314351,
              25.44642509117728
            ],
            [
              83.82804706975772,
              25.44613587638641
            ],
            [
              83.82675468511805,
              25.4459232760075
            ],
            [
              83.82536775099807,
              25.445904777255958
            ],
            [
              83.82498157334224,
              25.445992322035178
            ],
            [
              83.82467177404519,
              25.446062552331284
            ],
            [
              83.82422962505893,
              25.44632481137425
            ],
            [
              83.82402538679088,
              25.446445951968037
            ],
            [
              83.82315002076734,
              25.44728962625537
            ],
            [
              83.82222484226295,
              25.44858019934123
            ],
            [
              83.8220507379811,
              25.44882384590324
            ],
            [
              83.82124015306596,
              25.449568233058685
            ],
            [
              83.82124010994681,
              25.44956826469338
            ],
            [
              83.82025063901757,
              25.450127624167077
            ],
            [
              83.81959434783728,
              25.450258264270158
            ],
            [
              83.81892822818952,
              25.45024444403883
            ],
            [
              83.8182471857282,
              25.45006360878575
            ],
            [
              83.81685551928332,
              25.449489899829075
            ],
            [
              83.81590878660201,
              25.44893365707743
            ],
            [
              83.81546405316271,
              25.448672354387245
            ],
            [
              83.81442533299632,
              25.448175498254884
            ],
            [
              83.81371441975519,
              25.448098444123556
            ],
            [
              83.8128098153658,
              25.44819734186286
            ],
            [
              83.81280962402461,
              25.448197362952893
            ],
            [
              83.81223271606768,
              25.448792881822147
            ],
            [
              83.8120481760572,
              25.449862561170036
            ],
            [
              83.81214196107116,
              25.451207541160905
            ],
            [
              83.81269250616947,
              25.453640587989355
            ],
            [
              83.81308473757196,
              25.454629186887583
            ],
            [
              83.8136856556998,
              25.455816542956594
            ],
            [
              83.81432634494024,
              25.45716628000613
            ],
            [
              83.81471827361047,
              25.458759731378628
            ],
            [
              83.81508043390886,
              25.460384701866932
            ],
            [
              83.81559194990297,
              25.46141855479085
            ],
            [
              83.81635008129041,
              25.46247322764749
            ],
            [
              83.8165558332197,
              25.46275945661552
            ],
            [
              83.81756465835174,
              25.463630891597287
            ],
            [
              83.81857860298263,
              25.46422257895942
            ],
            [
              83.81975677312214,
              25.46474207159719
            ],
            [
              83.8212678607026,
              25.46542416090041
            ],
            [
              83.82243108018085,
              25.465821829076038
            ],
            [
              83.82345526740257,
              25.465939545319277
            ],
            [
              83.82488724125429,
              25.4657955677046
            ],
            [
              83.8248875089522,
              25.465795470380154
            ],
            [
              83.82596134965296,
              25.465416820993713
            ],
            [
              83.82596149158677,
              25.465416700148847
            ],
            [
              83.826836642913,
              25.464667873215223
            ],
            [
              83.82710878663,
              25.46433611582166
            ],
            [
              83.82809512333722,
              25.463133702226905
            ],
            [
              83.82875198225275,
              25.46164442440226
            ],
            [
              83.82938388776633,
              25.46030415171163
            ],
            [
              83.82994119178882,
              25.459148854935645
            ],
            [
              83.83016498188904,
              25.458828443177367
            ],
            [
              83.83049325324329,
              25.458377249365196
            ],
            [
              83.83049358202669,
              25.45837707822587
            ],
            [
              83.83131375466085,
              25.45795318562762
            ],
            [
              83.83278052655174,
              25.45761058488708
            ],
            [
              83.83419228112302,
              25.457868279912056
            ],
            [
              83.83522121863595,
              25.458504949250226
            ],
            [
              83.83684165184773,
              25.459615725626286
            ],
            [
              83.83736039029678,
              25.459990264080666
            ],
            [
              83.83797982360092,
              25.460437498675553
            ],
            [
              83.8395903403103,
              25.46146244239623
            ],
            [
              83.84056466474554,
              25.46203136660672
            ],
            [
              83.84058659980816,
              25.462038804047392
            ],
            [
              83.84226978124084,
              25.462609496073178
            ],
            [
              83.84298992377319,
              25.46272755610355
            ],
            [
              83.84469596643156,
              25.463007230325807
            ],
            [
              83.845749881601,
              25.463210476652435
            ],
            [
              83.84735563813766,
              25.463919417947896
            ],
            [
              83.84884696188354,
              25.464664490348618
            ],
            [
              83.85052230821033,
              25.4654861883658
            ],
            [
              83.85234188264924,
              25.466357576023086
            ],
            [
              83.85346041723031,
              25.46685421516935
            ],
            [
              83.85473317817261,
              25.467319326854057
            ],
            [
              83.85611033413076,
              25.468041637151668
            ],
            [
              83.85674665486394,
              25.468569834988322
            ],
            [
              83.85702501761766,
              25.469147594842998
            ],
            [
              83.85740774574275,
              25.469964559199532
            ],
            [
              83.85779047835948,
              25.470781525306375
            ],
            [
              83.85813444867163,
              25.47167366208928
            ],
            [
              83.8583073725672,
              25.47212216138745
            ],
            [
              83.85917232442165,
              25.473783196670055
            ],
            [
              83.86013166855126,
              25.475945257991107
            ],
            [
              83.86085733931587,
              25.477926709261936
            ],
            [
              83.86184162876256,
              25.480400203878588
            ],
            [
              83.86299985899771,
              25.483383623032296
            ],
            [
              83.86299989762527,
              25.48338372115341
            ],
            [
              83.86359651731448,
              25.484412820698974
            ],
            [
              83.86400925725493,
              25.484751344079715
            ],
            [
              83.86471082622046,
              25.48516144522626
            ],
            [
              83.86473520020908,
              25.485175693659777
            ],
            [
              83.86566507061417,
              25.485613557066785
            ],
            [
              83.86689829041262,
              25.485952180861286
            ],
            [
              83.86776346415098,
              25.48611731586125
            ],
            [
              83.86864866313361,
              25.486286268345477
            ],
            [
              83.86935472098064,
              25.486466809939536
            ],
            [
              83.87004100062003,
              25.486877559625306
            ],
            [
              83.87073712310003,
              25.487513968380178
            ],
            [
              83.87101063315455,
              25.488091697220305
            ],
            [
              83.87121942767774,
              25.488953844890858
            ],
            [
              83.87125420595397,
              25.490190529712557
            ],
            [
              83.87115475885874,
              25.491363973048475
            ],
            [
              83.87115475975706,
              25.491761180013185
            ],
            [
              83.87158736144845,
              25.493133270281895
            ],
            [
              83.87194539308975,
              25.49353952129264
            ],
            [
              83.87237307740325,
              25.493864459163568
            ],
            [
              83.87377042659064,
              25.494920671046394
            ],
            [
              83.87456610126871,
              25.495480299650364
            ],
            [
              83.87520266544539,
              25.496071560288463
            ],
            [
              83.8760680619659,
              25.49680278723622
            ],
            [
              83.87699304284092,
              25.497709966260462
            ],
            [
              83.87745057727298,
              25.49835995235058
            ],
            [
              83.87763214116497,
              25.49880678316289
            ],
            [
              83.87781370685353,
              25.499253613124047
            ],
            [
              83.87795697825992,
              25.49999991061798
            ],
            [
              83.87795707617627,
              25.500000420615077
            ],
            [
              83.87796788470577,
              25.500056993790274
            ],
            [
              83.8779677706197,
              25.500057592164943
            ],
            [
              83.87795339488022,
              25.500133164103527
            ],
            [
              83.87789565836027,
              25.500259451009995
            ],
            [
              83.87786120078262,
              25.500344676252368
            ],
            [
              83.8778242117525,
              25.500402450876148
            ],
            [
              83.87777531465495,
              25.500478825292692
            ],
            [
              83.87771424718194,
              25.50080738813388
            ],
            [
              83.87768950668068,
              25.50096235231893
            ],
            [
              83.8776846171506,
              25.50124929721919
            ],
            [
              83.87768471327033,
              25.502996020107602
            ],
            [
              83.87742112241315,
              25.503921297611463
            ],
            [
              83.87720674575878,
              25.50428515390324
            ],
            [
              83.87692381956342,
              25.5047653560271
            ],
            [
              83.87641475686831,
              25.50543795602876
            ],
            [
              83.87601858814995,
              25.505961389264854
            ],
            [
              83.87523773118247,
              25.506827971663377
            ],
            [
              83.87480210576186,
              25.507517166817102
            ],
            [
              83.87469567785857,
              25.507685532221256
            ],
            [
              83.87460936233616,
              25.50793297417046
            ],
            [
              83.87435242170703,
              25.50866949038437
            ],
            [
              83.8741584934035,
              25.50953150173539
            ],
            [
              83.87415848891192,
              25.509531543083227
            ],
            [
              83.87419829056722,
              25.511928201669328
            ],
            [
              83.87448177192142,
              25.513968313757164
            ],
            [
              83.87480506211743,
              25.515078590660423
            ],
            [
              83.87480508098209,
              25.51507864173478
            ],
            [
              83.87521790356753,
              25.51599934216337
            ],
            [
              83.87521791614394,
              25.515999378644768
            ],
            [
              83.875824712847,
              25.51749331819081
            ],
            [
              83.87621266916709,
              25.518062015315756
            ],
            [
              83.87807296603445,
              25.51839594864454
            ],
            [
              83.8780730181367,
              25.51839595837274
            ],
            [
              83.87909468019419,
              25.518574374744052
            ],
            [
              83.87992588414008,
              25.518719523800108
            ],
            [
              83.88032123988312,
              25.51878857099677
            ],
            [
              83.88032130007025,
              25.51878857829288
            ],
            [
              83.88187812986499,
              25.518887788373142
            ],
            [
              83.88291021237976,
              25.518916133747865
            ],
            [
              83.88401203919484,
              25.518946388263142
            ],
            [
              83.88582761972401,
              25.519045523630595
            ],
            [
              83.88736459315767,
              25.51916274025215
            ],
            [
              83.88736464076837,
              25.51916274268419
            ],
            [
              83.8878907193516,
              25.519202876852145
            ],
            [
              83.88890157287955,
              25.519279968108698
            ],
            [
              83.8916722017946,
              25.51959559465619
            ],
            [
              83.89417905120627,
              25.519924774803922
            ],
            [
              83.89417920481816,
              25.51992482263354
            ],
            [
              83.89417926141205,
              25.51992483317227
            ],
            [
              83.89575606434877,
              25.52041658070466
            ],
            [
              83.89700719116414,
              25.520994219388182
            ],
            [
              83.8982583323525,
              25.521571847995446
            ],
            [
              83.90014368502976,
              25.522672604782944
            ],
            [
              83.9001437353354,
              25.522672637209073
            ],
            [
              83.90111632332723,
              25.52334946818266
            ],
            [
              83.90208895803143,
              25.524026332628306
            ],
            [
              83.90334273397852,
              25.525186031772826
            ],
            [
              83.90412771780639,
              25.52611096883579
            ],
            [
              83.90455681966142,
              25.526616568132603
            ],
            [
              83.90487712206081,
              25.527173125102642
            ],
            [
              83.90526842640195,
              25.527853050759056
            ],
            [
              83.90560437206369,
              25.528457787329167
            ],
            [
              83.90594030784399,
              25.52906252895706
            ],
            [
              83.90594034736986,
              25.529062604343785
            ],
            [
              83.90650275472147,
              25.530240425263017
            ],
            [
              83.90747829727226,
              25.532212580841776
            ],
            [
              83.91061944171611,
              25.530177309348602
            ],
            [
              83.91329803733198,
              25.528590585278998
            ],
            [
              83.91582143281285,
              25.528004316857018
            ],
            [
              83.91795836138039,
              25.52728368020084
            ],
            [
              83.92041813727452,
              25.52659297403794
            ],
            [
              83.91996014290503,
              25.526173586731154
            ]
          ]
        ]
      }
    }
  ]
}