{
  "type": "FeatureCollection",
  "features": [
    {
      "type": "Feature",
      "properties": {
        "object_id": "10-219-01263",
        "stname": "BIHAR",
        "dtname": "Saran",
        "sdtname": "Parsa",
        "st_area_sh": 0.0,
        "st_length_": 0.0,
        "remarks": "",
        "dist_lgd": 218,
        "state_lgd": 10,
        "subdt_lgd": 1263,
        "ac_no": null,
        "st_length(shape)": 85595.91054800974,
        "st_area(shape)": 122749042.93573296
      },
      "geometry": {
        "type": "Polygon",
        "coordinates": [
          [
            [
              85.0310976752326,
              25.93325330974499
            ],
            [
              85.03218085032745,
              25.93323682538843
            ],
            [
              85.03226963531854,
              25.933819196393387
            ],
            [
              85.03249235822021,
              25.934866572193542
            ],
            [
              85.03311655169708,
              25.934700577981236
            ],
            [
              85.03387133506338,
              25.934087911197697
            ],
            [
              85.03449646278814,
              25.933425389971013
            ],
            [
              85.03460751162527,
              25.932775614696222
            ],
            [
              85.03429385675898,
              25.93231034429231
            ],
            [
              85.03394671629215,
              25.931077707779963
            ],
            [
              85.03441229693422,
              25.93033822082956
            ],
            [
              85.03458329124855,
              25.92962086686524
            ],
            [
              85.03443184068153,
              25.9277882859543
            ],
            [
              85.03488686342412,
              25.9273511947716
            ],
            [
              85.03548123103688,
              25.92712189420307
            ],
            [
              85.03619074110956,
              25.926712291083675
            ],
            [
              85.03678596122353,
              25.926000087277032
            ],
            [
              85.0375204732072,
              25.92554078482462
            ],
            [
              85.03820092906861,
              25.924566937197003
            ],
            [
              85.03902474796453,
              25.924414712386383
            ],
            [
              85.03925010472658,
              25.924004370305084
            ],
            [
              85.04052477908044,
              25.922855329093842
            ],
            [
              85.04247582285953,
              25.9230611838008
            ],
            [
              85.04295982704976,
              25.923138589789467
            ],
            [
              85.04352342197419,
              25.923369645652308
            ],
            [
              85.04366938383481,
              25.922656771262886
            ],
            [
              85.04372550069229,
              25.92198887682328
            ],
            [
              85.04406595499844,
              25.921325950664755
            ],
            [
              85.0444064137962,
              25.920735201749153
            ],
            [
              85.04478133376486,
              25.920374598624793
            ],
            [
              85.047109432808,
              25.921921420623736
            ],
            [
              85.04914339108777,
              25.923273732631973
            ],
            [
              85.049447327081,
              25.923549460036142
            ],
            [
              85.04974570160432,
              25.924190765851268
            ],
            [
              85.04989890568277,
              25.925089031352474
            ],
            [
              85.04975254137688,
              25.92606826421999
            ],
            [
              85.04963117988031,
              25.926979756921035
            ],
            [
              85.04959491758724,
              25.927801029706693
            ],
            [
              85.0498837097814,
              25.92816700764832
            ],
            [
              85.05047175235627,
              25.928700410856507
            ],
            [
              85.05110971610814,
              25.92924738413762
            ],
            [
              85.05128324367155,
              25.929969698342212
            ],
            [
              85.0511671786419,
              25.93071419966837
            ],
            [
              85.05106668141613,
              25.93110679203206
            ],
            [
              85.05047703984005,
              25.93153467006491
            ],
            [
              85.050221703602,
              25.931976656756643
            ],
            [
              85.05035560468161,
              25.932459695834126
            ],
            [
              85.05091790333707,
              25.933534614671622
            ],
            [
              85.05231461472063,
              25.934037552060065
            ],
            [
              85.05305338112544,
              25.934011471322673
            ],
            [
              85.05477088269359,
              25.933738477134547
            ],
            [
              85.05703261510183,
              25.93335334118204
            ],
            [
              85.05859533604819,
              25.933080174202708
            ],
            [
              85.05945426200374,
              25.932824053278406
            ],
            [
              85.06034849983477,
              25.93230614985664
            ],
            [
              85.06159340491845,
              25.93103058531427
            ],
            [
              85.06323693830777,
              25.93014813976313
            ],
            [
              85.06295467776401,
              25.928708055917888
            ],
            [
              85.06266087386888,
              25.92830148063755
            ],
            [
              85.06244656997806,
              25.92810710394552
            ],
            [
              85.06138880013776,
              25.9278575573693
            ],
            [
              85.06107960989846,
              25.927681082940328
            ],
            [
              85.06055164395482,
              25.927007947029722
            ],
            [
              85.05986976875526,
              25.92585620113418
            ],
            [
              85.05935248737362,
              25.924695605368647
            ],
            [
              85.05896466130926,
              25.92381049309398
            ],
            [
              85.05880543402684,
              25.92352603182012
            ],
            [
              85.05937522642841,
              25.922989666755896
            ],
            [
              85.05984091217337,
              25.922046998906296
            ],
            [
              85.06018224233692,
              25.920847000200837
            ],
            [
              85.060338585129,
              25.919795615978877
            ],
            [
              85.06060355669675,
              25.91953871074817
            ],
            [
              85.06067843486895,
              25.919529740857566
            ],
            [
              85.06165512456836,
              25.920474246715678
            ],
            [
              85.06264117111975,
              25.9217843953529
            ],
            [
              85.06369204908523,
              25.923216439279443
            ],
            [
              85.064039821966,
              25.92420982227672
            ],
            [
              85.06423853110346,
              25.924805824626958
            ],
            [
              85.06456765136569,
              25.92500475209461
            ],
            [
              85.06575066072963,
              25.924906991893337
            ],
            [
              85.06799244155546,
              25.924332131701668
            ],
            [
              85.06993456955531,
              25.92392838278906
            ],
            [
              85.07008966368913,
              25.923711956295104
            ],
            [
              85.07018130801778,
              25.9225206129502
            ],
            [
              85.07037644814862,
              25.922182370029876
            ],
            [
              85.07121057700907,
              25.921745620821813
            ],
            [
              85.07161070011138,
              25.921150380238178
            ],
            [
              85.07301382726266,
              25.920678151970122
            ],
            [
              85.07459633539978,
              25.920400305069066
            ],
            [
              85.07584457323313,
              25.92008582996358
            ],
            [
              85.07682294008715,
              25.91992008074699
            ],
            [
              85.07723777310223,
              25.91954143193266
            ],
            [
              85.07728310927797,
              25.919225555158445
            ],
            [
              85.0802927430592,
              25.9190892062449
            ],
            [
              85.08166508764066,
              25.919199102715606
            ],
            [
              85.08473456538948,
              25.919085295739112
            ],
            [
              85.08556778425653,
              25.919203645038394
            ],
            [
              85.08609625325673,
              25.919642014720207
            ],
            [
              85.08618564101737,
              25.919917405624393
            ],
            [
              85.08772286597934,
              25.919883032192445
            ],
            [
              85.08833637669082,
              25.920199669908072
            ],
            [
              85.08863975213532,
              25.92095370769809
            ],
            [
              85.09345369258888,
              25.920163775191657
            ],
            [
              85.096319727977,
              25.916932735723613
            ],
            [
              85.09712058593426,
              25.91616694364097
            ],
            [
              85.09824260238537,
              25.915145779873562
            ],
            [
              85.09824498112425,
              25.91514361528775
            ],
            [
              85.09938179911632,
              25.91365555535453
            ],
            [
              85.10111235140886,
              25.91124098184206
            ],
            [
              85.1017604131228,
              25.910351296190516
            ],
            [
              85.10286391439762,
              25.90870163677586
            ],
            [
              85.10396079329213,
              25.907061819626644
            ],
            [
              85.10396917906533,
              25.90704928372239
            ],
            [
              85.10397292414173,
              25.907042729724196
            ],
            [
              85.10397631258698,
              25.907036798723208
            ],
            [
              85.10581229924615,
              25.903823694882846
            ],
            [
              85.10646114788429,
              25.902879833833637
            ],
            [
              85.10721967812368,
              25.90194191426845
            ],
            [
              85.10889913514121,
              25.900519524739206
            ],
            [
              85.1103287652883,
              25.899427853773695
            ],
            [
              85.1115303068966,
              25.89824292867967
            ],
            [
              85.11260451321166,
              25.897218820154936
            ],
            [
              85.11490127811938,
              25.894937802219697
            ],
            [
              85.11490051994126,
              25.89492625820829
            ],
            [
              85.11473247569434,
              25.892371954068167
            ],
            [
              85.11503078464064,
              25.889613584326725
            ],
            [
              85.11538395370131,
              25.88842661625228
            ],
            [
              85.11563586376487,
              25.887017170821025
            ],
            [
              85.11563633358378,
              25.88701047023864
            ],
            [
              85.11579704937462,
              25.884721902917
            ],
            [
              85.11579758477053,
              25.884715821278803
            ],
            [
              85.1157978416887,
              25.884712915831585
            ],
            [
              85.11597958614203,
              25.88265258581699
            ],
            [
              85.11591302187782,
              25.881816728081215
            ],
            [
              85.11535894999369,
              25.87931808666771
            ],
            [
              85.1153580570683,
              25.879315253019996
            ],
            [
              85.11432823740974,
              25.87604595660132
            ],
            [
              85.11390330463597,
              25.87390104161203
            ],
            [
              85.11390323366906,
              25.873899248071627
            ],
            [
              85.11385695426223,
              25.872735961251436
            ],
            [
              85.11404372029801,
              25.87040040306236
            ],
            [
              85.11420054009548,
              25.869716437350203
            ],
            [
              85.11229570475632,
              25.869413591105346
            ],
            [
              85.10817276369065,
              25.86967637668691
            ],
            [
              85.10534870567749,
              25.869759314902772
            ],
            [
              85.10532457064073,
              25.869177033386922
            ],
            [
              85.1048174411201,
              25.86770506602136
            ],
            [
              85.10384468334672,
              25.86750089463443
            ],
            [
              85.10304667574385,
              25.867288081248635
            ],
            [
              85.10226888921804,
              25.866921617804874
            ],
            [
              85.10203532904079,
              25.86619008913119
            ],
            [
              85.10199200598962,
              25.864867527331345
            ],
            [
              85.10180952671435,
              25.86373623682288
            ],
            [
              85.10147719766994,
              25.861675908733154
            ],
            [
              85.10044701239707,
              25.85962567917354
            ],
            [
              85.09978467735155,
              25.858731286210737
            ],
            [
              85.0990370517614,
              25.858179788972446
            ],
            [
              85.09884714072382,
              25.858432402742725
            ],
            [
              85.09813831786236,
              25.85872949082335
            ],
            [
              85.0972327540722,
              25.858811305814438
            ],
            [
              85.0972003275854,
              25.858814235341402
            ],
            [
              85.09677157517501,
              25.858665113112604
            ],
            [
              85.09536523115669,
              25.858175972644915
            ],
            [
              85.09489200764818,
              25.85766091361398
            ],
            [
              85.09501341406052,
              25.85636109568218
            ],
            [
              85.0950189378012,
              25.852145322006066
            ],
            [
              85.09474063523459,
              25.851377630226207
            ],
            [
              85.09286051075226,
              25.850991956242396
            ],
            [
              85.09267151509796,
              25.850522329323375
            ],
            [
              85.09219899137706,
              25.84945653817178
            ],
            [
              85.09149660763953,
              25.84873363900634
            ],
            [
              85.09025449990968,
              25.845044611868396
            ],
            [
              85.0896429367457,
              25.843595057233813
            ],
            [
              85.08969514323678,
              25.841848220881406
            ],
            [
              85.09016718995225,
              25.839506165729173
            ],
            [
              85.09096789609426,
              25.83746234573018
            ],
            [
              85.09153864789653,
              25.83592831734081
            ],
            [
              85.09126737913859,
              25.83574159001109
            ],
            [
              85.09054692578914,
              25.83524566414964
            ],
            [
              85.08925476572828,
              25.835519607355454
            ],
            [
              85.08862163401436,
              25.835776890253705
            ],
            [
              85.08779246565092,
              25.836113829973513
            ],
            [
              85.08727836161044,
              25.83641108731448
            ],
            [
              85.0872776950605,
              25.836880568129875
            ],
            [
              85.08774509299442,
              25.83798683426527
            ],
            [
              85.08849476764172,
              25.8405469913384
            ],
            [
              85.08844251982816,
              25.842289220774866
            ],
            [
              85.08888846778973,
              25.844483396898074
            ],
            [
              85.08992234603673,
              25.84716563137706
            ],
            [
              85.09024892316839,
              25.849210642713267
            ],
            [
              85.08949335736943,
              25.850916085828956
            ],
            [
              85.08864356189045,
              25.852151876626195
            ],
            [
              85.09024469300174,
              25.852320670903676
            ],
            [
              85.09156083718237,
              25.852963051715097
            ],
            [
              85.09264196860995,
              25.85402948870293
            ],
            [
              85.09270985788923,
              25.855496463192
            ],
            [
              85.09284289209461,
              25.856278663005472
            ],
            [
              85.09322894398628,
              25.85854851789897
            ],
            [
              85.09331874587029,
              25.859076505311553
            ],
            [
              85.09378293502198,
              25.862656303210485
            ],
            [
              85.09378212204665,
              25.863292769030195
            ],
            [
              85.09208521525476,
              25.863760333277504
            ],
            [
              85.08907602524127,
              25.86435282725723
            ],
            [
              85.08862654240907,
              25.864713456072256
            ],
            [
              85.08678980924991,
              25.865307165842793
            ],
            [
              85.0846694501078,
              25.86526419775906
            ],
            [
              85.08369133657868,
              25.86546169788025
            ],
            [
              85.08154127104842,
              25.865898311064925
            ],
            [
              85.08090663285974,
              25.866027179819906
            ],
            [
              85.08000838315265,
              25.866170577951998
            ],
            [
              85.07783837592139,
              25.866525256058825
            ],
            [
              85.07751322800938,
              25.866578397140245
            ],
            [
              85.0773691202715,
              25.866606727778038
            ],
            [
              85.0751626064054,
              25.867040484198867
            ],
            [
              85.07468568992277,
              25.867067092213208
            ],
            [
              85.07405499713484,
              25.86710227964189
            ],
            [
              85.07344520994018,
              25.86450164969511
            ],
            [
              85.0726497472645,
              25.86258696037356
            ],
            [
              85.07185009304973,
              25.860198204783057
            ],
            [
              85.07208826517764,
              25.857770101750255
            ],
            [
              85.07298987638055,
              25.855342839693108
            ],
            [
              85.07393044392404,
              25.853511422935696
            ],
            [
              85.07270830035304,
              25.853469309898472
            ],
            [
              85.07239731977135,
              25.85342513379621
            ],
            [
              85.07120200708125,
              25.85325532735379
            ],
            [
              85.06777023967668,
              25.853038935366545
            ],
            [
              85.06685730071806,
              25.853069392127964
            ],
            [
              85.06690583220127,
              25.853481655857404
            ],
            [
              85.06733984604426,
              25.85716843523377
            ],
            [
              85.06698113168333,
              25.86008385670477
            ],
            [
              85.06613293430725,
              25.86336417190466
            ],
            [
              85.06589526523588,
              25.8654265988786
            ],
            [
              85.06468031357704,
              25.86842550429647
            ],
            [
              85.06360145578545,
              25.871088334299863
            ],
            [
              85.0638742956968,
              25.875223250930944
            ],
            [
              85.06170180821705,
              25.875511798817268
            ],
            [
              85.05926305469718,
              25.875835670654126
            ],
            [
              85.05880331579941,
              25.875967013134193
            ],
            [
              85.05800514290652,
              25.876195035074996
            ],
            [
              85.05749557625656,
              25.87655549276903
            ],
            [
              85.0573769887576,
              25.878929556238802
            ],
            [
              85.0571406348198,
              25.883108895204575
            ],
            [
              85.05689872031043,
              25.890741115603095
            ],
            [
              85.05637946173687,
              25.89399026018574
            ],
            [
              85.0554307859996,
              25.897329114389045
            ],
            [
              85.05473761538363,
              25.89706186009385
            ],
            [
              85.05374533901575,
              25.896514369011562
            ],
            [
              85.05360524315395,
              25.896482119746548
            ],
            [
              85.0524833192293,
              25.896223857016025
            ],
            [
              85.05189459213817,
              25.896128234657898
            ],
            [
              85.05163459005057,
              25.896425783111304
            ],
            [
              85.05150421306179,
              25.89685327789301
            ],
            [
              85.05146397033369,
              25.896985236207158
            ],
            [
              85.05078844173161,
              25.898094639273033
            ],
            [
              85.05043293076297,
              25.898766710320086
            ],
            [
              85.04973943495689,
              25.898652932112796
            ],
            [
              85.04879197374191,
              25.89817061596015
            ],
            [
              85.04805911735333,
              25.897797538675142
            ],
            [
              85.04582574565688,
              25.89645382859946
            ],
            [
              85.04402100599658,
              25.895426656328397
            ],
            [
              85.04374419463335,
              25.895338229619124
            ],
            [
              85.04301349509979,
              25.895104805189384
            ],
            [
              85.04280941763014,
              25.894783998074676
            ],
            [
              85.04293059856536,
              25.894021382793866
            ],
            [
              85.04321776930045,
              25.892455565688326
            ],
            [
              85.04325855281435,
              25.89194553404573
            ],
            [
              85.04285988498282,
              25.891597420857874
            ],
            [
              85.04125126282041,
              25.890951352379776
            ],
            [
              85.04096499399387,
              25.890836373809677
            ],
            [
              85.03974819360216,
              25.890410420200826
            ],
            [
              85.03865573531718,
              25.890160531205716
            ],
            [
              85.03738913591938,
              25.88966665521748
            ],
            [
              85.03590274841599,
              25.88930344131061
            ],
            [
              85.03413680878941,
              25.888998418801375
            ],
            [
              85.03367340207032,
              25.88900652062343
            ],
            [
              85.03247507732907,
              25.889027461709496
            ],
            [
              85.03165694566724,
              25.888895352261823
            ],
            [
              85.0311643499896,
              25.888131860865734
            ],
            [
              85.03095369864874,
              25.885996557265702
            ],
            [
              85.03027862459419,
              25.884050184285044
            ],
            [
              85.03022531676861,
              25.883228575333845
            ],
            [
              85.02988649020973,
              25.88294819783832
            ],
            [
              85.0289684658883,
              25.88288366117523
            ],
            [
              85.02817620570659,
              25.882322734965236
            ],
            [
              85.0278913903542,
              25.882262694829365
            ],
            [
              85.02744293968628,
              25.882168157901095
            ],
            [
              85.0271291392929,
              25.88185621322245
            ],
            [
              85.02699108620003,
              25.881011926617848
            ],
            [
              85.02602828894653,
              25.880857019701576
            ],
            [
              85.02529516396166,
              25.88067987121196
            ],
            [
              85.02487220298993,
              25.8800878559461
            ],
            [
              85.0235152303796,
              25.879959374311
            ],
            [
              85.02295887767305,
              25.88000856360331
            ],
            [
              85.02155892157467,
              25.88013233082305
            ],
            [
              85.02154526718236,
              25.88033478877318
            ],
            [
              85.02135860624948,
              25.883102026294356
            ],
            [
              85.01920648537386,
              25.883295871006165
            ],
            [
              85.01909281884599,
              25.883306106869668
            ],
            [
              85.01746512275514,
              25.883804486878756
            ],
            [
              85.01593826435159,
              25.883774961808285
            ],
            [
              85.01540281633997,
              25.88203635517187
            ],
            [
              85.01489647284521,
              25.880726516740715
            ],
            [
              85.01447308697036,
              25.880342209051136
            ],
            [
              85.01351013790153,
              25.880340625746026
            ],
            [
              85.01283144183977,
              25.880366623790984
            ],
            [
              85.01207030738438,
              25.87924148682587
            ],
            [
              85.01153910211582,
              25.877909052209723
            ],
            [
              85.01124150822851,
              25.877001291871665
            ],
            [
              85.01093266923046,
              25.876721014362797
            ],
            [
              85.0103937168909,
              25.876769757235767
            ],
            [
              85.00974342825339,
              25.877590168048844
            ],
            [
              85.00939227411388,
              25.877823859072862
            ],
            [
              85.00897899069267,
              25.878098891743388
            ],
            [
              85.00824488474754,
              25.87843169474844
            ],
            [
              85.00730636895614,
              25.878660304365727
            ],
            [
              85.00668770011829,
              25.87860516025978
            ],
            [
              85.00507840601604,
              25.878023871214072
            ],
            [
              85.00456400732816,
              25.877896981178626
            ],
            [
              85.00430332162259,
              25.877832676144287
            ],
            [
              85.00240251432915,
              25.87723783715622
            ],
            [
              85.00093620327405,
              25.876617368909542
            ],
            [
              84.9999999835765,
              25.876086029653223
            ],
            [
              84.99999846991525,
              25.876084970845472
            ],
            [
              84.99889966143952,
              25.875316449289464
            ],
            [
              84.99745908532067,
              25.874734486135765
            ],
            [
              84.997259506614,
              25.87471214260934
            ],
            [
              84.9970498775559,
              25.8746762122314
            ],
            [
              84.9967604376764,
              25.874604244752366
            ],
            [
              84.99647099689861,
              25.874532278037726
            ],
            [
              84.99608173981801,
              25.87441524181074
            ],
            [
              84.99592211458192,
              25.87434317233168
            ],
            [
              84.99579232239641,
              25.87427106239553
            ],
            [
              84.99566246643052,
              25.874167358214176
            ],
            [
              84.99521726676561,
              25.873806682275394
            ],
            [
              84.99520043862537,
              25.873838435801375
            ],
            [
              84.99505905727439,
              25.874105221337626
            ],
            [
              84.99453959388494,
              25.874661660320147
            ],
            [
              84.99394928575892,
              25.87516467336325
            ],
            [
              84.99322832216639,
              25.875079689202078
            ],
            [
              84.99253109386031,
              25.875101726329596
            ],
            [
              84.99104892125222,
              25.875082982041427
            ],
            [
              84.99094744216785,
              25.875081697720937
            ],
            [
              84.99015566887304,
              25.87507163411163
            ],
            [
              84.98865429028417,
              25.87455977910946
            ],
            [
              84.9875670251598,
              25.874464453618508
            ],
            [
              84.98568805860592,
              25.874572872122958
            ],
            [
              84.98520076927666,
              25.874592486180283
            ],
            [
              84.98487271441637,
              25.874605688305316
            ],
            [
              84.98410463778048,
              25.874681129684248
            ],
            [
              84.98252086122217,
              25.874457912359613
            ],
            [
              84.98176444382034,
              25.874405055288907
            ],
            [
              84.97957088905054,
              25.874234684105804
            ],
            [
              84.97944797077356,
              25.874225135287844
            ],
            [
              84.97865616603777,
              25.874129525826312
            ],
            [
              84.97852583306644,
              25.874112785069638
            ],
            [
              84.97633961573591,
              25.87383193896242
            ],
            [
              84.97408222937695,
              25.873523680598716
            ],
            [
              84.97177770033024,
              25.8733008401653
            ],
            [
              84.9706200548983,
              25.87398600883932
            ],
            [
              84.96771403729355,
              25.8752281699775
            ],
            [
              84.9671827556682,
              25.875773777939077
            ],
            [
              84.96506904944907,
              25.877752890878238
            ],
            [
              84.96456126236168,
              25.87821297587698
            ],
            [
              84.96303805021984,
              25.879838922247053
            ],
            [
              84.96241001644515,
              25.879513346330004
            ],
            [
              84.96112273333796,
              25.878846001314685
            ],
            [
              84.95963321790073,
              25.878259007313005
            ],
            [
              84.9580965723521,
              25.877843019168754
            ],
            [
              84.95639424422748,
              25.877042319943506
            ],
            [
              84.95672419273637,
              25.87579130084851
            ],
            [
              84.9569307396747,
              25.87488074867568
            ],
            [
              84.95705403883734,
              25.874337183917422
            ],
            [
              84.95745419158405,
              25.872252295280717
            ],
            [
              84.95734753011878,
              25.871910224923706
            ],
            [
              84.95670888724057,
              25.871172978620013
            ],
            [
              84.9553024821368,
              25.870778296205046
            ],
            [
              84.95456957993414,
              25.870532826608724
            ],
            [
              84.95315131706863,
              25.870138136397262
            ],
            [
              84.95149653587366,
              25.869625999749047
            ],
            [
              84.95103527522977,
              25.869630691897953
            ],
            [
              84.94926333126388,
              25.86964869988684
            ],
            [
              84.94782167626833,
              25.869702963900373
            ],
            [
              84.94693534001854,
              25.86959655034711
            ],
            [
              84.9450675799478,
              25.868496415855272
            ],
            [
              84.94428745420896,
              25.868197514241057
            ],
            [
              84.94288142460098,
              25.86846552820196
            ],
            [
              84.94056572320709,
              25.8688515000223
            ],
            [
              84.93913622780725,
              25.869418819971106
            ],
            [
              84.93716332981397,
              25.87020026808572
            ],
            [
              84.93622997664052,
              25.87053207085926
            ],
            [
              84.9357918655815,
              25.870613539007497
            ],
            [
              84.93473833758596,
              25.87080943786393
            ],
            [
              84.93396146015519,
              25.870938104849543
            ],
            [
              84.93340761195162,
              25.871093412750632
            ],
            [
              84.93278012075935,
              25.871421065720416
            ],
            [
              84.93209489933537,
              25.87176350930243
            ],
            [
              84.93127960185821,
              25.871892155042037
            ],
            [
              84.93055888889567,
              25.87202079094221
            ],
            [
              84.92987347523218,
              25.872053164897267
            ],
            [
              84.92927322095933,
              25.872038029894554
            ],
            [
              84.92820728722974,
              25.87201114737676
            ],
            [
              84.92676569960786,
              25.87214002886368
            ],
            [
              84.92595035272339,
              25.8720655501373
            ],
            [
              84.92561412229568,
              25.872208294319964
            ],
            [
              84.9251942452403,
              25.872386546687192
            ],
            [
              84.92458002755471,
              25.87280371391854
            ],
            [
              84.92329212460996,
              25.873135503722633
            ],
            [
              84.92241773056354,
              25.87325350467482
            ],
            [
              84.921578846022,
              25.873446204877695
            ],
            [
              84.92092889425265,
              25.873435808930804
            ],
            [
              84.92040868885479,
              25.872847961180618
            ],
            [
              84.91994753870368,
              25.87233506275869
            ],
            [
              84.9194864083155,
              25.87174724671217
            ],
            [
              84.91819772383649,
              25.870069274034062
            ],
            [
              84.91773662039778,
              25.86949219380965
            ],
            [
              84.91729921541459,
              25.86895787706479
            ],
            [
              84.91645976762932,
              25.867824937969168
            ],
            [
              84.91585693159834,
              25.86726928560552
            ],
            [
              84.91535725360302,
              25.867212066906312
            ],
            [
              84.91511245370496,
              25.86718403225552
            ],
            [
              84.91436798299809,
              25.86719499699517
            ],
            [
              84.91421478969943,
              25.867419885076462
            ],
            [
              84.9135886396919,
              25.868339066808158
            ],
            [
              84.9133408070814,
              25.869066091273428
            ],
            [
              84.9134058217518,
              25.869226341947435
            ],
            [
              84.9136010130866,
              25.869707449931298
            ],
            [
              84.91381386889319,
              25.870380803666517
            ],
            [
              84.91376846085221,
              25.870526059619728
            ],
            [
              84.91361332988744,
              25.871022306337224
            ],
            [
              84.91338934934441,
              25.8724014609861
            ],
            [
              84.91283418780388,
              25.87293613477116
            ],
            [
              84.91259786620545,
              25.87316073872985
            ],
            [
              84.91265314134151,
              25.873499021964044
            ],
            [
              84.91276379761484,
              25.874176236178293
            ],
            [
              84.9127164698741,
              25.874226642698225
            ],
            [
              84.91236216534288,
              25.874603989342077
            ],
            [
              84.9115941776402,
              25.874871486033452
            ],
            [
              84.91092068731548,
              25.875149635749946
            ],
            [
              84.90991637891267,
              25.875470675648067
            ],
            [
              84.90960938056264,
              25.87604799500901
            ],
            [
              84.90957166569378,
              25.876342427354302
            ],
            [
              84.90955049958902,
              25.87650766636008
            ],
            [
              84.90953890683029,
              25.87724530612329
            ],
            [
              84.90974041960978,
              25.87862435579117
            ],
            [
              84.9099296937418,
              25.879276341679613
            ],
            [
              84.91000261089174,
              25.879489690338847
            ],
            [
              84.91017811834207,
              25.880003197000057
            ],
            [
              84.9101965814161,
              25.880027303876933
            ],
            [
              84.9104973589328,
              25.880420026167453
            ],
            [
              84.91121813118417,
              25.880099142777233
            ],
            [
              84.9118324431929,
              25.879692690901734
            ],
            [
              84.91254142325953,
              25.87936107065428
            ],
            [
              84.9138646623343,
              25.878772639751602
            ],
            [
              84.91462101865068,
              25.87870823820616
            ],
            [
              84.91538913301585,
              25.878718737142755
            ],
            [
              84.91569665508368,
              25.879349310131072
            ],
            [
              84.91562446017925,
              25.87943064126579
            ],
            [
              84.9151650877941,
              25.879948147275062
            ],
            [
              84.91424390409776,
              25.88112438504039
            ],
            [
              84.91360614695846,
              25.882268500995043
            ],
            [
              84.91344103301596,
              25.88302758115067
            ],
            [
              84.91343698071572,
              25.88305401584163
            ],
            [
              84.91307813340413,
              25.885394910826104
            ],
            [
              84.91301655389138,
              25.8857966022694
            ],
            [
              84.91293404632748,
              25.88636316600372
            ],
            [
              84.91250915936777,
              25.88784927335502
            ],
            [
              84.91278117911727,
              25.888405056004558
            ],
            [
              84.9133959492668,
              25.888939413275054
            ],
            [
              84.91405772735682,
              25.88883231395086
            ],
            [
              84.91481408457156,
              25.888618258056106
            ],
            [
              84.91552312392697,
              25.88847906700563
            ],
            [
              84.91786315798699,
              25.888574425633614
            ],
            [
              84.9185841494273,
              25.888595607629362
            ],
            [
              84.91939955380394,
              25.888627349097447
            ],
            [
              84.92053994798914,
              25.888611310266256
            ],
            [
              84.92095961663539,
              25.88860540500827
            ],
            [
              84.92157418376566,
              25.88875484503971
            ],
            [
              84.92246072572966,
              25.88911795072453
            ],
            [
              84.92355675122465,
              25.88936937581295
            ],
            [
              84.92390276161086,
              25.889448748342847
            ],
            [
              84.92504907479548,
              25.889394840909464
            ],
            [
              84.92543498834658,
              25.889381108668953
            ],
            [
              84.92595911219571,
              25.889362457969195
            ],
            [
              84.92744866805715,
              25.89019567215541
            ],
            [
              84.92881986279501,
              25.890676149222916
            ],
            [
              84.92967085213502,
              25.890739933279797
            ],
            [
              84.93123092215296,
              25.89085688625212
            ],
            [
              84.93204093663793,
              25.890856509654643
            ],
            [
              84.93238919101569,
              25.89085634721666
            ],
            [
              84.93266124490118,
              25.891198352192447
            ],
            [
              84.93290717308327,
              25.891716723869276
            ],
            [
              84.93294519787091,
              25.89179687467855
            ],
            [
              84.93308782159194,
              25.893175875621658
            ],
            [
              84.93317076304211,
              25.893667550128253
            ],
            [
              84.93313588864616,
              25.894672495742487
            ],
            [
              84.9333015586458,
              25.895003867722828
            ],
            [
              84.93384545980426,
              25.89542051220846
            ],
            [
              84.93422816996306,
              25.895957354996508
            ],
            [
              84.93429492916171,
              25.896050997614942
            ],
            [
              84.93476852097949,
              25.897451231081565
            ],
            [
              84.93546580857439,
              25.89746170410837
            ],
            [
              84.9363995641931,
              25.89742914479027
            ],
            [
              84.93652819575527,
              25.897739036954537
            ],
            [
              84.9365770461404,
              25.89785672159605
            ],
            [
              84.93724062984415,
              25.900700075381287
            ],
            [
              84.93741832199726,
              25.901362791025306
            ],
            [
              84.93786783357554,
              25.90191843893152
            ],
            [
              84.93849442285926,
              25.90218541475557
            ],
            [
              84.9407521344083,
              25.902355338339728
            ],
            [
              84.94155590021217,
              25.902408366329748
            ],
            [
              84.94189903329449,
              25.903028202881547
            ],
            [
              84.94150966661944,
              25.904140227844284
            ],
            [
              84.94263252838523,
              25.903979344165858
            ],
            [
              84.9434125993268,
              25.90391477294175
            ],
            [
              84.94413357100417,
              25.90383952074301
            ],
            [
              84.94486630162862,
              25.903828519002815
            ],
            [
              84.94564648396127,
              25.90384950675062
            ],
            [
              84.94587718480098,
              25.903858863278558
            ],
            [
              84.94642658185232,
              25.90388114230073
            ],
            [
              84.94688795119235,
              25.904383315725795
            ],
            [
              84.94723108696967,
              25.90498184002659
            ],
            [
              84.94781118125088,
              25.906403493769698
            ],
            [
              84.94826174655299,
              25.90841300598195
            ],
            [
              84.94736413105647,
              25.909546644040145
            ],
            [
              84.94735260477309,
              25.910027767109153
            ],
            [
              84.94738180271474,
              25.91005216116445
            ],
            [
              84.94782573126353,
              25.910423052801946
            ],
            [
              84.94844079426383,
              25.911042755936073
            ],
            [
              84.94904403004512,
              25.91161968478409
            ],
            [
              84.9491625932896,
              25.91219697521913
            ],
            [
              84.94918666634258,
              25.91272084438644
            ],
            [
              84.94938859594033,
              25.914260081209637
            ],
            [
              84.94946863762878,
              25.914887120880447
            ],
            [
              84.94947183293624,
              25.914912149006334
            ],
            [
              84.94941282530017,
              25.915190230228113
            ],
            [
              84.94925936879514,
              25.91552167304876
            ],
            [
              84.94886978023621,
              25.916238177993602
            ],
            [
              84.9489056733217,
              25.916794078207975
            ],
            [
              84.94889413805514,
              25.91726445805099
            ],
            [
              84.9493670004409,
              25.917296245132842
            ],
            [
              84.95018269317679,
              25.91730643280109
            ],
            [
              84.95093933875069,
              25.917348817983783
            ],
            [
              84.95246429721746,
              25.91734790013255
            ],
            [
              84.95320900867283,
              25.91734749938058
            ],
            [
              84.95409562789193,
              25.91732553962545
            ],
            [
              84.95485222316019,
              25.917399947781703
            ],
            [
              84.95556177455536,
              25.917592024076118
            ],
            [
              84.95612949005198,
              25.91806209370991
            ],
            [
              84.95667360770442,
              25.918500056384765
            ],
            [
              84.95725322587855,
              25.918980760761585
            ],
            [
              84.95783280991672,
              25.91936524076371
            ],
            [
              84.95838875478817,
              25.919899494986314
            ],
            [
              84.95896840440336,
              25.920390844820275
            ],
            [
              84.9593943980875,
              25.920925160646444
            ],
            [
              84.95993850406181,
              25.921405897147846
            ],
            [
              84.9605891044148,
              25.92187585381465
            ],
            [
              84.96100304091118,
              25.92214290484543
            ],
            [
              84.96241061831638,
              25.92311481327476
            ],
            [
              84.9632263146455,
              25.9230287979823
            ],
            [
              84.96401357390599,
              25.92300474270996
            ],
            [
              84.96465676136121,
              25.922985084990486
            ],
            [
              84.96546066999717,
              25.923027338055075
            ],
            [
              84.96587486520839,
              25.923454687953377
            ],
            [
              84.96647847109556,
              25.924245390977113
            ],
            [
              84.96710532897555,
              25.924565689771335
            ],
            [
              84.96724591891079,
              25.924581264009262
            ],
            [
              84.96796842670726,
              25.92466129392381
            ],
            [
              84.96864237966435,
              25.924831867813904
            ],
            [
              84.96915094469279,
              25.925077386070804
            ],
            [
              84.96993180076193,
              25.925696982292415
            ],
            [
              84.9705229631858,
              25.92577133911392
            ],
            [
              84.97106667659634,
              25.925632005269733
            ],
            [
              84.97266171084175,
              25.92465799762022
            ],
            [
              84.97339457801012,
              25.92445441514631
            ],
            [
              84.97408016504845,
              25.924400459074544
            ],
            [
              84.97487214226079,
              25.924271621725392
            ],
            [
              84.9763499912774,
              25.92427043004307
            ],
            [
              84.97713045208783,
              25.92449435380511
            ],
            [
              84.97768647690935,
              25.924942969188645
            ],
            [
              84.97836042806978,
              25.925038669176978
            ],
            [
              84.97916428819674,
              25.924973972138
            ],
            [
              84.97990901402515,
              25.924823686852484
            ],
            [
              84.9814104150719,
              25.924811849260465
            ],
            [
              84.98202909828281,
              25.92508224890919
            ],
            [
              84.9821673067842,
              25.92514265424839
            ],
            [
              84.98277074199147,
              25.925633974148518
            ],
            [
              84.98291326420289,
              25.92628604367006
            ],
            [
              84.98265351993173,
              25.926831507684128
            ],
            [
              84.98151944359792,
              25.927698317802257
            ],
            [
              84.9802081952356,
              25.928832538743407
            ],
            [
              84.98043296629606,
              25.92905691271779
            ],
            [
              84.9808827806066,
              25.929548264773015
            ],
            [
              84.98149795589636,
              25.930007529794434
            ],
            [
              84.98230259126936,
              25.93063759602931
            ],
            [
              84.9828107260048,
              25.93046621862488
            ],
            [
              84.98347267028312,
              25.930219806769276
            ],
            [
              84.98563541014371,
              25.929320083361503
            ],
            [
              84.9871364958818,
              25.928966080286195
            ],
            [
              84.98853126870094,
              25.92867629776576
            ],
            [
              84.98933497970758,
              25.928451142643453
            ],
            [
              84.99069406515544,
              25.92790485318556
            ],
            [
              84.99094493676651,
              25.927794918781085
            ],
            [
              84.99106438035994,
              25.927181875157178
            ],
            [
              84.99126127669719,
              25.926171265160022
            ],
            [
              84.99139417615527,
              25.924740877005885
            ],
            [
              84.99135913107939,
              25.922493204654764
            ],
            [
              84.99299390589468,
              25.921227890090083
            ],
            [
              84.99634437127449,
              25.92048466437396
            ],
            [
              84.99666310431707,
              25.923120858192917
            ],
            [
              84.99741630125861,
              25.92331626109612
            ],
            [
              84.99779075589997,
              25.923285373244283
            ],
            [
              85.00000002669566,
              25.922718493156513
            ],
            [
              85.00000002669566,
              25.922726090130066
            ],
            [
              85.00500738790461,
              25.921441095850053
            ],
            [
              85.00544262884631,
              25.92336897911304
            ],
            [
              85.0056891517131,
              25.924800081148085
            ],
            [
              85.00596537557811,
              25.926429816989288
            ],
            [
              85.00645725080689,
              25.92748220200057
            ],
            [
              85.00709093857799,
              25.92760959212766
            ],
            [
              85.00712553719113,
              25.927736078888806
            ],
            [
              85.00751386271881,
              25.928246690965626
            ],
            [
              85.00805457036638,
              25.929854291656113
            ],
            [
              85.00766887780084,
              25.93052161963589
            ],
            [
              85.0073827958239,
              25.93128839293462
            ],
            [
              85.00703052597682,
              25.932686903346653
            ],
            [
              85.00734416826667,
              25.933102606044205
            ],
            [
              85.00829584886856,
              25.933903050879046
            ],
            [
              85.00949263030414,
              25.934509826166003
            ],
            [
              85.01142867311626,
              25.934797292781184
            ],
            [
              85.01191682392987,
              25.935308089146364
            ],
            [
              85.01237463863632,
              25.936012911206223
            ],
            [
              85.01304158114093,
              25.936934710873974
            ],
            [
              85.01443453397329,
              25.93676099021465
            ],
            [
              85.01697069361603,
              25.93653037260416
            ],
            [
              85.01999647820774,
              25.936074861993802
            ],
            [
              85.02126481135404,
              25.93582417303995
            ],
            [
              85.02264303091745,
              25.935496834602205
            ],
            [
              85.02452040924993,
              25.9351658106716
            ],
            [
              85.02682703676116,
              25.934876057131497
            ],
            [
              85.0276366029868,
              25.934376270709755
            ],
            [
              85.0291842277448,
              25.934229737769254
            ],
            [
              85.02967885092004,
              25.933964187651664
            ],
            [
              85.03061794792141,
              25.93355042200267
            ],
            [
              85.0310976752326,
              25.93325330974499
            ]
          ]
        ]
      }
    }
  ]
}