{
  "type": "FeatureCollection",
  "features": [
    {
      "type": "Feature",
      "properties": {
        "object_id": "10-217-01220",
        "stname": "BIHAR",
        "dtname": "Gopalganj",
        "sdtname": "Phulwaria",
        "st_area_sh": 0.0,
        "st_length_": 0.0,
        "remarks": "",
        "dist_lgd": 197,
        "state_lgd": 10,
        "subdt_lgd": 1220,
        "ac_no": null,
        "st_length(shape)": 81339.22200232239,
        "st_area(shape)": 118763292.85091434
      },
      "geometry": {
        "type": "Polygon",
        "coordinates": [
          [
            [
              84.20401502740606,
              26.505726169216143
            ],
            [
              84.20650742741635,
              26.505546121125693
            ],
            [
              84.21012701188562,
              26.505628000154097
            ],
            [
              84.21258775257034,
              26.50556604805865
            ],
            [
              84.2183663192474,
              26.504908329626048
            ],
            [
              84.22169294872944,
              26.504962181995158
            ],
            [
              84.22358411620152,
              26.504936680724153
            ],
            [
              84.22636825488016,
              26.504899092023688
            ],
            [
              84.22777161739006,
              26.50488012483054
            ],
            [
              84.22984702303872,
              26.505241927077368
            ],
            [
              84.23065011420778,
              26.50528788663732
            ],
            [
              84.23159424626633,
              26.50534191166612
            ],
            [
              84.23285915593307,
              26.505146301936254
            ],
            [
              84.23387093831903,
              26.504791653291868
            ],
            [
              84.2350912286656,
              26.504363904704977
            ],
            [
              84.23532650013347,
              26.504205731115643
            ],
            [
              84.23595051215062,
              26.503786197078334
            ],
            [
              84.23829146159392,
              26.503105011125832
            ],
            [
              84.24089381270005,
              26.502347703906675
            ],
            [
              84.24110892866788,
              26.503779917762714
            ],
            [
              84.24128824766997,
              26.50383554488211
            ],
            [
              84.24200830486235,
              26.503870407884847
            ],
            [
              84.2440914198528,
              26.50405157281348
            ],
            [
              84.24417476464653,
              26.50411173060692
            ],
            [
              84.2481331783696,
              26.506968654126748
            ],
            [
              84.24930849006988,
              26.503657985138634
            ],
            [
              84.24968530368716,
              26.502337225654756
            ],
            [
              84.25056957560845,
              26.50195419400297
            ],
            [
              84.25111429872537,
              26.50186350139168
            ],
            [
              84.2516410941642,
              26.502494126805892
            ],
            [
              84.25220871533769,
              26.503085737346183
            ],
            [
              84.2533862719279,
              26.503015842032404
            ],
            [
              84.25353314198527,
              26.5030005620738
            ],
            [
              84.25535982299638,
              26.50281049777318
            ],
            [
              84.25547200371075,
              26.50364208706037
            ],
            [
              84.25603073425793,
              26.503968316375502
            ],
            [
              84.25634573569884,
              26.504566779015047
            ],
            [
              84.25675520936488,
              26.5054661842492
            ],
            [
              84.25777705378037,
              26.50577981299369
            ],
            [
              84.2583447171747,
              26.506371400184747
            ],
            [
              84.25883075065917,
              26.507041104994585
            ],
            [
              84.25975696492107,
              26.507015905641587
            ],
            [
              84.25988811625761,
              26.506974835998044
            ],
            [
              84.26121644698341,
              26.50655886766598
            ],
            [
              84.26270143401327,
              26.50560790119857
            ],
            [
              84.26269004068051,
              26.505593292032348
            ],
            [
              84.26293545682289,
              26.505502759052902
            ],
            [
              84.26390381374969,
              26.50466952800146
            ],
            [
              84.26488120144009,
              26.504105059003706
            ],
            [
              84.26600028938336,
              26.504791729662344
            ],
            [
              84.26699877580482,
              26.50485422319952
            ],
            [
              84.26868194106785,
              26.504539324979667
            ],
            [
              84.26997452064195,
              26.504459274052532
            ],
            [
              84.2692259491258,
              26.5027727612609
            ],
            [
              84.26854885476016,
              26.500779028051767
            ],
            [
              84.26857079521267,
              26.500328350890246
            ],
            [
              84.26836309573584,
              26.500000157683186
            ],
            [
              84.26719025530089,
              26.49814687087397
            ],
            [
              84.26715867143382,
              26.49796447785172
            ],
            [
              84.267378082247,
              26.497913411901997
            ],
            [
              84.2684182424128,
              26.497671311606855
            ],
            [
              84.26872167714612,
              26.49760068381713
            ],
            [
              84.26948706871764,
              26.496649298313102
            ],
            [
              84.27094887561992,
              26.498152946295082
            ],
            [
              84.272940033668,
              26.498748696976126
            ],
            [
              84.27434330095646,
              26.49947575487074
            ],
            [
              84.27453869980214,
              26.499781846999717
            ],
            [
              84.27425653358148,
              26.500817125378312
            ],
            [
              84.27459981758079,
              26.502248690256412
            ],
            [
              84.2757405710921,
              26.503582663793093
            ],
            [
              84.27700378204464,
              26.503548156834448
            ],
            [
              84.27728269187234,
              26.50352065190944
            ],
            [
              84.2785999760151,
              26.503390732973603
            ],
            [
              84.27899539464025,
              26.502621552207696
            ],
            [
              84.28324921305625,
              26.50053200007822
            ],
            [
              84.28319166518254,
              26.50035445130849
            ],
            [
              84.28360451561578,
              26.500000361078293
            ],
            [
              84.28491943988425,
              26.49887256266037
            ],
            [
              84.28486756217661,
              26.497879425003227
            ],
            [
              84.28457200566835,
              26.497236681211255
            ],
            [
              84.2876494730333,
              26.49568708278315
            ],
            [
              84.28825860894936,
              26.496020657963047
            ],
            [
              84.28979916037282,
              26.49592269687507
            ],
            [
              84.28997827815226,
              26.49639308990503
            ],
            [
              84.29015749384807,
              26.496863736667564
            ],
            [
              84.29124850225222,
              26.498364683805804
            ],
            [
              84.29170546355917,
              26.500000003328005
            ],
            [
              84.29178918295035,
              26.500299602317032
            ],
            [
              84.29136664598344,
              26.50272218301199
            ],
            [
              84.29284690607828,
              26.502467546131914
            ],
            [
              84.29410337876786,
              26.502880308801004
            ],
            [
              84.29462287539498,
              26.502920857364888
            ],
            [
              84.29562711283089,
              26.502999234010808
            ],
            [
              84.29668778422958,
              26.50174115512638
            ],
            [
              84.29762619222312,
              26.499782051199123
            ],
            [
              84.29809666598857,
              26.497560470231107
            ],
            [
              84.2985474738358,
              26.495431652880374
            ],
            [
              84.2998594543251,
              26.49364924184325
            ],
            [
              84.29570712577325,
              26.49413931019204
            ],
            [
              84.2931298430534,
              26.494063354703385
            ],
            [
              84.28999767098261,
              26.49376703495865
            ],
            [
              84.2875998743515,
              26.494414281102937
            ],
            [
              84.28642985732151,
              26.494586902667177
            ],
            [
              84.2860637282662,
              26.493979766223
            ],
            [
              84.28484246324757,
              26.493086993178224
            ],
            [
              84.28263374761072,
              26.492715566760022
            ],
            [
              84.28182317527197,
              26.491884310854726
            ],
            [
              84.28096911010043,
              26.491463381932768
            ],
            [
              84.27962354429759,
              26.491039048958964
            ],
            [
              84.27938935529967,
              26.489656649303587
            ],
            [
              84.27913850704479,
              26.486690297642813
            ],
            [
              84.27784875177392,
              26.48618511474534
            ],
            [
              84.27668950015428,
              26.485680866327275
            ],
            [
              84.27646146192109,
              26.483585529056782
            ],
            [
              84.27618939995075,
              26.482536748970976
            ],
            [
              84.2760140182646,
              26.480735120207342
            ],
            [
              84.27574085495975,
              26.480426360919484
            ],
            [
              84.2738905581381,
              26.48099589201038
            ],
            [
              84.2731228695744,
              26.48104472775979
            ],
            [
              84.27248796278947,
              26.480210094805653
            ],
            [
              84.27279299921891,
              26.479138284866547
            ],
            [
              84.27268862306775,
              26.476651205123446
            ],
            [
              84.27236360810637,
              26.475349371971735
            ],
            [
              84.27191302304134,
              26.474073780842026
            ],
            [
              84.26991009885968,
              26.47491737829797
            ],
            [
              84.26819794765738,
              26.475176423203163
            ],
            [
              84.26736677066096,
              26.47561292531811
            ],
            [
              84.26713707503608,
              26.477271871860527
            ],
            [
              84.26700107728858,
              26.47851635614011
            ],
            [
              84.26602061376666,
              26.478229896228875
            ],
            [
              84.26495134369408,
              26.477780242722584
            ],
            [
              84.26425345063471,
              26.47728356979255
            ],
            [
              84.26249148695159,
              26.476323832049317
            ],
            [
              84.26162953187689,
              26.476259160778636
            ],
            [
              84.26033148425765,
              26.477333139645744
            ],
            [
              84.25968064135958,
              26.4777979953893
            ],
            [
              84.2586013029693,
              26.47793031772071
            ],
            [
              84.25808224921161,
              26.477646988278753
            ],
            [
              84.25772043117135,
              26.476566022326093
            ],
            [
              84.25569386692469,
              26.47663309526086
            ],
            [
              84.25430890011519,
              26.476736251161437
            ],
            [
              84.25336817985809,
              26.475917489662883
            ],
            [
              84.25352747900574,
              26.474894300378576
            ],
            [
              84.25323912878267,
              26.472857142728543
            ],
            [
              84.2533947403461,
              26.468765401010558
            ],
            [
              84.25306358539976,
              26.468212616219805
            ],
            [
              84.25223698082813,
              26.46812108077483
            ],
            [
              84.25206303375144,
              26.467357285944306
            ],
            [
              84.25646809522367,
              26.46589435981663
            ],
            [
              84.26187220725934,
              26.46487590969024
            ],
            [
              84.26378404676277,
              26.464117508698145
            ],
            [
              84.26560136822695,
              26.463272689310582
            ],
            [
              84.26511918312514,
              26.4621908661461
            ],
            [
              84.26409844992567,
              26.45958463506336
            ],
            [
              84.26356268391045,
              26.457148733877826
            ],
            [
              84.26348653462213,
              26.45549211424877
            ],
            [
              84.26310320821902,
              26.453995855386164
            ],
            [
              84.26325472436307,
              26.453279411731668
            ],
            [
              84.26491889295276,
              26.452735849054882
            ],
            [
              84.26725501125647,
              26.45217440816401
            ],
            [
              84.26940710787756,
              26.452022230194974
            ],
            [
              84.27232333573387,
              26.451636076077413
            ],
            [
              84.27306353674821,
              26.451253080657388
            ],
            [
              84.2729623379382,
              26.448987038239267
            ],
            [
              84.27286126309566,
              26.446111897257882
            ],
            [
              84.2737352690699,
              26.444732571609
            ],
            [
              84.27405730970936,
              26.44280348205625
            ],
            [
              84.27700869043935,
              26.442381307027375
            ],
            [
              84.27946963504166,
              26.441843033733235
            ],
            [
              84.28069823390629,
              26.441797191189988
            ],
            [
              84.28149898586234,
              26.44136041927912
            ],
            [
              84.28163501415257,
              26.44008882396646
            ],
            [
              84.28103091329366,
              26.438591079627003
            ],
            [
              84.28061312482131,
              26.437595478234996
            ],
            [
              84.27970324462623,
              26.43610020391196
            ],
            [
              84.27878791525063,
              26.43526366927157
            ],
            [
              84.27781423311082,
              26.434205694671782
            ],
            [
              84.27635165365739,
              26.43286904160996
            ],
            [
              84.27489010996149,
              26.431419634702333
            ],
            [
              84.2741024401709,
              26.43030870926546
            ],
            [
              84.2739840377249,
              26.429482113906232
            ],
            [
              84.2733805378389,
              26.428534805166645
            ],
            [
              84.2713554926434,
              26.428521004321116
            ],
            [
              84.26995511074361,
              26.426963608191954
            ],
            [
              84.2692720219201,
              26.42653471673029
            ],
            [
              84.26804966904162,
              26.425863000338524
            ],
            [
              84.26560241476425,
              26.425995160330185
            ],
            [
              84.26443171681125,
              26.42632095096414
            ],
            [
              84.26380757184342,
              26.42780577863068
            ],
            [
              84.26336708114722,
              26.428908272022326
            ],
            [
              84.2632382878883,
              26.42990464589636
            ],
            [
              84.26279447701883,
              26.431395225609577
            ],
            [
              84.26217964219059,
              26.431196952217526
            ],
            [
              84.26119533118434,
              26.43141127605266
            ],
            [
              84.26046788534872,
              26.430300668281227
            ],
            [
              84.26010759444445,
              26.428470673373287
            ],
            [
              84.25981815636159,
              26.427146450815773
            ],
            [
              84.25754615890457,
              26.427297632762645
            ],
            [
              84.25613506459503,
              26.427008106780306
            ],
            [
              84.25572185842896,
              26.425511597827352
            ],
            [
              84.25480917908342,
              26.42439965010105
            ],
            [
              84.25345913967048,
              26.42400676898865
            ],
            [
              84.25167557779298,
              26.424490633844517
            ],
            [
              84.25000004282,
              26.424755631763674
            ],
            [
              84.2479864026353,
              26.425074074775264
            ],
            [
              84.24787760767127,
              26.42511180861459
            ],
            [
              84.24434546431345,
              26.426336339248717
            ],
            [
              84.24332906099366,
              26.426363909283225
            ],
            [
              84.24387736659196,
              26.425717764630047
            ],
            [
              84.24334690962006,
              26.4251686000065
            ],
            [
              84.24284888991474,
              26.425592005353696
            ],
            [
              84.24209947577884,
              26.42407532137968
            ],
            [
              84.24149823335918,
              26.422319624803997
            ],
            [
              84.24201984102721,
              26.421694358689926
            ],
            [
              84.24219927681027,
              26.421623995606097
            ],
            [
              84.24302405690356,
              26.421300563316297
            ],
            [
              84.24361549061864,
              26.420734584794573
            ],
            [
              84.24591926867376,
              26.420672079358326
            ],
            [
              84.24787766067188,
              26.420286487097382
            ],
            [
              84.24788243162432,
              26.420285529754175
            ],
            [
              84.24898395840214,
              26.420424177907897
            ],
            [
              84.25000002126045,
              26.419620475984157
            ],
            [
              84.25039197777845,
              26.419310436167233
            ],
            [
              84.25181353925772,
              26.41894581828736
            ],
            [
              84.25262296714277,
              26.41866260436862
            ],
            [
              84.25292184112938,
              26.4182902137365
            ],
            [
              84.25308435444911,
              26.416301333934758
            ],
            [
              84.25588993232029,
              26.41468727712594
            ],
            [
              84.25668271082986,
              26.41341575524174
            ],
            [
              84.25771196275319,
              26.41320179298468
            ],
            [
              84.25801664973798,
              26.412147991057374
            ],
            [
              84.25788106791049,
              26.411009928165218
            ],
            [
              84.25735309118707,
              26.40946297695421
            ],
            [
              84.25687565188493,
              26.408444351394465
            ],
            [
              84.25574692861191,
              26.408567348769463
            ],
            [
              84.25550402236243,
              26.408258820806317
            ],
            [
              84.25551380142262,
              26.407112750165513
            ],
            [
              84.25591567534137,
              26.40583400485778
            ],
            [
              84.25532692130079,
              26.40553203426033
            ],
            [
              84.25000004371834,
              26.407883974811284
            ],
            [
              84.24933022929977,
              26.408179693341793
            ],
            [
              84.24949688115801,
              26.406285643369
            ],
            [
              84.24911624071763,
              26.404518525851955
            ],
            [
              84.24873181836988,
              26.403766845106198
            ],
            [
              84.24883732011011,
              26.403149348309693
            ],
            [
              84.24928219009333,
              26.402710243045142
            ],
            [
              84.24918841585912,
              26.401960512179592
            ],
            [
              84.24880210165938,
              26.401429797868584
            ],
            [
              84.247972548817,
              26.401157801654318
            ],
            [
              84.24787798137044,
              26.40122008512822
            ],
            [
              84.24676752713533,
              26.40195117378391
            ],
            [
              84.24485506779433,
              26.402553031277737
            ],
            [
              84.24330038317652,
              26.403206163389374
            ],
            [
              84.24158173715473,
              26.404535951074184
            ],
            [
              84.2406597234151,
              26.405355365618103
            ],
            [
              84.2401275264065,
              26.407691761302495
            ],
            [
              84.2396920078854,
              26.408864546761375
            ],
            [
              84.240087866685,
              26.41056474139149
            ],
            [
              84.24080419856394,
              26.41170630283584
            ],
            [
              84.23942301905167,
              26.412027128746605
            ],
            [
              84.2381245582074,
              26.412062311612274
            ],
            [
              84.23733373533015,
              26.412473854602663
            ],
            [
              84.23572614533201,
              26.41251739091569
            ],
            [
              84.23412402607391,
              26.412727943180677
            ],
            [
              84.23395021464285,
              26.411227922885978
            ],
            [
              84.2340236626971,
              26.40972130014644
            ],
            [
              84.23511616320295,
              26.40907875682401
            ],
            [
              84.23538820002044,
              26.407956784142776
            ],
            [
              84.23569596822668,
              26.406053781063846
            ],
            [
              84.23546772338096,
              26.40477816839072
            ],
            [
              84.23545698042847,
              26.402605084144366
            ],
            [
              84.23541422331589,
              26.401324444691742
            ],
            [
              84.23538820002044,
              26.400544992338244
            ],
            [
              84.23475699788773,
              26.39976186639807
            ],
            [
              84.23391546960428,
              26.399843073173052
            ],
            [
              84.23302092544775,
              26.40027663820648
            ],
            [
              84.23249990707454,
              26.40023231034669
            ],
            [
              84.23081120369777,
              26.400219475693724
            ],
            [
              84.23010915503187,
              26.400589299962252
            ],
            [
              84.2295096795984,
              26.40013772766718
            ],
            [
              84.22948435698885,
              26.39937822307613
            ],
            [
              84.22939811063672,
              26.39873730868739
            ],
            [
              84.22839958289278,
              26.39800402230389
            ],
            [
              84.22694703223117,
              26.39728308908517
            ],
            [
              84.22661534638051,
              26.399219765215175
            ],
            [
              84.22562816615522,
              26.399302194614297
            ],
            [
              84.2251015216334,
              26.40020846191729
            ],
            [
              84.22389677214125,
              26.401188795747085
            ],
            [
              84.2233533183438,
              26.401593778024246
            ],
            [
              84.22193339808659,
              26.40168786708326
            ],
            [
              84.22088443532934,
              26.401771933729076
            ],
            [
              84.21912875176837,
              26.402934367686672
            ],
            [
              84.21903662594272,
              26.40388464811307
            ],
            [
              84.21892967611826,
              26.40438926195197
            ],
            [
              84.21820080914786,
              26.404799223920456
            ],
            [
              84.21759875914275,
              26.404733567891824
            ],
            [
              84.21593932467458,
              26.405566088653853
            ],
            [
              84.2149497746936,
              26.405874029224663
            ],
            [
              84.21421739441212,
              26.40640027373211
            ],
            [
              84.21365925585475,
              26.406527837702807
            ],
            [
              84.21185998783282,
              26.406913875835652
            ],
            [
              84.2090635700826,
              26.407383036289616
            ],
            [
              84.20515641782292,
              26.408275900301536
            ],
            [
              84.20373351695561,
              26.408708033700233
            ],
            [
              84.2025455147553,
              26.408683737267168
            ],
            [
              84.20139930038536,
              26.408039269253837
            ],
            [
              84.20081507834537,
              26.40737970291427
            ],
            [
              84.20019082378307,
              26.4073964663397
            ],
            [
              84.20041259986043,
              26.40654641639786
            ],
            [
              84.20095585782514,
              26.40596919133533
            ],
            [
              84.20099774806346,
              26.405349027024617
            ],
            [
              84.20147676121398,
              26.404717213620277
            ],
            [
              84.20221105311037,
              26.40424737933547
            ],
            [
              84.2037662066488,
              26.404036756880902
            ],
            [
              84.20537824061265,
              26.403655844118997
            ],
            [
              84.20791920085227,
              26.403024780996738
            ],
            [
              84.20790241672951,
              26.402518810244587
            ],
            [
              84.20738252484367,
              26.401913844332142
            ],
            [
              84.20697805389541,
              26.40102431373501
            ],
            [
              84.20700696796946,
              26.400010690908196
            ],
            [
              84.20692771590012,
              26.399506399089766
            ],
            [
              84.20602389214672,
              26.39863038561202
            ],
            [
              84.20474771940296,
              26.39753057919855
            ],
            [
              84.20393636014,
              26.39655821659838
            ],
            [
              84.20267658614176,
              26.395773364165787
            ],
            [
              84.20101213458274,
              26.394531587692402
            ],
            [
              84.19962266182375,
              26.393750192850316
            ],
            [
              84.19789538389041,
              26.39256849723649
            ],
            [
              84.19667161526706,
              26.390905492018128
            ],
            [
              84.19577795415444,
              26.389409083655494
            ],
            [
              84.19501704517617,
              26.389343924228175
            ],
            [
              84.19450387897687,
              26.388935726814662
            ],
            [
              84.19384627086636,
              26.38794069139184
            ],
            [
              84.19365954794972,
              26.387017401263837
            ],
            [
              84.19249496662549,
              26.384854440235596
            ],
            [
              84.19142004794644,
              26.384461287660873
            ],
            [
              84.18948741783406,
              26.38410196431706
            ],
            [
              84.18811812482961,
              26.384251165868886
            ],
            [
              84.187191250306,
              26.38455753692213
            ],
            [
              84.18620932432681,
              26.385090433983226
            ],
            [
              84.18661724839899,
              26.386152544731367
            ],
            [
              84.18564261673993,
              26.386910115670506
            ],
            [
              84.18446028021411,
              26.387054280864735
            ],
            [
              84.182743955439,
              26.3880568238674
            ],
            [
              84.18150654679638,
              26.388427498248703
            ],
            [
              84.18032985169054,
              26.38874032004503
            ],
            [
              84.17946518280542,
              26.389044795368385
            ],
            [
              84.1780936700639,
              26.389137748752336
            ],
            [
              84.17621726730181,
              26.38907533322524
            ],
            [
              84.17498713770792,
              26.387952400003424
            ],
            [
              84.17539612269049,
              26.3900787293684
            ],
            [
              84.17402219437919,
              26.39365723513269
            ],
            [
              84.17238921080458,
              26.39760900667907
            ],
            [
              84.17238368886052,
              26.39950225039161
            ],
            [
              84.17237816511984,
              26.401395396267095
            ],
            [
              84.17327142558386,
              26.40381422508434
            ],
            [
              84.17564722696524,
              26.405949103940966
            ],
            [
              84.17781245785409,
              26.4099216460093
            ],
            [
              84.18053590904705,
              26.414367704028113
            ],
            [
              84.18086051886823,
              26.42009913890156
            ],
            [
              84.18066586921753,
              26.422424685287343
            ],
            [
              84.17986998523199,
              26.42708690035546
            ],
            [
              84.17826087258942,
              26.431770715941752
            ],
            [
              84.17700207775485,
              26.434735383808764
            ],
            [
              84.17648610611687,
              26.435542990217122
            ],
            [
              84.17597002668111,
              26.43635059740089
            ],
            [
              84.17657240277467,
              26.438166458370887
            ],
            [
              84.17729432397127,
              26.43949057121034
            ],
            [
              84.17708752280971,
              26.441450117969257
            ],
            [
              84.17591187603783,
              26.442824877310642
            ],
            [
              84.17391482324484,
              26.443977351751172
            ],
            [
              84.17244391012055,
              26.44462722099132
            ],
            [
              84.17153117328286,
              26.44575065540135
            ],
            [
              84.17224505276104,
              26.446830721202634
            ],
            [
              84.1737842701863,
              26.448255231151332
            ],
            [
              84.17643214701272,
              26.45038286985086
            ],
            [
              84.17850557097788,
              26.451548708860457
            ],
            [
              84.18014433161808,
              26.451871400785016
            ],
            [
              84.18181354424812,
              26.45303658292484
            ],
            [
              84.18277163792281,
              26.454060757120853
            ],
            [
              84.18343676942378,
              26.454730809215867
            ],
            [
              84.18454587618595,
              26.45546130203556
            ],
            [
              84.18590318207124,
              26.456402466181935
            ],
            [
              84.1872982486395,
              26.457270107818758
            ],
            [
              84.18842542591189,
              26.45854310179229
            ],
            [
              84.18932724103237,
              26.460292726357135
            ],
            [
              84.18949914174685,
              26.461844751870345
            ],
            [
              84.18942334100483,
              26.464416927755458
            ],
            [
              84.18955311342742,
              26.467128410111293
            ],
            [
              84.18962850543596,
              26.46758475725905
            ],
            [
              84.18998196644912,
              26.468552010338666
            ],
            [
              84.19025286689774,
              26.469449066157967
            ],
            [
              84.19052366763343,
              26.470346123829728
            ],
            [
              84.19092684410936,
              26.471601485735743
            ],
            [
              84.19114127106937,
              26.473223568134497
            ],
            [
              84.19138389704445,
              26.474483133901792
            ],
            [
              84.19215932459433,
              26.47605403005732
            ],
            [
              84.19256382878024,
              26.477345413301155
            ],
            [
              84.19348441869015,
              26.47844218102586
            ],
            [
              84.19460573355703,
              26.479533472986233
            ],
            [
              84.19621985520561,
              26.48093714612067
            ],
            [
              84.19737188886198,
              26.48173824526695
            ],
            [
              84.19827156060214,
              26.483414335046515
            ],
            [
              84.19850829093404,
              26.484493160602387
            ],
            [
              84.198526243765,
              26.48503522009589
            ],
            [
              84.1985442001892,
              26.485577371910235
            ],
            [
              84.19791410298429,
              26.48718591929363
            ],
            [
              84.19752441920393,
              26.48755812176807
            ],
            [
              84.19772349126077,
              26.48809265729936
            ],
            [
              84.19792257589405,
              26.488627281199037
            ],
            [
              84.19830308877367,
              26.48984264217171
            ],
            [
              84.19891366558747,
              26.491153954386707
            ],
            [
              84.1992860792565,
              26.492982263275145
            ],
            [
              84.19973007697556,
              26.49440025017771
            ],
            [
              84.19992969071652,
              26.49699928905438
            ],
            [
              84.20061551491006,
              26.498870330919836
            ],
            [
              84.20102571261826,
              26.50000034660749
            ],
            [
              84.2011443809656,
              26.500327247897037
            ],
            [
              84.20123969131895,
              26.50058983877107
            ],
            [
              84.20162446041638,
              26.50364344084099
            ],
            [
              84.20231542117672,
              26.505667509921718
            ],
            [
              84.2031511319704,
              26.50692177800664
            ],
            [
              84.20496531561928,
              26.508609217854207
            ],
            [
              84.20661458205673,
              26.508066538002108
            ],
            [
              84.20615010095254,
              26.507722029662194
            ],
            [
              84.20562230658714,
              26.50727320615404
            ],
            [
              84.20401502740606,
              26.505726169216143
            ]
          ],
          [
            [
              84.25456026040979,
              26.501963717233487
            ],
            [
              84.25356549031865,
              26.50152659322555
            ],
            [
              84.25197413287769,
              26.50175548180223
            ],
            [
              84.2512432446979,
              26.501496930891932
            ],
            [
              84.25000000329413,
              26.500503667187573
            ],
            [
              84.249762106949,
              26.500313600364827
            ],
            [
              84.24961029436096,
              26.500000028249936
            ],
            [
              84.24918556280977,
              26.499122726348798
            ],
            [
              84.24792675989036,
              26.499113921604685
            ],
            [
              84.24787621887582,
              26.49910034628294
            ],
            [
              84.24687247012345,
              26.498830727165664
            ],
            [
              84.24449868456159,
              26.49880227165645
            ],
            [
              84.24316990557648,
              26.4976315852391
            ],
            [
              84.24242829510544,
              26.497048328642613
            ],
            [
              84.24124635563498,
              26.495641522169095
            ],
            [
              84.24098590259307,
              26.494024173791598
            ],
            [
              84.24458861490467,
              26.49378724130617
            ],
            [
              84.24716379377008,
              26.493671028027215
            ],
            [
              84.2478761757567,
              26.494059366184608
            ],
            [
              84.25000003832842,
              26.493660681640492
            ],
            [
              84.25097987482627,
              26.493476737859726
            ],
            [
              84.25245366166118,
              26.493568275638676
            ],
            [
              84.25302089296588,
              26.495837488958802
            ],
            [
              84.25419472064931,
              26.498137963953898
            ],
            [
              84.25563330879645,
              26.500000299979384
            ],
            [
              84.25580683456324,
              26.500224934778245
            ],
            [
              84.2560923407201,
              26.501504383255522
            ],
            [
              84.25456026040979,
              26.501963717233487
            ]
          ]
        ]
      }
    }
  ]
}