{
  "type": "FeatureCollection",
  "features": [
    {
      "type": "Feature",
      "properties": {
        "object_id": "10-229-01384",
        "stname": "BIHAR",
        "dtname": "Nalanda",
        "sdtname": "Sarmera",
        "st_area_sh": 0.0,
        "st_length_": 0.0,
        "remarks": "",
        "dist_lgd": 209,
        "state_lgd": 10,
        "subdt_lgd": 1384,
        "ac_no": null,
        "st_length(shape)": 91044.34634338948,
        "st_area(shape)": 167201876.42476654
      },
      "geometry": {
        "type": "Polygon",
        "coordinates": [
          [
            [
              85.73988684267968,
              25.3326337273805
            ],
            [
              85.74009937329612,
              25.33166318092689
            ],
            [
              85.74010273569026,
              25.329889313660146
            ],
            [
              85.74017549743162,
              25.32804308262028
            ],
            [
              85.74025342718085,
              25.326436264223236
            ],
            [
              85.74036669306007,
              25.325465770388625
            ],
            [
              85.7402367688222,
              25.32459017133859
            ],
            [
              85.74031374366226,
              25.321913549787297
            ],
            [
              85.74053093922998,
              25.320527782654203
            ],
            [
              85.74060513378426,
              25.320279478391985
            ],
            [
              85.74078836225442,
              25.31973766082178
            ],
            [
              85.74095700657598,
              25.319529891810078
            ],
            [
              85.74108742937881,
              25.31949459409592
            ],
            [
              85.74114070755999,
              25.319480174234933
            ],
            [
              85.74207915777438,
              25.3193485042108
            ],
            [
              85.7429579140398,
              25.319090540138895
            ],
            [
              85.74404519892711,
              25.318850421388387
            ],
            [
              85.74503821730345,
              25.318772920902383
            ],
            [
              85.74593201406165,
              25.3186548409915
            ],
            [
              85.74669663937026,
              25.31850071264874
            ],
            [
              85.75000411497383,
              25.317966997683783
            ],
            [
              85.75130437244867,
              25.31782246262075
            ],
            [
              85.75151661111263,
              25.317798869848964
            ],
            [
              85.75184952136703,
              25.31763220912441
            ],
            [
              85.7521235838855,
              25.31669358304819
            ],
            [
              85.75242738513143,
              25.315809203262887
            ],
            [
              85.7525519967327,
              25.315339828850945
            ],
            [
              85.75267627056742,
              25.315213566633677
            ],
            [
              85.75316304156875,
              25.315105630629024
            ],
            [
              85.75437978895981,
              25.31499384215983
            ],
            [
              85.75525882010974,
              25.31485914561444
            ],
            [
              85.75618769787646,
              25.31451231463834
            ],
            [
              85.75732524799547,
              25.31412958409392
            ],
            [
              85.75850762314883,
              25.31353927606666
            ],
            [
              85.75919313383035,
              25.313345679892937
            ],
            [
              85.75966503232384,
              25.313165543353772
            ],
            [
              85.75990832215393,
              25.313125152148594
            ],
            [
              85.76001264710112,
              25.31315230510303
            ],
            [
              85.76004226186109,
              25.313287723845487
            ],
            [
              85.76025502873446,
              25.314118409384257
            ],
            [
              85.76040827503374,
              25.31486326515206
            ],
            [
              85.76073207277788,
              25.31590506435044
            ],
            [
              85.7607548432737,
              25.315978325365446
            ],
            [
              85.76090807160668,
              25.31669609306161
            ],
            [
              85.76095246185642,
              25.317039221392417
            ],
            [
              85.76238751872617,
              25.317098953192954
            ],
            [
              85.7635744034223,
              25.31707279668027
            ],
            [
              85.76593817456538,
              25.31694822774378
            ],
            [
              85.76671292209059,
              25.3168900631022
            ],
            [
              85.76695643470283,
              25.316700677835215
            ],
            [
              85.76722980641685,
              25.316407523195316
            ],
            [
              85.76748823016453,
              25.316118848700015
            ],
            [
              85.76824368726733,
              25.31543333293545
            ],
            [
              85.76886977798607,
              25.314946281966222
            ],
            [
              85.7696447491918,
              25.314490990912866
            ],
            [
              85.77071762240696,
              25.314193846978018
            ],
            [
              85.77166110318694,
              25.314167399933908
            ],
            [
              85.77259959292721,
              25.31422226081567
            ],
            [
              85.77349836096222,
              25.314236423880985
            ],
            [
              85.77443219563267,
              25.31393466520945
            ],
            [
              85.77573824993605,
              25.31384980676571
            ],
            [
              85.7767859658317,
              25.31390916009595
            ],
            [
              85.77834523095916,
              25.313824393396963
            ],
            [
              85.77959176109516,
              25.313671828618414
            ],
            [
              85.78055018624822,
              25.313591182958316
            ],
            [
              85.78138397285052,
              25.313540348798462
            ],
            [
              85.78142916619416,
              25.31353759428949
            ],
            [
              85.78164272268667,
              25.31347001297644
            ],
            [
              85.78176222556891,
              25.312973570711222
            ],
            [
              85.78185726193607,
              25.3121024760309
            ],
            [
              85.78196214922865,
              25.31134884505752
            ],
            [
              85.7820270929321,
              25.310784682980245
            ],
            [
              85.78188871824237,
              25.309940554073147
            ],
            [
              85.78179978592755,
              25.309416925693046
            ],
            [
              85.7815566443195,
              25.3091459307907
            ],
            [
              85.78132832132036,
              25.30899234906714
            ],
            [
              85.78101575611053,
              25.308730350390118
            ],
            [
              85.78083713779436,
              25.30851361159659
            ],
            [
              85.78083732015237,
              25.30824724524475
            ],
            [
              85.78086735622223,
              25.307985460162442
            ],
            [
              85.78138407525849,
              25.30752995535342
            ],
            [
              85.7820198632907,
              25.307295658386774
            ],
            [
              85.78331086272823,
              25.307228755758064
            ],
            [
              85.78407076739002,
              25.307048658037935
            ],
            [
              85.78617628277038,
              25.306693363668465
            ],
            [
              85.78693604280339,
              25.306666750129384
            ],
            [
              85.78740768168373,
              25.306725709046738
            ],
            [
              85.78760131623818,
              25.30676197526352
            ],
            [
              85.78755602857144,
              25.307619488611753
            ],
            [
              85.78761497691872,
              25.308463592273153
            ],
            [
              85.787599848391,
              25.308765954151568
            ],
            [
              85.78770393079309,
              25.309127173949253
            ],
            [
              85.78779310295808,
              25.309429579648626
            ],
            [
              85.78820513502608,
              25.30947043984845
            ],
            [
              85.78962039392528,
              25.309376512123787
            ],
            [
              85.79052910092062,
              25.309377018054825
            ],
            [
              85.79064335674329,
              25.309304907025716
            ],
            [
              85.79113035771329,
              25.308768038792827
            ],
            [
              85.79169681826347,
              25.308091321918674
            ],
            [
              85.79214892507464,
              25.307856830321754
            ],
            [
              85.79298812402654,
              25.307663248618397
            ],
            [
              85.79489511532236,
              25.30735288722109
            ],
            [
              85.79598759696357,
              25.307240637632546
            ],
            [
              85.79696088564131,
              25.307047046011604
            ],
            [
              85.79798893022885,
              25.30679032668784
            ],
            [
              85.79854999190418,
              25.30677711291579
            ],
            [
              85.79906627435922,
              25.306953329991824
            ],
            [
              85.79959735116866,
              25.307382400624725
            ],
            [
              85.80014326275673,
              25.30783858733918
            ],
            [
              85.80122016581429,
              25.308764380316443
            ],
            [
              85.80137984405097,
              25.308938366936008
            ],
            [
              85.80139448209852,
              25.308954315595454
            ],
            [
              85.801572503035,
              25.309148286663426
            ],
            [
              85.80186047057576,
              25.309189003218243
            ],
            [
              85.80249611577582,
              25.309067485319066
            ],
            [
              85.80296797833668,
              25.308751763647674
            ],
            [
              85.80317658690862,
              25.308668294313108
            ],
            [
              85.80389184170748,
              25.308382102627718
            ],
            [
              85.804621979794,
              25.307953616996958
            ],
            [
              85.80548624623394,
              25.307471134884594
            ],
            [
              85.80656407186129,
              25.306866762861436
            ],
            [
              85.80703586884512,
              25.30675870734948
            ],
            [
              85.80721464795971,
              25.306578209374045
            ],
            [
              85.80726452601753,
              25.306302942926642
            ],
            [
              85.80739874959235,
              25.305914768039564
            ],
            [
              85.8074884841027,
              25.305291919119718
            ],
            [
              85.80765806087553,
              25.3039199092644
            ],
            [
              85.80771794796226,
              25.30346404320641
            ],
            [
              85.80776287989613,
              25.302881824836497
            ],
            [
              85.80796232475382,
              25.301491724053363
            ],
            [
              85.80808681598084,
              25.30082834177236
            ],
            [
              85.80836061708956,
              25.299533018621624
            ],
            [
              85.80847012801088,
              25.29900947115428
            ],
            [
              85.80858947278966,
              25.298689076099425
            ],
            [
              85.80873895335125,
              25.29767356490435
            ],
            [
              85.80890809893272,
              25.297064357087116
            ],
            [
              85.80907723103948,
              25.29644603035668
            ],
            [
              85.80932672283828,
              25.295955608059025
            ],
            [
              85.8095891449873,
              25.295439763304323
            ],
            [
              85.80981773658269,
              25.294997537670273
            ],
            [
              85.80997178328086,
              25.294794444221534
            ],
            [
              85.8099868309602,
              25.29455528362097
            ],
            [
              85.80997203840239,
              25.29432057821878
            ],
            [
              85.80980370759289,
              25.293494466882848
            ],
            [
              85.80973935228593,
              25.29313791529701
            ],
            [
              85.80962038120634,
              25.292709046831256
            ],
            [
              85.80952629705337,
              25.292365980368164
            ],
            [
              85.80945195787037,
              25.29204546460564
            ],
            [
              85.80920934626829,
              25.290781545231315
            ],
            [
              85.80915000535727,
              25.290420428327735
            ],
            [
              85.80909055305513,
              25.29009091292568
            ],
            [
              85.80889264341826,
              25.288989523051086
            ],
            [
              85.80886298913242,
              25.28870061023764
            ],
            [
              85.80872908535784,
              25.28843875694766
            ],
            [
              85.80872925783439,
              25.28813636060637
            ],
            [
              85.8089874596982,
              25.28803722537886
            ],
            [
              85.80970237762884,
              25.288023943771748
            ],
            [
              85.81276558064542,
              25.28791698015946
            ],
            [
              85.81362947428448,
              25.287903794382597
            ],
            [
              85.81765078984034,
              25.287837750139698
            ],
            [
              85.8187579086308,
              25.287783955147436
            ],
            [
              85.82173175712435,
              25.28770380884132
            ],
            [
              85.82276438940809,
              25.287690653906136
            ],
            [
              85.82376479822423,
              25.287661658786547
            ],
            [
              85.82476520704041,
              25.28763265634988
            ],
            [
              85.8261303722861,
              25.287813642260147
            ],
            [
              85.82716287341577,
              25.288134458362176
            ],
            [
              85.82751042441268,
              25.28816169001639
            ],
            [
              85.82802169426844,
              25.288256590988084
            ],
            [
              85.82863734297031,
              25.28831096164143
            ],
            [
              85.828909369008,
              25.28835524032323
            ],
            [
              85.82947130564244,
              25.28844670460443
            ],
            [
              85.83000255762333,
              25.28844685730341
            ],
            [
              85.83097564507847,
              25.28821239999112
            ],
            [
              85.83185455675245,
              25.28789673689677
            ],
            [
              85.83291712090141,
              25.287454663256305
            ],
            [
              85.83334409464753,
              25.28728783327812
            ],
            [
              85.83371151997181,
              25.287220218646123
            ],
            [
              85.83392005667848,
              25.28723378624854
            ],
            [
              85.83414337067158,
              25.287301556822367
            ],
            [
              85.83440150875502,
              25.287414480349277
            ],
            [
              85.83487300839649,
              25.287784713773046
            ],
            [
              85.83540410766382,
              25.288091759388955
            ],
            [
              85.83587574295092,
              25.28831309374378
            ],
            [
              85.83672456375783,
              25.28865180676431
            ],
            [
              85.83728541792232,
              25.289162064682774
            ],
            [
              85.83772217881346,
              25.289437477269107
            ],
            [
              85.83836252399911,
              25.28996569328062
            ],
            [
              85.83875463772232,
              25.29026820039508
            ],
            [
              85.83914682420905,
              25.29041729561308
            ],
            [
              85.83971266312507,
              25.290760446374225
            ],
            [
              85.8402735370525,
              25.291135158670766
            ],
            [
              85.84065077916615,
              25.291383547837714
            ],
            [
              85.8410926182336,
              25.291523547392206
            ],
            [
              85.84144012431474,
              25.291577836172216
            ],
            [
              85.84167849497035,
              25.291577811805997
            ],
            [
              85.84247282397213,
              25.291519396197245
            ],
            [
              85.84326226524043,
              25.29137958100939
            ],
            [
              85.84415601708288,
              25.291257916924938
            ],
            [
              85.84479642515063,
              25.291217425013908
            ],
            [
              85.84552128293991,
              25.29122662166747
            ],
            [
              85.84625107517505,
              25.29131251527565
            ],
            [
              85.8472985628986,
              25.29160161517166
            ],
            [
              85.84810289374276,
              25.291714537131092
            ],
            [
              85.84860430907983,
              25.29174174767623
            ],
            [
              85.84919501426121,
              25.29186374265515
            ],
            [
              85.84981060816585,
              25.292053380350062
            ],
            [
              85.85064963643785,
              25.292595194203702
            ],
            [
              85.85087122386902,
              25.292699129056444
            ],
            [
              85.85096735258753,
              25.292744219147924
            ],
            [
              85.85136942503401,
              25.292784824257048
            ],
            [
              85.85173687461274,
              25.29275779669093
            ],
            [
              85.85222339498411,
              25.292563835939717
            ],
            [
              85.85273979422013,
              25.29232920221731
            ],
            [
              85.85302782643957,
              25.292202860794127
            ],
            [
              85.8535292274036,
              25.292094611899937
            ],
            [
              85.85407543723234,
              25.291995378382666
            ],
            [
              85.85471092702387,
              25.29201349623376
            ],
            [
              85.85530666187253,
              25.29210841693279
            ],
            [
              85.85560453693256,
              25.29229800226409
            ],
            [
              85.85610596394774,
              25.292451511739475
            ],
            [
              85.85659245018311,
              25.292577996663145
            ],
            [
              85.85715341573868,
              25.292726998074727
            ],
            [
              85.85751585990468,
              25.29276763973859
            ],
            [
              85.85801735788677,
              25.29283996771806
            ],
            [
              85.85848897520756,
              25.292921272885785
            ],
            [
              85.85908475676862,
              25.292948367015743
            ],
            [
              85.85982452928654,
              25.29298912312534
            ],
            [
              85.86139829142606,
              25.2930750512217
            ],
            [
              85.86188483695025,
              25.293142735686963
            ],
            [
              85.8624955592911,
              25.293282711280977
            ],
            [
              85.86313101404836,
              25.293571681401588
            ],
            [
              85.86403463388424,
              25.293734224913553
            ],
            [
              85.8647793336615,
              25.293747813716383
            ],
            [
              85.86494815584949,
              25.29376139439577
            ],
            [
              85.86476453661216,
              25.29280898312908
            ],
            [
              85.86466028532679,
              25.29227182171713
            ],
            [
              85.86462566784901,
              25.290976439628032
            ],
            [
              85.86455121008836,
              25.290407723654607
            ],
            [
              85.86452151717498,
              25.28946886720603
            ],
            [
              85.86458115722499,
              25.288439770608974
            ],
            [
              85.86450181532416,
              25.287830474971674
            ],
            [
              85.864501906054,
              25.287031535082786
            ],
            [
              85.86439771944734,
              25.285560081400124
            ],
            [
              85.86432338655256,
              25.28385851083459
            ],
            [
              85.86426405103141,
              25.282156874973367
            ],
            [
              85.86422932485743,
              25.281118743916753
            ],
            [
              85.8641847477581,
              25.280274674043174
            ],
            [
              85.86409540760815,
              25.279534459953574
            ],
            [
              85.86418977023885,
              25.279191429329593
            ],
            [
              85.86424938783101,
              25.27909211133645
            ],
            [
              85.86475079238829,
              25.279051543069826
            ],
            [
              85.8650088882509,
              25.279159897831175
            ],
            [
              85.86542094098014,
              25.27934040900988
            ],
            [
              85.86587264714267,
              25.279507497666764
            ],
            [
              85.86677123371801,
              25.27960235098626
            ],
            [
              85.86754564886657,
              25.279561704098306
            ],
            [
              85.86843919140156,
              25.27949406404001
            ],
            [
              85.86974479834396,
              25.279381268791763
            ],
            [
              85.87077740098324,
              25.279300053646224
            ],
            [
              85.87220212902388,
              25.279300113755653
            ],
            [
              85.87285741409102,
              25.279286610249002
            ],
            [
              85.87347292265571,
              25.2793001600562
            ],
            [
              85.87412328765005,
              25.279367880639217
            ],
            [
              85.87456510515793,
              25.279467145607864
            ],
            [
              85.87512603927246,
              25.279561900672018
            ],
            [
              85.87581114301716,
              25.27958897423015
            ],
            [
              85.87626291655332,
              25.279534805988355
            ],
            [
              85.87699264321144,
              25.279385864724382
            ],
            [
              85.8780549342726,
              25.279164683035912
            ],
            [
              85.87874993924834,
              25.2790112249755
            ],
            [
              85.8792960053466,
              25.27898413098116
            ],
            [
              85.87989174468684,
              25.278911902773398
            ],
            [
              85.88071083395282,
              25.27900218498028
            ],
            [
              85.88206107907995,
              25.279056215370357
            ],
            [
              85.88283551399142,
              25.27905621130889
            ],
            [
              85.88366957457993,
              25.27894333198745
            ],
            [
              85.88500986457709,
              25.278956807102087
            ],
            [
              85.88582893767338,
              25.278875496634157
            ],
            [
              85.88673748117532,
              25.279001817012087
            ],
            [
              85.8877203234361,
              25.27902882327501
            ],
            [
              85.88822178458726,
              25.278915939866618
            ],
            [
              85.88955708713796,
              25.278942881165264
            ],
            [
              85.89044080479871,
              25.27901499319687
            ],
            [
              85.89118041472159,
              25.27910967632027
            ],
            [
              85.89128970106411,
              25.279236099615233
            ],
            [
              85.89145358341635,
              25.279660371064825
            ],
            [
              85.89174152400761,
              25.28017036301496
            ],
            [
              85.89189549884057,
              25.280734519739255
            ],
            [
              85.89189562190978,
              25.28113625012315
            ],
            [
              85.89191061389354,
              25.28178171417947
            ],
            [
              85.89199016240691,
              25.28284239375744
            ],
            [
              85.89192568133582,
              25.2834245938333
            ],
            [
              85.89195556109878,
              25.283961722954636
            ],
            [
              85.89188129557763,
              25.285478328621505
            ],
            [
              85.89186646978217,
              25.2858529483981
            ],
            [
              85.8917622580227,
              25.286227619001174
            ],
            [
              85.89176227688729,
              25.286575170968465
            ],
            [
              85.89185660717868,
              25.286796293659826
            ],
            [
              85.8920205003107,
              25.287012882034638
            ],
            [
              85.89229359983514,
              25.287387497883618
            ],
            [
              85.8923532596481,
              25.28770795691794
            ],
            [
              85.89217459372126,
              25.28802391696811
            ],
            [
              85.89171785070494,
              25.28868750820535
            ],
            [
              85.89123646869702,
              25.289427753347756
            ],
            [
              85.89115701540506,
              25.289689558205698
            ],
            [
              85.89111236913546,
              25.290131946149614
            ],
            [
              85.89111240327144,
              25.290488527692208
            ],
            [
              85.89109752537372,
              25.29062837477158
            ],
            [
              85.89110663608731,
              25.290630782985943
            ],
            [
              85.89152457457831,
              25.290741205045077
            ],
            [
              85.89205580320302,
              25.29082240034696
            ],
            [
              85.89260688818881,
              25.29100288767226
            ],
            [
              85.89318286369448,
              25.291264556739357
            ],
            [
              85.89368431406584,
              25.291584987659878
            ],
            [
              85.89414116038841,
              25.29187384162016
            ],
            [
              85.89445895019998,
              25.29210846728945
            ],
            [
              85.89502997868335,
              25.292631951968847
            ],
            [
              85.89573007531014,
              25.29292072627614
            ],
            [
              85.89606272235817,
              25.293029044281823
            ],
            [
              85.89677767083155,
              25.29296125335509
            ],
            [
              85.89727909066022,
              25.29282576560303
            ],
            [
              85.89817761704843,
              25.29254578883234
            ],
            [
              85.89884282131294,
              25.292310927658278
            ],
            [
              85.90014855491776,
              25.291899978393936
            ],
            [
              85.9010867976213,
              25.29171924468091
            ],
            [
              85.90213435092188,
              25.291543111043733
            ],
            [
              85.90294355512647,
              25.291529357115575
            ],
            [
              85.90421454638766,
              25.29143433118835
            ],
            [
              85.90426917294009,
              25.29143437585982
            ],
            [
              85.90483509629775,
              25.291425214959165
            ],
            [
              85.90532164900844,
              25.291361917088466
            ],
            [
              85.90611109925992,
              25.29128045736748
            ],
            [
              85.90638408110507,
              25.291253405911977
            ],
            [
              85.90639898056237,
              25.291253335249714
            ],
            [
              85.90620030915413,
              25.290702767049325
            ],
            [
              85.90603631810578,
              25.29006188832789
            ],
            [
              85.90561389432656,
              25.288414449379307
            ],
            [
              85.90502240671259,
              25.285719934118113
            ],
            [
              85.90471922710083,
              25.284289187005097
            ],
            [
              85.90462468121378,
              25.283282667176152
            ],
            [
              85.90473384538542,
              25.28302089397477
            ],
            [
              85.90481320165931,
              25.282727476732244
            ],
            [
              85.90495207132078,
              25.28247016818556
            ],
            [
              85.90518536290173,
              25.28212714586253
            ],
            [
              85.90544337162774,
              25.28150872103375
            ],
            [
              85.90596444300157,
              25.280759328398968
            ],
            [
              85.90616495505783,
              25.280040800400304
            ],
            [
              85.90619747317278,
              25.27992427320793
            ],
            [
              85.90624704041353,
              25.279269807218842
            ],
            [
              85.90623700623182,
              25.27892678396952
            ],
            [
              85.90615253674731,
              25.278534088736965
            ],
            [
              85.90595374855809,
              25.27796545982352
            ],
            [
              85.90582455285394,
              25.277333505994946
            ],
            [
              85.90577980956628,
              25.2769408340363
            ],
            [
              85.90564068657989,
              25.276751353044553
            ],
            [
              85.90546195956762,
              25.276448977117923
            ],
            [
              85.90522859701973,
              25.276236853022233
            ],
            [
              85.9049703870711,
              25.27591646034889
            ],
            [
              85.90486110432184,
              25.27569983916481
            ],
            [
              85.90472696788362,
              25.275076968249998
            ],
            [
              85.90465232417168,
              25.27453083988376
            ],
            [
              85.90466712930592,
              25.27426448335296
            ],
            [
              85.90457278733645,
              25.273921466261456
            ],
            [
              85.90440883671226,
              25.273655227805293
            ],
            [
              85.90426488617955,
              25.273506342685703
            ],
            [
              85.90407626242776,
              25.273389000949987
            ],
            [
              85.90403651826466,
              25.273341615330562
            ],
            [
              85.90399677410154,
              25.27329423131726
            ],
            [
              85.90392224357736,
              25.27312274507906
            ],
            [
              85.90395692393723,
              25.272788722977804
            ],
            [
              85.90402642479414,
              25.27253595623961
            ],
            [
              85.90405111498973,
              25.272197434611414
            ],
            [
              85.90406094884712,
              25.271854379996114
            ],
            [
              85.9041453006523,
              25.271628720764465
            ],
            [
              85.90446286408839,
              25.271177246697068
            ],
            [
              85.90478051286443,
              25.27079349388155
            ],
            [
              85.9049788986084,
              25.27014356274246
            ],
            [
              85.90513259765858,
              25.2693716691365
            ],
            [
              85.9054153450892,
              25.26862691892577
            ],
            [
              85.90541513129016,
              25.26800847159606
            ],
            [
              85.90526121215274,
              25.267642982165572
            ],
            [
              85.90508731897502,
              25.267146503353295
            ],
            [
              85.90474477339085,
              25.26663197723447
            ],
            [
              85.9039900304487,
              25.265774602164658
            ],
            [
              85.90351341939325,
              25.26525104220969
            ],
            [
              85.90325516003726,
              25.26469596261276
            ],
            [
              85.90318555767074,
              25.26433037465858
            ],
            [
              85.90314078114541,
              25.263865463273
            ],
            [
              85.90302155404595,
              25.26326518532124
            ],
            [
              85.90303625138232,
              25.26262427540047
            ],
            [
              85.90298657903868,
              25.262317347314934
            ],
            [
              85.9028475611552,
              25.261996843156258
            ],
            [
              85.90269357284751,
              25.26166286274307
            ],
            [
              85.90254960075524,
              25.261396590087124
            ],
            [
              85.90237579022251,
              25.261180029917064
            ],
            [
              85.90221197614223,
              25.261044630159056
            ],
            [
              85.90184461819165,
              25.26081904425994
            ],
            [
              85.9012241697912,
              25.260503172602338
            ],
            [
              85.90101066809592,
              25.26037227937642
            ],
            [
              85.90101063216333,
              25.260254982625778
            ],
            [
              85.90103543375,
              25.26016920432908
            ],
            [
              85.90117440042951,
              25.26002025473546
            ],
            [
              85.9015863148182,
              25.259862140050483
            ],
            [
              85.90212732429976,
              25.25965893335017
            ],
            [
              85.90249457984241,
              25.25946481488147
            ],
            [
              85.90294112518362,
              25.259099090124803
            ],
            [
              85.90311481803705,
              25.258864343751593
            ],
            [
              85.90317430537348,
              25.258598047085474
            ],
            [
              85.90313957470796,
              25.258363377737002
            ],
            [
              85.9029260891824,
              25.25804295332179
            ],
            [
              85.90263065304838,
              25.257792485127272
            ],
            [
              85.90256363872818,
              25.257636811345517
            ],
            [
              85.90252392870106,
              25.25759163833741
            ],
            [
              85.90213668833826,
              25.257226125672688
            ],
            [
              85.90189835181866,
              25.25676582368466
            ],
            [
              85.90199259407511,
              25.256499427361124
            ],
            [
              85.90213651855667,
              25.256350513076043
            ],
            [
              85.90233498065747,
              25.256287244841936
            ],
            [
              85.90273703603592,
              25.25631876765833
            ],
            [
              85.90410196592299,
              25.256458481881765
            ],
            [
              85.90510947861642,
              25.25637249860499
            ],
            [
              85.90568520798371,
              25.256115084623172
            ],
            [
              85.90593329481742,
              25.255920979175965
            ],
            [
              85.90629551440458,
              25.255577824132196
            ],
            [
              85.90648408425746,
              25.255365667626194
            ],
            [
              85.90670744496295,
              25.255171556919006
            ],
            [
              85.90714410703943,
              25.254841953920238
            ],
            [
              85.907471615724,
              25.25469294904539
            ],
            [
              85.90809693209499,
              25.254629580015862
            ],
            [
              85.90844933129945,
              25.25456184481817
            ],
            [
              85.90864286614091,
              25.254471442875662
            ],
            [
              85.90920353794739,
              25.253830410983557
            ],
            [
              85.90963019728315,
              25.253207440856293
            ],
            [
              85.9098584394339,
              25.252977241841815
            ],
            [
              85.91035467418675,
              25.252679221646922
            ],
            [
              85.91103444912517,
              25.25195228569987
            ],
            [
              85.91164477441068,
              25.251374456903275
            ],
            [
              85.91346675633454,
              25.250000454368152
            ],
            [
              85.91436877177934,
              25.249210032222837
            ],
            [
              85.91497409794027,
              25.248699784262747
            ],
            [
              85.91528179428127,
              25.248677122974406
            ],
            [
              85.9157632930702,
              25.24877185901026
            ],
            [
              85.91619508987108,
              25.248884559201365
            ],
            [
              85.91652264436975,
              25.248861859760286
            ],
            [
              85.91707841496803,
              25.24863152413672
            ],
            [
              85.91814521916518,
              25.248076066325055
            ],
            [
              85.91895913323678,
              25.2478456276492
            ],
            [
              85.91976797811522,
              25.247637721647425
            ],
            [
              85.92032885204264,
              25.24766015319169
            ],
            [
              85.92093435786667,
              25.247890142094374
            ],
            [
              85.92134133960614,
              25.247867470905003
            ],
            [
              85.92169868044299,
              25.247731923868077
            ],
            [
              85.92189709942461,
              25.247591967231735
            ],
            [
              85.92207566294357,
              25.247339171601126
            ],
            [
              85.92212519694664,
              25.246969043112937
            ],
            [
              85.92200092401022,
              25.2464364628515
            ],
            [
              85.92184692043118,
              25.246066382801665
            ],
            [
              85.92179707201775,
              25.24556089435583
            ],
            [
              85.92195075669488,
              25.245190710887016
            ],
            [
              85.92210449616924,
              25.24496040080457
            ],
            [
              85.92243198329426,
              25.244730182912974
            ],
            [
              85.92276449020508,
              25.244707506258866
            ],
            [
              85.92324592162036,
              25.244797612397157
            ],
            [
              85.92375223457239,
              25.244982440396235
            ],
            [
              85.92433291365685,
              25.245189930057183
            ],
            [
              85.92476470776282,
              25.245167157611714
            ],
            [
              85.92507233403522,
              25.244936880797923
            ],
            [
              85.92539965587025,
              25.24443124708677
            ],
            [
              85.92580628277518,
              25.243600576672932
            ],
            [
              85.92600959308353,
              25.24318533074647
            ],
            [
              85.92641627388737,
              25.242675124926347
            ],
            [
              85.92661461741054,
              25.242192118304946
            ],
            [
              85.92676828232474,
              25.24188965387379
            ],
            [
              85.92656485074382,
              25.241776838314276
            ],
            [
              85.92615772976546,
              25.24156935501375
            ],
            [
              85.92537329390991,
              25.240599179750202
            ],
            [
              85.92371981527211,
              25.238361029383462
            ],
            [
              85.92220021256105,
              25.23575262477368
            ],
            [
              85.92179316524458,
              25.235292386069418
            ],
            [
              85.92144077142996,
              25.235220284637734
            ],
            [
              85.92118771421781,
              25.235197758975183
            ],
            [
              85.92067653868517,
              25.23510760996579
            ],
            [
              85.92014544929931,
              25.234967920757978
            ],
            [
              85.91966400620593,
              25.2347152703233
            ],
            [
              85.91943571824109,
              25.234485146787552
            ],
            [
              85.91905349586749,
              25.234205407615434
            ],
            [
              85.918676294178,
              25.234043001347793
            ],
            [
              85.91826936543913,
              25.233952884798427
            ],
            [
              85.91773337215014,
              25.233953022939243
            ],
            [
              85.91733140390824,
              25.233930574238247
            ],
            [
              85.9169492363319,
              25.233835940395842
            ],
            [
              85.91672090973948,
              25.233700535352167
            ],
            [
              85.91656698970377,
              25.23344783677819
            ],
            [
              85.91641807687742,
              25.233122936679003
            ],
            [
              85.91626415684169,
              25.232892723180896
            ],
            [
              85.91603577724871,
              25.232707741904854
            ],
            [
              85.91575786275432,
              25.23247761131867
            ],
            [
              85.91560389241293,
              25.232152673684684
            ],
            [
              85.91552940141463,
              25.231832202084945
            ],
            [
              85.91527620676023,
              25.231602160853726
            ],
            [
              85.915047920592,
              25.231552537256917
            ],
            [
              85.91456659158466,
              25.231647427223134
            ],
            [
              85.91390661461679,
              25.23167020788998
            ],
            [
              85.91365356818439,
              25.231625095112065
            ],
            [
              85.91349964635208,
              25.231485266197033
            ],
            [
              85.91342018497528,
              25.231300203956355
            ],
            [
              85.91337050724177,
              25.231092605259484
            ],
            [
              85.91337041471526,
              25.23079019690834
            ],
            [
              85.91341982744581,
              25.23021238531758
            ],
            [
              85.91344447901382,
              25.229639175297415
            ],
            [
              85.91332030668873,
              25.229223975940464
            ],
            [
              85.91301744418229,
              25.228831301199463
            ],
            [
              85.91253112144027,
              25.22850653259955
            ],
            [
              85.912000085055,
              25.22825385492325
            ],
            [
              85.9112159986441,
              25.228069019364707
            ],
            [
              85.91101250058784,
              25.22800133112218
            ],
            [
              85.91088340818993,
              25.227816352968844
            ],
            [
              85.9108585553993,
              25.227608666247846
            ],
            [
              85.91083365679455,
              25.22726110720556
            ],
            [
              85.91055571535071,
              25.226936244209124
            ],
            [
              85.9099949177801,
              25.22659331205602
            ],
            [
              85.90921083316582,
              25.22652124772313
            ],
            [
              85.90849311159316,
              25.22657415319832
            ],
            [
              85.90761302671939,
              25.226639022367372
            ],
            [
              85.90393618902382,
              25.22686995632831
            ],
            [
              85.90119716194216,
              25.227010434973877
            ],
            [
              85.90127570883398,
              25.22329563617763
            ],
            [
              85.90018413179627,
              25.22347641973841
            ],
            [
              85.8992710904297,
              25.223386278292054
            ],
            [
              85.8979313618796,
              25.223476794376122
            ],
            [
              85.89704320923627,
              25.22352199875715
            ],
            [
              85.89595162680865,
              25.223779503720262
            ],
            [
              85.89490956490943,
              25.223752481921082
            ],
            [
              85.89407591574933,
              25.223522397774623
            ],
            [
              85.89356978515532,
              25.223156879342376
            ],
            [
              85.8929593403939,
              25.22289965505655
            ],
            [
              85.89224982313473,
              25.22297199540398
            ],
            [
              85.89143610759082,
              25.223292588686125
            ],
            [
              85.89047353671272,
              25.22387040227481
            ],
            [
              85.88961019733418,
              25.22412325240311
            ],
            [
              85.88902967365826,
              25.224561164219423
            ],
            [
              85.8880919555708,
              25.225482007178798
            ],
            [
              85.88677208517838,
              25.226244923652278
            ],
            [
              85.88489648820509,
              25.226822771160684
            ],
            [
              85.88218223665895,
              25.22723821925714
            ],
            [
              85.88004355278335,
              25.22750005014143
            ],
            [
              85.87975577658378,
              25.22753172995074
            ],
            [
              85.8787633501972,
              25.22765359767295
            ],
            [
              85.8783266189505,
              25.22782058516759
            ],
            [
              85.87812317030156,
              25.227933446184668
            ],
            [
              85.87772129638282,
              25.228163631691462
            ],
            [
              85.8777213314171,
              25.228646630669648
            ],
            [
              85.87817793699118,
              25.232361305828825
            ],
            [
              85.87835661010456,
              25.23603088717923
            ],
            [
              85.87790014376935,
              25.236008368167507
            ],
            [
              85.87701178361523,
              25.23593615339931
            ],
            [
              85.87638161095181,
              25.235845848922054
            ],
            [
              85.87615330142744,
              25.235778195886965
            ],
            [
              85.87599941912094,
              25.23563823929766
            ],
            [
              85.87589529270143,
              25.235453150875244
            ],
            [
              85.87574638885822,
              25.23512821306823
            ],
            [
              85.87554292403962,
              25.234852883661286
            ],
            [
              85.87513600877551,
              25.234667837922895
            ],
            [
              85.87369191126074,
              25.234369872770223
            ],
            [
              85.87224784159375,
              25.234252488344328
            ],
            [
              85.8719897969351,
              25.234320226737932
            ],
            [
              85.87209399521987,
              25.23676662104977
            ],
            [
              85.87204434263916,
              25.23785440867091
            ],
            [
              85.8709773713554,
              25.237922106866776
            ],
            [
              85.86778139374658,
              25.238084471386568
            ],
            [
              85.86560285341844,
              25.23792183790721
            ],
            [
              85.86177181092121,
              25.23750626136397
            ],
            [
              85.85837249335962,
              25.237022948987764
            ],
            [
              85.85814419820827,
              25.237347967862558
            ],
            [
              85.8577421652877,
              25.237853410025934
            ],
            [
              85.8571565490624,
              25.23780824672562
            ],
            [
              85.85566285825576,
              25.23752814223133
            ],
            [
              85.85444217624371,
              25.237090224296598
            ],
            [
              85.85347954697512,
              25.236512263068256
            ],
            [
              85.85279481603128,
              25.236006704817395
            ],
            [
              85.85119699341521,
              25.235338375889718
            ],
            [
              85.8494998764175,
              25.235085341872
            ],
            [
              85.84721716924567,
              25.23503982731872
            ],
            [
              85.84536617173812,
              25.23496722030852
            ],
            [
              85.84463179540009,
              25.234876781847202
            ],
            [
              85.84424974819797,
              25.23469166463742
            ],
            [
              85.84412574655276,
              25.234461432982503
            ],
            [
              85.84412577260392,
              25.234091309153854
            ],
            [
              85.84424995031891,
              25.233630956897485
            ],
            [
              85.84442877255262,
              25.23300813836593
            ],
            [
              85.84475646629018,
              25.232200290715117
            ],
            [
              85.84475661810545,
              25.231785018030212
            ],
            [
              85.84445405294133,
              25.231184619751996
            ],
            [
              85.84385878970822,
              25.230295330038697
            ],
            [
              85.84366546417424,
              25.229523409111838
            ],
            [
              85.84370523798177,
              25.22924362114287
            ],
            [
              85.84380956472558,
              25.228981855772275
            ],
            [
              85.84398330069816,
              25.22853949935152
            ],
            [
              85.84420174582243,
              25.228219120620317
            ],
            [
              85.84447975374164,
              25.227803944856852
            ],
            [
              85.84459401136091,
              25.227320940093737
            ],
            [
              85.8445791693958,
              25.227032147075946
            ],
            [
              85.8444949280834,
              25.226671024207118
            ],
            [
              85.84422695075268,
              25.22647686766436
            ],
            [
              85.84393421315778,
              25.22635042113949
            ],
            [
              85.84364153125844,
              25.226291696220766
            ],
            [
              85.84350256727389,
              25.226395441607625
            ],
            [
              85.84347397120345,
              25.226430079726875
            ],
            [
              85.8434280556143,
              25.226485697031702
            ],
            [
              85.84345289942179,
              25.22656697837761
            ],
            [
              85.84379517910463,
              25.226892013827616
            ],
            [
              85.84406306840044,
              25.227190011120694
            ],
            [
              85.84407287441009,
              25.227433708121293
            ],
            [
              85.84394879191652,
              25.22775870712409
            ],
            [
              85.84368075439868,
              25.228137750176494
            ],
            [
              85.84317455643101,
              25.228381381080055
            ],
            [
              85.84263853978584,
              25.228439939213164
            ],
            [
              85.84199349012303,
              25.228345041055398
            ],
            [
              85.8413088615871,
              25.227974696261754
            ],
            [
              85.84055966214858,
              25.227505147808834
            ],
            [
              85.84008502738676,
              25.22730031697766
            ],
            [
              85.83988985581485,
              25.227216090308435
            ],
            [
              85.83936894703612,
              25.227053529242603
            ],
            [
              85.83868426639793,
              25.226638114646182
            ],
            [
              85.83829238533836,
              25.226258861320478
            ],
            [
              85.83788565692382,
              25.225541058360907
            ],
            [
              85.83744433438768,
              25.224620176028502
            ],
            [
              85.83743919512591,
              25.224611756916815
            ],
            [
              85.83692355676293,
              25.223766931851504
            ],
            [
              85.83681914827241,
              25.223406487613392
            ],
            [
              85.8363783332844,
              25.221884658948873
            ],
            [
              85.83608597388024,
              25.220927653746802
            ],
            [
              85.83596192013276,
              25.220810285601328
            ],
            [
              85.83575852538276,
              25.22070637779019
            ],
            [
              85.8356195613982,
              25.220674762842975
            ],
            [
              85.83540124383471,
              25.220616065253132
            ],
            [
              85.83523758516297,
              25.22049865536018
            ],
            [
              85.83514833035296,
              25.22038580288493
            ],
            [
              85.83491041424493,
              25.219519070865395
            ],
            [
              85.83487828330384,
              25.219218897894386
            ],
            [
              85.83484615326107,
              25.2189187258081
            ],
            [
              85.83475717782711,
              25.21788061010094
            ],
            [
              85.83470767885835,
              25.217429190669897
            ],
            [
              85.83473296912854,
              25.215962255923245
            ],
            [
              85.83470864005571,
              25.215804643064228
            ],
            [
              85.8346835132789,
              25.21564185381602
            ],
            [
              85.83457924043395,
              25.21560563676883
            ],
            [
              85.83441716279714,
              25.215644414682593
            ],
            [
              85.83439071280193,
              25.215650743298074
            ],
            [
              85.83412278577687,
              25.215768001828458
            ],
            [
              85.83384486319763,
              25.21587181714453
            ],
            [
              85.83333880716378,
              25.215916765095912
            ],
            [
              85.83259942990455,
              25.215988763380004
            ],
            [
              85.83191474118155,
              25.21598859108479
            ],
            [
              85.83115560188436,
              25.215916131991953
            ],
            [
              85.83054535565064,
              25.21581215985982
            ],
            [
              85.83007898988097,
              25.215640519337125
            ],
            [
              85.82964749581234,
              25.215351496220624
            ],
            [
              85.8293052026548,
              25.21510760515516
            ],
            [
              85.82914152961004,
              25.215075969247746
            ],
            [
              85.82878429926595,
              25.21507584815258
            ],
            [
              85.82825341918755,
              25.2150079811956
            ],
            [
              85.82766799789667,
              25.214800172640253
            ],
            [
              85.82693376079753,
              25.214429823178783
            ],
            [
              85.82632371758301,
              25.214036977955264
            ],
            [
              85.8258673033501,
              25.213874342385783
            ],
            [
              85.8252321818678,
              25.213964377911253
            ],
            [
              85.82348555691816,
              25.214148868363612
            ],
            [
              85.82294971005457,
              25.214288534346824
            ],
            [
              85.82228935579427,
              25.215236169120075
            ],
            [
              85.82183271967747,
              25.215673807347976
            ],
            [
              85.8215546650459,
              25.216089029392148
            ],
            [
              85.82175735282176,
              25.2177275313512
            ],
            [
              85.8220348891254,
              25.218603266175254
            ],
            [
              85.82241688781849,
              25.218671143317195
            ],
            [
              85.82262027358537,
              25.2187433748401
            ],
            [
              85.82279874367948,
              25.21924900974084
            ],
            [
              85.82297204037589,
              25.220106666798255
            ],
            [
              85.82325432966572,
              25.22139762011664
            ],
            [
              85.82305078399875,
              25.221465255959824
            ],
            [
              85.82236602610544,
              25.22158242274241
            ],
            [
              85.8208674287007,
              25.221789441983688
            ],
            [
              85.81830197769149,
              25.22213609509226
            ],
            [
              85.81690755701194,
              25.222388332008975
            ],
            [
              85.81683314865862,
              25.222230260189132
            ],
            [
              85.81678370269046,
              25.22188267602472
            ],
            [
              85.81672939773489,
              25.22135003786477
            ],
            [
              85.81645152007144,
              25.221395127636015
            ],
            [
              85.81487846490603,
              25.22167435828711
            ],
            [
              85.81102262711033,
              25.22252575938096
            ],
            [
              85.80891607776907,
              25.222903975194463
            ],
            [
              85.80680951764802,
              25.223282162201286
            ],
            [
              85.80541497569592,
              25.22358394965793
            ],
            [
              85.80450179688711,
              25.22395363981591
            ],
            [
              85.8033849825798,
              25.224458654131222
            ],
            [
              85.80249668710434,
              25.224688394378756
            ],
            [
              85.80204023424389,
              25.224620404384698
            ],
            [
              85.80122652858141,
              25.2243898732934
            ],
            [
              85.80087440965129,
              25.224159470977842
            ],
            [
              85.80069588296332,
              25.223951787763756
            ],
            [
              85.80036399409339,
              25.22311657032326
            ],
            [
              85.8000376092012,
              25.221225208115598
            ],
            [
              85.7998599808285,
              25.21963176485768
            ],
            [
              85.79972646243118,
              25.218823800716702
            ],
            [
              85.79959852796169,
              25.218033102701717
            ],
            [
              85.7995584783714,
              25.21778557204679
            ],
            [
              85.79952942056688,
              25.216630003786477
            ],
            [
              85.7995593030248,
              25.21646753422488
            ],
            [
              85.79988674972564,
              25.21637745991611
            ],
            [
              85.80024405822317,
              25.216400226376248
            ],
            [
              85.80025048836397,
              25.21606827433765
            ],
            [
              85.80026959103849,
              25.215082207680947
            ],
            [
              85.80039481439248,
              25.213213652604214
            ],
            [
              85.80034529116915,
              25.21305117035355
            ],
            [
              85.7993331557453,
              25.213073201912977
            ],
            [
              85.79785941921602,
              25.213212379866285
            ],
            [
              85.7972790787964,
              25.213049551389744
            ],
            [
              85.79677323835824,
              25.212679196600153
            ],
            [
              85.79600931643053,
              25.212331208037867
            ],
            [
              85.79512125092378,
              25.212263023394996
            ],
            [
              85.79408423755642,
              25.212352717950182
            ],
            [
              85.79271470829507,
              25.21265441467256
            ],
            [
              85.79098782292552,
              25.212928794672322
            ],
            [
              85.78976723433826,
              25.21302282710571
            ],
            [
              85.78926103637059,
              25.21316243261371
            ],
            [
              85.78895821069506,
              25.21348275835126
            ],
            [
              85.7888835283556,
              25.213897956175973
            ],
            [
              85.7889328171186,
              25.21431326799086
            ],
            [
              85.78923502295657,
              25.215008580170057
            ],
            [
              85.78943741878,
              25.216462006171266
            ],
            [
              85.7891832719114,
              25.21796045221659
            ],
            [
              85.78921726056848,
              25.219359928254175
            ],
            [
              85.78923150605225,
              25.219946441644243
            ],
            [
              85.7894586019527,
              25.221562511370113
            ],
            [
              85.7898646907668,
              25.222785906810905
            ],
            [
              85.78983951278602,
              25.223223724297092
            ],
            [
              85.7898392998853,
              25.223616416331712
            ],
            [
              85.78961048910095,
              25.22437907308033
            ],
            [
              85.7893568102546,
              25.225186853232277
            ],
            [
              85.78912789706234,
              25.226179760095487
            ],
            [
              85.78925166514554,
              25.226572475091565
            ],
            [
              85.78965800458958,
              25.2273806949393
            ],
            [
              85.79014331403194,
              25.228816300096703
            ],
            [
              85.7903162666736,
              25.229877060404498
            ],
            [
              85.79049399116602,
              25.231077815714922
            ],
            [
              85.79079619430908,
              25.23181818216957
            ],
            [
              85.79122754644389,
              25.23241874390294
            ],
            [
              85.79204059364123,
              25.233502525326134
            ],
            [
              85.79252135491332,
              25.23437843665998
            ],
            [
              85.79269948724092,
              25.2352089832092
            ],
            [
              85.79269900125232,
              25.235971792336574
            ],
            [
              85.792710796132,
              25.236205356764266
            ],
            [
              85.792751725173,
              25.237015818662538
            ],
            [
              85.79273484762544,
              25.237910448160083
            ],
            [
              85.79269729265667,
              25.238395661656217
            ],
            [
              85.79279524226028,
              25.24044941392389
            ],
            [
              85.79330066857514,
              25.241514873230717
            ],
            [
              85.79388596679682,
              25.242043275048406
            ],
            [
              85.79429274731366,
              25.242160910337866
            ],
            [
              85.79505210759636,
              25.242093606146685
            ],
            [
              85.79548384959999,
              25.242116361292258
            ],
            [
              85.79560760870008,
              25.242644512671514
            ],
            [
              85.79578502417208,
              25.244517779143273
            ],
            [
              85.7959872690785,
              25.246481361317382
            ],
            [
              85.79477132028968,
              25.24645356536722
            ],
            [
              85.79383344140383,
              25.24631768768616
            ],
            [
              85.79317350036857,
              25.246087101048175
            ],
            [
              85.79276670637698,
              25.24587925785088
            ],
            [
              85.79236005611585,
              25.245486310278963
            ],
            [
              85.79167568000653,
              25.24474571019064
            ],
            [
              85.7914474504322,
              25.244583118125956
            ],
            [
              85.79121922804438,
              25.24456039188053
            ],
            [
              85.7907873602766,
              25.244609859850556
            ],
            [
              85.79033081488964,
              25.244654699677305
            ],
            [
              85.78984942479686,
              25.244631884880402
            ],
            [
              85.78954182367728,
              25.24451432835999
            ],
            [
              85.7887085275551,
              25.243845814642743
            ],
            [
              85.78817403714757,
              25.24323226661669
            ],
            [
              85.78764238092477,
              25.24262196725889
            ],
            [
              85.7863481879764,
              25.241050499360686
            ],
            [
              85.78581752439196,
              25.240702656163418
            ],
            [
              85.78556441687414,
              25.240657324099214
            ],
            [
              85.78502849095881,
              25.240539687354364
            ],
            [
              85.78386250736442,
              25.24028620426023
            ],
            [
              85.78292474166628,
              25.24005536159898
            ],
            [
              85.78109880715515,
              25.239638944855333
            ],
            [
              85.78056542526869,
              25.239476120880084
            ],
            [
              85.78003204517886,
              25.239313294249055
            ],
            [
              85.77881659136179,
              25.23880699034148
            ],
            [
              85.77856353504794,
              25.238806884708584
            ],
            [
              85.77831023798555,
              25.239059421819018
            ],
            [
              85.77815621284697,
              25.239312146918067
            ],
            [
              85.77757077269145,
              25.23910404917825
            ],
            [
              85.77584894663359,
              25.23887272161093
            ],
            [
              85.77422118676233,
              25.238894257706825
            ],
            [
              85.77325851976451,
              25.23880328506452
            ],
            [
              85.77287638093424,
              25.238775912327508
            ],
            [
              85.77282657204668,
              25.23896096400069
            ],
            [
              85.77290555102812,
              25.23953878438943
            ],
            [
              85.77318203720122,
              25.24124963709131
            ],
            [
              85.77323078338179,
              25.24228779869035
            ],
            [
              85.77348228920349,
              25.244133977014165
            ],
            [
              85.77373264158831,
              25.245358420995398
            ],
            [
              85.7739124079514,
              25.246237622061955
            ],
            [
              85.7740403900316,
              25.247483485980755
            ],
            [
              85.77396531961998,
              25.248246304193433
            ],
            [
              85.77401424187032,
              25.249099362750968
            ],
            [
              85.77421721171721,
              25.249699791972013
            ],
            [
              85.77428974079491,
              25.250001436663588
            ],
            [
              85.77463730257162,
              25.25184578915287
            ],
            [
              85.77452237930068,
              25.25272132616677
            ],
            [
              85.77461655867508,
              25.25293348729168
            ],
            [
              85.77536588836932,
              25.253042369096356
            ],
            [
              85.77607552061284,
              25.25316924770998
            ],
            [
              85.77625408233514,
              25.253313754217604
            ],
            [
              85.7762533115806,
              25.2542526312233
            ],
            [
              85.77601430132452,
              25.255195764715246
            ],
            [
              85.77544777160408,
              25.25613428432138
            ],
            [
              85.77526349300334,
              25.25690594767583
            ],
            [
              85.77554088108496,
              25.257592229790156
            ],
            [
              85.7762003729626,
              25.258405113068186
            ],
            [
              85.77709243058244,
              25.259989950696042
            ],
            [
              85.77709223564804,
              25.260247289033856
            ],
            [
              85.77680920884137,
              25.260459212785072
            ],
            [
              85.77624837533811,
              25.26033239703157
            ],
            [
              85.77544461402589,
              25.259943694795872
            ],
            [
              85.7749758012454,
              25.2596861226498
            ],
            [
              85.77450699026154,
              25.259428549957388
            ],
            [
              85.77290891971043,
              25.259215273345927
            ],
            [
              85.7706456844207,
              25.259042221172763
            ],
            [
              85.76829292302975,
              25.259171416240328
            ],
            [
              85.76514131770436,
              25.259038179356356
            ],
            [
              85.76415867127633,
              25.258865981603588
            ],
            [
              85.76389846077957,
              25.25847987200998
            ],
            [
              85.76363825297773,
              25.25809376200115
            ],
            [
              85.76265160365678,
              25.256896861350018
            ],
            [
              85.76208638817158,
              25.256255548966756
            ],
            [
              85.76067684704917,
              25.256168688918596
            ],
            [
              85.75907874056547,
              25.256122308883697
            ],
            [
              85.75752503780625,
              25.256337686218906
            ],
            [
              85.75629910693802,
              25.25633675515867
            ],
            [
              85.75329524123923,
              25.256355379611932
            ],
            [
              85.7505117942634,
              25.256372586348864
            ],
            [
              85.7500017802524,
              25.256387952899658
            ],
            [
              85.74771192967741,
              25.256505614922332
            ],
            [
              85.74658527073292,
              25.25657424922161
            ],
            [
              85.74602947857504,
              25.256628852617467
            ],
            [
              85.74537940283824,
              25.2567467622012
            ],
            [
              85.74481377682297,
              25.256936808193476
            ],
            [
              85.74428280331976,
              25.257059065650033
            ],
            [
              85.7432902341011,
              25.25719978563217
            ],
            [
              85.74210906808008,
              25.25735415195108
            ],
            [
              85.74085345956982,
              25.257409362698656
            ],
            [
              85.74049213739958,
              25.257415057064687
            ],
            [
              85.73995006341445,
              25.257423598207026
            ],
            [
              85.73930991855309,
              25.257559533335293
            ],
            [
              85.7391512688874,
              25.257731090305153
            ],
            [
              85.73908206267791,
              25.25802909972916
            ],
            [
              85.73909250199982,
              25.258566167392132
            ],
            [
              85.73916247626889,
              25.259116834298272
            ],
            [
              85.739208092719,
              25.26010300525442
            ],
            [
              85.73925371096577,
              25.26108917713806
            ],
            [
              85.73947879194505,
              25.262975710001786
            ],
            [
              85.73964398493925,
              25.264469585731607
            ],
            [
              85.73958508240607,
              25.26510601535753
            ],
            [
              85.73940691594251,
              25.265733569638652
            ],
            [
              85.73913961504323,
              25.2664920106947
            ],
            [
              85.73883751340978,
              25.267187399735782
            ],
            [
              85.73873866099927,
              25.267711070757542
            ],
            [
              85.73870946575255,
              25.268306849791447
            ],
            [
              85.7387496932093,
              25.268920648093488
            ],
            [
              85.73892914426371,
              25.26968787190667
            ],
            [
              85.73907858799437,
              25.270274522606766
            ],
            [
              85.73918824983268,
              25.27069415114315
            ],
            [
              85.73923363002588,
              25.271511063649317
            ],
            [
              85.73923437113602,
              25.27232353205025
            ],
            [
              85.73929460407415,
              25.273000527355965
            ],
            [
              85.73925025155361,
              25.27335265407842
            ],
            [
              85.73908664767909,
              25.273578435203113
            ],
            [
              85.73884840997417,
              25.2736463766834
            ],
            [
              85.7378905453699,
              25.27376893168403
            ],
            [
              85.73574117423733,
              25.273829269682413
            ],
            [
              85.73452987512846,
              25.27378954203899
            ],
            [
              85.73400854503983,
              25.273663534667126
            ],
            [
              85.73319914320591,
              25.273393294110743
            ],
            [
              85.73224578634772,
              25.273014813025473
            ],
            [
              85.73152584773291,
              25.272879957733036
            ],
            [
              85.73103440818706,
              25.27290742595107
            ],
            [
              85.73041921403272,
              25.273232789095815
            ],
            [
              85.72970976774047,
              25.27371173979904
            ],
            [
              85.7292779960924,
              25.273892582388697
            ],
            [
              85.72891572170798,
              25.273960613048914
            ],
            [
              85.72848377129519,
              25.273920233150857
            ],
            [
              85.72839929821747,
              25.273894703371894
            ],
            [
              85.72811136301608,
              25.273807678856
            ],
            [
              85.72762979775185,
              25.273659057117563
            ],
            [
              85.72687021199197,
              25.27356483114333
            ],
            [
              85.72616495544219,
              25.273213191622506
            ],
            [
              85.72552424643885,
              25.272681070070096
            ],
            [
              85.72474416831072,
              25.27178340667158
            ],
            [
              85.72426722128536,
              25.271336847855608
            ],
            [
              85.72395442431016,
              25.27126037303747
            ],
            [
              85.72332895971718,
              25.271247199260014
            ],
            [
              85.7227878891502,
              25.271206941935375
            ],
            [
              85.72231120712783,
              25.27105834706877
            ],
            [
              85.72178968569806,
              25.270706562186497
            ],
            [
              85.72077142556059,
              25.269809074274598
            ],
            [
              85.72036897672004,
              25.269362426146422
            ],
            [
              85.72023316761876,
              25.269067040836813
            ],
            [
              85.72008063278518,
              25.26873527730899
            ],
            [
              85.71777057640455,
              25.2684717651369
            ],
            [
              85.71662414374399,
              25.26853407574639
            ],
            [
              85.71324487568123,
              25.268833614324425
            ],
            [
              85.70954840620342,
              25.26925135261337
            ],
            [
              85.70814565095468,
              25.26977479295838
            ],
            [
              85.70815059977359,
              25.27111077336594
            ],
            [
              85.70889689406047,
              25.274209264023966
            ],
            [
              85.70876897037077,
              25.274498528157398
            ],
            [
              85.71018905322305,
              25.27855625870086
            ],
            [
              85.71167878605256,
              25.285222544005695
            ],
            [
              85.71207289044244,
              25.288353701148925
            ],
            [
              85.71192073020634,
              25.290123435736646
            ],
            [
              85.71183281568274,
              25.29182981763136
            ],
            [
              85.71369687738947,
              25.295015081670456
            ],
            [
              85.71529631517643,
              25.296517540718558
            ],
            [
              85.71867985472836,
              25.298420515620656
            ],
            [
              85.71928275813299,
              25.298978311903753
            ],
            [
              85.71941470717348,
              25.29972262320437
            ],
            [
              85.71941805609286,
              25.30058912891617
            ],
            [
              85.71905584638716,
              25.301935329371045
            ],
            [
              85.71923429761668,
              25.303148911159848
            ],
            [
              85.72005988978697,
              25.304793741954946
            ],
            [
              85.72049987922325,
              25.306873041246238
            ],
            [
              85.72089366021962,
              25.308559787259387
            ],
            [
              85.72184638286723,
              25.3096535752328
            ],
            [
              85.72314767609959,
              25.312307815081052
            ],
            [
              85.72371367042413,
              25.31610187293701
            ],
            [
              85.72573171055707,
              25.319155457317336
            ],
            [
              85.72690389073031,
              25.321742395403273
            ],
            [
              85.72781460276535,
              25.323490701933952
            ],
            [
              85.72788460667878,
              25.32362140524263
            ],
            [
              85.72821457495066,
              25.325443772211944
            ],
            [
              85.7276409099119,
              25.32732773120461
            ],
            [
              85.72745416274073,
              25.329097623322262
            ],
            [
              85.72960190612598,
              25.332209449746145
            ],
            [
              85.73058613628386,
              25.333308383663354
            ],
            [
              85.73155842064513,
              25.333055161774098
            ],
            [
              85.73256634027535,
              25.332770114893435
            ],
            [
              85.73344525015271,
              25.33257541763042
            ],
            [
              85.73466717722975,
              25.332795668809844
            ],
            [
              85.73547699139039,
              25.333016254103523
            ],
            [
              85.7364657849899,
              25.333462298293572
            ],
            [
              85.73747382858768,
              25.333384800665275
            ],
            [
              85.73838258409204,
              25.333253264304336
            ],
            [
              85.73934584128298,
              25.332981692682086
            ],
            [
              85.73950899959311,
              25.33287675067777
            ],
            [
              85.73988684267968,
              25.3326337273805
            ]
          ]
        ]
      }
    }
  ]
}