{
  "type": "FeatureCollection",
  "features": [
    {
      "type": "Feature",
      "properties": {
        "object_id": "10-233-01453",
        "stname": "BIHAR",
        "dtname": "Kaimur (Bhabua)",
        "sdtname": "Bhabua",
        "st_area_sh": 0.0,
        "st_length_": 0.0,
        "remarks": "",
        "dist_lgd": 200,
        "state_lgd": 10,
        "subdt_lgd": 1453,
        "ac_no": null,
        "st_length(shape)": 143727.89821118704,
        "st_area(shape)": 407618990.38615096
      },
      "geometry": {
        "type": "Polygon",
        "coordinates": [
          [
            [
              83.54427774531246,
              25.173411514703254
            ],
            [
              83.54508154615058,
              25.173181594763093
            ],
            [
              83.54648525091862,
              25.17334444402716
            ],
            [
              83.54740766710349,
              25.173701186137684
            ],
            [
              83.54819159810583,
              25.173525451354458
            ],
            [
              83.5487771891783,
              25.173006625076958
            ],
            [
              83.54922437861158,
              25.171472146065366
            ],
            [
              83.5496564251441,
              25.17069145204104
            ],
            [
              83.54991948689357,
              25.170389139163483
            ],
            [
              83.55042556269036,
              25.170208696292757
            ],
            [
              83.55102058697166,
              25.170524761794745
            ],
            [
              83.55166505991603,
              25.171183900236056
            ],
            [
              83.5516300642475,
              25.171896997684136
            ],
            [
              83.55204124111935,
              25.172759107765057
            ],
            [
              83.5525670996153,
              25.172894619630814
            ],
            [
              83.55354920885082,
              25.172795583082134
            ],
            [
              83.55404075170293,
              25.171942648858458
            ],
            [
              83.55397682309575,
              25.17078729433755
            ],
            [
              83.554299968663,
              25.169311460961932
            ],
            [
              83.55487077705916,
              25.16873842759829
            ],
            [
              83.55559484343267,
              25.168765663238293
            ],
            [
              83.55610039730827,
              25.16980834163236
            ],
            [
              83.55624373968152,
              25.170850884279613
            ],
            [
              83.55668504694631,
              25.171130913778303
            ],
            [
              83.55734996824151,
              25.17082855320957
            ],
            [
              83.55744500910026,
              25.16908643827684
            ],
            [
              83.55736129779388,
              25.167804716844522
            ],
            [
              83.55758956330082,
              25.16738496822462
            ],
            [
              83.5580560952588,
              25.167100768173785
            ],
            [
              83.55887461858612,
              25.16686624834241
            ],
            [
              83.55957378276165,
              25.167254577255576
            ],
            [
              83.5605948510327,
              25.168784702734897
            ],
            [
              83.56130892544532,
              25.169448282375992
            ],
            [
              83.56228576785831,
              25.169935882672597
            ],
            [
              83.56336713194959,
              25.170089449150396
            ],
            [
              83.56409642561974,
              25.169660822874214
            ],
            [
              83.56425051004713,
              25.168880112373497
            ],
            [
              83.563656209808,
              25.168290307395548
            ],
            [
              83.56364558183989,
              25.168279758311026
            ],
            [
              83.56272824203467,
              25.167575530259125
            ],
            [
              83.56217284872879,
              25.16727756184992
            ],
            [
              83.56190040227953,
              25.166596001337428
            ],
            [
              83.56190564215257,
              25.166122141171687
            ],
            [
              83.56242169643555,
              25.165431652597686
            ],
            [
              83.5644608083501,
              25.164195401287408
            ],
            [
              83.56646993270385,
              25.163405894216858
            ],
            [
              83.56761593507137,
              25.163035983642388
            ],
            [
              83.56903466416252,
              25.162359254272115
            ],
            [
              83.56956457495873,
              25.161634117121906
            ],
            [
              83.56956564664887,
              25.161632650332972
            ],
            [
              83.57005183464356,
              25.161384493620123
            ],
            [
              83.57027060405964,
              25.160089258242785
            ],
            [
              83.57155078598454,
              25.158487175193482
            ],
            [
              83.57245860993594,
              25.15802247399227
            ],
            [
              83.57354100888641,
              25.158000103170526
            ],
            [
              83.5735447836072,
              25.158000025926007
            ],
            [
              83.5743482179327,
              25.158153552956204
            ],
            [
              83.57536995005877,
              25.15800018366744
            ],
            [
              83.5771208411077,
              25.157436254331976
            ],
            [
              83.57834112696267,
              25.157260354628583
            ],
            [
              83.57928333932149,
              25.157377706772667
            ],
            [
              83.58038431992357,
              25.157716326017535
            ],
            [
              83.58111822644271,
              25.158181200761913
            ],
            [
              83.58235804616356,
              25.15856031974074
            ],
            [
              83.58277948359259,
              25.15852873582036
            ],
            [
              83.58278390240548,
              25.15852877972756
            ],
            [
              83.5832458062431,
              25.158533354208984
            ],
            [
              83.58438666485729,
              25.157973795313072
            ],
            [
              83.58514545021822,
              25.158000873176352
            ],
            [
              83.58633072243838,
              25.158217443827805
            ],
            [
              83.58665800384921,
              25.158438633300065
            ],
            [
              83.58698528705668,
              25.158659820745076
            ],
            [
              83.58756550710206,
              25.158849397119575
            ],
            [
              83.58823016698751,
              25.158853926055667
            ],
            [
              83.58875593475364,
              25.158352901926925
            ],
            [
              83.58864697899115,
              25.157693983598225
            ],
            [
              83.5881760937973,
              25.156755321022285
            ],
            [
              83.58774472279788,
              25.15616408324848
            ],
            [
              83.5875315849203,
              25.155559335933756
            ],
            [
              83.58753671160565,
              25.15513959965019
            ],
            [
              83.58753670172418,
              25.154886874625543
            ],
            [
              83.58811214542719,
              25.15449882995896
            ],
            [
              83.5891189179088,
              25.154607042820725
            ],
            [
              83.58997683236133,
              25.15503591877799
            ],
            [
              83.5909685320108,
              25.155794071840543
            ],
            [
              83.59162803197327,
              25.156240780048122
            ],
            [
              83.59198507097621,
              25.15638980303196
            ],
            [
              83.5927834962957,
              25.156398806608163
            ],
            [
              83.59339863026293,
              25.156001634673558
            ],
            [
              83.59388471405305,
              25.155586456614966
            ],
            [
              83.59453945294452,
              25.155297604056145
            ],
            [
              83.59566023511043,
              25.155419718890258
            ],
            [
              83.59703894335733,
              25.15572719881924
            ],
            [
              83.59750504771725,
              25.15574998962519
            ],
            [
              83.59814990064899,
              25.15562822069592
            ],
            [
              83.59899796327781,
              25.155294427203522
            ],
            [
              83.59960806937437,
              25.154766369239077
            ],
            [
              83.60019835594082,
              25.154116402759126
            ],
            [
              83.60054061226747,
              25.153421270736075
            ],
            [
              83.6005307999696,
              25.152486832059076
            ],
            [
              83.60072941298732,
              25.151191073687432
            ],
            [
              83.60093781404844,
              25.150590740707962
            ],
            [
              83.60144367065627,
              25.150193531978058
            ],
            [
              83.60214300191845,
              25.149828133380062
            ],
            [
              83.60316958943861,
              25.149584615293552
            ],
            [
              83.60406915697423,
              25.149431937801364
            ],
            [
              83.60407216543213,
              25.149431427951786
            ],
            [
              83.605718606668,
              25.149635032594414
            ],
            [
              83.60681948126891,
              25.149955858756744
            ],
            [
              83.60778156526011,
              25.149951635236167
            ],
            [
              83.60855284618663,
              25.14976730777551
            ],
            [
              83.60855517282322,
              25.14976675239064
            ],
            [
              83.60940816181305,
              25.14932005463411
            ],
            [
              83.61063312339911,
              25.14918491420961
            ],
            [
              83.61141170134067,
              25.14950557892388
            ],
            [
              83.61194715833545,
              25.14986240865421
            ],
            [
              83.61262170507894,
              25.150160458636105
            ],
            [
              83.61352920024692,
              25.15016973589118
            ],
            [
              83.61429290388405,
              25.150052535379235
            ],
            [
              83.61605827128378,
              25.149357677008197
            ],
            [
              83.61753116968485,
              25.14869441335254
            ],
            [
              83.6191577123389,
              25.147064924750477
            ],
            [
              83.62035788401636,
              25.145999722024122
            ],
            [
              83.62160245043518,
              25.145038391368292
            ],
            [
              83.62245038999477,
              25.144735961242468
            ],
            [
              83.62303059926037,
              25.144691013052277
            ],
            [
              83.62399741108491,
              25.14491683131083
            ],
            [
              83.6239975988328,
              25.14491687522293
            ],
            [
              83.6252918573582,
              25.14548137472283
            ],
            [
              83.62645226780452,
              25.14571635364093
            ],
            [
              83.62768699856933,
              25.145630655614465
            ],
            [
              83.62862415431137,
              25.145915258604855
            ],
            [
              83.6295861870986,
              25.146109571220904
            ],
            [
              83.63044416892475,
              25.146213428818527
            ],
            [
              83.63093503444716,
              25.146051093852563
            ],
            [
              83.63111840395284,
              25.145468657344683
            ],
            [
              83.63062751507425,
              25.144877164027452
            ],
            [
              83.62971008364089,
              25.144448214147793
            ],
            [
              83.62916962572494,
              25.1442042966213
            ],
            [
              83.62863402589802,
              25.143834083871152
            ],
            [
              83.62837612227489,
              25.143211025649727
            ],
            [
              83.62838110702641,
              25.142989819146496
            ],
            [
              83.6290504300665,
              25.142542955090097
            ],
            [
              83.630458723429,
              25.14231749106335
            ],
            [
              83.63140581543642,
              25.142015124132246
            ],
            [
              83.6327495037603,
              25.141351649802726
            ],
            [
              83.63356262012793,
              25.14077381074618
            ],
            [
              83.63458409803076,
              25.14076491580119
            ],
            [
              83.63538248741763,
              25.141031323107082
            ],
            [
              83.63646845537471,
              25.140972735148615
            ],
            [
              83.63675931279569,
              25.140686399057735
            ],
            [
              83.63707821472156,
              25.140372447869044
            ],
            [
              83.63758883689202,
              25.140033886216838
            ],
            [
              83.63868477704705,
              25.139979842054256
            ],
            [
              83.63989470712345,
              25.140598312337364
            ],
            [
              83.64084187009777,
              25.140806108385153
            ],
            [
              83.64152608181539,
              25.14050822504044
            ],
            [
              83.64205653878729,
              25.139943910727876
            ],
            [
              83.64223487143917,
              25.138557905250693
            ],
            [
              83.64228914944526,
              25.13742484905642
            ],
            [
              83.64247253961221,
              25.13699145384559
            ],
            [
              83.64358314835752,
              25.136765745353326
            ],
            [
              83.6448823601934,
              25.137050312083602
            ],
            [
              83.64627065526102,
              25.137226378353326
            ],
            [
              83.64851166084077,
              25.136535714056702
            ],
            [
              83.64976599284503,
              25.136021096782983
            ],
            [
              83.65107973672723,
              25.135122751236324
            ],
            [
              83.65241843580802,
              25.13470747775694
            ],
            [
              83.65401475194936,
              25.133903879649584
            ],
            [
              83.65442610938258,
              25.13347052724445
            ],
            [
              83.65522449337958,
              25.133660047594653
            ],
            [
              83.65654340706622,
              25.13417006933308
            ],
            [
              83.65773849877077,
              25.134860773033626
            ],
            [
              83.65872522085527,
              25.135154164738317
            ],
            [
              83.65959290268987,
              25.134982542350905
            ],
            [
              83.66018768442599,
              25.134206078804848
            ],
            [
              83.66013780816479,
              25.13342054812293
            ],
            [
              83.65941354685688,
              25.13181804667683
            ],
            [
              83.65930420931036,
              25.130978472007683
            ],
            [
              83.65973024701195,
              25.129971713251322
            ],
            [
              83.66098442809927,
              25.12921773790246
            ],
            [
              83.66167349970259,
              25.128915192140774
            ],
            [
              83.6629426000101,
              25.128581076732257
            ],
            [
              83.66447423385773,
              25.12770517483401
            ],
            [
              83.66475627072097,
              25.127346460982363
            ],
            [
              83.66476171540991,
              25.127339538949087
            ],
            [
              83.66556955417524,
              25.126337293356723
            ],
            [
              83.66577746924774,
              25.125628536273133
            ],
            [
              83.66619835960276,
              25.124170357330577
            ],
            [
              83.66628735569795,
              25.123330692685887
            ],
            [
              83.66714001141284,
              25.123095899237462
            ],
            [
              83.6696138657041,
              25.123014459401748
            ],
            [
              83.67116054273944,
              25.12286531027548
            ],
            [
              83.672315816619,
              25.12335272012893
            ],
            [
              83.67320851563598,
              25.12411096910384
            ],
            [
              83.67381343575842,
              25.12449449719246
            ],
            [
              83.67508241928498,
              25.124011326885086
            ],
            [
              83.67604389511672,
              25.123130975014973
            ],
            [
              83.67611289291705,
              25.12217844439788
            ],
            [
              83.67556211156185,
              25.12109503906389
            ],
            [
              83.67435701172674,
              25.11987644882284
            ],
            [
              83.6740939697402,
              25.1193347513855
            ],
            [
              83.67383085768503,
              25.118057290870315
            ],
            [
              83.67411801494539,
              25.117380098226292
            ],
            [
              83.67435079718159,
              25.11648631203092
            ],
            [
              83.675014878552,
              25.116147600392754
            ],
            [
              83.67667061016456,
              25.11612032779634
            ],
            [
              83.67778086497367,
              25.115948603837737
            ],
            [
              83.678449861027,
              25.11520823203807
            ],
            [
              83.67913862181321,
              25.11461220881299
            ],
            [
              83.67957216583733,
              25.114015213930433
            ],
            [
              83.68002056260633,
              25.113397755941623
            ],
            [
              83.6811604429552,
              25.113063559872188
            ],
            [
              83.68245424064484,
              25.11306782777871
            ],
            [
              83.68245844206541,
              25.11306752682094
            ],
            [
              83.68334158210946,
              25.113004433042967
            ],
            [
              83.68420884712577,
              25.112503279328816
            ],
            [
              83.68630059133284,
              25.11223187487671
            ],
            [
              83.68932448676749,
              25.112416341959403
            ],
            [
              83.69162456825526,
              25.112320984980283
            ],
            [
              83.6927942106878,
              25.111968608769505
            ],
            [
              83.69354240311488,
              25.11159382618952
            ],
            [
              83.69453812631853,
              25.110415337852363
            ],
            [
              83.69535543332697,
              25.109110670201744
            ],
            [
              83.69731763418186,
              25.108053810919465
            ],
            [
              83.69894313209521,
              25.107462016033992
            ],
            [
              83.69894735417704,
              25.107460098763777
            ],
            [
              83.7020055868151,
              25.106070783336932
            ],
            [
              83.7037203287587,
              25.105632427123723
            ],
            [
              83.70492418712209,
              25.1047066659782
            ],
            [
              83.70501780684606,
              25.103718067696228
            ],
            [
              83.70473424374514,
              25.102093064931914
            ],
            [
              83.70449061884345,
              25.100829295720708
            ],
            [
              83.70440082324767,
              25.099651082721557
            ],
            [
              83.70472727371687,
              25.098635417633542
            ],
            [
              83.70507398478897,
              25.098274120215507
            ],
            [
              83.70549993984557,
              25.097912887623835
            ],
            [
              83.7055031926452,
              25.097910978338927
            ],
            [
              83.70651576285368,
              25.09731671012844
            ],
            [
              83.70776441660702,
              25.096892030944982
            ],
            [
              83.70954821114816,
              25.09613750985909
            ],
            [
              83.71074688982564,
              25.094945451931032
            ],
            [
              83.71074935300615,
              25.09494012174848
            ],
            [
              83.71186533906676,
              25.092525598394253
            ],
            [
              83.71269685742297,
              25.09088673867762
            ],
            [
              83.71373198612487,
              25.08976245075616
            ],
            [
              83.7155899294062,
              25.089089107376548
            ],
            [
              83.71560031393088,
              25.089088734766595
            ],
            [
              83.71839499883095,
              25.08898881912312
            ],
            [
              83.7206894505768,
              25.088969798913812
            ],
            [
              83.7230887752422,
              25.089763340784643
            ],
            [
              83.7243722441027,
              25.0897763299929
            ],
            [
              83.72768766081337,
              25.089648383872152
            ],
            [
              83.72970458074717,
              25.08962501287178
            ],
            [
              83.73052705037352,
              25.089344741129082
            ],
            [
              83.7311408710038,
              25.088504881239988
            ],
            [
              83.73167518444322,
              25.087362640346733
            ],
            [
              83.73222493093921,
              25.086874912102427
            ],
            [
              83.73244643931862,
              25.085015050090583
            ],
            [
              83.7327727128197,
              25.084044365007212
            ],
            [
              83.73384713023884,
              25.082789118958214
            ],
            [
              83.73519944328778,
              25.082170048602656
            ],
            [
              83.7374980892677,
              25.081387999371362
            ],
            [
              83.73810181193588,
              25.08029537479776
            ],
            [
              83.7380466302246,
              25.079618327800766
            ],
            [
              83.73783812855218,
              25.079027091822184
            ],
            [
              83.73613227903164,
              25.077655775748962
            ],
            [
              83.73526930526741,
              25.07670829838131
            ],
            [
              83.73505572002884,
              25.075959061972597
            ],
            [
              83.73535189996791,
              25.0746815047944
            ],
            [
              83.73598564612949,
              25.074049308181955
            ],
            [
              83.73785330019903,
              25.073610594774244
            ],
            [
              83.73953300694821,
              25.073460792237327
            ],
            [
              83.7407021050017,
              25.073067480068573
            ],
            [
              83.74155371507756,
              25.072218448276164
            ],
            [
              83.74190969586509,
              25.071270335666348
            ],
            [
              83.7416410214417,
              25.070029285214318
            ],
            [
              83.7411743295836,
              25.068928084672216
            ],
            [
              83.74111402028869,
              25.067989295180226
            ],
            [
              83.74126679407412,
              25.066910358017697
            ],
            [
              83.74218258518378,
              25.0660071798296
            ],
            [
              83.74285401926478,
              25.06513783996018
            ],
            [
              83.74285568833459,
              25.06513567872514
            ],
            [
              83.74315270191025,
              25.064747314910516
            ],
            [
              83.74393536538973,
              25.06459348988568
            ],
            [
              83.74552060440531,
              25.064240527859656
            ],
            [
              83.74623354604236,
              25.063721025849656
            ],
            [
              83.7466731042873,
              25.061987531700694
            ],
            [
              83.74739989255612,
              25.060240390842623
            ],
            [
              83.74709691416696,
              25.05939193579585
            ],
            [
              83.74673382770553,
              25.057834841725725
            ],
            [
              83.74703044422583,
              25.057031375683394
            ],
            [
              83.747747842405,
              25.05583480216762
            ],
            [
              83.74911756480414,
              25.054370156624934
            ],
            [
              83.74999929898472,
              25.053802891940155
            ],
            [
              83.75184549140383,
              25.05265427431216
            ],
            [
              83.75202367044382,
              25.05249326206998
            ],
            [
              83.75221115064025,
              25.052323843844388
            ],
            [
              83.75311577928416,
              25.05166432708807
            ],
            [
              83.75308816507231,
              25.050662141057398
            ],
            [
              83.75313810511393,
              25.049809601059703
            ],
            [
              83.75375263271832,
              25.04936866700837
            ],
            [
              83.75531353996611,
              25.048530289208255
            ],
            [
              83.75588381386467,
              25.0482791683998
            ],
            [
              83.75588630579128,
              25.048278072170852
            ],
            [
              83.75707248441155,
              25.047693504044677
            ],
            [
              83.75794048604642,
              25.046776318019393
            ],
            [
              83.7587573438972,
              25.04641384131988
            ],
            [
              83.76001868904886,
              25.046569757948156
            ],
            [
              83.76041481644478,
              25.047426315594556
            ],
            [
              83.76068426880919,
              25.048507282280582
            ],
            [
              83.76104385363766,
              25.04910177681345
            ],
            [
              83.76201688000731,
              25.049778623819364
            ],
            [
              83.76404142034966,
              25.05035228337751
            ],
            [
              83.76489923868245,
              25.050287829932426
            ],
            [
              83.76518212625025,
              25.050254369043945
            ],
            [
              83.76539102407969,
              25.05017951740376
            ],
            [
              83.76516888418467,
              25.048029454191823
            ],
            [
              83.76461955091368,
              25.042979334640854
            ],
            [
              83.76430608828689,
              25.04017862999186
            ],
            [
              83.76417381944613,
              25.037541904097793
            ],
            [
              83.76379988492931,
              25.03483090595192
            ],
            [
              83.76367329883105,
              25.03340391579877
            ],
            [
              83.7617550103222,
              25.033905201229253
            ],
            [
              83.7610201354192,
              25.034047270186747
            ],
            [
              83.76101604808467,
              25.034048491073353
            ],
            [
              83.7587332340133,
              25.034730221664354
            ],
            [
              83.75873080586709,
              25.034731052676538
            ],
            [
              83.75620138808056,
              25.03559581506025
            ],
            [
              83.75546331787005,
              25.035999686721198
            ],
            [
              83.75420247218167,
              25.03580304230381
            ],
            [
              83.75287022120798,
              25.03493776617051
            ],
            [
              83.75178582889593,
              25.03366424002436
            ],
            [
              83.75088699528389,
              25.03384102319961
            ],
            [
              83.7499992666454,
              25.03382595417711
            ],
            [
              83.74886066100592,
              25.0338028289133
            ],
            [
              83.74858248779672,
              25.03346599900575
            ],
            [
              83.7486713823823,
              25.03269075512899
            ],
            [
              83.74859845175764,
              25.03217101523134
            ],
            [
              83.7479952420275,
              25.0316817983309
            ],
            [
              83.74795335717907,
              25.031663363400448
            ],
            [
              83.74774670064626,
              25.031112953819502
            ],
            [
              83.7464176898958,
              25.02933515813018
            ],
            [
              83.74622823520238,
              25.02774645536239
            ],
            [
              83.74634633042457,
              25.026617937327444
            ],
            [
              83.74677158838853,
              25.025773673599183
            ],
            [
              83.74795145814053,
              25.02519203925845
            ],
            [
              83.74849188281884,
              25.025960349836712
            ],
            [
              83.7490978683432,
              25.02622832983613
            ],
            [
              83.74999934210385,
              25.026227747029115
            ],
            [
              83.75260832277681,
              25.026221344291663
            ],
            [
              83.75313915075292,
              25.026154079713045
            ],
            [
              83.75493622329226,
              25.025426081164138
            ],
            [
              83.75814972523564,
              25.02553258084024
            ],
            [
              83.75875893391526,
              25.025538094746572
            ],
            [
              83.76079819225521,
              25.02525907970511
            ],
            [
              83.76273004173159,
              25.025258814346746
            ],
            [
              83.76448874183528,
              25.024832815765567
            ],
            [
              83.76441511321966,
              25.023943040087328
            ],
            [
              83.76408390527271,
              25.020970706294264
            ],
            [
              83.76350422960637,
              25.018478776406667
            ],
            [
              83.76344404697393,
              25.01799850891996
            ],
            [
              83.76316962962093,
              25.0158087651607
            ],
            [
              83.76313159225687,
              25.014012272767026
            ],
            [
              83.76222045891195,
              25.01192820009786
            ],
            [
              83.76225281083859,
              25.01090950395298
            ],
            [
              83.76228490494873,
              25.00989896788254
            ],
            [
              83.76228516366356,
              25.00989080994116
            ],
            [
              83.76165123244903,
              25.008252118372763
            ],
            [
              83.76050055435046,
              25.007555300350898
            ],
            [
              83.76022598608047,
              25.00651534498277
            ],
            [
              83.76096457911044,
              25.006080896848864
            ],
            [
              83.76276051258603,
              25.005873361350723
            ],
            [
              83.76572648465117,
              25.006015680934585
            ],
            [
              83.76514531418823,
              25.003710191816783
            ],
            [
              83.76507749587586,
              25.002785083629202
            ],
            [
              83.76606237910897,
              25.002055373607178
            ],
            [
              83.76733896687438,
              25.000003887955657
            ],
            [
              83.76709669034393,
              24.99928713171737
            ],
            [
              83.767546528909,
              24.998099852903874
            ],
            [
              83.7679868273657,
              24.997314246051396
            ],
            [
              83.7683145408662,
              24.997249716712485
            ],
            [
              83.76979756777213,
              24.99752636429637
            ],
            [
              83.77139085030278,
              24.998106460648383
            ],
            [
              83.77214791538992,
              24.99818175276196
            ],
            [
              83.77345669697847,
              24.998095384778747
            ],
            [
              83.77465672672213,
              24.997574624821944
            ],
            [
              83.77604483314359,
              24.995800774263227
            ],
            [
              83.77832678483226,
              24.995949732915676
            ],
            [
              83.77865067240796,
              24.997483216719555
            ],
            [
              83.77935372628865,
              24.999210198943878
            ],
            [
              83.77975038369057,
              24.999611376604335
            ],
            [
              83.7817085556014,
              24.999495328036094
            ],
            [
              83.78368904705378,
              24.99916269134052
            ],
            [
              83.78502611659066,
              24.999207421859882
            ],
            [
              83.78665898877418,
              24.99893906211005
            ],
            [
              83.78828699837707,
              24.99867076039356
            ],
            [
              83.79076538466893,
              24.998537141369063
            ],
            [
              83.79196535512378,
              24.998449614271223
            ],
            [
              83.7922734278589,
              24.998366740041003
            ],
            [
              83.79258147813611,
              24.99828855939589
            ],
            [
              83.79337889464752,
              24.998296294743838
            ],
            [
              83.7940018673139,
              24.99797293708159
            ],
            [
              83.79416691837434,
              24.9961191206897
            ],
            [
              83.79371052480266,
              24.99489138622554
            ],
            [
              83.79290212009869,
              24.992405129784235
            ],
            [
              83.7923452266063,
              24.990445026709533
            ],
            [
              83.79228684779093,
              24.98950997637048
            ],
            [
              83.79108279000154,
              24.98996309038847
            ],
            [
              83.78934050391473,
              24.99027559773277
            ],
            [
              83.78738319708152,
              24.99118177692963
            ],
            [
              83.78578657191972,
              24.99161835722547
            ],
            [
              83.78329065141182,
              24.991593826020537
            ],
            [
              83.78149894900122,
              24.991070690334887
            ],
            [
              83.7802479757978,
              24.99131106422427
            ],
            [
              83.77929730220733,
              24.99003809274464
            ],
            [
              83.77854808839578,
              24.988897952005427
            ],
            [
              83.77807628512373,
              24.987756093249015
            ],
            [
              83.77544672674256,
              24.98773009972792
            ],
            [
              83.77357322464053,
              24.98783782575444
            ],
            [
              83.77343918522033,
              24.987457462991358
            ],
            [
              83.77290305089583,
              24.986314857224745
            ],
            [
              83.77179452624198,
              24.986240708364626
            ],
            [
              83.77061821202183,
              24.986039466838257
            ],
            [
              83.77042075513585,
              24.985157484215442
            ],
            [
              83.76982217711934,
              24.983445725809673
            ],
            [
              83.76900076660667,
              24.98255759397565
            ],
            [
              83.76834031892157,
              24.982289240216087
            ],
            [
              83.76649865580818,
              24.98181963988093
            ],
            [
              83.76407361776604,
              24.981262929981565
            ],
            [
              83.76330337169873,
              24.981480871919
            ],
            [
              83.7631150668489,
              24.98189865178508
            ],
            [
              83.76334777093167,
              24.98272683490812
            ],
            [
              83.76319610656562,
              24.984219025088848
            ],
            [
              83.76316765422561,
              24.984940851594097
            ],
            [
              83.76321830573292,
              24.986083063008696
            ],
            [
              83.76734009964996,
              24.98598431084532
            ],
            [
              83.76776498211808,
              24.987310782859524
            ],
            [
              83.76810385179608,
              24.98879433304142
            ],
            [
              83.76818918905313,
              24.989526277046416
            ],
            [
              83.76861331064822,
              24.991741772015686
            ],
            [
              83.76846774763958,
              24.992724111939
            ],
            [
              83.76925598516544,
              24.994324976663165
            ],
            [
              83.7677766548269,
              24.994188381124975
            ],
            [
              83.76655592879742,
              24.99478999015292
            ],
            [
              83.76546122562252,
              24.995203241092852
            ],
            [
              83.76513928469603,
              24.993972608732825
            ],
            [
              83.76442663680811,
              24.992683806671913
            ],
            [
              83.76399380424971,
              24.99119931823753
            ],
            [
              83.76305711563161,
              24.98960148810918
            ],
            [
              83.76245411071734,
              24.98867034207748
            ],
            [
              83.76201513817398,
              24.987695696817166
            ],
            [
              83.76122839274983,
              24.987638134697384
            ],
            [
              83.76067065304444,
              24.987068428254744
            ],
            [
              83.76056965905029,
              24.986404083326878
            ],
            [
              83.75967397313501,
              24.985934773106585
            ],
            [
              83.75894412520434,
              24.986080893052875
            ],
            [
              83.7584341156849,
              24.9864819946901
            ],
            [
              83.7586892542936,
              24.988736431904343
            ],
            [
              83.75905699582482,
              24.9906850720666
            ],
            [
              83.7593201150665,
              24.99227628575166
            ],
            [
              83.75929719814528,
              24.99417143378723
            ],
            [
              83.75961487117584,
              24.995758555872087
            ],
            [
              83.75949049223823,
              24.996628301140717
            ],
            [
              83.75892589299734,
              24.99703330731522
            ],
            [
              83.75842193183472,
              24.99651376086077
            ],
            [
              83.757532273615,
              24.995945299721974
            ],
            [
              83.7568005913245,
              24.99624477564114
            ],
            [
              83.75578342982662,
              24.996388010111833
            ],
            [
              83.75517306591357,
              24.99607501107674
            ],
            [
              83.75469266486593,
              24.99402136405297
            ],
            [
              83.7539287833624,
              24.99206871065245
            ],
            [
              83.7533308539295,
              24.990320783375655
            ],
            [
              83.75217325880325,
              24.988571707612376
            ],
            [
              83.75071421511876,
              24.98840360731474
            ],
            [
              83.75118144955927,
              24.9915311362268
            ],
            [
              83.75154794602552,
              24.993579088058652
            ],
            [
              83.75168530292405,
              24.996139256885183
            ],
            [
              83.75163411691916,
              24.997907729889974
            ],
            [
              83.75070358894726,
              24.997848721711556
            ],
            [
              83.75021326331238,
              24.99744208581947
            ],
            [
              83.75045312786627,
              24.995639477361884
            ],
            [
              83.75041679640292,
              24.994136309679394
            ],
            [
              83.75009781722194,
              24.993081647079677
            ],
            [
              83.74999925856056,
              24.992970237337456
            ],
            [
              83.74934047275872,
              24.992225565884933
            ],
            [
              83.74917588882228,
              24.989872770118765
            ],
            [
              83.74908244965967,
              24.988594711933008
            ],
            [
              83.74852661528098,
              24.98787157398411
            ],
            [
              83.74750748557433,
              24.987335306776846
            ],
            [
              83.74731696907224,
              24.989190655300902
            ],
            [
              83.74677164138912,
              24.9896364050729
            ],
            [
              83.74494870275947,
              24.99006928128965
            ],
            [
              83.74349630301484,
              24.990167357629957
            ],
            [
              83.74345071620913,
              24.99065882268806
            ],
            [
              83.74339180020121,
              24.9922422032802
            ],
            [
              83.74226150128317,
              24.99313785589999
            ],
            [
              83.73999769466488,
              24.99356163665158
            ],
            [
              83.73844659791834,
              24.99362715309977
            ],
            [
              83.73737066504128,
              24.99048429540315
            ],
            [
              83.7371354968797,
              24.989462019639095
            ],
            [
              83.73727458573005,
              24.98821797564142
            ],
            [
              83.73620130467974,
              24.988094190096078
            ],
            [
              83.73466109820936,
              24.988493681139058
            ],
            [
              83.73168066596307,
              24.988801775051954
            ],
            [
              83.72728689811062,
              24.989248785834473
            ],
            [
              83.72541763066681,
              24.9890130791094
            ],
            [
              83.72370908260713,
              24.98899549840683
            ],
            [
              83.72058954893406,
              24.98933352507919
            ],
            [
              83.7195784375896,
              24.98939533907832
            ],
            [
              83.71821166885113,
              24.98937674716853
            ],
            [
              83.71791189205763,
              24.98998739800932
            ],
            [
              83.71788995609671,
              24.99175616308555
            ],
            [
              83.7178519977844,
              24.992423687039572
            ],
            [
              83.71757779423044,
              24.99335952126646
            ],
            [
              83.71683493689783,
              24.994155142683383
            ],
            [
              83.71585854184582,
              24.994600832114692
            ],
            [
              83.71526457128839,
              24.994969271854952
            ],
            [
              83.71498844623805,
              24.99606307362558
            ],
            [
              83.71524287697429,
              24.99830845587247
            ],
            [
              83.71323828462114,
              24.998987224381963
            ],
            [
              83.71203801143403,
              24.99951635436211
            ],
            [
              83.71061316481583,
              24.999379836239754
            ],
            [
              83.71075546604168,
              24.998293677214836
            ],
            [
              83.71046399507131,
              24.995050599800457
            ],
            [
              83.71047423766218,
              24.994233829940672
            ],
            [
              83.70984979535199,
              24.993866386193577
            ],
            [
              83.70925738426989,
              24.994103909838604
            ],
            [
              83.70837878700625,
              24.99425280622687
            ],
            [
              83.70785295366312,
              24.993926913120823
            ],
            [
              83.70727431734758,
              24.99306349132232
            ],
            [
              83.70667847739604,
              24.991992365285817
            ],
            [
              83.70607136628263,
              24.99142650498056
            ],
            [
              83.70570707967198,
              24.990059843712487
            ],
            [
              83.70548715142918,
              24.988636036322667
            ],
            [
              83.70572350716357,
              24.98636864514549
            ],
            [
              83.70586141293275,
              24.98444313382642
            ],
            [
              83.70604131673807,
              24.98273016199303
            ],
            [
              83.70427229858504,
              24.982802036287918
            ],
            [
              83.70183631726614,
              24.982749618842455
            ],
            [
              83.69978389231906,
              24.982516151102935
            ],
            [
              83.69860717924693,
              24.982354984152483
            ],
            [
              83.69791958267734,
              24.98228920438832
            ],
            [
              83.6973928914431,
              24.98243256667495
            ],
            [
              83.69653845616565,
              24.982635795211817
            ],
            [
              83.69437047283874,
              24.98332615414376
            ],
            [
              83.69282842572035,
              24.9834634701578
            ],
            [
              83.69161483321251,
              24.98347781904094
            ],
            [
              83.69066403206132,
              24.983467836218086
            ],
            [
              83.69047159765609,
              24.983019091208433
            ],
            [
              83.69015458668389,
              24.98223960083374
            ],
            [
              83.68927992493951,
              24.981693417293815
            ],
            [
              83.68849525372535,
              24.98147308991358
            ],
            [
              83.6873193042212,
              24.98125316113303
            ],
            [
              83.68667554543748,
              24.981246417312992
            ],
            [
              83.68605202929032,
              24.981596390304535
            ],
            [
              83.68460272064861,
              24.982240003082037
            ],
            [
              83.68367147312618,
              24.983037930801192
            ],
            [
              83.68248531157388,
              24.98362110503003
            ],
            [
              83.68147805669693,
              24.98454919840091
            ],
            [
              83.68103388829797,
              24.985591411923206
            ],
            [
              83.68045203331879,
              24.986176475295714
            ],
            [
              83.67951180444012,
              24.986888582162027
            ],
            [
              83.67932608494166,
              24.987473233873693
            ],
            [
              83.67942014843337,
              24.98825943124838
            ],
            [
              83.67959502526637,
              24.98891110090301
            ],
            [
              83.67972952642062,
              24.989634545397163
            ],
            [
              83.67563283682249,
              24.989686066709716
            ],
            [
              83.67412483136178,
              24.989868703917853
            ],
            [
              83.6731495484241,
              24.990219338750663
            ],
            [
              83.67235052392833,
              24.99073438805412
            ],
            [
              83.67236351716059,
              24.989719115018552
            ],
            [
              83.67167397933166,
              24.988254211233112
            ],
            [
              83.66628576388327,
              24.987826927275954
            ],
            [
              83.66454369429046,
              24.98772716523786
            ],
            [
              83.66216936255287,
              24.987489776646896
            ],
            [
              83.65964270888247,
              24.987544002925016
            ],
            [
              83.65825286332267,
              24.987398351273484
            ],
            [
              83.65749422708207,
              24.98746695125077
            ],
            [
              83.65670386144731,
              24.988067629942982
            ],
            [
              83.65606434271173,
              24.988114987131652
            ],
            [
              83.65505290707544,
              24.987810808762436
            ],
            [
              83.6540950748105,
              24.987579391913663
            ],
            [
              83.65262289955321,
              24.987671926136162
            ],
            [
              83.65223745671932,
              24.987988230358443
            ],
            [
              83.6520586102311,
              24.98841042972225
            ],
            [
              83.65231566494626,
              24.988837432372517
            ],
            [
              83.65332027338636,
              24.989665016717957
            ],
            [
              83.65340287707,
              24.990171282147507
            ],
            [
              83.65336292359942,
              24.990965076759434
            ],
            [
              83.65327007462999,
              24.99125292001018
            ],
            [
              83.65152188212018,
              24.992001256384313
            ],
            [
              83.65197523219966,
              24.992565707107094
            ],
            [
              83.64868195985905,
              24.99366746212848
            ],
            [
              83.64865382372604,
              24.99392891032978
            ],
            [
              83.64907468982653,
              24.994705103231393
            ],
            [
              83.64930097903988,
              24.995208437201743
            ],
            [
              83.64926608128773,
              24.995605224845388
            ],
            [
              83.64908731474954,
              24.996027418401123
            ],
            [
              83.64896856555383,
              24.996396256880686
            ],
            [
              83.64898705917058,
              24.997267310075316
            ],
            [
              83.64889204436298,
              24.997717637103857
            ],
            [
              83.64819959689085,
              24.99725891518626
            ],
            [
              83.64750691765337,
              24.997197266347207
            ],
            [
              83.6477156699557,
              24.997524398084213
            ],
            [
              83.64834384117265,
              24.9983525150199
            ],
            [
              83.64850555499177,
              24.99887321224658
            ],
            [
              83.64863972736262,
              24.999217572748837
            ],
            [
              83.64865982087889,
              24.99958331927038
            ],
            [
              83.6486352878885,
              25.000050757754494
            ],
            [
              83.64862691379338,
              25.000210269950674
            ],
            [
              83.64857435426444,
              25.000444300855
            ],
            [
              83.64839222623048,
              25.001374323726687
            ],
            [
              83.64859542514775,
              25.0019430300436
            ],
            [
              83.6491403440974,
              25.00235817665732
            ],
            [
              83.64869467371527,
              25.00291797915661
            ],
            [
              83.64822421072962,
              25.003288212722023
            ],
            [
              83.64780328534032,
              25.00366289192725
            ],
            [
              83.64728834227337,
              25.004651503782824
            ],
            [
              83.64671877804389,
              25.00499460167656
            ],
            [
              83.64601548161804,
              25.00529711335604
            ],
            [
              83.64534184396963,
              25.005355911172128
            ],
            [
              83.64435619537193,
              25.00548698111773
            ],
            [
              83.64402431189188,
              25.005581731713047
            ],
            [
              83.64383616155224,
              25.00583460883663
            ],
            [
              83.643766910427,
              25.00638524736508
            ],
            [
              83.64370255422175,
              25.007112019621523
            ],
            [
              83.64361362190694,
              25.00817271391921
            ],
            [
              83.64345021925506,
              25.008542876289013
            ],
            [
              83.64319263722881,
              25.008660275845706
            ],
            [
              83.64288554275903,
              25.00866033038993
            ],
            [
              83.64236539036176,
              25.008484367373583
            ],
            [
              83.64208801485653,
              25.008249641080294
            ],
            [
              83.64152327727507,
              25.007680972100072
            ],
            [
              83.64085950492513,
              25.00748241964888
            ],
            [
              83.64045337658517,
              25.00787063428073
            ],
            [
              83.64006210278674,
              25.008055728271717
            ],
            [
              83.63910609589847,
              25.008281556060705
            ],
            [
              83.63850676060214,
              25.008484710921234
            ],
            [
              83.63809564930733,
              25.008665294727383
            ],
            [
              83.6379372161356,
              25.00885484792799
            ],
            [
              83.63795704914045,
              25.009351450852424
            ],
            [
              83.63782336006321,
              25.009793745783263
            ],
            [
              83.63758556882101,
              25.010028536694538
            ],
            [
              83.63639676712008,
              25.010177595325032
            ],
            [
              83.63590645765485,
              25.010245297678956
            ],
            [
              83.63546067767828,
              25.010358179084324
            ],
            [
              83.6352426853049,
              25.01043945939567
            ],
            [
              83.63512885169041,
              25.011283505394548
            ],
            [
              83.6348069143572,
              25.01210500399869
            ],
            [
              83.63474257342328,
              25.0131161226953
            ],
            [
              83.63452472837362,
              25.0138202519747
            ],
            [
              83.63423739684012,
              25.01419046081884
            ],
            [
              83.63392534905988,
              25.014380029099094
            ],
            [
              83.63291484317993,
              25.01469604966131
            ],
            [
              83.63208271576595,
              25.0148270241639
            ],
            [
              83.63143378268616,
              25.015075239723508
            ],
            [
              83.6314982377061,
              25.01575689336558
            ],
            [
              83.63180532498936,
              25.016181091847344
            ],
            [
              83.63212734406925,
              25.01707935314082
            ],
            [
              83.63201841525621,
              25.017526214645535
            ],
            [
              83.63163199685191,
              25.01761650970232
            ],
            [
              83.63098315180702,
              25.017607531727958
            ],
            [
              83.62993290176394,
              25.017341209005853
            ],
            [
              83.62921461335435,
              25.017002722122196
            ],
            [
              83.62884801268353,
              25.017043371889095
            ],
            [
              83.62868953998594,
              25.017350322129534
            ],
            [
              83.62866977255811,
              25.018835355818343
            ],
            [
              83.62837749490065,
              25.0195033740862
            ],
            [
              83.62786725181927,
              25.019074544706232
            ],
            [
              83.62730251872938,
              25.01883088193529
            ],
            [
              83.62685178364568,
              25.018605169601365
            ],
            [
              83.62439467125635,
              25.018835355004335
            ],
            [
              83.62332967087636,
              25.019088130761087
            ],
            [
              83.6222199604463,
              25.019074538194022
            ],
            [
              83.62054071812615,
              25.019101624015732
            ],
            [
              83.61822724904569,
              25.019133129164146
            ],
            [
              83.6168848722621,
              25.01909694907856
            ],
            [
              83.61518071696418,
              25.019150987206316
            ],
            [
              83.61478943867421,
              25.018979469142927
            ],
            [
              83.61456154866303,
              25.01883948862467
            ],
            [
              83.61456653341453,
              25.018582184738065
            ],
            [
              83.61452696262626,
              25.017381515951996
            ],
            [
              83.61415052540309,
              25.01678569710661
            ],
            [
              83.61351159236905,
              25.01649675692249
            ],
            [
              83.613154974676,
              25.016113094012045
            ],
            [
              83.61271911659172,
              25.01563910496646
            ],
            [
              83.61184226924624,
              25.01560738075692
            ],
            [
              83.61067323317654,
              25.01585108330127
            ],
            [
              83.60926142201139,
              25.016248146169836
            ],
            [
              83.60709173368205,
              25.016320052959927
            ],
            [
              83.6020538396349,
              25.016355462966338
            ],
            [
              83.60167240688043,
              25.016116184120513
            ],
            [
              83.60103848644569,
              25.015475136358493
            ],
            [
              83.6004293559195,
              25.014856711817785
            ],
            [
              83.59999855804523,
              25.01405318890656
            ],
            [
              83.59918644419746,
              25.012938092641132
            ],
            [
              83.59781463591023,
              25.011272285807486
            ],
            [
              83.59731947733911,
              25.010644751716132
            ],
            [
              83.5970173882821,
              25.010152689276747
            ],
            [
              83.59689872891788,
              25.00946657507607
            ],
            [
              83.59591792044291,
              25.00943027328534
            ],
            [
              83.59513521114935,
              25.00986800905788
            ],
            [
              83.59459529222255,
              25.009958190075864
            ],
            [
              83.59423369965945,
              25.009953521303224
            ],
            [
              83.59392165008256,
              25.00980902209168
            ],
            [
              83.59358991841782,
              25.009380166994923
            ],
            [
              83.59327816259004,
              25.0080620603161
            ],
            [
              83.5926146660229,
              25.007231418352703
            ],
            [
              83.59195099697916,
              25.006802446794
            ],
            [
              83.59102988874136,
              25.006107160843627
            ],
            [
              83.5900691001208,
              25.005524672951562
            ],
            [
              83.58947470555854,
              25.005519967375278
            ],
            [
              83.58864757187924,
              25.005510715788464
            ],
            [
              83.58774110707884,
              25.0057542291423
            ],
            [
              83.58717130569414,
              25.00610171363572
            ],
            [
              83.58633403632348,
              25.006634043348555
            ],
            [
              83.58550176607736,
              25.00712131423519
            ],
            [
              83.58471889508702,
              25.007771161236665
            ],
            [
              83.58388171464958,
              25.00819518296608
            ],
            [
              83.58356885569061,
              25.01047909699079
            ],
            [
              83.58241965801562,
              25.010510334891006
            ],
            [
              83.58260198817052,
              25.01339014664814
            ],
            [
              83.58268524942096,
              25.01615263616085
            ],
            [
              83.58200131438446,
              25.016852012766005
            ],
            [
              83.58145134959783,
              25.017253618787503
            ],
            [
              83.58061910809782,
              25.01730300632814
            ],
            [
              83.5799306177045,
              25.017140309839245
            ],
            [
              83.57902921041916,
              25.01686918490571
            ],
            [
              83.5787519139657,
              25.016336459160634
            ],
            [
              83.57868797637533,
              25.015347957640994
            ],
            [
              83.57869813003299,
              25.014657378894164
            ],
            [
              83.57860423003466,
              25.013899040605214
            ],
            [
              83.57817845104789,
              25.0133030819374
            ],
            [
              83.5777823479065,
              25.013032134951366
            ],
            [
              83.57662323642406,
              25.012954992616642
            ],
            [
              83.57056987869488,
              25.013363704303156
            ],
            [
              83.57020381611491,
              25.01229377689706
            ],
            [
              83.56978818898914,
              25.011101972154428
            ],
            [
              83.56915457308328,
              25.01020350920238
            ],
            [
              83.5688676556731,
              25.009544374127888
            ],
            [
              83.56851627785308,
              25.008849155800398
            ],
            [
              83.5687096932186,
              25.008289523610685
            ],
            [
              83.57001776244316,
              25.007315012782005
            ],
            [
              83.57082034157251,
              25.00693164519876
            ],
            [
              83.57130114865865,
              25.006245754795028
            ],
            [
              83.57136574561243,
              25.00576727203004
            ],
            [
              83.5703502989984,
              25.00582111493824
            ],
            [
              83.56825001001634,
              25.006158839700255
            ],
            [
              83.56844372092759,
              25.005075616064705
            ],
            [
              83.56885016098293,
              25.00425875815819
            ],
            [
              83.56886040716707,
              25.003631345360038
            ],
            [
              83.56893989369667,
              25.003139350891654
            ],
            [
              83.568548616305,
              25.003003812937006
            ],
            [
              83.56674080530475,
              25.002818090151436
            ],
            [
              83.56609200427732,
              25.002840332221012
            ],
            [
              83.56576512710835,
              25.002804132680826
            ],
            [
              83.56450192963054,
              25.002988698608306
            ],
            [
              83.56396211401001,
              25.00298392699033
            ],
            [
              83.56364027369487,
              25.00268139496028
            ],
            [
              83.56335823772996,
              25.002189267240055
            ],
            [
              83.56301216805494,
              25.000929813317832
            ],
            [
              83.561318332603,
              25.000586055197612
            ],
            [
              83.55882699889291,
              25.000589468912818
            ],
            [
              83.55842071065284,
              25.000914206176823
            ],
            [
              83.55848487012707,
              25.001311447598788
            ],
            [
              83.55847449817882,
              25.002132974633128
            ],
            [
              83.55842446381412,
              25.00315311618967
            ],
            [
              83.55836965310704,
              25.003694720173815
            ],
            [
              83.55832977689158,
              25.00411894159485
            ],
            [
              83.55851267029017,
              25.004800657677574
            ],
            [
              83.55940316124818,
              25.006836733637833
            ],
            [
              83.55992247641558,
              25.008353626264277
            ],
            [
              83.55983778684386,
              25.009278888710732
            ],
            [
              83.559822352889,
              25.010267382914
            ],
            [
              83.55959393466843,
              25.01141382169438
            ],
            [
              83.55944520060685,
              25.01164395382521
            ],
            [
              83.55745887369837,
              25.011620427114206
            ],
            [
              83.55524438728412,
              25.012152036878774
            ],
            [
              83.55409493718254,
              25.012616410606515
            ],
            [
              83.55437566789539,
              25.015419574343156
            ],
            [
              83.55458281580664,
              25.016940891078782
            ],
            [
              83.55492830337333,
              25.019279110320472
            ],
            [
              83.55509104396683,
              25.020466360242374
            ],
            [
              83.55492093089978,
              25.023413766260028
            ],
            [
              83.55471215524122,
              25.02463690231891
            ],
            [
              83.55631703322555,
              25.025129652319198
            ],
            [
              83.55977439902247,
              25.02595719160188
            ],
            [
              83.56004040455115,
              25.02894538670647
            ],
            [
              83.5595387511605,
              25.03124268337932
            ],
            [
              83.55932955239548,
              25.033346039759675
            ],
            [
              83.55935677314518,
              25.033420475176293
            ],
            [
              83.5593840145562,
              25.0334949724063
            ],
            [
              83.55861070433545,
              25.034343254249762
            ],
            [
              83.55701003405991,
              25.03508275833796
            ],
            [
              83.55584526229283,
              25.0358585381179
            ],
            [
              83.55507697365452,
              25.03659397818455
            ],
            [
              83.55407585966086,
              25.037053918077103
            ],
            [
              83.55288649112299,
              25.0375047315962
            ],
            [
              83.55220765941563,
              25.03773008686567
            ],
            [
              83.55158792876911,
              25.038429408878677
            ],
            [
              83.55179925564306,
              25.041277600035652
            ],
            [
              83.55221021332598,
              25.041751771659285
            ],
            [
              83.55267538972619,
              25.042749558326385
            ],
            [
              83.55294716513392,
              25.043891657775116
            ],
            [
              83.55310034316122,
              25.044740348704348
            ],
            [
              83.55340104611774,
              25.047259130858986
            ],
            [
              83.55327114882937,
              25.0491864226692
            ],
            [
              83.55309080305291,
              25.052449766788214
            ],
            [
              83.55249603928308,
              25.05277899086482
            ],
            [
              83.55112305240621,
              25.05353667138707
            ],
            [
              83.54997290611028,
              25.054325965405106
            ],
            [
              83.54931842683193,
              25.055047797277943
            ],
            [
              83.54873254021373,
              25.056857549012136
            ],
            [
              83.54723573315137,
              25.057380372633475
            ],
            [
              83.5456895924102,
              25.0575962126031
            ],
            [
              83.54427714703448,
              25.057785032695296
            ],
            [
              83.54373725415884,
              25.057577054873228
            ],
            [
              83.54332632971357,
              25.05689973499697
            ],
            [
              83.54305445908442,
              25.055960758124495
            ],
            [
              83.54235616896966,
              25.05530585474395
            ],
            [
              83.54169255023162,
              25.054863137112765
            ],
            [
              83.5409245041384,
              25.05482667297358
            ],
            [
              83.54031000887338,
              25.05490749903397
            ],
            [
              83.53896727006872,
              25.05471263376587
            ],
            [
              83.5370891066087,
              25.054914714873696
            ],
            [
              83.53632109824474,
              25.054905205785143
            ],
            [
              83.53374905629632,
              25.05528277666119
            ],
            [
              83.53227728438254,
              25.05541280698112
            ],
            [
              83.53034933628943,
              25.055826805967175
            ],
            [
              83.52787114493199,
              25.056556462399172
            ],
            [
              83.5283587019592,
              25.06044309023616
            ],
            [
              83.52913273622207,
              25.06546735787796
            ],
            [
              83.52960627414096,
              25.068397027710787
            ],
            [
              83.53009040319702,
              25.070387975163836
            ],
            [
              83.53006934129687,
              25.07196320105488
            ],
            [
              83.53007796332699,
              25.07357006790468
            ],
            [
              83.53051855283785,
              25.07427906080272
            ],
            [
              83.53179163897029,
              25.075029082901583
            ],
            [
              83.53142763892221,
              25.077904100918143
            ],
            [
              83.53113477825814,
              25.07856298418324
            ],
            [
              83.53070294193137,
              25.079370616326056
            ],
            [
              83.53020215002512,
              25.07970432189912
            ],
            [
              83.5296617783474,
              25.079870979075707
            ],
            [
              83.52935936230364,
              25.07992944336256
            ],
            [
              83.52900762785248,
              25.07969456332575
            ],
            [
              83.52881926012054,
              25.079753095227378
            ],
            [
              83.52874467479913,
              25.080096041652155
            ],
            [
              83.52878409826369,
              25.080371472399904
            ],
            [
              83.52915031086228,
              25.0810848340654
            ],
            [
              83.52923923868555,
              25.081491175657295
            ],
            [
              83.52899587788853,
              25.082086769610363
            ],
            [
              83.52865829280141,
              25.082763610132094
            ],
            [
              83.52871724025034,
              25.083476800020062
            ],
            [
              83.53032334174007,
              25.083175428175934
            ],
            [
              83.53069504214677,
              25.083238857898916
            ],
            [
              83.53102644412981,
              25.08400190279994
            ],
            [
              83.53126861106577,
              25.08499055301585
            ],
            [
              83.53199910578347,
              25.08898566413929
            ],
            [
              83.53247774164159,
              25.091834150231126
            ],
            [
              83.53200149530211,
              25.092447678705152
            ],
            [
              83.53110392921295,
              25.09293012687298
            ],
            [
              83.52877876586415,
              25.093470276814816
            ],
            [
              83.52461442504031,
              25.09438378429529
            ],
            [
              83.52239309705688,
              25.095131502165184
            ],
            [
              83.52023634806092,
              25.095856722622944
            ],
            [
              83.51896717768477,
              25.096013769743298
            ],
            [
              83.51589802602442,
              25.09700911894603
            ],
            [
              83.5127842730102,
              25.097972640010486
            ],
            [
              83.51242640396394,
              25.098988007168888
            ],
            [
              83.5116228133316,
              25.099664423120597
            ],
            [
              83.51034856028757,
              25.099988449813655
            ],
            [
              83.50898015661528,
              25.100231085712036
            ],
            [
              83.50750259865282,
              25.100609147287205
            ],
            [
              83.50727422085643,
              25.10101062777292
            ],
            [
              83.50719397704704,
              25.10200357317662
            ],
            [
              83.50718323229792,
              25.10287920129195
            ],
            [
              83.5067764643575,
              25.10309559637597
            ],
            [
              83.50613160962912,
              25.103550988271298
            ],
            [
              83.50612612271935,
              25.104079084658874
            ],
            [
              83.5062235369271,
              25.10595231708408
            ],
            [
              83.50653533587402,
              25.106449100990208
            ],
            [
              83.50720406333105,
              25.106955101594234
            ],
            [
              83.50838355938394,
              25.107290044015546
            ],
            [
              83.50931020393887,
              25.107678959398054
            ],
            [
              83.50987458938074,
              25.108532516765152
            ],
            [
              83.51062263717905,
              25.109061196827927
            ],
            [
              83.51133145914223,
              25.109102386274255
            ],
            [
              83.51164361202535,
              25.10927862784953
            ],
            [
              83.51223746041191,
              25.110398532655804
            ],
            [
              83.51246032884063,
              25.110719151981332
            ],
            [
              83.51294102992557,
              25.110845894985307
            ],
            [
              83.51390271326817,
              25.11097294776838
            ],
            [
              83.51573203712285,
              25.110843457996523
            ],
            [
              83.51746240256583,
              25.110664174063405
            ],
            [
              83.51791867306834,
              25.1103756341483
            ],
            [
              83.51834569712007,
              25.10968086726538
            ],
            [
              83.5194514513696,
              25.10933860325533
            ],
            [
              83.51972318186158,
              25.11042206969136
            ],
            [
              83.51953301031259,
              25.11246214064586
            ],
            [
              83.51992802110256,
              25.114367171852543
            ],
            [
              83.52024004013673,
              25.114692382108448
            ],
            [
              83.52116684010018,
              25.115054153211673
            ],
            [
              83.5222027000307,
              25.115402386911274
            ],
            [
              83.52281220156112,
              25.11575488824484
            ],
            [
              83.52325789260448,
              25.116251719350227
            ],
            [
              83.52343070600728,
              25.117104933807745
            ],
            [
              83.52361881861765,
              25.11748424460176
            ],
            [
              83.52419881228758,
              25.11757941210472
            ],
            [
              83.52730734609001,
              25.117500203732927
            ],
            [
              83.5283036523003,
              25.117740093924976
            ],
            [
              83.52900228557147,
              25.11819191590891
            ],
            [
              83.52907531770576,
              25.120015503005362
            ],
            [
              83.52923181231307,
              25.122674167652924
            ],
            [
              83.52942696681697,
              25.126741188645717
            ],
            [
              83.52975702042878,
              25.129494686240648
            ],
            [
              83.52820989423576,
              25.129732904348504
            ],
            [
              83.52643961664471,
              25.129948384929243
            ],
            [
              83.52425795377265,
              25.13010038166868
            ],
            [
              83.52265137437917,
              25.130225721987713
            ],
            [
              83.52056871573288,
              25.130436368353813
            ],
            [
              83.5206070028286,
              25.132011667675336
            ],
            [
              83.52009108598789,
              25.132300185783407
            ],
            [
              83.51938183912164,
              25.13264272868551
            ],
            [
              83.5184094559457,
              25.1332378328036
            ],
            [
              83.51848242699455,
              25.134876336279987
            ],
            [
              83.51844734688437,
              25.135282547124238
            ],
            [
              83.5186153893347,
              25.13589204912387
            ],
            [
              83.51718231414844,
              25.13599929770694
            ],
            [
              83.51566973626295,
              25.136309620057332
            ],
            [
              83.51483153084773,
              25.1364986317906
            ],
            [
              83.51467257126328,
              25.136791914652054
            ],
            [
              83.51462734288536,
              25.137518503857656
            ],
            [
              83.51033773289345,
              25.138038858686375
            ],
            [
              83.51025737859128,
              25.139090536991297
            ],
            [
              83.50958285789896,
              25.139288606184184
            ],
            [
              83.50823427555339,
              25.139124990937432
            ],
            [
              83.50740100458404,
              25.13937710696738
            ],
            [
              83.50636952034728,
              25.139516220274405
            ],
            [
              83.50418760594692,
              25.1395730962844
            ],
            [
              83.50414204609066,
              25.140593225670692
            ],
            [
              83.50461236175262,
              25.141302243968116
            ],
            [
              83.50494852480665,
              25.142417407035072
            ],
            [
              83.50547228124488,
              25.144259405008064
            ],
            [
              83.50621375157868,
              25.14665674781603
            ],
            [
              83.5065092991038,
              25.14876033964213
            ],
            [
              83.50636472334368,
              25.14957719686924
            ],
            [
              83.50626391799571,
              25.151229110188773
            ],
            [
              83.50619706088071,
              25.153734159753938
            ],
            [
              83.5064928662223,
              25.155436013760337
            ],
            [
              83.50698635123206,
              25.15799567340096
            ],
            [
              83.50697594065625,
              25.158550847167398
            ],
            [
              83.51015204034445,
              25.16152793180185
            ],
            [
              83.5090486657321,
              25.162343073343678
            ],
            [
              83.50797116439658,
              25.162585420350464
            ],
            [
              83.50749977434954,
              25.162391735643965
            ],
            [
              83.50702838609915,
              25.1621980498168
            ],
            [
              83.50676073934844,
              25.160993820606112
            ],
            [
              83.5047317604303,
              25.16117149638211
            ],
            [
              83.50206822956174,
              25.161376981596234
            ],
            [
              83.502115780983,
              25.163462328982472
            ],
            [
              83.50202984275302,
              25.165064536939468
            ],
            [
              83.50224765276838,
              25.16545295370816
            ],
            [
              83.50381994077253,
              25.16544066932835
            ],
            [
              83.50388190296755,
              25.167981916016807
            ],
            [
              83.50436195996043,
              25.170104289195
            ],
            [
              83.50643563725052,
              25.169979127228263
            ],
            [
              83.50824428817555,
              25.169572157872306
            ],
            [
              83.51003779979314,
              25.169168567718764
            ],
            [
              83.51177418933841,
              25.16890764798899
            ],
            [
              83.51252292075469,
              25.169354917125393
            ],
            [
              83.51351002282655,
              25.16948626928138
            ],
            [
              83.51352062923509,
              25.169489034374465
            ],
            [
              83.51430847958707,
              25.169694307196732
            ],
            [
              83.5160288970866,
              25.17077846499567
            ],
            [
              83.51710483715016,
              25.171451433812926
            ],
            [
              83.5174170969328,
              25.171731470062344
            ],
            [
              83.51840912267073,
              25.171980070759872
            ],
            [
              83.51953046718201,
              25.171646644782502
            ],
            [
              83.52026515343883,
              25.17096091598006
            ],
            [
              83.52020689859096,
              25.16938567871383
            ],
            [
              83.52066898927815,
              25.168415520690775
            ],
            [
              83.52146340631485,
              25.167359648606173
            ],
            [
              83.5218108791583,
              25.16707548996136
            ],
            [
              83.52204436118213,
              25.166696494202178
            ],
            [
              83.52205183516527,
              25.166687015756363
            ],
            [
              83.5224712864192,
              25.166155041072994
            ],
            [
              83.52332467695597,
              25.16601550933124
            ],
            [
              83.524589539012,
              25.165970957616434
            ],
            [
              83.52620680566241,
              25.16580009973662
            ],
            [
              83.52621759622558,
              25.16579678087411
            ],
            [
              83.52714449680036,
              25.16551160471404
            ],
            [
              83.52806702886791,
              25.16562927576552
            ],
            [
              83.52906882558119,
              25.166004313677735
            ],
            [
              83.53006027729566,
              25.16682621582197
            ],
            [
              83.53077406963726,
              25.167539653401313
            ],
            [
              83.53176055007494,
              25.16841554426864
            ],
            [
              83.5323009019897,
              25.168984419704177
            ],
            [
              83.5339377456251,
              25.16912502205603
            ],
            [
              83.53475084582305,
              25.169752704938862
            ],
            [
              83.53549486737228,
              25.169856626964094
            ],
            [
              83.53649706383585,
              25.169572723736305
            ],
            [
              83.5365043653425,
              25.16956711794275
            ],
            [
              83.53739034585944,
              25.16888689464952
            ],
            [
              83.53851725902717,
              25.167564897369996
            ],
            [
              83.53980232419393,
              25.166933407138476
            ],
            [
              83.54123561228089,
              25.167443989046234
            ],
            [
              83.54255446757706,
              25.168315403237127
            ],
            [
              83.54256211583339,
              25.168328680851545
            ],
            [
              83.54386770031785,
              25.170595103160117
            ],
            [
              83.5444772746118,
              25.171425746745097
            ],
            [
              83.54437267657671,
              25.17227866832505
            ],
            [
              83.54326131055163,
              25.172630455864663
            ],
            [
              83.54211028660166,
              25.17298213019517
            ],
            [
              83.5417081009675,
              25.17365445108553
            ],
            [
              83.5420601767785,
              25.173821609402594
            ],
            [
              83.542461896187,
              25.173880418168853
            ],
            [
              83.54427774531246,
              25.173411514703254
            ]
          ]
        ]
      }
    }
  ]
}