{
  "type": "FeatureCollection",
  "features": [
    {
      "type": "Feature",
      "properties": {
        "object_id": "10-215-01184",
        "stname": "BIHAR",
        "dtname": "Darbhanga",
        "sdtname": "Darbhanga",
        "st_area_sh": 0.0,
        "st_length_": 0.0,
        "remarks": "",
        "dist_lgd": 195,
        "state_lgd": 10,
        "subdt_lgd": 1184,
        "ac_no": null,
        "st_length(shape)": 131883.04966973627,
        "st_area(shape)": 240721362.1475316
      },
      "geometry": {
        "type": "Polygon",
        "coordinates": [
          [
            [
              86.01421812179693,
              26.249245094269714
            ],
            [
              86.01410064461565,
              26.24669161820397
            ],
            [
              86.01877113759308,
              26.246802333063865
            ],
            [
              86.0199917369601,
              26.246831243067977
            ],
            [
              86.02239543642094,
              26.24674379032378
            ],
            [
              86.02365809041801,
              26.24661243101056
            ],
            [
              86.02450612160577,
              26.246374416303425
            ],
            [
              86.02555532600985,
              26.24602490086057
            ],
            [
              86.02637700242383,
              26.245944698027525
            ],
            [
              86.02833328158437,
              26.246079831196564
            ],
            [
              86.03073942266612,
              26.24629923161227
            ],
            [
              86.03143001062563,
              26.246330976999648
            ],
            [
              86.03151191901324,
              26.244904984110526
            ],
            [
              86.0323529729862,
              26.244901622689117
            ],
            [
              86.03235346256803,
              26.2442380123851
            ],
            [
              86.03169318376621,
              26.244174877389842
            ],
            [
              86.03187554356552,
              26.24210400329975
            ],
            [
              86.03193026084779,
              26.23912487794922
            ],
            [
              86.03200953806994,
              26.23801487401812
            ],
            [
              86.03201085140687,
              26.23725195122659
            ],
            [
              86.03222291310273,
              26.237032175166586
            ],
            [
              86.03303798689936,
              26.237136977671238
            ],
            [
              86.03360327155484,
              26.237181410694507
            ],
            [
              86.03395952183695,
              26.23707997471224
            ],
            [
              86.03458867581082,
              26.23666436489371
            ],
            [
              86.0354014265641,
              26.236444104261754
            ],
            [
              86.03766853359272,
              26.236504448246947
            ],
            [
              86.03980079361574,
              26.236527741387526
            ],
            [
              86.04093258912704,
              26.236467582741128
            ],
            [
              86.04210038372504,
              26.2362902813472
            ],
            [
              86.04327892397045,
              26.236022754272017
            ],
            [
              86.04431197037752,
              26.235794880287465
            ],
            [
              86.04408655522495,
              26.235201995052076
            ],
            [
              86.04411828641575,
              26.234994544334437
            ],
            [
              86.04465471538767,
              26.234894279658583
            ],
            [
              86.04397252757438,
              26.232619000386407
            ],
            [
              86.04370702510225,
              26.232644320879366
            ],
            [
              86.04322967114007,
              26.23286686265873
            ],
            [
              86.04297248257589,
              26.231876496617726
            ],
            [
              86.04259652595142,
              26.23010886390602
            ],
            [
              86.04205300567862,
              26.228633548267343
            ],
            [
              86.04157954321826,
              26.227772655787515
            ],
            [
              86.0409721715934,
              26.226761893373222
            ],
            [
              86.04073155155635,
              26.22619598671573
            ],
            [
              86.04067997927586,
              26.22577128918903
            ],
            [
              86.0406328545544,
              26.225414336706667
            ],
            [
              86.04037621126761,
              26.225074640349153
            ],
            [
              86.04036547370504,
              26.225060429231863
            ],
            [
              86.04002609827553,
              26.224940788236555
            ],
            [
              86.03923660759986,
              26.224777510385824
            ],
            [
              86.03921789299756,
              26.224764089770492
            ],
            [
              86.0385947164136,
              26.224317263142748
            ],
            [
              86.03802508840373,
              26.223591149087227
            ],
            [
              86.03707717533612,
              26.222609691052558
            ],
            [
              86.03632201377907,
              26.22192747089847
            ],
            [
              86.03471368087415,
              26.22091899875899
            ],
            [
              86.03296068686919,
              26.219855363229197
            ],
            [
              86.03205971886,
              26.219257914383086
            ],
            [
              86.03131801586252,
              26.218769878332665
            ],
            [
              86.03067861839948,
              26.218016177676294
            ],
            [
              86.02955039818303,
              26.2164601276606
            ],
            [
              86.02912610770466,
              26.21572141731947
            ],
            [
              86.0291588117709,
              26.214796187117358
            ],
            [
              86.02902381833987,
              26.214176803284953
            ],
            [
              86.0286369319133,
              26.21315393533812
            ],
            [
              86.02948918877618,
              26.2129791153254
            ],
            [
              86.0301283481857,
              26.212550044100542
            ],
            [
              86.0304406061717,
              26.21231288729803
            ],
            [
              86.03045271007184,
              26.212060163332275
            ],
            [
              86.0310957061859,
              26.211771060330364
            ],
            [
              86.03085035202729,
              26.21057760462749
            ],
            [
              86.03068719641213,
              26.20973231235469
            ],
            [
              86.03080061859822,
              26.209331294173452
            ],
            [
              86.03185085157331,
              26.20820976833531
            ],
            [
              86.03185360041806,
              26.208204784253397
            ],
            [
              86.03226239405947,
              26.207463146617588
            ],
            [
              86.032183332433,
              26.206735794987306
            ],
            [
              86.03184063233863,
              26.20559812530535
            ],
            [
              86.03149657039829,
              26.204455911617057
            ],
            [
              86.03138091859367,
              26.20331298792175
            ],
            [
              86.03116832599349,
              26.20239513235019
            ],
            [
              86.03071233127379,
              26.20186387434208
            ],
            [
              86.03003470690216,
              26.201507182207276
            ],
            [
              86.02916969486057,
              26.201420087100907
            ],
            [
              86.02843336289015,
              26.20150540334215
            ],
            [
              86.02818464364249,
              26.200722730676894
            ],
            [
              86.02795532620834,
              26.199412002804436
            ],
            [
              86.02736818015211,
              26.196600073341955
            ],
            [
              86.02703888022684,
              26.195279639319505
            ],
            [
              86.02796304543156,
              26.194866046850972
            ],
            [
              86.0283858635712,
              26.194566437704246
            ],
            [
              86.02861809244517,
              26.194319712603942
            ],
            [
              86.02861631018767,
              26.193931463377567
            ],
            [
              86.02922492058929,
              26.1941567762825
            ],
            [
              86.02992729444532,
              26.19454072524082
            ],
            [
              86.03114568934662,
              26.194246469918724
            ],
            [
              86.03280028998023,
              26.193846792080524
            ],
            [
              86.03509456475801,
              26.19354618885116
            ],
            [
              86.0370983953398,
              26.193270692238634
            ],
            [
              86.03836012497042,
              26.193179815349072
            ],
            [
              86.03901118885403,
              26.193111933915358
            ],
            [
              86.03895025523002,
              26.192610426788608
            ],
            [
              86.04172031281652,
              26.192254206882453
            ],
            [
              86.04162100226523,
              26.191549295808105
            ],
            [
              86.04400436296972,
              26.190748042072162
            ],
            [
              86.044641211014,
              26.190580722900915
            ],
            [
              86.04619638790861,
              26.190703901658562
            ],
            [
              86.04729834138614,
              26.190566742142785
            ],
            [
              86.04831457043278,
              26.190510265312025
            ],
            [
              86.04829795968485,
              26.191322752616184
            ],
            [
              86.04808274580066,
              26.19194431918268
            ],
            [
              86.04831111371557,
              26.192167037145442
            ],
            [
              86.04954196106335,
              26.19217968929983
            ],
            [
              86.04959329618858,
              26.19140354608315
            ],
            [
              86.05023652227135,
              26.191683174233713
            ],
            [
              86.05126287173799,
              26.192231677903578
            ],
            [
              86.05181710621713,
              26.19176131464824
            ],
            [
              86.05269397512218,
              26.191613602386333
            ],
            [
              86.0530541231943,
              26.191629515995885
            ],
            [
              86.05357774668182,
              26.191849654307077
            ],
            [
              86.05459757976936,
              26.192587697166648
            ],
            [
              86.05517106604339,
              26.19283072929652
            ],
            [
              86.05588958711667,
              26.193083740051172
            ],
            [
              86.05648323877216,
              26.19330884179422
            ],
            [
              86.05684334192853,
              26.1937663090308
            ],
            [
              86.0614256050737,
              26.190712874999186
            ],
            [
              86.06262371421926,
              26.188923536742337
            ],
            [
              86.06262150166873,
              26.187872084128177
            ],
            [
              86.0632309439103,
              26.18703827773524
            ],
            [
              86.06336329629436,
              26.18664045502114
            ],
            [
              86.06329046807764,
              26.186239184802222
            ],
            [
              86.06240633000535,
              26.185698178852515
            ],
            [
              86.06522249991205,
              26.18569123896625
            ],
            [
              86.0671606672398,
              26.185314743269156
            ],
            [
              86.0678376888419,
              26.182702511801928
            ],
            [
              86.06782484293332,
              26.180852377013725
            ],
            [
              86.06752544702556,
              26.179531836241665
            ],
            [
              86.06456388568843,
              26.180902432680217
            ],
            [
              86.06305395962966,
              26.18099673078388
            ],
            [
              86.0627111140082,
              26.180601530019327
            ],
            [
              86.06235326023332,
              26.178766821757698
            ],
            [
              86.06172964077993,
              26.178273974042572
            ],
            [
              86.0599751708429,
              26.179177379738547
            ],
            [
              86.05931586581485,
              26.179311900382302
            ],
            [
              86.05959657766303,
              26.177229947781637
            ],
            [
              86.05980894658275,
              26.176105058972684
            ],
            [
              86.05903659576269,
              26.17581160036164
            ],
            [
              86.05698876479998,
              26.17622024922461
            ],
            [
              86.05661498479343,
              26.174967760043184
            ],
            [
              86.05616669761886,
              26.173778928056695
            ],
            [
              86.05630560500957,
              26.17288909738188
            ],
            [
              86.05670610720091,
              26.17222352684362
            ],
            [
              86.05594858217631,
              26.17042714206022
            ],
            [
              86.05546032715814,
              26.16852547115832
            ],
            [
              86.05566972714581,
              26.166967403736347
            ],
            [
              86.05475315090861,
              26.16677849772922
            ],
            [
              86.05481520832505,
              26.16561837535451
            ],
            [
              86.05563874065841,
              26.161893640678645
            ],
            [
              86.05583213626096,
              26.161018903367335
            ],
            [
              86.05439303966739,
              26.158594950269656
            ],
            [
              86.05387280282847,
              26.158295204335822
            ],
            [
              86.05214348931268,
              26.15870087561916
            ],
            [
              86.04927219698352,
              26.159033171825275
            ],
            [
              86.04802907056411,
              26.159442003662885
            ],
            [
              86.04770165620262,
              26.15915867463166
            ],
            [
              86.04516327861946,
              26.156962013340074
            ],
            [
              86.04498739567335,
              26.15680980367304
            ],
            [
              86.04416010478883,
              26.155410525902834
            ],
            [
              86.04469291265185,
              26.15491538140066
            ],
            [
              86.04526234393066,
              26.15438619531108
            ],
            [
              86.04575371430626,
              26.15375291472441
            ],
            [
              86.04787762718365,
              26.152647479179805
            ],
            [
              86.04885790744923,
              26.151666194188795
            ],
            [
              86.04949365865052,
              26.150298868219114
            ],
            [
              86.0500330664359,
              26.149138722254516
            ],
            [
              86.05128565930178,
              26.14754461825265
            ],
            [
              86.05066074807104,
              26.1466625287515
            ],
            [
              86.05004742690403,
              26.14585734982146
            ],
            [
              86.04991597642854,
              26.14407850880324
            ],
            [
              86.04929838287408,
              26.142296460156295
            ],
            [
              86.04933282338374,
              26.141045550177008
            ],
            [
              86.05173302031328,
              26.14030411335989
            ],
            [
              86.05161663009349,
              26.139666807232
            ],
            [
              86.05161396658869,
              26.13960204378332
            ],
            [
              86.05157599839488,
              26.13867877606192
            ],
            [
              86.05158505700619,
              26.138552951231656
            ],
            [
              86.0516581376495,
              26.1375378791473
            ],
            [
              86.0519086454429,
              26.1366176749709
            ],
            [
              86.05197671708018,
              26.135707194355
            ],
            [
              86.05193165039903,
              26.135267910993942
            ],
            [
              86.05111262940503,
              26.134362607099344
            ],
            [
              86.05065703623227,
              26.133591334055524
            ],
            [
              86.05056372103716,
              26.133107761159586
            ],
            [
              86.050696782192,
              26.131681885775684
            ],
            [
              86.05074126227332,
              26.130683488842163
            ],
            [
              86.05023540117388,
              26.13013137689848
            ],
            [
              86.04975339393852,
              26.129623301693073
            ],
            [
              86.04961111966213,
              26.129183376853977
            ],
            [
              86.04983607487728,
              26.128416678844825
            ],
            [
              86.04960564443049,
              26.126856674938562
            ],
            [
              86.04951055326606,
              26.12627294181611
            ],
            [
              86.04943203242541,
              26.125790928298578
            ],
            [
              86.04939105577371,
              26.125060224832772
            ],
            [
              86.04786152398384,
              26.126355028051268
            ],
            [
              86.04691700205646,
              26.127154575628992
            ],
            [
              86.0469626194049,
              26.12798912226588
            ],
            [
              86.04732281329112,
              26.130965650639755
            ],
            [
              86.04635898926323,
              26.131124365343208
            ],
            [
              86.04582027767218,
              26.13131235805153
            ],
            [
              86.04200695174896,
              26.130796334286998
            ],
            [
              86.04061513079384,
              26.131264291698706
            ],
            [
              86.03849976358974,
              26.13119914695581
            ],
            [
              86.03630427474715,
              26.13186105133842
            ],
            [
              86.03366783706758,
              26.131636180181616
            ],
            [
              86.03013201780364,
              26.132255547043858
            ],
            [
              86.02828543910896,
              26.13199931463328
            ],
            [
              86.02541151920761,
              26.132150210624623
            ],
            [
              86.02642841929573,
              26.12714445939168
            ],
            [
              86.0242524822853,
              26.124714787716485
            ],
            [
              86.02355704791482,
              26.121591133103625
            ],
            [
              86.0216507564066,
              26.12137120012826
            ],
            [
              86.02022226711989,
              26.12080566481732
            ],
            [
              86.01832005935296,
              26.121199393712615
            ],
            [
              86.0145976321567,
              26.12152159284174
            ],
            [
              86.0136332547666,
              26.122370592902193
            ],
            [
              86.01199345118233,
              26.12314194326455
            ],
            [
              86.00814771224708,
              26.123735290760987
            ],
            [
              86.00562147090338,
              26.124285573851168
            ],
            [
              86.00429375372693,
              26.12150357179449
            ],
            [
              86.00276872968313,
              26.12147092935784
            ],
            [
              86.00043307670676,
              26.119768297188852
            ],
            [
              86.00000001238304,
              26.120056098295898
            ],
            [
              85.99766450583203,
              26.12160815480608
            ],
            [
              85.99605457931584,
              26.123049218759853
            ],
            [
              85.99578179959158,
              26.124187881937093
            ],
            [
              85.99348642976751,
              26.12487668464927
            ],
            [
              85.9907307613952,
              26.125531663649845
            ],
            [
              85.99096715665547,
              26.129722961777272
            ],
            [
              85.99026906596671,
              26.13001079723707
            ],
            [
              85.98905148673566,
              26.13039609861628
            ],
            [
              85.98920936385025,
              26.13322937879265
            ],
            [
              85.98925472428051,
              26.1356706001732
            ],
            [
              85.98692739868682,
              26.136900983729262
            ],
            [
              85.98451631507433,
              26.136723811399467
            ],
            [
              85.98137123061964,
              26.135918454239178
            ],
            [
              85.97792631637088,
              26.135926840657852
            ],
            [
              85.975281298882,
              26.13755122594039
            ],
            [
              85.97353927240829,
              26.138029314321592
            ],
            [
              85.97040509978935,
              26.13899275690562
            ],
            [
              85.9699077538205,
              26.13779478408217
            ],
            [
              85.9665518751928,
              26.137658088133616
            ],
            [
              85.96589224856787,
              26.137715538951497
            ],
            [
              85.96498269625789,
              26.137792302632324
            ],
            [
              85.96470535219368,
              26.138235920025444
            ],
            [
              85.96576147721869,
              26.140058330658878
            ],
            [
              85.96629631257929,
              26.141662296250257
            ],
            [
              85.9659502959049,
              26.142322881695968
            ],
            [
              85.96291804523979,
              26.14280727203579
            ],
            [
              85.96250974207851,
              26.143914933741005
            ],
            [
              85.96097298513884,
              26.144455002980074
            ],
            [
              85.95954405208435,
              26.144651563231978
            ],
            [
              85.95955266243637,
              26.14607308698451
            ],
            [
              85.95997857527215,
              26.147045751958
            ],
            [
              85.96005575672471,
              26.1482412897364
            ],
            [
              85.9595101891914,
              26.14980993121842
            ],
            [
              85.95950520982979,
              26.149819052046755
            ],
            [
              85.95888226321456,
              26.1509908729838
            ],
            [
              85.95805110238783,
              26.151653848083733
            ],
            [
              85.95717908708026,
              26.152163607845374
            ],
            [
              85.95616863330261,
              26.15210532472573
            ],
            [
              85.95591693164819,
              26.151005485029952
            ],
            [
              85.95636815900869,
              26.149532070981703
            ],
            [
              85.95731957909912,
              26.146427028832896
            ],
            [
              85.9561700149115,
              26.146527450323052
            ],
            [
              85.95508360318668,
              26.145463241984547
            ],
            [
              85.95417218058425,
              26.1452465803668
            ],
            [
              85.95016953920648,
              26.146525119853923
            ],
            [
              85.94500779982101,
              26.14799880894181
            ],
            [
              85.94396048996384,
              26.14762927318652
            ],
            [
              85.94364669675701,
              26.147847372997923
            ],
            [
              85.94275338059744,
              26.14983734127702
            ],
            [
              85.94255456096721,
              26.153439605757505
            ],
            [
              85.94114429041278,
              26.155111620853916
            ],
            [
              85.93814084332892,
              26.15460696517013
            ],
            [
              85.93663167365159,
              26.15479015785875
            ],
            [
              85.93463481669134,
              26.15453347175499
            ],
            [
              85.93337091403606,
              26.15476512361658
            ],
            [
              85.932791524034,
              26.154871583010625
            ],
            [
              85.93094782713477,
              26.155146619662446
            ],
            [
              85.92873054785834,
              26.15396115204376
            ],
            [
              85.92445391672565,
              26.153782656600097
            ],
            [
              85.92419894969518,
              26.15379740214915
            ],
            [
              85.92179927199187,
              26.153925965002507
            ],
            [
              85.92143380589326,
              26.154726473613085
            ],
            [
              85.92282722495129,
              26.157030560076464
            ],
            [
              85.92216948119518,
              26.15743070604699
            ],
            [
              85.92086659794478,
              26.158722987768662
            ],
            [
              85.92146500258643,
              26.160182314251205
            ],
            [
              85.92095229632457,
              26.160586433307056
            ],
            [
              85.91911189893736,
              26.160594937284774
            ],
            [
              85.9179305640331,
              26.16040183789811
            ],
            [
              85.91785401229951,
              26.160135991711122
            ],
            [
              85.91836227908729,
              26.158933170700273
            ],
            [
              85.91939058867784,
              26.158594480998783
            ],
            [
              85.91975687763325,
              26.157929382002052
            ],
            [
              85.91951612913711,
              26.156937632682137
            ],
            [
              85.92062385968029,
              26.155623762721785
            ],
            [
              85.92034069363473,
              26.155088076781425
            ],
            [
              85.92037352616003,
              26.15470879393143
            ],
            [
              85.91963968611626,
              26.154053390776618
            ],
            [
              85.91927768302305,
              26.151947505374054
            ],
            [
              85.91676270295977,
              26.152017849997808
            ],
            [
              85.90984653226481,
              26.15198653367127
            ],
            [
              85.90954089665908,
              26.14742539517183
            ],
            [
              85.90954074933536,
              26.14738930865356
            ],
            [
              85.9104169193511,
              26.141378587767857
            ],
            [
              85.90961053585654,
              26.134897288944796
            ],
            [
              85.90804336285963,
              26.131831129674648
            ],
            [
              85.90585795580947,
              26.129061162221923
            ],
            [
              85.90248181208726,
              26.124319867303726
            ],
            [
              85.89900925398226,
              26.120165684160803
            ],
            [
              85.89856163335766,
              26.119675758745682
            ],
            [
              85.89744370064781,
              26.119116710617917
            ],
            [
              85.8952468427727,
              26.118720337986137
            ],
            [
              85.89191271505298,
              26.119705514948635
            ],
            [
              85.89153243214209,
              26.120560117735053
            ],
            [
              85.89049116615018,
              26.12122368182051
            ],
            [
              85.88983609308542,
              26.1221066087435
            ],
            [
              85.88970253965381,
              26.123303139064337
            ],
            [
              85.88988098100187,
              26.12392957110185
            ],
            [
              85.89010087690531,
              26.126663498762973
            ],
            [
              85.89142637164974,
              26.12678396009422
            ],
            [
              85.89206335533962,
              26.1280718146033
            ],
            [
              85.89262487964731,
              26.129265198121722
            ],
            [
              85.89231724169679,
              26.13061588717449
            ],
            [
              85.89225207431282,
              26.131496238141768
            ],
            [
              85.89334015420916,
              26.13297162506975
            ],
            [
              85.89174398898476,
              26.134580806698924
            ],
            [
              85.88965813503103,
              26.135348248130363
            ],
            [
              85.88830078692492,
              26.134911973975026
            ],
            [
              85.88672899029925,
              26.134571432253782
            ],
            [
              85.88600274371453,
              26.13526965296583
            ],
            [
              85.88513478879209,
              26.135648028002603
            ],
            [
              85.8845067622039,
              26.13599828769486
            ],
            [
              85.88573253137538,
              26.137062500059283
            ],
            [
              85.88616081576352,
              26.138599462983372
            ],
            [
              85.88734523997405,
              26.139411111237372
            ],
            [
              85.88832314958559,
              26.13994374822984
            ],
            [
              85.88805309624827,
              26.141768166811776
            ],
            [
              85.8879216556542,
              26.143339225017314
            ],
            [
              85.88844915267724,
              26.14471784717501
            ],
            [
              85.88926812516223,
              26.145445309303188
            ],
            [
              85.891318241439,
              26.147254960038907
            ],
            [
              85.89297050555456,
              26.14947688704165
            ],
            [
              85.8895984312006,
              26.151003744099214
            ],
            [
              85.88817480539285,
              26.151276320800434
            ],
            [
              85.88657118864319,
              26.151581269635056
            ],
            [
              85.88609313938495,
              26.15102378375057
            ],
            [
              85.8851073416669,
              26.15090178308678
            ],
            [
              85.8839664956291,
              26.150762419722188
            ],
            [
              85.88332128876111,
              26.149822055767384
            ],
            [
              85.88241362381154,
              26.150268283610497
            ],
            [
              85.88109317759897,
              26.15022442622416
            ],
            [
              85.87760946601139,
              26.151462631254823
            ],
            [
              85.87615299869518,
              26.15216399166882
            ],
            [
              85.87443873196038,
              26.151413275769478
            ],
            [
              85.87162529293215,
              26.152716059092292
            ],
            [
              85.86924881871265,
              26.153457400938507
            ],
            [
              85.86752142579493,
              26.153992833111953
            ],
            [
              85.86704852837485,
              26.157262169889353
            ],
            [
              85.86730000724705,
              26.15848862892671
            ],
            [
              85.86824561972922,
              26.15952252734879
            ],
            [
              85.86871248496216,
              26.162697588222173
            ],
            [
              85.86777445695596,
              26.16310785206281
            ],
            [
              85.86729232036319,
              26.163678475654844
            ],
            [
              85.86747345396213,
              26.165780738017585
            ],
            [
              85.8690084636786,
              26.16571095397961
            ],
            [
              85.87057706320016,
              26.165361204327485
            ],
            [
              85.87207070909108,
              26.1650388407632
            ],
            [
              85.87267233419303,
              26.1662638030542
            ],
            [
              85.87201331213429,
              26.167430968825148
            ],
            [
              85.87258032335176,
              26.168714682317965
            ],
            [
              85.87285670891353,
              26.16896621116876
            ],
            [
              85.8744549178052,
              26.167605426671656
            ],
            [
              85.87524874375039,
              26.166410617837705
            ],
            [
              85.87629348442583,
              26.166311254334854
            ],
            [
              85.87745050822356,
              26.167560855825972
            ],
            [
              85.87807445107045,
              26.167336925002477
            ],
            [
              85.8792259277713,
              26.167553086039494
            ],
            [
              85.87995964564422,
              26.1682132757823
            ],
            [
              85.88009194502771,
              26.16676403278384
            ],
            [
              85.88068386562966,
              26.166165755234392
            ],
            [
              85.88166130632065,
              26.166567618627074
            ],
            [
              85.8818811438336,
              26.168389906080378
            ],
            [
              85.88091371666309,
              26.169842726267674
            ],
            [
              85.87937917317225,
              26.170007437235853
            ],
            [
              85.8795220322519,
              26.170539265400226
            ],
            [
              85.88035741785541,
              26.170567264775613
            ],
            [
              85.88105450512599,
              26.170911659203504
            ],
            [
              85.88137039230575,
              26.17106823630987
            ],
            [
              85.88359054798774,
              26.170052095025213
            ],
            [
              85.88484316600645,
              26.16954112265916
            ],
            [
              85.88876790368616,
              26.172953585980615
            ],
            [
              85.88828377193514,
              26.174056861947545
            ],
            [
              85.88630706777997,
              26.175699328110266
            ],
            [
              85.88562543422722,
              26.176365726909815
            ],
            [
              85.88527504724895,
              26.178158864825114
            ],
            [
              85.88430465743465,
              26.179074782299544
            ],
            [
              85.88368002019004,
              26.18011548114217
            ],
            [
              85.88263618232146,
              26.18039981693007
            ],
            [
              85.88228296205682,
              26.18169211416306
            ],
            [
              85.88091394483519,
              26.182907513984063
            ],
            [
              85.88069524458936,
              26.184086372918678
            ],
            [
              85.87997516314245,
              26.185993947892367
            ],
            [
              85.87885327065884,
              26.187587423978005
            ],
            [
              85.87775273202784,
              26.18757409338891
            ],
            [
              85.87595899583145,
              26.188895195960658
            ],
            [
              85.87236321132737,
              26.18904617313699
            ],
            [
              85.8717675007332,
              26.18802879805878
            ],
            [
              85.8699013243923,
              26.187955645732128
            ],
            [
              85.86942960017198,
              26.187673343646807
            ],
            [
              85.8687485693888,
              26.185641012847075
            ],
            [
              85.86887839211703,
              26.184643112282405
            ],
            [
              85.86959964766201,
              26.18293864465694
            ],
            [
              85.86830771667155,
              26.182664352323933
            ],
            [
              85.86760684839192,
              26.181597881920112
            ],
            [
              85.86290563303179,
              26.18268747566637
            ],
            [
              85.86210472836213,
              26.183516780297925
            ],
            [
              85.86211492424061,
              26.184514019004073
            ],
            [
              85.86124682558768,
              26.184955482921985
            ],
            [
              85.86100931192489,
              26.1864051333646
            ],
            [
              85.8610828857433,
              26.187095343903565
            ],
            [
              85.85540202522647,
              26.187403575858788
            ],
            [
              85.85401218236159,
              26.187535805723073
            ],
            [
              85.85228269367434,
              26.188756996866275
            ],
            [
              85.85137430737755,
              26.18916695376984
            ],
            [
              85.85008771417651,
              26.188955742753905
            ],
            [
              85.8480541251043,
              26.189377651726822
            ],
            [
              85.84603491266992,
              26.189701958377643
            ],
            [
              85.84519664257601,
              26.189136775148338
            ],
            [
              85.84452615262437,
              26.18810608484299
            ],
            [
              85.84385255989173,
              26.186475246000928
            ],
            [
              85.8434099060523,
              26.187957303888574
            ],
            [
              85.84103662175036,
              26.18752477495207
            ],
            [
              85.84054541127492,
              26.186330941741694
            ],
            [
              85.83986534887559,
              26.185249116009025
            ],
            [
              85.84009456480011,
              26.1852558310133
            ],
            [
              85.84099617061314,
              26.184498555854315
            ],
            [
              85.84213925525262,
              26.18402444994692
            ],
            [
              85.84104402117336,
              26.181104629396668
            ],
            [
              85.84149013891651,
              26.180285955325317
            ],
            [
              85.84092778636213,
              26.17887575513505
            ],
            [
              85.84077597557068,
              26.17654767211537
            ],
            [
              85.83951330360733,
              26.175108709292445
            ],
            [
              85.83787665939792,
              26.17489429396956
            ],
            [
              85.83755700827712,
              26.17398403139238
            ],
            [
              85.83717203616042,
              26.174017118679288
            ],
            [
              85.83714430786256,
              26.17546137472028
            ],
            [
              85.83747253789431,
              26.178073052617226
            ],
            [
              85.8383841401598,
              26.179323907389207
            ],
            [
              85.83831869789135,
              26.180235775245727
            ],
            [
              85.83773129132368,
              26.180806822888176
            ],
            [
              85.83626545996894,
              26.180749601276894
            ],
            [
              85.83562578582479,
              26.180856010347068
            ],
            [
              85.83494601986952,
              26.180971556253795
            ],
            [
              85.83354708874893,
              26.18028677760577
            ],
            [
              85.83128070037253,
              26.180169574365163
            ],
            [
              85.8291525106161,
              26.179681770285253
            ],
            [
              85.82794773327615,
              26.178797552065202
            ],
            [
              85.82784408206538,
              26.17706047282216
            ],
            [
              85.82696821208698,
              26.176937677894124
            ],
            [
              85.82522764807055,
              26.17695358383398
            ],
            [
              85.82490855210861,
              26.176138105348233
            ],
            [
              85.82508288096928,
              26.174977563363143
            ],
            [
              85.82451574219105,
              26.174569153615106
            ],
            [
              85.8235130777052,
              26.17409929226727
            ],
            [
              85.82360197498573,
              26.172839835614496
            ],
            [
              85.8232141911422,
              26.17127087576994
            ],
            [
              85.82292883141072,
              26.17020242502639
            ],
            [
              85.8225118900497,
              26.168796121936676
            ],
            [
              85.82364920930168,
              26.168186838336712
            ],
            [
              85.82320019000018,
              26.167380800949193
            ],
            [
              85.81969443555215,
              26.168459761882946
            ],
            [
              85.81858045902281,
              26.168716918014113
            ],
            [
              85.81510230710855,
              26.169294733979992
            ],
            [
              85.81052304523475,
              26.16868081308823
            ],
            [
              85.80985953968442,
              26.16799283885357
            ],
            [
              85.80926431597719,
              26.16796362465869
            ],
            [
              85.80822985023195,
              26.169190597610516
            ],
            [
              85.80623869308221,
              26.169062977945288
            ],
            [
              85.80361825529614,
              26.17230879190841
            ],
            [
              85.80428875692589,
              26.174485951650375
            ],
            [
              85.80357007235926,
              26.17693471114993
            ],
            [
              85.8040139685687,
              26.178778824789912
            ],
            [
              85.80475451543441,
              26.17989969327129
            ],
            [
              85.80461725196068,
              26.18155191775635
            ],
            [
              85.80449375427035,
              26.181872842640292
            ],
            [
              85.8031173016931,
              26.182731061268036
            ],
            [
              85.80433104332126,
              26.18343044885321
            ],
            [
              85.80414891708392,
              26.18405837679067
            ],
            [
              85.79856490034464,
              26.1868867981676
            ],
            [
              85.79913483018844,
              26.191077154803246
            ],
            [
              85.80074579066553,
              26.192194691967398
            ],
            [
              85.80341738930366,
              26.192252169126064
            ],
            [
              85.80451705387391,
              26.192080917659833
            ],
            [
              85.80543253955634,
              26.192077437024835
            ],
            [
              85.80832694913101,
              26.192729649620574
            ],
            [
              85.80935401275829,
              26.193055078660137
            ],
            [
              85.80983918206347,
              26.19513357909505
            ],
            [
              85.80963188323524,
              26.19781057169508
            ],
            [
              85.80821543137334,
              26.19976567071295
            ],
            [
              85.80653430977758,
              26.200765044086125
            ],
            [
              85.80345566202637,
              26.200348143855003
            ],
            [
              85.79957782269268,
              26.20019600695821
            ],
            [
              85.79849622234455,
              26.201048638721634
            ],
            [
              85.79904866468472,
              26.20258535324599
            ],
            [
              85.79990574729726,
              26.20398112205416
            ],
            [
              85.8008389037397,
              26.20453712072923
            ],
            [
              85.80300844923688,
              26.204181312897656
            ],
            [
              85.80617923718683,
              26.20291005271788
            ],
            [
              85.8089687693504,
              26.20247954434675
            ],
            [
              85.81158742577725,
              26.202934176318198
            ],
            [
              85.81329323128035,
              26.202895887253643
            ],
            [
              85.81529967326466,
              26.200893267397042
            ],
            [
              85.81626849192556,
              26.20053752903119
            ],
            [
              85.8169252277719,
              26.200814655948474
            ],
            [
              85.81720562071817,
              26.20190123038909
            ],
            [
              85.81686731967375,
              26.204348528705808
            ],
            [
              85.81657063308484,
              26.20714770111351
            ],
            [
              85.81619127004879,
              26.209387535402644
            ],
            [
              85.81565783695834,
              26.2118491751754
            ],
            [
              85.81682426701542,
              26.2119980360188
            ],
            [
              85.82158782455795,
              26.21209653689364
            ],
            [
              85.82279613227696,
              26.211590801364732
            ],
            [
              85.82496440036981,
              26.210954857644747
            ],
            [
              85.82649709961936,
              26.210289843072765
            ],
            [
              85.82788157594875,
              26.20899360202208
            ],
            [
              85.82839510237248,
              26.20863050661003
            ],
            [
              85.82933096723548,
              26.20868091463367
            ],
            [
              85.83008208996702,
              26.208822280879378
            ],
            [
              85.83233285214907,
              26.20869585231031
            ],
            [
              85.83535877687795,
              26.20850756764822
            ],
            [
              85.8389806349832,
              26.20843411788942
            ],
            [
              85.84133173988079,
              26.208365827053466
            ],
            [
              85.8445062836869,
              26.20691310596895
            ],
            [
              85.84590487434602,
              26.206465063883506
            ],
            [
              85.84694680868449,
              26.206722492381132
            ],
            [
              85.84783063773635,
              26.207368677312783
            ],
            [
              85.84854695614051,
              26.207541700382986
            ],
            [
              85.84956211080208,
              26.207447176336018
            ],
            [
              85.85008448293642,
              26.207860206686092
            ],
            [
              85.85024912885663,
              26.208739545849753
            ],
            [
              85.85093757074094,
              26.20932785838167
            ],
            [
              85.85247560957654,
              26.209732097165112
            ],
            [
              85.85394287015092,
              26.20999220306264
            ],
            [
              85.85502337455442,
              26.210926340887156
            ],
            [
              85.85571489227027,
              26.212101291116834
            ],
            [
              85.85607513825877,
              26.213070041236058
            ],
            [
              85.85738295595505,
              26.2134481178914
            ],
            [
              85.85960312421344,
              26.21319954289837
            ],
            [
              85.86460291711613,
              26.21254191464387
            ],
            [
              85.86562354700933,
              26.212528561927403
            ],
            [
              85.86643779884747,
              26.212285893286026
            ],
            [
              85.86673102871916,
              26.21190552560147
            ],
            [
              85.86613775884763,
              26.210405272738615
            ],
            [
              85.86613383770143,
              26.209669733270335
            ],
            [
              85.86688303085175,
              26.209427339946533
            ],
            [
              85.86984998208055,
              26.209446175128292
            ],
            [
              85.87138559276994,
              26.20938088304232
            ],
            [
              85.87175757614597,
              26.20876102711035
            ],
            [
              85.87165998586843,
              26.20829209672992
            ],
            [
              85.87224410999202,
              26.208050404950733
            ],
            [
              85.8733206330622,
              26.208221731259368
            ],
            [
              85.87593408195539,
              26.208566899332247
            ],
            [
              85.87985285841482,
              26.208811514061523
            ],
            [
              85.88125747137961,
              26.209513902773775
            ],
            [
              85.8815575679733,
              26.210424184327255
            ],
            [
              85.88136690414754,
              26.211250873635734
            ],
            [
              85.88081615962325,
              26.21210622022814
            ],
            [
              85.8808185428537,
              26.212548470111418
            ],
            [
              85.88231948575964,
              26.212541879988688
            ],
            [
              85.88362035319058,
              26.21231733928652
            ],
            [
              85.88363411358408,
              26.21231496338828
            ],
            [
              85.88642457370736,
              26.212068000267344
            ],
            [
              85.88802454778855,
              26.211871348969357
            ],
            [
              85.88997187074568,
              26.212065766208994
            ],
            [
              85.89114849039304,
              26.212213968325358
            ],
            [
              85.89147250732611,
              26.212004937264297
            ],
            [
              85.89156955232625,
              26.211444901030173
            ],
            [
              85.8913346859986,
              26.210593028853054
            ],
            [
              85.89113343642548,
              26.209474738188003
            ],
            [
              85.89043869016454,
              26.207771974277126
            ],
            [
              85.89098756619303,
              26.20659167299608
            ],
            [
              85.8909785480059,
              26.204953552190332
            ],
            [
              85.89022264623704,
              26.20395509410809
            ],
            [
              85.89005712895097,
              26.202953938645138
            ],
            [
              85.89037860365181,
              26.202275580084994
            ],
            [
              85.89200851678477,
              26.20209231371272
            ],
            [
              85.89412640735652,
              26.201491664086568
            ],
            [
              85.89573603024218,
              26.201254300982487
            ],
            [
              85.89701567766943,
              26.201068029796367
            ],
            [
              85.89799550698078,
              26.20094633297634
            ],
            [
              85.89848448065115,
              26.20070490321574
            ],
            [
              85.89906038339328,
              26.199005472113065
            ],
            [
              85.90032268794569,
              26.197496991003206
            ],
            [
              85.90091102516797,
              26.197142327998442
            ],
            [
              85.9019891732905,
              26.197606792703667
            ],
            [
              85.90388044227225,
              26.19765686777089
            ],
            [
              85.90804160755158,
              26.197475436732827
            ],
            [
              85.91181743509986,
              26.199042131057265
            ],
            [
              85.9125210135967,
              26.200492030964163
            ],
            [
              85.91417318338914,
              26.20071456895955
            ],
            [
              85.9149148261995,
              26.200932272861035
            ],
            [
              85.91638406935571,
              26.20153919613287
            ],
            [
              85.91742565065628,
              26.20171039580867
            ],
            [
              85.91811422459293,
              26.202266756746223
            ],
            [
              85.91867524674238,
              26.20326603369436
            ],
            [
              85.91998396634722,
              26.20378795269232
            ],
            [
              85.92043840877807,
              26.204521419246756
            ],
            [
              85.92135714726018,
              26.20507673670142
            ],
            [
              85.9231222164192,
              26.2066479832509
            ],
            [
              85.92368262591764,
              26.207529876015673
            ],
            [
              85.92598801195717,
              26.21081794522911
            ],
            [
              85.92612354707228,
              26.211760512194896
            ],
            [
              85.92670958101418,
              26.211875068376465
            ],
            [
              85.92742900938586,
              26.211695680793035
            ],
            [
              85.93272333292077,
              26.215280913017953
            ],
            [
              85.93665928067689,
              26.218398590086036
            ],
            [
              85.93824118514613,
              26.219383847945494
            ],
            [
              85.93874645066253,
              26.219367891388078
            ],
            [
              85.93904808068044,
              26.2204585662086
            ],
            [
              85.93950390831348,
              26.220542107649834
            ],
            [
              85.94173902543653,
              26.22112703708667
            ],
            [
              85.94253107181915,
              26.222228895354473
            ],
            [
              85.94338319034146,
              26.22416980090499
            ],
            [
              85.94503240108337,
              26.22718997983794
            ],
            [
              85.94665385478132,
              26.228066612006714
            ],
            [
              85.94921292595536,
              26.230084954644504
            ],
            [
              85.95098668002659,
              26.231308314278206
            ],
            [
              85.95175902455843,
              26.232428233908436
            ],
            [
              85.95188417514886,
              26.234936744215375
            ],
            [
              85.95150466299246,
              26.236739231899545
            ],
            [
              85.95046230644579,
              26.237330953026333
            ],
            [
              85.95010624930146,
              26.238041198115422
            ],
            [
              85.95002792519186,
              26.240839517183783
            ],
            [
              85.95045083675625,
              26.24209653580092
            ],
            [
              85.951630737051,
              26.24273610422566
            ],
            [
              85.95225676219273,
              26.243644631993813
            ],
            [
              85.95287981301256,
              26.244056764362476
            ],
            [
              85.95379062476059,
              26.244052306337416
            ],
            [
              85.95499438969918,
              26.243662818671694
            ],
            [
              85.95737171103,
              26.242031042882864
            ],
            [
              85.95809866279222,
              26.239766552023827
            ],
            [
              85.95822817380507,
              26.237189105734373
            ],
            [
              85.9585810113874,
              26.235138568291863
            ],
            [
              85.96019599631698,
              26.235726275144863
            ],
            [
              85.96098699436567,
              26.236602361110748
            ],
            [
              85.96221480989936,
              26.2368895700906
            ],
            [
              85.96446452284916,
              26.236526451353114
            ],
            [
              85.9655132619259,
              26.236990566291485
            ],
            [
              85.9660687800976,
              26.23781364072183
            ],
            [
              85.96834336380437,
              26.239869128207843
            ],
            [
              85.9687160209168,
              26.241058664822546
            ],
            [
              85.96869114656661,
              26.24271047089225
            ],
            [
              85.96944393477472,
              26.24467883322979
            ],
            [
              85.96944919171573,
              26.245531683661103
            ],
            [
              85.97010086555544,
              26.24570441792368
            ],
            [
              85.97166680606378,
              26.24561078135201
            ],
            [
              85.97335910629492,
              26.244925392738462
            ],
            [
              85.97476061378374,
              26.24415115875275
            ],
            [
              85.97846563881632,
              26.24360445563673
            ],
            [
              85.97993787605736,
              26.24374588337799
            ],
            [
              85.98199914940997,
              26.244443909305925
            ],
            [
              85.98447449220967,
              26.244133433020366
            ],
            [
              85.98561181864818,
              26.24354095530646
            ],
            [
              85.98732816588115,
              26.242710834274238
            ],
            [
              85.9885052328895,
              26.24286724634644
            ],
            [
              85.99222748221929,
              26.242685615883733
            ],
            [
              85.9940433052936,
              26.2425543808995
            ],
            [
              85.99554319178078,
              26.243106193205996
            ],
            [
              85.99675351262431,
              26.24298257680929
            ],
            [
              85.99766184502217,
              26.242511485644602
            ],
            [
              85.99893323603366,
              26.24185207969441
            ],
            [
              86.0000000159763,
              26.241750601861213
            ],
            [
              86.0002386166006,
              26.241727905203067
            ],
            [
              86.00102106178946,
              26.24198554009236
            ],
            [
              86.00138610298494,
              26.242719261352022
            ],
            [
              86.00155296325234,
              26.243774355832077
            ],
            [
              86.00214544080978,
              26.244064604781684
            ],
            [
              86.00322117156588,
              26.244031907224755
            ],
            [
              86.00741785712984,
              26.242922242632883
            ],
            [
              86.00823890382482,
              26.242191327396053
            ],
            [
              86.0093699402597,
              26.241422699219346
            ],
            [
              86.01014514323077,
              26.242113643043943
            ],
            [
              86.01085992641414,
              26.245052191229878
            ],
            [
              86.01112830978336,
              26.247076953641724
            ],
            [
              86.01031812731344,
              26.247934143637977
            ],
            [
              86.01071384058599,
              26.248757900329085
            ],
            [
              86.0112724327926,
              26.249224248110597
            ],
            [
              86.01212422432816,
              26.2493686822513
            ],
            [
              86.01316373321536,
              26.249307482868254
            ],
            [
              86.01420314418623,
              26.249246372883434
            ],
            [
              86.01421812179693,
              26.249245094269714
            ]
          ]
        ]
      }
    }
  ]
}