{
  "type": "FeatureCollection",
  "features": [
    {
      "type": "Feature",
      "properties": {
        "object_id": "10-218-01229",
        "stname": "BIHAR",
        "dtname": "Siwan",
        "sdtname": "Nautan",
        "st_area_sh": 0.0,
        "st_length_": 0.0,
        "remarks": "",
        "dist_lgd": 222,
        "state_lgd": 10,
        "subdt_lgd": 1229,
        "ac_no": null,
        "st_length(shape)": 58324.35348563096,
        "st_area(shape)": 81827813.66620097
      },
      "geometry": {
        "type": "Polygon",
        "coordinates": [
          [
            [
              84.17695148643466,
              26.369576211191497
            ],
            [
              84.18099494905555,
              26.3691802476114
            ],
            [
              84.18317986023567,
              26.369331548958574
            ],
            [
              84.18486258083263,
              26.36933308460329
            ],
            [
              84.18553629034629,
              26.369432054769863
            ],
            [
              84.1866578549448,
              26.369030040658558
            ],
            [
              84.18749519168911,
              26.368369794325297
            ],
            [
              84.18833342944367,
              26.36725841963909
            ],
            [
              84.18937585695721,
              26.366208391708724
            ],
            [
              84.18973481027004,
              26.365846815109542
            ],
            [
              84.19040930760617,
              26.36529162364085
            ],
            [
              84.1902374221631,
              26.3645303348698
            ],
            [
              84.18973393890423,
              26.364227208308687
            ],
            [
              84.19023523296873,
              26.362964839266226
            ],
            [
              84.1906852386204,
              26.36289681078402
            ],
            [
              84.19158228727999,
              26.362761197999365
            ],
            [
              84.19382326501193,
              26.36266079182862
            ],
            [
              84.19639722216859,
              26.3624585996387
            ],
            [
              84.19791217160643,
              26.362560452376705
            ],
            [
              84.1981344776898,
              26.361648987028612
            ],
            [
              84.19818712794859,
              26.359881544674128
            ],
            [
              84.19684359593158,
              26.357658180308757
            ],
            [
              84.19729293503332,
              26.356519990900246
            ],
            [
              84.19773964476622,
              26.355388438307973
            ],
            [
              84.19964252087976,
              26.35538958615571
            ],
            [
              84.20238802661126,
              26.355334997370168
            ],
            [
              84.20371694034367,
              26.35546472669102
            ],
            [
              84.20461332424993,
              26.35546418818496
            ],
            [
              84.20572967502652,
              26.35485438360482
            ],
            [
              84.20780209018363,
              26.353843659163147
            ],
            [
              84.20959568444623,
              26.351722161741304
            ],
            [
              84.21037443396601,
              26.351823056365763
            ],
            [
              84.21200263670669,
              26.352626232878002
            ],
            [
              84.21317873712778,
              26.353280736402297
            ],
            [
              84.21349062231299,
              26.35321738627001
            ],
            [
              84.21356595772764,
              26.352754161320487
            ],
            [
              84.21495821167072,
              26.352197392040726
            ],
            [
              84.21514175005969,
              26.35181662306824
            ],
            [
              84.21463576139949,
              26.351617297728925
            ],
            [
              84.21256093157092,
              26.351062607855287
            ],
            [
              84.21138748028159,
              26.35050740416168
            ],
            [
              84.21043556432109,
              26.349902371130966
            ],
            [
              84.20942033689602,
              26.348389298154512
            ],
            [
              84.20925614462502,
              26.346468733006834
            ],
            [
              84.20919743073806,
              26.344951742999324
            ],
            [
              84.20930490428033,
              26.3445945170649
            ],
            [
              84.2096980402863,
              26.34328775225726
            ],
            [
              84.21033391725175,
              26.342289353248916
            ],
            [
              84.21082192433492,
              26.341523114219182
            ],
            [
              84.21148827395142,
              26.340462365276302
            ],
            [
              84.21199526602976,
              26.338947366323296
            ],
            [
              84.21215681905048,
              26.337430149704037
            ],
            [
              84.21232281334193,
              26.33706839296422
            ],
            [
              84.21282774468504,
              26.33596796118377
            ],
            [
              84.21338962113234,
              26.335712718344258
            ],
            [
              84.21490396780062,
              26.335408327151978
            ],
            [
              84.21669644006741,
              26.33540708088605
            ],
            [
              84.21820566544028,
              26.33510706532362
            ],
            [
              84.2188136461229,
              26.334807581145107
            ],
            [
              84.21920746574682,
              26.33425129309018
            ],
            [
              84.21942834620384,
              26.333389378093177
            ],
            [
              84.22380060479513,
              26.333541864667744
            ],
            [
              84.22554076007808,
              26.332656153671742
            ],
            [
              84.22648173096515,
              26.33217720001648
            ],
            [
              84.22922958938437,
              26.3311611569655
            ],
            [
              84.22967884494281,
              26.331007432213326
            ],
            [
              84.22776693896404,
              26.326779261325147
            ],
            [
              84.22803307744338,
              26.326583834032053
            ],
            [
              84.22838351113403,
              26.326326506111798
            ],
            [
              84.23174311058362,
              26.32526358972894
            ],
            [
              84.23364828907924,
              26.327885487240167
            ],
            [
              84.2344754901322,
              26.327838299152198
            ],
            [
              84.23755710681546,
              26.326675134763438
            ],
            [
              84.23962876289612,
              26.325663883179196
            ],
            [
              84.24029797903673,
              26.325311343277384
            ],
            [
              84.24091313097023,
              26.324705111685336
            ],
            [
              84.24119426143334,
              26.324250349152727
            ],
            [
              84.24129827736009,
              26.321130371829014
            ],
            [
              84.24084977997977,
              26.319565257604996
            ],
            [
              84.2409614486544,
              26.31865607768968
            ],
            [
              84.24104277762866,
              26.318208216133357
            ],
            [
              84.241070849083,
              26.318053639191223
            ],
            [
              84.24185433541928,
              26.317946911226183
            ],
            [
              84.24333813128308,
              26.3180747193779
            ],
            [
              84.24482704215413,
              26.318198097977973
            ],
            [
              84.24579592908695,
              26.318229963803347
            ],
            [
              84.24647778901516,
              26.31825238703259
            ],
            [
              84.24719239523044,
              26.318094678719937
            ],
            [
              84.24790532518935,
              26.31793307784208
            ],
            [
              84.24862543538238,
              26.317206629607785
            ],
            [
              84.24916339238858,
              26.316922009202106
            ],
            [
              84.24981737040697,
              26.316552322264886
            ],
            [
              84.24999814827306,
              26.316525181771055
            ],
            [
              84.2501893313251,
              26.316473925144358
            ],
            [
              84.25092702424317,
              26.316397849401344
            ],
            [
              84.25148244899007,
              26.31640850318092
            ],
            [
              84.2519979490125,
              26.31662592107459
            ],
            [
              84.25229626334865,
              26.31692489265864
            ],
            [
              84.25262492097853,
              26.316998868069597
            ],
            [
              84.25344321074385,
              26.316901766224095
            ],
            [
              84.25389760107247,
              26.316739034776063
            ],
            [
              84.25483825575256,
              26.316551702251303
            ],
            [
              84.25484822256063,
              26.316549718207828
            ],
            [
              84.25516942058036,
              26.316303223085686
            ],
            [
              84.25524573336205,
              26.315402371729938
            ],
            [
              84.25529480922435,
              26.315231871813396
            ],
            [
              84.25548335212775,
              26.315091113351727
            ],
            [
              84.25621826386167,
              26.314920211170442
            ],
            [
              84.2564140489829,
              26.314896891081958
            ],
            [
              84.25742118168898,
              26.31464547492981
            ],
            [
              84.25849666540837,
              26.314467544070638
            ],
            [
              84.2595740553528,
              26.314208434636914
            ],
            [
              84.26068731682318,
              26.313913908163606
            ],
            [
              84.26180025669666,
              26.31363290160519
            ],
            [
              84.26290935357736,
              26.313302184801532
            ],
            [
              84.2640069331578,
              26.312822357940114
            ],
            [
              84.26482230519512,
              26.312634900711895
            ],
            [
              84.26514082443865,
              26.31250112133655
            ],
            [
              84.26514747466669,
              26.31200497208291
            ],
            [
              84.26577333541671,
              26.31178682321206
            ],
            [
              84.2663987703653,
              26.31158670824276
            ],
            [
              84.26691475817293,
              26.311357434881543
            ],
            [
              84.2667001542448,
              26.310690137176167
            ],
            [
              84.26655536288901,
              26.30982114977252
            ],
            [
              84.26650453171864,
              26.309427671262675
            ],
            [
              84.2667989761126,
              26.30925282299084
            ],
            [
              84.26758132338509,
              26.309093424256748
            ],
            [
              84.26758866621422,
              26.309091928075695
            ],
            [
              84.26873297525745,
              26.308964855690018
            ],
            [
              84.27023209907493,
              26.308803387025463
            ],
            [
              84.27086295266132,
              26.308644500628493
            ],
            [
              84.27125351229907,
              26.30842635831548
            ],
            [
              84.27165287991821,
              26.308045962343787
            ],
            [
              84.27191623541678,
              26.307915626652463
            ],
            [
              84.27263318174336,
              26.307654063391425
            ],
            [
              84.27303645523735,
              26.30760427971391
            ],
            [
              84.2730448464004,
              26.30760324413072
            ],
            [
              84.27400601321169,
              26.30738692380817
            ],
            [
              84.27519938823572,
              26.30730133661249
            ],
            [
              84.27602455011296,
              26.307335067234217
            ],
            [
              84.27624122375951,
              26.30748806886315
            ],
            [
              84.27629230016994,
              26.30787252685145
            ],
            [
              84.27641494715569,
              26.308407229150742
            ],
            [
              84.27663135310426,
              26.30878580483976
            ],
            [
              84.27716008171755,
              26.30950868702965
            ],
            [
              84.27743168644537,
              26.310095845110865
            ],
            [
              84.27753375123132,
              26.310440667859776
            ],
            [
              84.27757767076388,
              26.310703175835062
            ],
            [
              84.27781430856932,
              26.31107311173805
            ],
            [
              84.27825310324626,
              26.31136116559802
            ],
            [
              84.27875694672952,
              26.311650454795288
            ],
            [
              84.27926958561777,
              26.312206095298894
            ],
            [
              84.27942890812162,
              26.31288586224143
            ],
            [
              84.27944707115836,
              26.313608068224973
            ],
            [
              84.27958364382762,
              26.31397610175686
            ],
            [
              84.27993027225472,
              26.314781239123864
            ],
            [
              84.28021433122566,
              26.315264863349004
            ],
            [
              84.28052999203,
              26.316110015809134
            ],
            [
              84.28059335559686,
              26.316612007816744
            ],
            [
              84.2806854616596,
              26.31695007962015
            ],
            [
              84.28078239706525,
              26.317305873854114
            ],
            [
              84.281100176097,
              26.317632230316942
            ],
            [
              84.28148648580517,
              26.317811000974142
            ],
            [
              84.28222349869854,
              26.31797837774019
            ],
            [
              84.28267760156626,
              26.318041128766932
            ],
            [
              84.2836631863836,
              26.318068838988534
            ],
            [
              84.28475837914031,
              26.317904620359585
            ],
            [
              84.28589238540553,
              26.3175787067219
            ],
            [
              84.28675312056808,
              26.317378447962138
            ],
            [
              84.28726230992564,
              26.317225670357324
            ],
            [
              84.28821458341561,
              26.31696397270714
            ],
            [
              84.28856612562731,
              26.316916484657035
            ],
            [
              84.28919705018059,
              26.31691037633447
            ],
            [
              84.28974227725239,
              26.31692971183951
            ],
            [
              84.29066843941199,
              26.31692918040103
            ],
            [
              84.29086660506873,
              26.317018647230153
            ],
            [
              84.29156828901863,
              26.317198841636753
            ],
            [
              84.29198862780805,
              26.317206786623313
            ],
            [
              84.29304052266642,
              26.317181544963475
            ],
            [
              84.29424932805208,
              26.317082560693017
            ],
            [
              84.2949957948155,
              26.316844001248384
            ],
            [
              84.29528312006082,
              26.31675919081975
            ],
            [
              84.29559669767198,
              26.316837296261053
            ],
            [
              84.29560821407395,
              26.317187239394794
            ],
            [
              84.29694975722091,
              26.316805293166748
            ],
            [
              84.29896238769923,
              26.31564536123607
            ],
            [
              84.3005927113623,
              26.314681521657793
            ],
            [
              84.30145228320654,
              26.314285561835227
            ],
            [
              84.30164321293363,
              26.314201079677428
            ],
            [
              84.30155882789077,
              26.312882840183438
            ],
            [
              84.30164002481268,
              26.31090689261056
            ],
            [
              84.30157820994135,
              26.310504815254255
            ],
            [
              84.30065453881004,
              26.310783010210045
            ],
            [
              84.29963573519179,
              26.311065102716032
            ],
            [
              84.29909514522349,
              26.31102991567604
            ],
            [
              84.29893914109631,
              26.31051448394433
            ],
            [
              84.2988937312587,
              26.308718142309033
            ],
            [
              84.29876687476752,
              26.308315642644295
            ],
            [
              84.2982948558998,
              26.307856749946346
            ],
            [
              84.29775716928648,
              26.307478615734396
            ],
            [
              84.29725879474665,
              26.30718202997104
            ],
            [
              84.2965039997022,
              26.305800685647537
            ],
            [
              84.2956243226636,
              26.304991539140286
            ],
            [
              84.29499784566931,
              26.303841215369832
            ],
            [
              84.29468635484453,
              26.302751615749163
            ],
            [
              84.29431798089935,
              26.301259980209107
            ],
            [
              84.29394412633262,
              26.3004542230219
            ],
            [
              84.29318674324183,
              26.299993400236342
            ],
            [
              84.29223100674645,
              26.299928367605816
            ],
            [
              84.29160196057042,
              26.29969406122573
            ],
            [
              84.29116741222983,
              26.298955574057725
            ],
            [
              84.29054812175778,
              26.29694335773975
            ],
            [
              84.28955868855776,
              26.29367418063539
            ],
            [
              84.28894595668564,
              26.290863219974195
            ],
            [
              84.28857872719412,
              26.28925429305936
            ],
            [
              84.28698762577301,
              26.288530592721525
            ],
            [
              84.2860915517855,
              26.288515604094023
            ],
            [
              84.28526927619522,
              26.28804971132195
            ],
            [
              84.28336331436871,
              26.287865474338286
            ],
            [
              84.28227914214389,
              26.28820557183326
            ],
            [
              84.28234083484435,
              26.28860315907502
            ],
            [
              84.28209371639451,
              26.289427253835836
            ],
            [
              84.28159133357185,
              26.289035762297477
            ],
            [
              84.28077080789977,
              26.288357874646632
            ],
            [
              84.2803108399316,
              26.288282596328134
            ],
            [
              84.27951277483658,
              26.288534411962022
            ],
            [
              84.2790352816355,
              26.288747815651078
            ],
            [
              84.27789010302308,
              26.289195745950053
            ],
            [
              84.27781058056087,
              26.28912301808129
            ],
            [
              84.27781321262465,
              26.288807224770064
            ],
            [
              84.27765584665148,
              26.288463143882545
            ],
            [
              84.27745545766443,
              26.287875190825105
            ],
            [
              84.27735070422082,
              26.287229131274813
            ],
            [
              84.27691111902644,
              26.2865131906154
            ],
            [
              84.2763465691929,
              26.285778306746302
            ],
            [
              84.27590083413203,
              26.28578884816435
            ],
            [
              84.27538889592974,
              26.285943278056923
            ],
            [
              84.27453217533821,
              26.2860232172746
            ],
            [
              84.27364075103063,
              26.286057811863923
            ],
            [
              84.27310038025126,
              26.286013512714018
            ],
            [
              84.27263411509293,
              26.28549585792066
            ],
            [
              84.27187906492695,
              26.284786780130034
            ],
            [
              84.27156189315633,
              26.2844010503206
            ],
            [
              84.27067463523505,
              26.284534898369103
            ],
            [
              84.26959141073283,
              26.284757649221444
            ],
            [
              84.26827066268636,
              26.285235981390596
            ],
            [
              84.26778852339864,
              26.285417637929935
            ],
            [
              84.26768805402064,
              26.28604869607144
            ],
            [
              84.26766640821553,
              26.286838268598117
            ],
            [
              84.26768506802064,
              26.288183184672015
            ],
            [
              84.26778188574701,
              26.288585428852393
            ],
            [
              84.26775523991904,
              26.289365933817134
            ],
            [
              84.26783442730964,
              26.291257264867664
            ],
            [
              84.26799176633337,
              26.291601261759656
            ],
            [
              84.26763697940686,
              26.29211328706621
            ],
            [
              84.26674073114619,
              26.29270736206353
            ],
            [
              84.26562682827873,
              26.292988524860572
            ],
            [
              84.26466764494756,
              26.293925052750122
            ],
            [
              84.26368237543892,
              26.293805441602807
            ],
            [
              84.2623800985513,
              26.293855137783595
            ],
            [
              84.26277036803323,
              26.29271164023203
            ],
            [
              84.2625324411454,
              26.290647780118427
            ],
            [
              84.26190344886827,
              26.289840162004488
            ],
            [
              84.2609576180955,
              26.289206448943393
            ],
            [
              84.26096536696318,
              26.288290456312755
            ],
            [
              84.2600149799353,
              26.2875934590909
            ],
            [
              84.26021608308298,
              26.286908960996364
            ],
            [
              84.25953851261028,
              26.284156154892628
            ],
            [
              84.25917317317413,
              26.282375675738773
            ],
            [
              84.25847326699017,
              26.282258009120596
            ],
            [
              84.2575246658131,
              26.281962616154065
            ],
            [
              84.25734115796682,
              26.281162620836913
            ],
            [
              84.2556916570691,
              26.280862385875746
            ],
            [
              84.25320730776038,
              26.28158972074575
            ],
            [
              84.25328514498311,
              26.280101104934392
            ],
            [
              84.2525341075915,
              26.27894975937884
            ],
            [
              84.25178578760362,
              26.276882269752182
            ],
            [
              84.25169054192901,
              26.27572641370161
            ],
            [
              84.25111596869351,
              26.275009470095743
            ],
            [
              84.25016791279376,
              26.275237523311382
            ],
            [
              84.25000003024358,
              26.275265051250297
            ],
            [
              84.24847850693448,
              26.275514513283294
            ],
            [
              84.24787874942999,
              26.27571294580749
            ],
            [
              84.24594968922257,
              26.277351903741074
            ],
            [
              84.24406346967103,
              26.278496625605907
            ],
            [
              84.24260564769534,
              26.279391543107952
            ],
            [
              84.24125829424511,
              26.280165479341868
            ],
            [
              84.24034049809573,
              26.281075160116956
            ],
            [
              84.24052383436376,
              26.282527414337842
            ],
            [
              84.2409369318337,
              26.28384763889913
            ],
            [
              84.24121189087082,
              26.285050696098946
            ],
            [
              84.2407190616312,
              26.286365230632516
            ],
            [
              84.24078405025044,
              26.28630301014338
            ],
            [
              84.240039375626,
              26.28710998519595
            ],
            [
              84.23647372959965,
              26.287327698062338
            ],
            [
              84.23462918379248,
              26.287347418658534
            ],
            [
              84.2323824981652,
              26.287378009939815
            ],
            [
              84.2303237356038,
              26.28701009975466
            ],
            [
              84.22770031720762,
              26.286808810399112
            ],
            [
              84.22706200041786,
              26.286780672274844
            ],
            [
              84.2264235704404,
              26.286752525284136
            ],
            [
              84.22472521466592,
              26.287131283640758
            ],
            [
              84.22342708260506,
              26.287438750305526
            ],
            [
              84.22045698098451,
              26.28791237667603
            ],
            [
              84.2187241388863,
              26.28826181838892
            ],
            [
              84.21809399856225,
              26.287976178129032
            ],
            [
              84.2167191144435,
              26.28698441739828
            ],
            [
              84.21558695691115,
              26.286228200858403
            ],
            [
              84.21431869203681,
              26.28541509680225
            ],
            [
              84.2126927961698,
              26.284944550677814
            ],
            [
              84.2115166328666,
              26.284885431146993
            ],
            [
              84.2101383540144,
              26.28480156627023
            ],
            [
              84.20838047407257,
              26.28439498699979
            ],
            [
              84.20714872661286,
              26.283671572882785
            ],
            [
              84.20650041516726,
              26.282327326184777
            ],
            [
              84.20647737877012,
              26.281631912903705
            ],
            [
              84.2068655821269,
              26.281197804054557
            ],
            [
              84.20750987720484,
              26.280393690766825
            ],
            [
              84.20815706934964,
              26.279680320057903
            ],
            [
              84.2083882103638,
              26.278554400024774
            ],
            [
              84.20859415902414,
              26.27742915775575
            ],
            [
              84.20680303512859,
              26.27753793995604
            ],
            [
              84.20519979297643,
              26.277747558776653
            ],
            [
              84.20319132798608,
              26.277877238081537
            ],
            [
              84.20203606578461,
              26.277938584310068
            ],
            [
              84.20148134262195,
              26.27739365361805
            ],
            [
              84.20147754993481,
              26.27739399997637
            ],
            [
              84.20098952398703,
              26.276726024308815
            ],
            [
              84.20073396586513,
              26.27609740765628
            ],
            [
              84.20043736192125,
              26.27524297332025
            ],
            [
              84.19986105673385,
              26.27404794522187
            ],
            [
              84.19952768744038,
              26.273603063293347
            ],
            [
              84.19897662491248,
              26.273421135326053
            ],
            [
              84.19813427826382,
              26.27330757982568
            ],
            [
              84.19747181026764,
              26.273052999642672
            ],
            [
              84.19695507326509,
              26.272643220771048
            ],
            [
              84.19683703822999,
              26.272116817977224
            ],
            [
              84.19655495375606,
              26.27170073499229
            ],
            [
              84.19633114029963,
              26.271525190246972
            ],
            [
              84.1953266531321,
              26.27158243971216
            ],
            [
              84.19364463411938,
              26.271945337721
            ],
            [
              84.1924713400352,
              26.27247612331362
            ],
            [
              84.1915374370928,
              26.272637370297968
            ],
            [
              84.19050048930245,
              26.272725732306636
            ],
            [
              84.1889526965595,
              26.272328486165183
            ],
            [
              84.18778003129603,
              26.27186062091469
            ],
            [
              84.18653002467985,
              26.2715914656169
            ],
            [
              84.18508092175232,
              26.27138818402873
            ],
            [
              84.18293684439176,
              26.27096148236461
            ],
            [
              84.18105360365372,
              26.27081514985944
            ],
            [
              84.17905218864173,
              26.27115616327526
            ],
            [
              84.17790791912441,
              26.271549965781965
            ],
            [
              84.17618651078313,
              26.272246563182442
            ],
            [
              84.17532747882638,
              26.27244548218869
            ],
            [
              84.17522304158976,
              26.272469664665564
            ],
            [
              84.17522070597,
              26.272487360297156
            ],
            [
              84.1752077100428,
              26.272585788170982
            ],
            [
              84.17520999625518,
              26.273524203764207
            ],
            [
              84.1753496438577,
              26.27416306107017
            ],
            [
              84.17555748437003,
              26.27467243027196
            ],
            [
              84.17616413195277,
              26.275451312322595
            ],
            [
              84.17650066960428,
              26.27643239900529
            ],
            [
              84.1765471493354,
              26.276992727878547
            ],
            [
              84.17640139678221,
              26.277431976144907
            ],
            [
              84.1760517464225,
              26.27802510981548
            ],
            [
              84.17597226528281,
              26.278207599233596
            ],
            [
              84.17578679641427,
              26.27863344381168
            ],
            [
              84.1757851093782,
              26.27911612983954
            ],
            [
              84.1759281436293,
              26.280648309618023
            ],
            [
              84.17600780802533,
              26.281457414969886
            ],
            [
              84.17609682118852,
              26.282361452298897
            ],
            [
              84.17609962932208,
              26.28348484496192
            ],
            [
              84.17591622657875,
              26.284031625329344
            ],
            [
              84.17535512358091,
              26.28488225129971
            ],
            [
              84.17488678421262,
              26.28562191702948
            ],
            [
              84.17478709906383,
              26.286224479803575
            ],
            [
              84.17459034735536,
              26.287321382799433
            ],
            [
              84.17453537584987,
              26.289382005599357
            ],
            [
              84.17443450492493,
              26.290652230716848
            ],
            [
              84.1745052975592,
              26.292273214123774
            ],
            [
              84.17478756618779,
              26.293429182369486
            ],
            [
              84.17497638128071,
              26.294277043052137
            ],
            [
              84.17525216407293,
              26.295515402893496
            ],
            [
              84.17528404707902,
              26.295658567379
            ],
            [
              84.17574904830774,
              26.297535443756363
            ],
            [
              84.1758897828717,
              26.29792053876243
            ],
            [
              84.17599014624854,
              26.29819516163827
            ],
            [
              84.17642494521908,
              26.299384894784772
            ],
            [
              84.17683548338876,
              26.30041255392413
            ],
            [
              84.1770654871358,
              26.30145470369358
            ],
            [
              84.17728931316863,
              26.30233883328304
            ],
            [
              84.17739338299427,
              26.30253824185854
            ],
            [
              84.17773893164643,
              26.303200339939245
            ],
            [
              84.1780051967882,
              26.303542776960164
            ],
            [
              84.17856897856221,
              26.304267836361287
            ],
            [
              84.17949338182049,
              26.305240246302326
            ],
            [
              84.17961351532006,
              26.30536661733778
            ],
            [
              84.1806991877314,
              26.306421085269967
            ],
            [
              84.18174249020407,
              26.30715891608681
            ],
            [
              84.18276769791198,
              26.30783621468089
            ],
            [
              84.18322052157869,
              26.308135365973865
            ],
            [
              84.1839426817272,
              26.308699948912736
            ],
            [
              84.1846319824009,
              26.30958870421653
            ],
            [
              84.18559622055214,
              26.311114453292653
            ],
            [
              84.1857884806842,
              26.311858100306647
            ],
            [
              84.18597354800575,
              26.312899357223085
            ],
            [
              84.18590378124755,
              26.313714552175824
            ],
            [
              84.18555152936675,
              26.31461893790866
            ],
            [
              84.18530392133509,
              26.31533589915333
            ],
            [
              84.18500106601515,
              26.315853273361665
            ],
            [
              84.18462206410184,
              26.316414262872524
            ],
            [
              84.18359624014965,
              26.317639250093364
            ],
            [
              84.18295854768903,
              26.318339515344086
            ],
            [
              84.18259648530703,
              26.319027151706017
            ],
            [
              84.18197371206664,
              26.320557800837957
            ],
            [
              84.1812823281998,
              26.321613401091806
            ],
            [
              84.18016442693097,
              26.3229665290054
            ],
            [
              84.18012706330337,
              26.323011755275015
            ],
            [
              84.17983137743774,
              26.323231503807413
            ],
            [
              84.1789137429851,
              26.323912702042573
            ],
            [
              84.17747746979644,
              26.32512955279645
            ],
            [
              84.17690431140751,
              26.325849102751057
            ],
            [
              84.17667863664185,
              26.326277747356087
            ],
            [
              84.1766586688897,
              26.327100451891344
            ],
            [
              84.17665576283977,
              26.327220173600153
            ],
            [
              84.17658557297506,
              26.327394463362875
            ],
            [
              84.17641602584665,
              26.32781546313483
            ],
            [
              84.17558048034297,
              26.328412536997554
            ],
            [
              84.17518699129907,
              26.328535608297216
            ],
            [
              84.17480584959874,
              26.328974716842804
            ],
            [
              84.17453534261219,
              26.329393450083057
            ],
            [
              84.17406120372041,
              26.330363064711005
            ],
            [
              84.17342396401065,
              26.33145126461914
            ],
            [
              84.17310508274606,
              26.332211904010983
            ],
            [
              84.17276647088455,
              26.33316614183629
            ],
            [
              84.1725423618824,
              26.334352718206386
            ],
            [
              84.1724294086169,
              26.335085840907134
            ],
            [
              84.17243322106698,
              26.335223394990642
            ],
            [
              84.17246828321083,
              26.336488577028717
            ],
            [
              84.17247841620721,
              26.336854225685272
            ],
            [
              84.17248807668982,
              26.3372028290752
            ],
            [
              84.17260885967131,
              26.339216362832776
            ],
            [
              84.17265551637055,
              26.339994156715694
            ],
            [
              84.17281499158798,
              26.342907134285312
            ],
            [
              84.17298183838065,
              26.344281883292318
            ],
            [
              84.17301221940359,
              26.34482385905911
            ],
            [
              84.17308310456431,
              26.346088427376667
            ],
            [
              84.17306843777067,
              26.34710319306399
            ],
            [
              84.17308673735134,
              26.34845575336477
            ],
            [
              84.17309707157035,
              26.349219586266326
            ],
            [
              84.17297159309484,
              26.35046675526688
            ],
            [
              84.17281917773721,
              26.351997606917088
            ],
            [
              84.17282410499656,
              26.352309964665217
            ],
            [
              84.17283316720115,
              26.352884460227987
            ],
            [
              84.17284281241236,
              26.353495844053207
            ],
            [
              84.1731289051691,
              26.354204878069485
            ],
            [
              84.17313089763239,
              26.354209817245994
            ],
            [
              84.17315254074252,
              26.354241101643797
            ],
            [
              84.17363398922578,
              26.354937057167735
            ],
            [
              84.17415978394135,
              26.3558132450313
            ],
            [
              84.1743654900566,
              26.35615603117013
            ],
            [
              84.17488533523006,
              26.357644254274188
            ],
            [
              84.17493197306466,
              26.35777776898485
            ],
            [
              84.17509184533743,
              26.358204992163216
            ],
            [
              84.17550939575622,
              26.3591561066625
            ],
            [
              84.17560120627321,
              26.359492004099316
            ],
            [
              84.17590488265333,
              26.36060303489985
            ],
            [
              84.1760061901595,
              26.361791521628902
            ],
            [
              84.17606342541949,
              26.364174650386154
            ],
            [
              84.17613546671203,
              26.365330978722778
            ],
            [
              84.17621578508161,
              26.365821357084073
            ],
            [
              84.17633631922978,
              26.366557260780755
            ],
            [
              84.17643199070585,
              26.367141372860512
            ],
            [
              84.17662925984392,
              26.36799489770627
            ],
            [
              84.17664043488605,
              26.368043246114084
            ],
            [
              84.1766576286406,
              26.36813411814378
            ],
            [
              84.17681351059693,
              26.36895795609323
            ],
            [
              84.17683783068661,
              26.36958705726255
            ],
            [
              84.17685333471009,
              26.36958582102298
            ],
            [
              84.17695148643466,
              26.369576211191497
            ]
          ]
        ]
      }
    }
  ]
}