{
  "type": "FeatureCollection",
  "features": [
    {
      "type": "Feature",
      "properties": {
        "object_id": "10-221-01296",
        "stname": "BIHAR",
        "dtname": "Samastipur",
        "sdtname": "Vidyapati Nagar",
        "st_area_sh": 0.0,
        "st_length_": 0.0,
        "remarks": "",
        "dist_lgd": 217,
        "state_lgd": 10,
        "subdt_lgd": 1296,
        "ac_no": null,
        "st_length(shape)": 62930.2690484309,
        "st_area(shape)": 106322816.42401849
      },
      "geometry": {
        "type": "Polygon",
        "coordinates": [
          [
            [
              85.74037653679893,
              25.667295789708422
            ],
            [
              85.74267226235588,
              25.667269999175975
            ],
            [
              85.74351051178854,
              25.667646270127594
            ],
            [
              85.74374468461681,
              25.668868580613108
            ],
            [
              85.74644586028563,
              25.66811022210586
            ],
            [
              85.74733066490792,
              25.667705518605963
            ],
            [
              85.74718709615921,
              25.666717656335457
            ],
            [
              85.74770494527608,
              25.666595352879764
            ],
            [
              85.7498824327787,
              25.666956676107624
            ],
            [
              85.75000000697803,
              25.668528337145073
            ],
            [
              85.75031980272762,
              25.669144096403414
            ],
            [
              85.7514659578087,
              25.66929360910794
            ],
            [
              85.75235614423782,
              25.66898363121363
            ],
            [
              85.7543493190037,
              25.66924755402338
            ],
            [
              85.75524125355437,
              25.66935736495173
            ],
            [
              85.75617239687222,
              25.669317993633275
            ],
            [
              85.75625497091144,
              25.668816783233375
            ],
            [
              85.75697617165922,
              25.66858404290191
            ],
            [
              85.75810148313077,
              25.66854400578341
            ],
            [
              85.75934648343589,
              25.667343703746877
            ],
            [
              85.75951803740065,
              25.666693217029827
            ],
            [
              85.75951294035971,
              25.66549715287836
            ],
            [
              85.75980189694558,
              25.664345263332212
            ],
            [
              85.76030524366054,
              25.663264903799615
            ],
            [
              85.76085244792428,
              25.661958658066478
            ],
            [
              85.76110218226823,
              25.66095585021086
            ],
            [
              85.7628445447118,
              25.66079628493371
            ],
            [
              85.76344012505022,
              25.66148472916109
            ],
            [
              85.76436848808228,
              25.66313779689065
            ],
            [
              85.76530634810354,
              25.663527112989794
            ],
            [
              85.76634336416583,
              25.663776253088276
            ],
            [
              85.76752465774763,
              25.664029241959494
            ],
            [
              85.76844770095654,
              25.66440508995241
            ],
            [
              85.76937689942184,
              25.665087847955792
            ],
            [
              85.76996988183247,
              25.66630426833691
            ],
            [
              85.77067368939969,
              25.66782279368247
            ],
            [
              85.77096522415042,
              25.66959994840361
            ],
            [
              85.77196449030954,
              25.670318494091894
            ],
            [
              85.77260718189471,
              25.67037032482456
            ],
            [
              85.77308376510238,
              25.670012134781963
            ],
            [
              85.7728846957405,
              25.668925133927512
            ],
            [
              85.77368634601183,
              25.66773077709067
            ],
            [
              85.77431913367101,
              25.6666497988713
            ],
            [
              85.77448382091373,
              25.665611170335584
            ],
            [
              85.77513522525885,
              25.664241319690248
            ],
            [
              85.77576798237531,
              25.6631603316972
            ],
            [
              85.77576380610758,
              25.662199076027687
            ],
            [
              85.77678128920232,
              25.661428151265103
            ],
            [
              85.77792547697295,
              25.66115324517464
            ],
            [
              85.77813145078615,
              25.660421325165792
            ],
            [
              85.77804370334918,
              25.659731087737047
            ],
            [
              85.77740324677244,
              25.65903837906769
            ],
            [
              85.77723001205977,
              25.658154414277067
            ],
            [
              85.77744149973218,
              25.657539806399914
            ],
            [
              85.77739530207208,
              25.657233087121945
            ],
            [
              85.77646286338357,
              25.65696567201748
            ],
            [
              85.77482421413445,
              25.655757560794985
            ],
            [
              85.77422945036463,
              25.655258665171218
            ],
            [
              85.77562260621626,
              25.6549964386122
            ],
            [
              85.77668232001086,
              25.654762438854583
            ],
            [
              85.77820403735608,
              25.654296569255273
            ],
            [
              85.77964781417228,
              25.65421459461616
            ],
            [
              85.7812146431144,
              25.653820787123532
            ],
            [
              85.78138758228135,
              25.653513281716325
            ],
            [
              85.7812107516126,
              25.65293623221319
            ],
            [
              85.78065959476162,
              25.65217095164436
            ],
            [
              85.77986863893375,
              25.651230578349633
            ],
            [
              85.77926999893344,
              25.649847142666317
            ],
            [
              85.77926375474391,
              25.648425551723026
            ],
            [
              85.77985063220386,
              25.647155134696828
            ],
            [
              85.780483918428,
              25.64622762062986
            ],
            [
              85.78098420278614,
              25.644492738109683
            ],
            [
              85.78212682479325,
              25.64391539636343
            ],
            [
              85.78386069276755,
              25.64302444723484
            ],
            [
              85.78526223708732,
              25.642441677302493
            ],
            [
              85.78686686803493,
              25.641627895685843
            ],
            [
              85.78818234207236,
              25.64073848116194
            ],
            [
              85.78877051669959,
              25.639770425029
            ],
            [
              85.78936197556747,
              25.639538121228473
            ],
            [
              85.78961660033984,
              25.639690635943612
            ],
            [
              85.79008810986281,
              25.640460607867244
            ],
            [
              85.7905010698905,
              25.642593901623982
            ],
            [
              85.79106260497794,
              25.644555044661825
            ],
            [
              85.79153822339501,
              25.64624576132813
            ],
            [
              85.79124087205281,
              25.64655377297387
            ],
            [
              85.79098920004283,
              25.647055702107984
            ],
            [
              85.79154449543235,
              25.647631345883525
            ],
            [
              85.7924324279884,
              25.647975574900794
            ],
            [
              85.79282101672244,
              25.649124943728562
            ],
            [
              85.79342266428229,
              25.651126576310862
            ],
            [
              85.79364268505155,
              25.652430138852562
            ],
            [
              85.79433053764103,
              25.6547744726763
            ],
            [
              85.79476385978126,
              25.65589214309273
            ],
            [
              85.79603351614593,
              25.655846719296672
            ],
            [
              85.79683920434451,
              25.655613584403472
            ],
            [
              85.79819702586275,
              25.655260926007777
            ],
            [
              85.7984019872746,
              25.65433946961519
            ],
            [
              85.79843955481978,
              25.652759672856927
            ],
            [
              85.79911467738336,
              25.652296819137753
            ],
            [
              85.79992100787732,
              25.65221707972547
            ],
            [
              85.80128011937633,
              25.652135208118626
            ],
            [
              85.80208622888473,
              25.65201485017916
            ],
            [
              85.80291010706948,
              25.651415919617936
            ],
            [
              85.80302928386327,
              25.650260132605396
            ],
            [
              85.80306645614972,
              25.648603623721648
            ],
            [
              85.80272235109027,
              25.6474133788463
            ],
            [
              85.80245705343403,
              25.64495473939175
            ],
            [
              85.80177475872122,
              25.64491667193496
            ],
            [
              85.80096568028078,
              25.644382679965826
            ],
            [
              85.80051919961828,
              25.643671209839813
            ],
            [
              85.80047015699367,
              25.642746240748643
            ],
            [
              85.80034213898084,
              25.64197940795185
            ],
            [
              85.80025539765701,
              25.641519384140388
            ],
            [
              85.79983040289945,
              25.641132864711885
            ],
            [
              85.79834232386838,
              25.641291933935253
            ],
            [
              85.79860030294999,
              25.64217558229532
            ],
            [
              85.79822400406734,
              25.642641836922866
            ],
            [
              85.79737281530136,
              25.642681153879394
            ],
            [
              85.7964413252338,
              25.642607878671843
            ],
            [
              85.79495521530983,
              25.64211247113531
            ],
            [
              85.79391376875655,
              25.641917750361277
            ],
            [
              85.79267810284557,
              25.641755314628732
            ],
            [
              85.79178533735326,
              25.64140666290013
            ],
            [
              85.79122476705642,
              25.640776877132144
            ],
            [
              85.79086242080676,
              25.639920684799055
            ],
            [
              85.79010432984357,
              25.6385378809024
            ],
            [
              85.78965661220091,
              25.63751503585793
            ],
            [
              85.78948808286373,
              25.63658143836397
            ],
            [
              85.78956973433313,
              25.63590413135244
            ],
            [
              85.79036813988967,
              25.635192648756615
            ],
            [
              85.79124437727906,
              25.635171313786145
            ],
            [
              85.7912384430083,
              25.63386251705389
            ],
            [
              85.79159518826211,
              25.632371838279333
            ],
            [
              85.79133683907463,
              25.63139341782932
            ],
            [
              85.79076734671035,
              25.63097579061174
            ],
            [
              85.79070742997922,
              25.629820600208305
            ],
            [
              85.79103716828237,
              25.628984378400656
            ],
            [
              85.79217605419622,
              25.628704848969793
            ],
            [
              85.79303423814333,
              25.628020223209646
            ],
            [
              85.79402512212252,
              25.626933320060488
            ],
            [
              85.79549535342552,
              25.62619665200569
            ],
            [
              85.79744137741879,
              25.626067576303367
            ],
            [
              85.7981436623416,
              25.625040411026255
            ],
            [
              85.79805415420668,
              25.623957606736703
            ],
            [
              85.79771636340536,
              25.62302912920217
            ],
            [
              85.79757089471981,
              25.621693752654245
            ],
            [
              85.79742488165523,
              25.620259018052977
            ],
            [
              85.79753545079197,
              25.619378547941334
            ],
            [
              85.79897816220625,
              25.61917005492561
            ],
            [
              85.80054606463517,
              25.619123483154823
            ],
            [
              85.80220433039514,
              25.61922557960473
            ],
            [
              85.80278919293393,
              25.619751456952333
            ],
            [
              85.80279322996279,
              25.620631517700875
            ],
            [
              85.80318433577625,
              25.621234813830213
            ],
            [
              85.80474025557757,
              25.621811159620812
            ],
            [
              85.80615922721387,
              25.621855384636614
            ],
            [
              85.80724010531655,
              25.621977628650964
            ],
            [
              85.80821510438656,
              25.621797863763504
            ],
            [
              85.80929202541043,
              25.62108515909727
            ],
            [
              85.81010956059094,
              25.620238100801043
            ],
            [
              85.81119097588615,
              25.61942602033079
            ],
            [
              85.81224695897737,
              25.61954842316037
            ],
            [
              85.81321605431935,
              25.619192657164284
            ],
            [
              85.8141882263912,
              25.61949124218567
            ],
            [
              85.8154670168257,
              25.619359925261698
            ],
            [
              85.81666062271674,
              25.619102568134068
            ],
            [
              85.81794263001828,
              25.619652754028234
            ],
            [
              85.81898598728819,
              25.620262434601933
            ],
            [
              85.8208431202891,
              25.620304844998202
            ],
            [
              85.82423343942651,
              25.62031867075657
            ],
            [
              85.82726011963855,
              25.620306738760256
            ],
            [
              85.82842917906449,
              25.620126103855593
            ],
            [
              85.82925970657892,
              25.619946836758984
            ],
            [
              85.83144874102621,
              25.61985278337002
            ],
            [
              85.83132944655308,
              25.619329132345523
            ],
            [
              85.83116044290546,
              25.61875587365258
            ],
            [
              85.83095655498035,
              25.618236783016652
            ],
            [
              85.83082717063,
              25.617993045375346
            ],
            [
              85.83066791819472,
              25.617871140727896
            ],
            [
              85.83032453897401,
              25.61760474229522
            ],
            [
              85.82964273474137,
              25.6171260663582
            ],
            [
              85.82955811164496,
              25.617031303606147
            ],
            [
              85.82951828034525,
              25.616918482299358
            ],
            [
              85.82954827329598,
              25.61681461561324
            ],
            [
              85.82965286324617,
              25.616679294264163
            ],
            [
              85.82983209960325,
              25.616507820850554
            ],
            [
              85.83006621404103,
              25.616264193085332
            ],
            [
              85.8303151758338,
              25.615988900273475
            ],
            [
              85.83058408741243,
              25.615740763670843
            ],
            [
              85.8310023897211,
              25.615348272728053
            ],
            [
              85.83114183430432,
              25.615212867095757
            ],
            [
              85.83144559332943,
              25.61503697125494
            ],
            [
              85.8318886963265,
              25.614879162296717
            ],
            [
              85.8322271437963,
              25.614843131386188
            ],
            [
              85.83260056896833,
              25.614825167363705
            ],
            [
              85.83294397424022,
              25.614924611401744
            ],
            [
              85.83350643189748,
              25.615182009118744
            ],
            [
              85.8341086471926,
              25.61552974108079
            ],
            [
              85.83422806922646,
              25.615579362373982
            ],
            [
              85.83432767532348,
              25.615556859894852
            ],
            [
              85.83438244470804,
              25.61551621366741
            ],
            [
              85.83439241870265,
              25.615453090038283
            ],
            [
              85.834372492273,
              25.61537184934063
            ],
            [
              85.83433274541493,
              25.61524990880802
            ],
            [
              85.83411878198564,
              25.614875297647743
            ],
            [
              85.8338502683607,
              25.614252310710786
            ],
            [
              85.83369615878044,
              25.613651996716325
            ],
            [
              85.83363650256074,
              25.613385702283495
            ],
            [
              85.83368134825633,
              25.613259379837565
            ],
            [
              85.83376592374202,
              25.613205158171446
            ],
            [
              85.83397507220141,
              25.613182719238477
            ],
            [
              85.83437327380732,
              25.613115105939276
            ],
            [
              85.83493585812705,
              25.613061082667837
            ],
            [
              85.83586674093347,
              25.612921415241317
            ],
            [
              85.83646915385795,
              25.61275465817936
            ],
            [
              85.83694704231775,
              25.612592233813515
            ],
            [
              85.83759566368212,
              25.612276447223014
            ],
            [
              85.83767895457692,
              25.61223589627547
            ],
            [
              85.83788808327338,
              25.612091557147906
            ],
            [
              85.8379627674095,
              25.611978744138444
            ],
            [
              85.83801761943903,
              25.61167182760434
            ],
            [
              85.83811232342957,
              25.61141452682412
            ],
            [
              85.83825171680884,
              25.611252116838127
            ],
            [
              85.83846083921708,
              25.611067144983036
            ],
            [
              85.83901348637312,
              25.610782872870423
            ],
            [
              85.84077090997081,
              25.60986708709912
            ],
            [
              85.84124387476452,
              25.609614498631256
            ],
            [
              85.84177665298311,
              25.60923100767052
            ],
            [
              85.84215998208114,
              25.60886547310976
            ],
            [
              85.84279735743648,
              25.608333012996045
            ],
            [
              85.84315077712715,
              25.608125521404403
            ],
            [
              85.84336981064793,
              25.608057819376498
            ],
            [
              85.84384274759385,
              25.607900027935894
            ],
            [
              85.84388481659693,
              25.607903603613135
            ],
            [
              85.84400204763983,
              25.607913568362402
            ],
            [
              85.84413146612619,
              25.60795874388025
            ],
            [
              85.8444450464323,
              25.608062620692987
            ],
            [
              85.84455286043608,
              25.608098649597224
            ],
            [
              85.84482333508328,
              25.6081890393595
            ],
            [
              85.84521154832152,
              25.608360681862667
            ],
            [
              85.84546037985858,
              25.6084148360602
            ],
            [
              85.84579887583743,
              25.60839231765086
            ],
            [
              85.84599310327994,
              25.608284056195128
            ],
            [
              85.84616234587946,
              25.60811257316669
            ],
            [
              85.84630677790919,
              25.607932136930454
            ],
            [
              85.84638147911325,
              25.607733541725025
            ],
            [
              85.84647115523313,
              25.607458227643797
            ],
            [
              85.84656581969776,
              25.607015911316633
            ],
            [
              85.84653608186859,
              25.60655555031937
            ],
            [
              85.84659085574475,
              25.60642018171095
            ],
            [
              85.84664562962087,
              25.60638856079252
            ],
            [
              85.84687454999967,
              25.606379622295982
            ],
            [
              85.84724290957182,
              25.606284920690822
            ],
            [
              85.84778057103229,
              25.606271462708754
            ],
            [
              85.84816881930482,
              25.606158678230134
            ],
            [
              85.84844764109765,
              25.606054961780796
            ],
            [
              85.84876620256205,
              25.605887991806966
            ],
            [
              85.84907488615153,
              25.605639863397478
            ],
            [
              85.84931396288295,
              25.605152452081825
            ],
            [
              85.84956782678222,
              25.604836531613262
            ],
            [
              85.85003597570771,
              25.603803030284457
            ],
            [
              85.85044427168243,
              25.60290494623132
            ],
            [
              85.85056883657133,
              25.60256191183994
            ],
            [
              85.85063360689995,
              25.601984282348653
            ],
            [
              85.85069347961362,
              25.60146069723809
            ],
            [
              85.85075324902104,
              25.60110415234252
            ],
            [
              85.85089769183053,
              25.600670892394106
            ],
            [
              85.85094766241482,
              25.60015183339399
            ],
            [
              85.85089301969272,
              25.599357466140596
            ],
            [
              85.85078852586226,
              25.599059582629874
            ],
            [
              85.85058951668746,
              25.59868041798096
            ],
            [
              85.8504652159033,
              25.598319356359518
            ],
            [
              85.85021143195407,
              25.59766030538398
            ],
            [
              85.85006724516444,
              25.59718188660226
            ],
            [
              85.84989812743075,
              25.596437089973204
            ],
            [
              85.84982362385601,
              25.596116689809488
            ],
            [
              85.8496893293143,
              25.595624714935017
            ],
            [
              85.8495948013936,
              25.595295217718977
            ],
            [
              85.84952531401142,
              25.59455499812651
            ],
            [
              85.84954028892719,
              25.594072052655996
            ],
            [
              85.84957024414867,
              25.593959242898194
            ],
            [
              85.84990893057035,
              25.59270458789978
            ],
            [
              85.85009824332995,
              25.591878638789684
            ],
            [
              85.8502775084331,
              25.591467955332575
            ],
            [
              85.8503971083334,
              25.590872153942605
            ],
            [
              85.85054153497319,
              25.590199709088896
            ],
            [
              85.85077055775994,
              25.59001017890294
            ],
            [
              85.85146241593723,
              25.589721441952182
            ],
            [
              85.85212934676375,
              25.58947783333073
            ],
            [
              85.85208462413732,
              25.589030986273517
            ],
            [
              85.85203935892848,
              25.588931984946274
            ],
            [
              85.85189063744332,
              25.588606714780877
            ],
            [
              85.85182098656777,
              25.588268204100117
            ],
            [
              85.8517662701838,
              25.588096671303784
            ],
            [
              85.8516368678671,
              25.58805150205635
            ],
            [
              85.851393033658,
              25.58805148423171
            ],
            [
              85.85089536339731,
              25.58808748432587
            ],
            [
              85.85074606070216,
              25.588051368371556
            ],
            [
              85.85066647625617,
              25.587961081678955
            ],
            [
              85.85063163958947,
              25.58783466998617
            ],
            [
              85.85060681913816,
              25.58757741270855
            ],
            [
              85.85051723195149,
              25.58735630508187
            ],
            [
              85.85048243391232,
              25.587153144973918
            ],
            [
              85.85037298587307,
              25.586864252858348
            ],
            [
              85.85026849743248,
              25.58676492321976
            ],
            [
              85.85007439395747,
              25.58672881496846
            ],
            [
              85.84968629480527,
              25.58672874285891
            ],
            [
              85.84948216343673,
              25.586710704123313
            ],
            [
              85.8493528096291,
              25.586629417158942
            ],
            [
              85.8492334343076,
              25.5864939433535
            ],
            [
              85.8487061340156,
              25.585361049946517
            ],
            [
              85.84857893706295,
              25.58500427718962
            ],
            [
              85.8485419821688,
              25.584900620987653
            ],
            [
              85.8483183861047,
              25.583411115673055
            ],
            [
              85.84819409789694,
              25.58287398135704
            ],
            [
              85.84817317074405,
              25.58268389994258
            ],
            [
              85.84864622177605,
              25.580147591868855
            ],
            [
              85.8486721507484,
              25.577367349638102
            ],
            [
              85.84873103262035,
              25.576202676117404
            ],
            [
              85.84851652840523,
              25.575097758092436
            ],
            [
              85.84749005856436,
              25.57539588033857
            ],
            [
              85.847464246373,
              25.575210092160756
            ],
            [
              85.84734502017187,
              25.574311918240983
            ],
            [
              85.84717111262104,
              25.573531054201943
            ],
            [
              85.84711145101144,
              25.573305395040332
            ],
            [
              85.84690733401598,
              25.57335046694371
            ],
            [
              85.84664859765458,
              25.573454250643316
            ],
            [
              85.84578749867437,
              25.574063345111895
            ],
            [
              85.8452699163571,
              25.574302508991895
            ],
            [
              85.84445870980778,
              25.574618267817936
            ],
            [
              85.84364244843835,
              25.57495204039214
            ],
            [
              85.84286608664056,
              25.575204590238553
            ],
            [
              85.84205989269051,
              25.575412023875597
            ],
            [
              85.8414029062142,
              25.575569891395695
            ],
            [
              85.8408555348638,
              25.57569611833157
            ],
            [
              85.84021348018419,
              25.575853916602103
            ],
            [
              85.83946693526731,
              25.576007182699293
            ],
            [
              85.83916621793773,
              25.576042039042825
            ],
            [
              85.83903896798448,
              25.57605678879037
            ],
            [
              85.83847664058293,
              25.57613331761117
            ],
            [
              85.83791426287571,
              25.576173817596878
            ],
            [
              85.83750120403336,
              25.576205299029617
            ],
            [
              85.83708815776738,
              25.576245807904204
            ],
            [
              85.83673485126445,
              25.576254738118724
            ],
            [
              85.83604807934829,
              25.57625911774006
            ],
            [
              85.83540617738223,
              25.5762047107583
            ],
            [
              85.83490352506502,
              25.576204590835243
            ],
            [
              85.83452528132979,
              25.57636247918803
            ],
            [
              85.83407733821001,
              25.57643908965264
            ],
            [
              85.83348008790345,
              25.57664651628889
            ],
            [
              85.83303719331555,
              25.576777248096757
            ],
            [
              85.83239518624661,
              25.57679515139108
            ],
            [
              85.83166868274375,
              25.576718200833547
            ],
            [
              85.82985227306959,
              25.576618358774727
            ],
            [
              85.82761292128829,
              25.57660404422122
            ],
            [
              85.82664245332053,
              25.576635361052347
            ],
            [
              85.82638868733763,
              25.576635311624777
            ],
            [
              85.82571679601413,
              25.576716330689734
            ],
            [
              85.82527391400264,
              25.57678383492123
            ],
            [
              85.82485080840213,
              25.576864950309783
            ],
            [
              85.82450242556529,
              25.57695054733546
            ],
            [
              85.82343729672615,
              25.57731579373761
            ],
            [
              85.82313366436348,
              25.577416722614352
            ],
            [
              85.82296519162017,
              25.57747272287093
            ],
            [
              85.82235229715297,
              25.57767644878295
            ],
            [
              85.82204368722532,
              25.577725972343927
            ],
            [
              85.82182475341752,
              25.57771689638862
            ],
            [
              85.8215013509321,
              25.5776807027587
            ],
            [
              85.82033691872819,
              25.57745001308141
            ],
            [
              85.81942132165464,
              25.577296265092134
            ],
            [
              85.8186201708466,
              25.577146957265576
            ],
            [
              85.81822705280692,
              25.577043017140895
            ],
            [
              85.81770954684646,
              25.576943488123415
            ],
            [
              85.81713740984199,
              25.576780853064466
            ],
            [
              85.81677904941729,
              25.576726487644496
            ],
            [
              85.8163112301735,
              25.576757917883832
            ],
            [
              85.8159181220153,
              25.576784804024648
            ],
            [
              85.81540546785567,
              25.576870404348774
            ],
            [
              85.81458438073656,
              25.576987364295924
            ],
            [
              85.81405672381337,
              25.577100015843428
            ],
            [
              85.81389747856464,
              25.57713601437028
            ],
            [
              85.81290207695788,
              25.577302565047614
            ],
            [
              85.81227500617717,
              25.577410702212507
            ],
            [
              85.81172758002957,
              25.577518760682313
            ],
            [
              85.81092627920285,
              25.577577079917628
            ],
            [
              85.81056798794842,
              25.57762653626636
            ],
            [
              85.80969472488093,
              25.577752347790565
            ],
            [
              85.80966213579906,
              25.57775704417684
            ],
            [
              85.80950513364361,
              25.577793424958397
            ],
            [
              85.80944513336914,
              25.57780732936789
            ],
            [
              85.8081249880922,
              25.578113229208785
            ],
            [
              85.80779576542206,
              25.57818951282136
            ],
            [
              85.80693973473667,
              25.57836510390816
            ],
            [
              85.8058198598692,
              25.578612847296807
            ],
            [
              85.80532207192924,
              25.578784038787244
            ],
            [
              85.80526230791172,
              25.578847206080965
            ],
            [
              85.80524733030097,
              25.578941979646665
            ],
            [
              85.8052720483443,
              25.579149670955946
            ],
            [
              85.80541621177773,
              25.579470118987768
            ],
            [
              85.80550568308175,
              25.57971391408756
            ],
            [
              85.80556017937842,
              25.580020898862827
            ],
            [
              85.80557504380145,
              25.580138217919835
            ],
            [
              85.8053013163546,
              25.58023286568271
            ],
            [
              85.8048731747986,
              25.58041771669387
            ],
            [
              85.80429394379836,
              25.580664378187144
            ],
            [
              85.8042062026496,
              25.580701740120972
            ],
            [
              85.80369849281732,
              25.580868511089108
            ],
            [
              85.80299662830605,
              25.581066737671318
            ],
            [
              85.80239695793816,
              25.581254001149933
            ],
            [
              85.80113507200066,
              25.581648050305407
            ],
            [
              85.7998757256005,
              25.581990400861905
            ],
            [
              85.79929836489264,
              25.582111980719418
            ],
            [
              85.79881055274392,
              25.5822290570824
            ],
            [
              85.79830785910417,
              25.582350614010497
            ],
            [
              85.79780008010162,
              25.58251284772101
            ],
            [
              85.79681945308633,
              25.58282829968302
            ],
            [
              85.79575919311606,
              25.583161687996057
            ],
            [
              85.79538095117746,
              25.58324272614057
            ],
            [
              85.79499764813059,
              25.58329211938006
            ],
            [
              85.79444027942941,
              25.583355063098345
            ],
            [
              85.79413161021294,
              25.58341806998243
            ],
            [
              85.79376327669193,
              25.583503608845852
            ],
            [
              85.79373275822677,
              25.58351663104913
            ],
            [
              85.7933302294362,
              25.583688385124702
            ],
            [
              85.79290704478395,
              25.583882270636824
            ],
            [
              85.79259342315531,
              25.583972321386696
            ],
            [
              85.79227496679383,
              25.58400824573544
            ],
            [
              85.79169256743558,
              25.584134267695227
            ],
            [
              85.79059749325644,
              25.58437288561061
            ],
            [
              85.78927850590792,
              25.584561700376568
            ],
            [
              85.7882780647524,
              25.584705555804973
            ],
            [
              85.78756136007264,
              25.58484047095414
            ],
            [
              85.78654099069087,
              25.58502496077763
            ],
            [
              85.78566995724194,
              25.585150731305486
            ],
            [
              85.78453515686603,
              25.585249384121624
            ],
            [
              85.78382337944558,
              25.58538883593961
            ],
            [
              85.78349979370385,
              25.585429213689974
            ],
            [
              85.78260392722719,
              25.585460225186573
            ],
            [
              85.78143437821946,
              25.585450486240624
            ],
            [
              85.7782691858754,
              25.58543491931982
            ],
            [
              85.77764203155137,
              25.58552475500111
            ],
            [
              85.77635796261626,
              25.585596093932903
            ],
            [
              85.77531270630786,
              25.585690187235443
            ],
            [
              85.77520323670903,
              25.585626879332878
            ],
            [
              85.77515360119631,
              25.585505021897063
            ],
            [
              85.77506960332734,
              25.58483698128223
            ],
            [
              85.77501948002947,
              25.58455881027008
            ],
            [
              85.77468385326965,
              25.584548881655866
            ],
            [
              85.77337923716902,
              25.584400163815406
            ],
            [
              85.77270769169692,
              25.584479224147742
            ],
            [
              85.77158013982701,
              25.584979720690715
            ],
            [
              85.76757522122001,
              25.586456322336563
            ],
            [
              85.76543608639014,
              25.58669407516793
            ],
            [
              85.7637144525717,
              25.58677235374332
            ],
            [
              85.76215891185942,
              25.586132311010804
            ],
            [
              85.76110507304678,
              25.585260391903784
            ],
            [
              85.76013618341901,
              25.58446494132332
            ],
            [
              85.7590408990341,
              25.58435145811331
            ],
            [
              85.75803788061205,
              25.584620876648813
            ],
            [
              85.75803664183529,
              25.584621208844805
            ],
            [
              85.75669650095845,
              25.585465416319927
            ],
            [
              85.75568878165251,
              25.5860781353798
            ],
            [
              85.75568631577703,
              25.586079263211943
            ],
            [
              85.75569246564349,
              25.586085719078376
            ],
            [
              85.7548579055917,
              25.586467743220698
            ],
            [
              85.75322226659712,
              25.586893166326824
            ],
            [
              85.75192110362045,
              25.587547490688618
            ],
            [
              85.75085328073379,
              25.58808374439355
            ],
            [
              85.75000001506288,
              25.588512241353754
            ],
            [
              85.74978544706737,
              25.588619990833834
            ],
            [
              85.74770654697224,
              25.590182549939765
            ],
            [
              85.74695974244223,
              25.591333090596244
            ],
            [
              85.74633228179269,
              25.59125398618121
            ],
            [
              85.74379484564393,
              25.59388027632851
            ],
            [
              85.74260037557359,
              25.59510288434003
            ],
            [
              85.74188006325966,
              25.595457305872678
            ],
            [
              85.738520780017,
              25.596772892695856
            ],
            [
              85.73607534662472,
              25.597611554851014
            ],
            [
              85.73347910855409,
              25.598098578871618
            ],
            [
              85.73136603025736,
              25.59867419692432
            ],
            [
              85.72968936161047,
              25.59885570436172
            ],
            [
              85.72790799431722,
              25.598992424741073
            ],
            [
              85.7267514771693,
              25.598558456371
            ],
            [
              85.72617463838264,
              25.59742745710457
            ],
            [
              85.72625524780634,
              25.593893255273578
            ],
            [
              85.72572467764674,
              25.593154829647577
            ],
            [
              85.72490755209799,
              25.592936282768285
            ],
            [
              85.7239489472819,
              25.593422360097925
            ],
            [
              85.72318174021515,
              25.59451255671965
            ],
            [
              85.7228517360107,
              25.595389175388036
            ],
            [
              85.722277803274,
              25.596262069019172
            ],
            [
              85.7216525596666,
              25.596742568710024
            ],
            [
              85.72054959827928,
              25.597269675129354
            ],
            [
              85.72017317812409,
              25.599017513053898
            ],
            [
              85.72094805141343,
              25.59988602737165
            ],
            [
              85.72186304661577,
              25.600930167075532
            ],
            [
              85.72235183613152,
              25.602458611909174
            ],
            [
              85.72187609374693,
              25.60424740805437
            ],
            [
              85.721642052971,
              25.60551190528962
            ],
            [
              85.72227184834198,
              25.60742804894165
            ],
            [
              85.72362581429104,
              25.608687358053537
            ],
            [
              85.72560626442092,
              25.611036954231146
            ],
            [
              85.7263791003312,
              25.612605009836518
            ],
            [
              85.72643715934633,
              25.614699056237157
            ],
            [
              85.72562875913395,
              25.616705588220334
            ],
            [
              85.72425086835393,
              25.6207674801354
            ],
            [
              85.72320009908464,
              25.621948871892233
            ],
            [
              85.72344491425409,
              25.623432959620054
            ],
            [
              85.72306826233354,
              25.625131141926676
            ],
            [
              85.72302807979254,
              25.62757747596502
            ],
            [
              85.72259844613487,
              25.628449912627534
            ],
            [
              85.72164574235188,
              25.630547185049313
            ],
            [
              85.72040277403597,
              25.632248152731684
            ],
            [
              85.71987958982461,
              25.63342785729648
            ],
            [
              85.71863675805261,
              25.63517844164123
            ],
            [
              85.71734057803084,
              25.636013035937452
            ],
            [
              85.71681390386462,
              25.636317185737262
            ],
            [
              85.71662245491123,
              25.637017359770923
            ],
            [
              85.71605346111197,
              25.637935330601348
            ],
            [
              85.71595877868104,
              25.63919935794502
            ],
            [
              85.71760355803362,
              25.640895598356035
            ],
            [
              85.71900397856099,
              25.642506876060484
            ],
            [
              85.71939507089971,
              25.644468895142992
            ],
            [
              85.71930654731837,
              25.64603983780023
            ],
            [
              85.71801054606131,
              25.646960163820083
            ],
            [
              85.71671902829586,
              25.647749627852672
            ],
            [
              85.71537196500147,
              25.648363191315315
            ],
            [
              85.7137400899479,
              25.648720412266417
            ],
            [
              85.7112847247818,
              25.648597300800063
            ],
            [
              85.71076091713965,
              25.649646016090486
            ],
            [
              85.71139318826755,
              25.650907805063802
            ],
            [
              85.71144413981213,
              25.652518826123387
            ],
            [
              85.71188710806189,
              25.655049386990925
            ],
            [
              85.71367943031005,
              25.65879426478974
            ],
            [
              85.71576519892382,
              25.663716090937655
            ],
            [
              85.71639873577796,
              25.66528476160321
            ],
            [
              85.71741978069284,
              25.66785397973433
            ],
            [
              85.72074806217668,
              25.67076789516896
            ],
            [
              85.72445407086447,
              25.670931926888965
            ],
            [
              85.7278215251829,
              25.67109251009375
            ],
            [
              85.73267907704691,
              25.67151431636956
            ],
            [
              85.736433910967,
              25.672639128776705
            ],
            [
              85.73759273498858,
              25.673461225076245
            ],
            [
              85.73855698481793,
              25.674202637254044
            ],
            [
              85.73946017256414,
              25.673414367637324
            ],
            [
              85.73968800328649,
              25.673093102014846
            ],
            [
              85.7399130330618,
              25.67208591211065
            ],
            [
              85.73933659672038,
              25.66875258502413
            ],
            [
              85.73945666104969,
              25.667673475073755
            ],
            [
              85.74037653679893,
              25.667295789708422
            ]
          ]
        ]
      }
    }
  ]
}