{
  "type": "FeatureCollection",
  "features": [
    {
      "type": "Feature",
      "properties": {
        "object_id": "10-215-01188",
        "stname": "BIHAR",
        "dtname": "Darbhanga",
        "sdtname": "Benipur",
        "st_area_sh": 0.0,
        "st_length_": 0.0,
        "remarks": "",
        "dist_lgd": 195,
        "state_lgd": 10,
        "subdt_lgd": 1188,
        "ac_no": null,
        "st_length(shape)": 118482.30854716274,
        "st_area(shape)": 204643530.87647069
      },
      "geometry": {
        "type": "Polygon",
        "coordinates": [
          [
            [
              86.08979518956869,
              26.170077848366624
            ],
            [
              86.090150286414,
              26.169964970759054
            ],
            [
              86.09018856272992,
              26.17021031798905
            ],
            [
              86.09024283893937,
              26.170558215711026
            ],
            [
              86.09155609683302,
              26.170522628951655
            ],
            [
              86.09243212401664,
              26.17041836307033
            ],
            [
              86.09335270404506,
              26.170841210683832
            ],
            [
              86.09354258633657,
              26.168296241964008
            ],
            [
              86.0954152521071,
              26.168220169141083
            ],
            [
              86.0977041747224,
              26.167751664107833
            ],
            [
              86.09763775957849,
              26.16690388013265
            ],
            [
              86.09761743878843,
              26.166652645146286
            ],
            [
              86.09759335675228,
              26.166354912172775
            ],
            [
              86.09738803870928,
              26.163028166154668
            ],
            [
              86.09670842367096,
              26.1628921721966
            ],
            [
              86.0943965383204,
              26.163184995729637
            ],
            [
              86.09423262812037,
              26.162371809144755
            ],
            [
              86.09372489762684,
              26.16201738674042
            ],
            [
              86.09306950655849,
              26.16188152867214
            ],
            [
              86.09278507029514,
              26.16093594007122
            ],
            [
              86.09154665374275,
              26.16075251837081
            ],
            [
              86.09099303910114,
              26.160046570958595
            ],
            [
              86.08964373900166,
              26.160049063223465
            ],
            [
              86.08950315535468,
              26.15936775133828
            ],
            [
              86.08879874861114,
              26.15929738373171
            ],
            [
              86.08794837821038,
              26.159226179140212
            ],
            [
              86.08707499297202,
              26.15900115105896
            ],
            [
              86.08563971421837,
              26.15600680087909
            ],
            [
              86.08282267384419,
              26.155637750896407
            ],
            [
              86.0824448720801,
              26.154208589101724
            ],
            [
              86.08233031262685,
              26.15408607893654
            ],
            [
              86.0813359521675,
              26.15302269990958
            ],
            [
              86.08147262365146,
              26.151092007400255
            ],
            [
              86.08369908011686,
              26.150809857149742
            ],
            [
              86.08356265477127,
              26.149601726809284
            ],
            [
              86.08367989928891,
              26.148080308181406
            ],
            [
              86.08369791230696,
              26.147846544844008
            ],
            [
              86.08355752808596,
              26.1455958137495
            ],
            [
              86.08414167826072,
              26.145489827312595
            ],
            [
              86.08506572668445,
              26.145451729038932
            ],
            [
              86.08558362071707,
              26.144489277607647
            ],
            [
              86.08762333270626,
              26.144765586234985
            ],
            [
              86.08922960128265,
              26.144512374651182
            ],
            [
              86.0912220160738,
              26.1430433026208
            ],
            [
              86.09561564109416,
              26.143817288083646
            ],
            [
              86.09669658567213,
              26.141575852370416
            ],
            [
              86.09698181604624,
              26.14113456937402
            ],
            [
              86.09736071734824,
              26.140548360903374
            ],
            [
              86.09791978117033,
              26.140551861624683
            ],
            [
              86.09845099811699,
              26.141016117949643
            ],
            [
              86.09910281209389,
              26.141590917999597
            ],
            [
              86.09958912675106,
              26.141572017819886
            ],
            [
              86.1007807581451,
              26.141491697868535
            ],
            [
              86.10238678866793,
              26.14126027932868
            ],
            [
              86.1028283483593,
              26.140736186024856
            ],
            [
              86.10294933885167,
              26.13921140026658
            ],
            [
              86.10313704632186,
              26.137756191361888
            ],
            [
              86.10333691159111,
              26.136206701854476
            ],
            [
              86.10250918143046,
              26.13319434599154
            ],
            [
              86.10309369003298,
              26.133044311061035
            ],
            [
              86.10469708939034,
              26.133142135089916
            ],
            [
              86.10456903185164,
              26.133997379929347
            ],
            [
              86.10365652498268,
              26.13413436484949
            ],
            [
              86.10367697782506,
              26.13463939535108
            ],
            [
              86.10454921411817,
              26.13499595579594
            ],
            [
              86.10492191434979,
              26.140310218869242
            ],
            [
              86.10523512904157,
              26.140663391921205
            ],
            [
              86.10579385958874,
              26.140710742326714
            ],
            [
              86.10620775116938,
              26.140625549323946
            ],
            [
              86.10638258039165,
              26.140012029161603
            ],
            [
              86.10654087971437,
              26.14002631194366
            ],
            [
              86.1074270174365,
              26.140106265975223
            ],
            [
              86.10795832690962,
              26.138957183097485
            ],
            [
              86.1088732439585,
              26.136899532912732
            ],
            [
              86.10956447960332,
              26.13549898092056
            ],
            [
              86.1111988834144,
              26.133105545749693
            ],
            [
              86.11384959262891,
              26.132924316688907
            ],
            [
              86.1158819402294,
              26.132541735060627
            ],
            [
              86.11791427435514,
              26.132159124758378
            ],
            [
              86.11983766529482,
              26.131709863022976
            ],
            [
              86.12111800442484,
              26.131136027290594
            ],
            [
              86.12137770827182,
              26.13214732661631
            ],
            [
              86.12166707538778,
              26.132456349798794
            ],
            [
              86.12278126122453,
              26.132968041053285
            ],
            [
              86.12455351600757,
              26.13324219621923
            ],
            [
              86.1244009685976,
              26.134141194090667
            ],
            [
              86.1250327609234,
              26.13416697229501
            ],
            [
              86.1265921616965,
              26.133649678034285
            ],
            [
              86.12840483797231,
              26.1333862613198
            ],
            [
              86.13023401719826,
              26.132541268910945
            ],
            [
              86.13534912503732,
              26.131035485297136
            ],
            [
              86.13714827088837,
              26.130958506678567
            ],
            [
              86.13724191037528,
              26.132450188231115
            ],
            [
              86.13739846427141,
              26.134943987640984
            ],
            [
              86.13821262537974,
              26.13485489436751
            ],
            [
              86.13949036837859,
              26.134715058606567
            ],
            [
              86.1432294790863,
              26.13526409639796
            ],
            [
              86.14486800796115,
              26.135548222971643
            ],
            [
              86.14822151323989,
              26.135633997915285
            ],
            [
              86.14881055204641,
              26.135521040207156
            ],
            [
              86.14999832517633,
              26.135293259101953
            ],
            [
              86.15294458101765,
              26.134564265125455
            ],
            [
              86.15511818240832,
              26.134807539167763
            ],
            [
              86.1556844129898,
              26.134576438839854
            ],
            [
              86.15723893231758,
              26.133941969283516
            ],
            [
              86.15901774031057,
              26.133315810302854
            ],
            [
              86.15955483044256,
              26.132989653219234
            ],
            [
              86.15991725484564,
              26.129896771922127
            ],
            [
              86.16229866440932,
              26.12995451609371
            ],
            [
              86.1628551581514,
              26.132010154678998
            ],
            [
              86.1663556682348,
              26.13192065430849
            ],
            [
              86.16927356066934,
              26.131739946822893
            ],
            [
              86.16918767543993,
              26.13013705629919
            ],
            [
              86.16895312621759,
              26.128947118236663
            ],
            [
              86.16868736682729,
              26.127598809287925
            ],
            [
              86.16804895571444,
              26.125247239292285
            ],
            [
              86.16778074392344,
              26.123547672195354
            ],
            [
              86.16754318264992,
              26.12321969003213
            ],
            [
              86.16720661355735,
              26.123014311147404
            ],
            [
              86.16671593218962,
              26.122922664097196
            ],
            [
              86.16606608282825,
              26.122926714609907
            ],
            [
              86.16524133417599,
              26.122954526997585
            ],
            [
              86.16477528371502,
              26.122817609621293
            ],
            [
              86.16428211042067,
              26.122401017054866
            ],
            [
              86.16406859435237,
              26.121937644921942
            ],
            [
              86.16349590668065,
              26.121589198965754
            ],
            [
              86.16295456661908,
              26.121407647156072
            ],
            [
              86.16271739341774,
              26.121129365245103
            ],
            [
              86.16238029162423,
              26.120851715020738
            ],
            [
              86.1622251256252,
              26.12083012964547
            ],
            [
              86.16194129931795,
              26.12097181696948
            ],
            [
              86.16158330001593,
              26.12122674434946
            ],
            [
              86.16129912067079,
              26.121323325680134
            ],
            [
              86.16114341568259,
              26.121229571361273
            ],
            [
              86.16111619762779,
              26.120949992065924
            ],
            [
              86.16111246333115,
              26.12046258402014
            ],
            [
              86.16112735739856,
              26.11980814604437
            ],
            [
              86.16083640026454,
              26.118388460985532
            ],
            [
              86.1605715787154,
              26.11775832925922
            ],
            [
              86.1598935492036,
              26.117365505058157
            ],
            [
              86.15919670986801,
              26.117112734958994
            ],
            [
              86.15862257141711,
              26.116556784003976
            ],
            [
              86.15864424956153,
              26.116136877379915
            ],
            [
              86.15890113359683,
              26.115738161944513
            ],
            [
              86.15933816937245,
              26.11536538801679
            ],
            [
              86.15951439188173,
              26.1148723450976
            ],
            [
              86.15937700084724,
              26.113916559195495
            ],
            [
              86.15914253606648,
              26.11333586772002
            ],
            [
              86.15882731992825,
              26.112660945937925
            ],
            [
              86.15860965274503,
              26.111660539275352
            ],
            [
              86.15860137476967,
              26.110586486012572
            ],
            [
              86.1596128256773,
              26.11080574718893
            ],
            [
              86.1601825021962,
              26.110779657307614
            ],
            [
              86.1604912154301,
              26.110615257203932
            ],
            [
              86.16077288308574,
              26.110193735311007
            ],
            [
              86.1609737993839,
              26.10967807402947
            ],
            [
              86.16128126395955,
              26.109351200799786
            ],
            [
              86.16226348009457,
              26.109020044153148
            ],
            [
              86.16324300038544,
              26.108986773076115
            ],
            [
              86.16391929435214,
              26.109172012818966
            ],
            [
              86.16441169509534,
              26.10949379903093
            ],
            [
              86.1649271259475,
              26.109562743078502
            ],
            [
              86.16606733957131,
              26.109623192301896
            ],
            [
              86.1673886050474,
              26.109826932226945
            ],
            [
              86.16821577016775,
              26.11012395676103
            ],
            [
              86.16860864027242,
              26.11049607386079
            ],
            [
              86.1689708832158,
              26.110796107065593
            ],
            [
              86.16946187180739,
              26.11093285219343
            ],
            [
              86.17011058120666,
              26.11078886830121
            ],
            [
              86.17059786604433,
              26.11045633637306
            ],
            [
              86.1709315389684,
              26.1102916639767
            ],
            [
              86.17119143415651,
              26.110290036982015
            ],
            [
              86.17137311842272,
              26.11050098387523
            ],
            [
              86.1714518270113,
              26.110987825262672
            ],
            [
              86.17171696925897,
              26.111640489642284
            ],
            [
              86.17252422861092,
              26.112592044048828
            ],
            [
              86.17333270158687,
              26.113051658889557
            ],
            [
              86.17397923706315,
              26.113259672767178
            ],
            [
              86.1744948502733,
              26.113346627222207
            ],
            [
              86.17477901614375,
              26.11325453136853
            ],
            [
              86.17532082063431,
              26.11285389762989
            ],
            [
              86.17573352913372,
              26.112571446877066
            ],
            [
              86.1762228001465,
              26.11249618065873
            ],
            [
              86.17673933233317,
              26.112704911807192
            ],
            [
              86.1770273762307,
              26.113095707693912
            ],
            [
              86.17703201063927,
              26.11368225479246
            ],
            [
              86.17716653335307,
              26.114263564832843
            ],
            [
              86.17748040740828,
              26.114753426630056
            ],
            [
              86.17787357126207,
              26.115170628024323
            ],
            [
              86.17795078685062,
              26.11544988479217
            ],
            [
              86.17764327376591,
              26.115754232707758
            ],
            [
              86.177310139831,
              26.11599099470517
            ],
            [
              86.17731204066615,
              26.116221117905337
            ],
            [
              86.17762299699334,
              26.116359074651083
            ],
            [
              86.17829398191671,
              26.116494650156433
            ],
            [
              86.17873450585056,
              26.116564031283726
            ],
            [
              86.1793146989465,
              26.116596386329192
            ],
            [
              86.17950415004667,
              26.116536486778656
            ],
            [
              86.1796081596852,
              26.116418465328834
            ],
            [
              86.17968642899757,
              26.116196860215105
            ],
            [
              86.17976023637796,
              26.116042925315647
            ],
            [
              86.1800191991148,
              26.115914895855695
            ],
            [
              86.18077834290352,
              26.115828831380885
            ],
            [
              86.18111758717899,
              26.115740894716485
            ],
            [
              86.18128166266901,
              26.115626936134664
            ],
            [
              86.18130522817385,
              26.115450867237403
            ],
            [
              86.18117355401782,
              26.11523058231756
            ],
            [
              86.1810813707,
              26.114960391307672
            ],
            [
              86.18138897361621,
              26.114656033258754
            ],
            [
              86.18193048256107,
              26.11423282801524
            ],
            [
              86.18199251931625,
              26.113857907720153
            ],
            [
              86.181988965581,
              26.113415698056574
            ],
            [
              86.18200139916286,
              26.113086204885075
            ],
            [
              86.18209928229116,
              26.11281925315767
            ],
            [
              86.18231757021024,
              26.11260581717027
            ],
            [
              86.18277063732042,
              26.11238178091513
            ],
            [
              86.18333667206916,
              26.111890658095504
            ],
            [
              86.18375790019074,
              26.111423135298967
            ],
            [
              86.18408109516533,
              26.111208941752437
            ],
            [
              86.18439069323978,
              26.111161860903216
            ],
            [
              86.18476669208512,
              26.1112993428666
            ],
            [
              86.18501319968054,
              26.111496287217626
            ],
            [
              86.18538861192597,
              26.111552485296222
            ],
            [
              86.18570749768216,
              26.111419582080167
            ],
            [
              86.18625043405001,
              26.111181384692472
            ],
            [
              86.1867637179286,
              26.110979444313365
            ],
            [
              86.18711259483888,
              26.110850872086782
            ],
            [
              86.18755236418791,
              26.110825414619114
            ],
            [
              86.18902397081163,
              26.11105956584142
            ],
            [
              86.19044482621504,
              26.111212750680785
            ],
            [
              86.19047531683242,
              26.110016709617636
            ],
            [
              86.19048944912846,
              26.1086627558821
            ],
            [
              86.19052922293598,
              26.107380893106647
            ],
            [
              86.19091081828553,
              26.106349548295608
            ],
            [
              86.19161958006156,
              26.104968472733525
            ],
            [
              86.19169456423495,
              26.104340730655665
            ],
            [
              86.19145533838321,
              26.10380529589628
            ],
            [
              86.19072792398862,
              26.102853330355487
            ],
            [
              86.19061997613588,
              26.102479531173152
            ],
            [
              86.19074803636953,
              26.102248480649013
            ],
            [
              86.19128695097982,
              26.102127639887886
            ],
            [
              86.19172639064713,
              26.102075113399945
            ],
            [
              86.19224412298307,
              26.101814594965532
            ],
            [
              86.19268349887,
              26.101744017622167
            ],
            [
              86.19366553803688,
              26.102039917985806
            ],
            [
              86.19449735014223,
              26.10229168568612
            ],
            [
              86.19527172037502,
              26.102241497884865
            ],
            [
              86.19611945781371,
              26.101978721872733
            ],
            [
              86.19704535227534,
              26.10150335298983
            ],
            [
              86.19789631736086,
              26.10103288774647
            ],
            [
              86.19759638695545,
              26.093593411741345
            ],
            [
              86.1974350010214,
              26.092786745655264
            ],
            [
              86.19717856614378,
              26.092603380691145
            ],
            [
              86.19678707495306,
              26.092398311867846
            ],
            [
              86.19580091701057,
              26.09221530369209
            ],
            [
              86.19409764206159,
              26.09234374070275
            ],
            [
              86.19345358773212,
              26.09244271132717
            ],
            [
              86.19306357516837,
              26.092422748756636
            ],
            [
              86.19252286033424,
              26.092308953810512
            ],
            [
              86.19213082206952,
              26.092031703063185
            ],
            [
              86.19174524628495,
              26.091939462145668
            ],
            [
              86.19146067707095,
              26.091986487806274
            ],
            [
              86.19094244257678,
              26.09217934775797
            ],
            [
              86.19050291756953,
              26.092227365643723
            ],
            [
              86.19003705575476,
              26.092090517965417
            ],
            [
              86.18980541258234,
              26.091879913815482
            ],
            [
              86.1895677983082,
              26.091534004306997
            ],
            [
              86.18927927111706,
              26.091089101113923
            ],
            [
              86.18893981573748,
              26.09050920067342
            ],
            [
              86.1884724016339,
              26.090187325112154
            ],
            [
              86.18813714497998,
              26.090139855806235
            ],
            [
              86.18782863386703,
              26.09030882121149
            ],
            [
              86.18736679291146,
              26.090681843637864
            ],
            [
              86.18685001638303,
              26.091059715197694
            ],
            [
              86.18636145773428,
              26.09122541588025
            ],
            [
              86.18594682773849,
              26.091250611379934
            ],
            [
              86.18540594671603,
              26.091114239362085
            ],
            [
              86.18501521729668,
              26.091003954223492
            ],
            [
              86.18465590016618,
              26.091074006383558
            ],
            [
              86.18424346026305,
              26.091379038154827
            ],
            [
              86.18377146295488,
              26.091738547018398
            ],
            [
              86.182948487577,
              26.09195598635618
            ],
            [
              86.18238009385233,
              26.09212207705096
            ],
            [
              86.18217682037489,
              26.092331055940697
            ],
            [
              86.18212424467627,
              26.092638206220464
            ],
            [
              86.18216013057526,
              26.093382547293892
            ],
            [
              86.18221957119927,
              26.094573559802043
            ],
            [
              86.18175543055659,
              26.094671333745357
            ],
            [
              86.18115867612009,
              26.09441791677868
            ],
            [
              86.1807417599119,
              26.094163447258225
            ],
            [
              86.18048043640248,
              26.09397555372462
            ],
            [
              86.18025074257422,
              26.094004086170283
            ],
            [
              86.17991765894497,
              26.094236438943046
            ],
            [
              86.17942473717888,
              26.094474295709755
            ],
            [
              86.17862615914584,
              26.094619290378454
            ],
            [
              86.17800650755107,
              26.09464586388101
            ],
            [
              86.17754210999021,
              26.094698516331146
            ],
            [
              86.17689793887973,
              26.09477034919208
            ],
            [
              86.17664652558454,
              26.093955076706827
            ],
            [
              86.17636469533383,
              26.0936996671164
            ],
            [
              86.17594796956847,
              26.093467736824916
            ],
            [
              86.17558129433748,
              26.093235388979462
            ],
            [
              86.1753238102276,
              26.09291216071951
            ],
            [
              86.17516578129778,
              26.092516025177492
            ],
            [
              86.17497911856823,
              26.09230509263343
            ],
            [
              86.17464332921335,
              26.092189935752273
            ],
            [
              86.17425914312255,
              26.09226463174985
            ],
            [
              86.1740763772847,
              26.092545533355974
            ],
            [
              86.17403039881353,
              26.093060335151065
            ],
            [
              86.17393083134408,
              26.093737849227335
            ],
            [
              86.17383208223981,
              26.09390096611768
            ],
            [
              86.17339284020188,
              26.093975996632246
            ],
            [
              86.17274741055171,
              26.09388534090592
            ],
            [
              86.17183667156719,
              26.09375122199888
            ],
            [
              86.17167945381608,
              26.093472453932694
            ],
            [
              86.17175524198163,
              26.092935017863695
            ],
            [
              86.1717730888114,
              26.092023264281618
            ],
            [
              86.17159117727141,
              26.091767205058794
            ],
            [
              86.17128019040153,
              26.091629328210967
            ],
            [
              86.17102015866949,
              26.091608403025315
            ],
            [
              86.17037661907467,
              26.091774936322736
            ],
            [
              86.16983463671767,
              26.09213044886382
            ],
            [
              86.16952733922865,
              26.09245733876467
            ],
            [
              86.16917152732441,
              26.09297399326964
            ],
            [
              86.16876048969141,
              26.09346852018592
            ],
            [
              86.16832195103434,
              26.093633747924983
            ],
            [
              86.16780713013827,
              26.093637075792635
            ],
            [
              86.16754554971067,
              26.09342661238223
            ],
            [
              86.16729573272175,
              26.092796438896016
            ],
            [
              86.16879851897066,
              26.09193396402509
            ],
            [
              86.1691006870794,
              26.09095276682623
            ],
            [
              86.16956290263244,
              26.089970578739482
            ],
            [
              86.16955334276119,
              26.088752173247297
            ],
            [
              86.169333550164,
              26.087494477721247
            ],
            [
              86.16963030412651,
              26.08580934585499
            ],
            [
              86.17038856756626,
              26.08370613125627
            ],
            [
              86.17141356686501,
              26.08248563619737
            ],
            [
              86.17192222441993,
              26.081078938388632
            ],
            [
              86.17196533996028,
              26.08019416865324
            ],
            [
              86.17211214803393,
              26.07916431565626
            ],
            [
              86.1724161522991,
              26.07841323399795
            ],
            [
              86.17256008756046,
              26.0770134166535
            ],
            [
              86.17236500941334,
              26.07635124207617
            ],
            [
              86.17155653464081,
              26.076491810097135
            ],
            [
              86.17080620601996,
              26.07640180004264
            ],
            [
              86.16994873533517,
              26.076032690640815
            ],
            [
              86.16934841099375,
              26.075314540346774
            ],
            [
              86.16911133481045,
              26.074399969811772
            ],
            [
              86.1686929848911,
              26.073933275930234
            ],
            [
              86.16835599538697,
              26.073655628231982
            ],
            [
              86.16765527892262,
              26.073520178972068
            ],
            [
              86.16700558496981,
              26.073524329637102
            ],
            [
              86.16649184115379,
              26.073644927209568
            ],
            [
              86.16612828487347,
              26.073809675401037
            ],
            [
              86.16592637593692,
              26.074185527727877
            ],
            [
              86.16559022725592,
              26.07465692798068
            ],
            [
              86.16525735742572,
              26.074916316729677
            ],
            [
              86.16437897216451,
              26.075061729390317
            ],
            [
              86.16319736956225,
              26.07478044531314
            ],
            [
              86.16274624820299,
              26.07460278587564
            ],
            [
              86.16271796474625,
              26.07418327408446
            ],
            [
              86.16267691083947,
              26.072757535349904
            ],
            [
              86.16312202067287,
              26.069577656942844
            ],
            [
              86.1630661589369,
              26.06817459903895
            ],
            [
              86.16336366928091,
              26.066584178308428
            ],
            [
              86.1636723393957,
              26.065787985858783
            ],
            [
              86.16402202838296,
              26.0651314239059
            ],
            [
              86.16474755631543,
              26.06461239832663
            ],
            [
              86.1653161252116,
              26.064468919070773
            ],
            [
              86.16622119582667,
              26.06455789732393
            ],
            [
              86.16690236225548,
              26.065392939894576
            ],
            [
              86.16757258900074,
              26.064829124675047
            ],
            [
              86.16901684102575,
              26.064210741020844
            ],
            [
              86.17009785118077,
              26.063784160947304
            ],
            [
              86.17105633202935,
              26.06366067962759
            ],
            [
              86.17182975274288,
              26.063515882241795
            ],
            [
              86.17259928375124,
              26.062879234817572
            ],
            [
              86.17308814603055,
              26.062131501742336
            ],
            [
              86.1755128768488,
              26.061014824236175
            ],
            [
              86.17815986613971,
              26.058940010285337
            ],
            [
              86.17934049227325,
              26.057858385179028
            ],
            [
              86.17995422756356,
              26.057105308336265
            ],
            [
              86.18036591378018,
              26.056728110790132
            ],
            [
              86.18028209467595,
              26.055609486907297
            ],
            [
              86.17974926076181,
              26.05392963978796
            ],
            [
              86.17964085207333,
              26.053488159166033
            ],
            [
              86.17971784487969,
              26.053113087812843
            ],
            [
              86.18015286303917,
              26.052528145746066
            ],
            [
              86.18064027004772,
              26.052245186210673
            ],
            [
              86.18131500274248,
              26.052263369650284
            ],
            [
              86.18165069777424,
              26.05237860696168
            ],
            [
              86.18188476909287,
              26.05228230605609
            ],
            [
              86.18206218097161,
              26.051978759880054
            ],
            [
              86.18229498566569,
              26.051720071695012
            ],
            [
              86.1826293889201,
              26.051668227136737
            ],
            [
              86.18306867767045,
              26.051620324164887
            ],
            [
              86.18350558858025,
              26.051265505348685
            ],
            [
              86.18383662584726,
              26.050798491707038
            ],
            [
              86.18466204015114,
              26.05030127381184
            ],
            [
              86.18548937864635,
              26.05003869837003
            ],
            [
              86.18661992280445,
              26.04957558681489
            ],
            [
              86.18663080679245,
              26.047801978869064
            ],
            [
              86.18584560287732,
              26.046448741994332
            ],
            [
              86.18775279629409,
              26.04564217160292
            ],
            [
              86.18811303060451,
              26.045080244370276
            ],
            [
              86.18810561231687,
              26.044146156256794
            ],
            [
              86.18778560276829,
              26.04349391532852
            ],
            [
              86.1869000507477,
              26.042705368287507
            ],
            [
              86.18607200258343,
              26.042245946117596
            ],
            [
              86.1855454568763,
              26.041360359244607
            ],
            [
              86.18545251538036,
              26.040354613398726
            ],
            [
              86.18517513987513,
              26.03814056971654
            ],
            [
              86.18532135955225,
              26.03704309889473
            ],
            [
              86.18555347074694,
              26.03671214287767
            ],
            [
              86.18594076590693,
              26.03640725606866
            ],
            [
              86.18640222058694,
              26.036007156762448
            ],
            [
              86.18649624724773,
              26.035261953808995
            ],
            [
              86.18629983420409,
              26.03318282007575
            ],
            [
              86.18696383831939,
              26.03313335009385
            ],
            [
              86.18743031997171,
              26.033365027764102
            ],
            [
              86.18771968618938,
              26.03394528216959
            ],
            [
              86.18793655207536,
              26.034832938904138
            ],
            [
              86.1881939508453,
              26.035156161187043
            ],
            [
              86.18855956157269,
              26.035271118279635
            ],
            [
              86.1888431677927,
              26.03512937239562
            ],
            [
              86.18901798443856,
              26.03450094590315
            ],
            [
              86.18908549822206,
              26.032934561886965
            ],
            [
              86.18913722411443,
              26.03143116416149
            ],
            [
              86.1892099966356,
              26.029315977610953
            ],
            [
              86.18867687166731,
              26.029793236179515
            ],
            [
              86.18832330555125,
              26.029930929937244
            ],
            [
              86.18809210614658,
              26.029747398764062
            ],
            [
              86.18765131181983,
              26.028969657319323
            ],
            [
              86.18594220141478,
              26.025713903264887
            ],
            [
              86.18429278316205,
              26.023024207389085
            ],
            [
              86.18402948425732,
              26.022594832906616
            ],
            [
              86.18395062475179,
              26.022089895992004
            ],
            [
              86.184252868319,
              26.021785658151668
            ],
            [
              86.18521908815374,
              26.021436470874804
            ],
            [
              86.18583055968956,
              26.021085061799223
            ],
            [
              86.18610747885064,
              26.02073588131772
            ],
            [
              86.18622310101085,
              26.0189347307174
            ],
            [
              86.18637220787328,
              26.01821633872701
            ],
            [
              86.18692480921527,
              26.017991652838326
            ],
            [
              86.18771526917311,
              26.017526322269305
            ],
            [
              86.18867895575877,
              26.016870324763246
            ],
            [
              86.18875610127874,
              26.01652686105772
            ],
            [
              86.18867375990317,
              26.016225087174337
            ],
            [
              86.18800756839013,
              26.015976697039406
            ],
            [
              86.1876265425725,
              26.015794140240033
            ],
            [
              86.18769924233013,
              26.0155184360273
            ],
            [
              86.18805221376144,
              26.015308578217237
            ],
            [
              86.18861427705829,
              26.015025226145944
            ],
            [
              86.18912070499468,
              26.014651913597795
            ],
            [
              86.18929322824162,
              26.01373029583588
            ],
            [
              86.18912572298386,
              26.012138616609832
            ],
            [
              86.18879043129563,
              26.011423341272952
            ],
            [
              86.18822941363776,
              26.01121036794793
            ],
            [
              86.18443679208524,
              26.011577857739034
            ],
            [
              86.1816839722707,
              26.012078402049987
            ],
            [
              86.1788306390607,
              26.013134592080128
            ],
            [
              86.17710142166466,
              26.01425574432583
            ],
            [
              86.17570805381061,
              26.015532521687653
            ],
            [
              86.17538193302309,
              26.01589286876198
            ],
            [
              86.1737323395989,
              26.017715534001923
            ],
            [
              86.17267053003475,
              26.018602282635666
            ],
            [
              86.17241637957287,
              26.018671553863985
            ],
            [
              86.17227409631333,
              26.01860841306314
            ],
            [
              86.17195522223524,
              26.01846690699027
            ],
            [
              86.17143038871704,
              26.01713014816667
            ],
            [
              86.17111370832487,
              26.015584513001407
            ],
            [
              86.1707626988141,
              26.013488524382222
            ],
            [
              86.17075579436285,
              26.012608656606066
            ],
            [
              86.1710848939638,
              26.01189364731855
            ],
            [
              86.17097371397266,
              26.011086688365303
            ],
            [
              86.17073133862753,
              26.010610295874937
            ],
            [
              86.17048173004774,
              26.010119680319427
            ],
            [
              86.16998900141947,
              26.009048931081676
            ],
            [
              86.17022854886807,
              26.0071071616415
            ],
            [
              86.17007210097313,
              26.006255308987463
            ],
            [
              86.16973194041609,
              26.005540002657373
            ],
            [
              86.16916360598024,
              26.00439305891187
            ],
            [
              86.16902087535968,
              26.002728924663767
            ],
            [
              86.16904587727066,
              26.00000063162416
            ],
            [
              86.16951062427614,
              25.999224729364677
            ],
            [
              86.1692436090411,
              25.998278734252047
            ],
            [
              86.16950037270215,
              25.99791154196071
            ],
            [
              86.17106350058532,
              25.99726083085935
            ],
            [
              86.173147864234,
              25.99620956467192
            ],
            [
              86.17365768600551,
              25.99562864491436
            ],
            [
              86.17365477815893,
              25.99525860863591
            ],
            [
              86.17352141337355,
              25.99479915816683
            ],
            [
              86.173162646012,
              25.994268986306317
            ],
            [
              86.17310285863827,
              25.993646615701234
            ],
            [
              86.1731936378893,
              25.992481724871126
            ],
            [
              86.17341559722296,
              25.991746555202567
            ],
            [
              86.17341752590589,
              25.99174016498653
            ],
            [
              86.17395290115397,
              25.991231352810843
            ],
            [
              86.17516963237539,
              25.990366157115094
            ],
            [
              86.17577894615788,
              25.98973947493942
            ],
            [
              86.1763874397785,
              25.98900001010836
            ],
            [
              86.17735252234611,
              25.988528934923032
            ],
            [
              86.17773602212407,
              25.988391161117015
            ],
            [
              86.17857472879919,
              25.988363149625524
            ],
            [
              86.1801592698238,
              25.98856057922324
            ],
            [
              86.1810537007926,
              25.988622529806065
            ],
            [
              86.18166590804864,
              25.988365858722226
            ],
            [
              86.1817628838785,
              25.9879952141488
            ],
            [
              86.18160941389874,
              25.987535928271008
            ],
            [
              86.18160340686441,
              25.986773278615225
            ],
            [
              86.18190202123793,
              25.986008651297055
            ],
            [
              86.1817175971101,
              25.985253066255094
            ],
            [
              86.18171617417869,
              25.985247241744744
            ],
            [
              86.18133439197956,
              25.98495181038054
            ],
            [
              86.1806203508046,
              25.984956435762367
            ],
            [
              86.17837346844631,
              25.98499344527053
            ],
            [
              86.17734787625947,
              25.984747255755405
            ],
            [
              86.17711837197572,
              25.984405691043207
            ],
            [
              86.17711541292518,
              25.98440128689678
            ],
            [
              86.17698345400322,
              25.98394703391848
            ],
            [
              86.17698194483353,
              25.983941839201865
            ],
            [
              86.17672520183376,
              25.983668235663355
            ],
            [
              86.17634506175497,
              25.98359844232474
            ],
            [
              86.17633144688853,
              25.983603817939485
            ],
            [
              86.176330279977,
              25.983604279029443
            ],
            [
              86.17585719570734,
              25.98379105907999
            ],
            [
              86.17330774998152,
              25.98408260681675
            ],
            [
              86.16877259987974,
              25.985244245105555
            ],
            [
              86.16779986995414,
              25.985367772631406
            ],
            [
              86.16698480783562,
              25.98523296995709
            ],
            [
              86.16659747764129,
              25.984865414706757
            ],
            [
              86.16593012819986,
              25.98445443865065
            ],
            [
              86.16539346476767,
              25.984155453060612
            ],
            [
              86.16511042358793,
              25.98371951189761
            ],
            [
              86.16522586339018,
              25.982495806245453
            ],
            [
              86.16483691533001,
              25.981920653873928
            ],
            [
              86.16422592529122,
              25.981694373944244
            ],
            [
              86.1634876583497,
              25.981793764227312
            ],
            [
              86.1626457680452,
              25.98205182568213
            ],
            [
              86.16226085342069,
              25.982009147236777
            ],
            [
              86.1619789665761,
              25.981708554911066
            ],
            [
              86.16167331929226,
              25.981575048159286
            ],
            [
              86.161663212347,
              25.981577902767253
            ],
            [
              86.16126470800887,
              25.981690512353882
            ],
            [
              86.1607823728884,
              25.98194622333163
            ],
            [
              86.15945934491775,
              25.982626936228424
            ],
            [
              86.15719617161176,
              25.98379191100495
            ],
            [
              86.15543962297318,
              25.985256057241568
            ],
            [
              86.15294776644362,
              25.98656229225011
            ],
            [
              86.15093174123186,
              25.986737288721812
            ],
            [
              86.14870905679234,
              25.986683415294888
            ],
            [
              86.14610399906228,
              25.986234749311144
            ],
            [
              86.1454371931016,
              25.985895916647156
            ],
            [
              86.14502053830316,
              25.984950801000753
            ],
            [
              86.14439918260429,
              25.984007001265024
            ],
            [
              86.14378659356426,
              25.98355047038276
            ],
            [
              86.1429909143946,
              25.983325173913258
            ],
            [
              86.14174063019902,
              25.983080204292147
            ],
            [
              86.14035878323848,
              25.982601304739738
            ],
            [
              86.13966656483674,
              25.982190423323832
            ],
            [
              86.13920241161765,
              25.981547940281516
            ],
            [
              86.1384540170696,
              25.98030692914765
            ],
            [
              86.13768118924416,
              25.979801744206135
            ],
            [
              86.13683495468698,
              25.979486544274764
            ],
            [
              86.13594602140766,
              25.979464895703824
            ],
            [
              86.13499966512046,
              25.979795581066785
            ],
            [
              86.13585268375468,
              25.98101339723808
            ],
            [
              86.13632313865553,
              25.98248616606294
            ],
            [
              86.13663504719689,
              25.98345451917247
            ],
            [
              86.13689577781821,
              25.983592868061493
            ],
            [
              86.13740510012643,
              25.98358967515441
            ],
            [
              86.13773617063111,
              25.983795257333785
            ],
            [
              86.1380191103012,
              25.98423124989646
            ],
            [
              86.13838211142269,
              25.98468938991618
            ],
            [
              86.13868841178176,
              25.98492218225388
            ],
            [
              86.13897368976653,
              25.98501065074723
            ],
            [
              86.14027319984305,
              25.98516510424813
            ],
            [
              86.14311400963967,
              25.98574781992628
            ],
            [
              86.14385672414018,
              25.986226071969398
            ],
            [
              86.1440647577903,
              25.986662603803463
            ],
            [
              86.1441698229493,
              25.987343399208235
            ],
            [
              86.14434520733042,
              25.99006801906251
            ],
            [
              86.1450535136606,
              25.9958851451093
            ],
            [
              86.14528594016394,
              25.996253829398018
            ],
            [
              86.14559303104043,
              25.99657681315027
            ],
            [
              86.14592938723227,
              25.996804891625523
            ],
            [
              86.14595698078287,
              25.997147714597027
            ],
            [
              86.1458297712538,
              25.997495943844253
            ],
            [
              86.14552743156682,
              25.997800159038643
            ],
            [
              86.14496506194448,
              25.99805642599477
            ],
            [
              86.14374427482952,
              25.998434030208458
            ],
            [
              86.14126938657736,
              25.998724543662753
            ],
            [
              86.13622957372878,
              25.999385087305313
            ],
            [
              86.13529039587903,
              25.999109320343834
            ],
            [
              86.13439066844326,
              25.999504202846325
            ],
            [
              86.13326128041693,
              25.99949743922418
            ],
            [
              86.13228923231262,
              25.999181366823066
            ],
            [
              86.13132673419808,
              25.999075544908134
            ],
            [
              86.1307712187213,
              25.999332337932533
            ],
            [
              86.13045374511675,
              26.000005865193614
            ],
            [
              86.13056848423305,
              26.00083990199003
            ],
            [
              86.13056206936359,
              26.000937166361798
            ],
            [
              86.13032249766047,
              26.004570015764134
            ],
            [
              86.12988589397452,
              26.004523507262732
            ],
            [
              86.12808819530939,
              26.0046663558399
            ],
            [
              86.12646142089002,
              26.00467847928249
            ],
            [
              86.1252713489713,
              26.0047371079296
            ],
            [
              86.12545615398481,
              26.00601143269703
            ],
            [
              86.12580222635475,
              26.006814686866296
            ],
            [
              86.12642456481055,
              26.00802574329467
            ],
            [
              86.12626264078564,
              26.01021985227559
            ],
            [
              86.126403125618,
              26.010923083191877
            ],
            [
              86.12796088337238,
              26.012041002258332
            ],
            [
              86.12878260380381,
              26.01255077865442
            ],
            [
              86.12873785961783,
              26.012671944335796
            ],
            [
              86.12838626710045,
              26.013624038167176
            ],
            [
              86.12787377014602,
              26.01397209181809
            ],
            [
              86.1273167625676,
              26.013771172155334
            ],
            [
              86.12663780329945,
              26.013657367015064
            ],
            [
              86.12629559188858,
              26.013962563204164
            ],
            [
              86.12648740465964,
              26.014293016665505
            ],
            [
              86.12711601964432,
              26.014648049054063
            ],
            [
              86.12718399516186,
              26.015306957975792
            ],
            [
              86.12647668326672,
              26.0157416856334
            ],
            [
              86.12556105295548,
              26.01642760591026
            ],
            [
              86.12516798971303,
              26.017039843879356
            ],
            [
              86.12540674125431,
              26.017590082835618
            ],
            [
              86.12642388298926,
              26.017947377737592
            ],
            [
              86.12695402734742,
              26.018499376331775
            ],
            [
              86.12709426065149,
              26.019224634021047
            ],
            [
              86.12713486989226,
              26.020300435934303
            ],
            [
              86.12656805540585,
              26.02049735575251
            ],
            [
              86.1256133798208,
              26.02082901784886
            ],
            [
              86.12453381415676,
              26.021355463004372
            ],
            [
              86.12307889104449,
              26.022064926984612
            ],
            [
              86.12068553568413,
              26.023894234380993
            ],
            [
              86.11956238466081,
              26.024721511271256
            ],
            [
              86.11747571773175,
              26.026124557380026
            ],
            [
              86.11633333826978,
              26.02627116230671
            ],
            [
              86.11487592502753,
              26.026328156045555
            ],
            [
              86.11407631303359,
              26.02610375772006
            ],
            [
              86.113424451446,
              26.025594849829574
            ],
            [
              86.11257908735628,
              26.024996987215868
            ],
            [
              86.11216065389358,
              26.025740766856508
            ],
            [
              86.1121512359561,
              26.026991879817658
            ],
            [
              86.11092877617813,
              26.02740634676561
            ],
            [
              86.11002100971892,
              26.027714111263382
            ],
            [
              86.10914166505697,
              26.03161587522368
            ],
            [
              86.10816672886902,
              26.03161923229776
            ],
            [
              86.10685883840918,
              26.031623724270982
            ],
            [
              86.10662327768381,
              26.032269837738554
            ],
            [
              86.10700452179209,
              26.033237952347427
            ],
            [
              86.10668066925071,
              26.03431159092388
            ],
            [
              86.10643066631049,
              26.035253861243387
            ],
            [
              86.10613408212953,
              26.035932551606198
            ],
            [
              86.10606734538877,
              26.036733294187513
            ],
            [
              86.10630487881451,
              26.037437140287853
            ],
            [
              86.10676348314013,
              26.03781315126414
            ],
            [
              86.10749096490832,
              26.03794938194968
            ],
            [
              86.10792628669839,
              26.038193509893162
            ],
            [
              86.10865211287152,
              26.038549223029115
            ],
            [
              86.10867199079213,
              26.038681426873342
            ],
            [
              86.10872148706598,
              26.039010587921254
            ],
            [
              86.10840271180257,
              26.039425676672444
            ],
            [
              86.10796223727606,
              26.039861954249186
            ],
            [
              86.10759378787239,
              26.040408470274127
            ],
            [
              86.10713714097578,
              26.04138241933561
            ],
            [
              86.10636994289223,
              26.043265485271426
            ],
            [
              86.10604222490018,
              26.044843826386572
            ],
            [
              86.10583803514113,
              26.046159639602642
            ],
            [
              86.10566469083403,
              26.046597562779077
            ],
            [
              86.10532349631606,
              26.046749125021805
            ],
            [
              86.10486352655127,
              26.046548718293632
            ],
            [
              86.10453894637449,
              26.046118635748208
            ],
            [
              86.10418180406529,
              26.045172517358537
            ],
            [
              86.10307503561779,
              26.043804778845423
            ],
            [
              86.10221032720679,
              26.04254824226612
            ],
            [
              86.10226575415813,
              26.041648563853073
            ],
            [
              86.10295515274818,
              26.040408271722
            ],
            [
              86.1033527506862,
              26.039225397060076
            ],
            [
              86.10262800698295,
              26.0387159883627
            ],
            [
              86.10244321724083,
              26.038714839810783
            ],
            [
              86.10165666315784,
              26.038709950999085
            ],
            [
              86.10061296183318,
              26.038637634981896
            ],
            [
              86.09986176903301,
              26.038413458757983
            ],
            [
              86.09908907595486,
              26.037837911099288
            ],
            [
              86.09851024111168,
              26.03730754211558
            ],
            [
              86.09809007479878,
              26.036679291144758
            ],
            [
              86.09654060310453,
              26.03605499831292
            ],
            [
              86.09600961882157,
              26.035634621257124
            ],
            [
              86.09506107962822,
              26.034912495881336
            ],
            [
              86.09458513602101,
              26.03455015298034
            ],
            [
              86.09279167560744,
              26.034077965817144
            ],
            [
              86.09073863711102,
              26.03420772091937
            ],
            [
              86.08902950694302,
              26.034211522667288
            ],
            [
              86.08816444729071,
              26.034213438877323
            ],
            [
              86.08658907716686,
              26.033808375269444
            ],
            [
              86.08515755426941,
              26.033645731627473
            ],
            [
              86.0842786228325,
              26.034254776218116
            ],
            [
              86.08291181816142,
              26.036693534887597
            ],
            [
              86.08195538098009,
              26.037894741019294
            ],
            [
              86.08076017339289,
              26.038567573248642
            ],
            [
              86.07954563316247,
              26.03860381199793
            ],
            [
              86.07818160159066,
              26.039121872016775
            ],
            [
              86.07766627224814,
              26.039799015333575
            ],
            [
              86.07688351803878,
              26.042065913669994
            ],
            [
              86.07666005402703,
              26.042701035738713
            ],
            [
              86.07641546702969,
              26.042918968878357
            ],
            [
              86.07515006957773,
              26.04324007202175
            ],
            [
              86.07396087531305,
              26.04312274985545
            ],
            [
              86.07267878177325,
              26.04247797624959
            ],
            [
              86.07132764641564,
              26.04134978118251
            ],
            [
              86.07014743979536,
              26.040786999622952
            ],
            [
              86.07002112498832,
              26.040726766671142
            ],
            [
              86.06995547700569,
              26.040794744745213
            ],
            [
              86.0695681548962,
              26.041195798679876
            ],
            [
              86.06961205107257,
              26.04178875139368
            ],
            [
              86.0700922410161,
              26.042494213652354
            ],
            [
              86.07083828018146,
              26.043355060738143
            ],
            [
              86.07167992434756,
              26.04441407495245
            ],
            [
              86.07293629103596,
              26.045256249657296
            ],
            [
              86.07308901721068,
              26.04590479482583
            ],
            [
              86.07532601271096,
              26.045567992261724
            ],
            [
              86.07675921006808,
              26.045533189051657
            ],
            [
              86.0779736496872,
              26.04551900610702
            ],
            [
              86.07802600170533,
              26.04503646536074
            ],
            [
              86.0785906153193,
              26.044271783223312
            ],
            [
              86.07954542295667,
              26.043290088184552
            ],
            [
              86.08044900506331,
              26.042659292171766
            ],
            [
              86.08082326117699,
              26.04293606820828
            ],
            [
              86.08099053107615,
              26.043288364213225
            ],
            [
              86.08074013018225,
              26.044252612272658
            ],
            [
              86.08066179080127,
              26.044954485907123
            ],
            [
              86.08082461224315,
              26.045877483077586
            ],
            [
              86.08127086024201,
              26.04640224766746
            ],
            [
              86.08171711363076,
              26.046927012329597
            ],
            [
              86.08155258718645,
              26.04751737117906
            ],
            [
              86.08135342619642,
              26.048062364091397
            ],
            [
              86.08125886234308,
              26.048653166758786
            ],
            [
              86.08130538788828,
              26.049095886678696
            ],
            [
              86.08151704624056,
              26.04951257321469
            ],
            [
              86.0815190530769,
              26.04989632065629
            ],
            [
              86.08128719341052,
              26.05014766139863
            ],
            [
              86.0808771070934,
              26.050181167915117
            ],
            [
              86.08027275111297,
              26.05013217400345
            ],
            [
              86.07953933776894,
              26.04996949166602
            ],
            [
              86.0790300792411,
              26.049903041828337
            ],
            [
              86.07847428798155,
              26.050034932645715
            ],
            [
              86.07799743168601,
              26.050298248164857
            ],
            [
              86.07768936344249,
              26.050707103640462
            ],
            [
              86.07765605570837,
              26.051131257719778
            ],
            [
              86.07773907171875,
              26.051380088319092
            ],
            [
              86.07788177808479,
              26.05166541539198
            ],
            [
              86.07817856528497,
              26.05206007426079
            ],
            [
              86.07860458861354,
              26.05254584814654
            ],
            [
              86.07889574786847,
              26.053021732218355
            ],
            [
              86.07906178797401,
              26.0535193897037
            ],
            [
              86.07914901798136,
              26.0545086303106
            ],
            [
              86.07922860422394,
              26.055088002921913
            ],
            [
              86.07924832763432,
              26.055231588087576
            ],
            [
              86.07897539968808,
              26.055632273053885
            ],
            [
              86.07672009023408,
              26.05672636926225
            ],
            [
              86.06930697871049,
              26.057359207966954
            ],
            [
              86.06937815762033,
              26.059104712180837
            ],
            [
              86.06986403210303,
              26.063706427123442
            ],
            [
              86.07068898467283,
              26.068442056110193
            ],
            [
              86.07110276576068,
              26.071408050741095
            ],
            [
              86.07596099675102,
              26.07143923373575
            ],
            [
              86.07688333208753,
              26.071532898057708
            ],
            [
              86.07760523172456,
              26.072415587696902
            ],
            [
              86.07804987623064,
              26.073022020639346
            ],
            [
              86.07902711480068,
              26.073244011756024
            ],
            [
              86.0790440722983,
              26.0732478638792
            ],
            [
              86.07984540007445,
              26.0732968561937
            ],
            [
              86.08130425780764,
              26.073130534638153
            ],
            [
              86.08235081307994,
              26.072873815189208
            ],
            [
              86.08422161664289,
              26.072841815994664
            ],
            [
              86.08516723900648,
              26.073067309388527
            ],
            [
              86.08655150513009,
              26.073119957023035
            ],
            [
              86.08699156463494,
              26.073458704087855
            ],
            [
              86.0871552592393,
              26.073584711145482
            ],
            [
              86.0873599430717,
              26.075385947776425
            ],
            [
              86.08723404957455,
              26.075955879139062
            ],
            [
              86.08689579524253,
              26.076186178744802
            ],
            [
              86.08681884286032,
              26.076238570811082
            ],
            [
              86.08610026788814,
              26.076486474239392
            ],
            [
              86.08515171611838,
              26.07663413935306
            ],
            [
              86.08388843779223,
              26.076626124683308
            ],
            [
              86.08264955501421,
              26.076618256057014
            ],
            [
              86.08184864405634,
              26.07652530988621
            ],
            [
              86.0808284058286,
              26.076518816166104
            ],
            [
              86.08002413786653,
              26.07684297968436
            ],
            [
              86.07892946972592,
              26.077033552909086
            ],
            [
              86.07801910264394,
              26.076950904353755
            ],
            [
              86.07736282583674,
              26.076990590288098
            ],
            [
              86.07631553394587,
              26.07733512108187
            ],
            [
              86.07534094810089,
              26.077701959891925
            ],
            [
              86.0741458078873,
              26.078308902823885
            ],
            [
              86.07300391441392,
              26.078323512663353
            ],
            [
              86.07207900809908,
              26.078537154831746
            ],
            [
              86.0714172794164,
              26.07927914809008
            ],
            [
              86.06980805897598,
              26.080015123194723
            ],
            [
              86.07015273356734,
              26.080972164048998
            ],
            [
              86.07081849838059,
              26.082798330234237
            ],
            [
              86.07114771206759,
              26.08418333374929
            ],
            [
              86.07024645929249,
              26.084484786684424
            ],
            [
              86.06878467035652,
              26.08500220413947
            ],
            [
              86.06856201482854,
              26.08550557916804
            ],
            [
              86.07036361487692,
              26.088107352252244
            ],
            [
              86.07158455470545,
              26.087324995127705
            ],
            [
              86.07236867435401,
              26.08647399706993
            ],
            [
              86.07341536706853,
              26.08621734560899
            ],
            [
              86.07424194019913,
              26.086156740676337
            ],
            [
              86.07470901024794,
              26.087004854305405
            ],
            [
              86.07420505627188,
              26.089306367719896
            ],
            [
              86.07390744980813,
              26.09007273734707
            ],
            [
              86.07566661074758,
              26.090792646223115
            ],
            [
              86.07652300435231,
              26.091143100862176
            ],
            [
              86.07721033322399,
              26.091795061164277
            ],
            [
              86.0755211815879,
              26.093408566835066
            ],
            [
              86.07443084332697,
              26.093028406015772
            ],
            [
              86.07355935892376,
              26.09262770217003
            ],
            [
              86.07271017429916,
              26.092468571338124
            ],
            [
              86.0721807611696,
              26.091828621114825
            ],
            [
              86.07174895987717,
              26.091123476914603
            ],
            [
              86.07128870893965,
              26.09094490077665
            ],
            [
              86.07070326069933,
              26.091248387915616
            ],
            [
              86.07019008012696,
              26.091618249649947
            ],
            [
              86.06937575283034,
              26.091667895826564
            ],
            [
              86.06864667475587,
              26.091685130839142
            ],
            [
              86.06789374820721,
              26.091658326734805
            ],
            [
              86.06723668986567,
              26.09178581398358
            ],
            [
              86.06640512389873,
              26.092482801037836
            ],
            [
              86.06569642590311,
              26.093005055152627
            ],
            [
              86.06457492239001,
              26.093480657843482
            ],
            [
              86.06404135724725,
              26.09336749400407
            ],
            [
              86.06403682255169,
              26.093365577147885
            ],
            [
              86.06314533536205,
              26.092988509307784
            ],
            [
              86.06147199227834,
              26.091078923667677
            ],
            [
              86.05959407495665,
              26.088937566865063
            ],
            [
              86.05862328179879,
              26.08879950192809
            ],
            [
              86.05743463011655,
              26.088572246956545
            ],
            [
              86.05724043680999,
              26.088549037199233
            ],
            [
              86.05699430920194,
              26.088942538293765
            ],
            [
              86.05691103807003,
              26.090237112275528
            ],
            [
              86.05683198901997,
              26.091004781973556
            ],
            [
              86.05622291418935,
              26.0912202936821
            ],
            [
              86.05527526881973,
              26.09123603219791
            ],
            [
              86.05390247238566,
              26.091238049935527
            ],
            [
              86.05367373705982,
              26.0924876972869
            ],
            [
              86.05373391340409,
              26.094068524761614
            ],
            [
              86.05351046825693,
              26.09465972059798
            ],
            [
              86.05367747315309,
              26.095012534680656
            ],
            [
              86.05428693336097,
              26.09630005273181
            ],
            [
              86.05430679062034,
              26.0964570590556
            ],
            [
              86.05449255233962,
              26.097925714943532
            ],
            [
              86.05560892737074,
              26.098086701080366
            ],
            [
              86.05614242693652,
              26.09822192668256
            ],
            [
              86.0563818845536,
              26.098662481950775
            ],
            [
              86.0562309873488,
              26.099298039325788
            ],
            [
              86.05644124971916,
              26.101856602214806
            ],
            [
              86.05734089001832,
              26.106329300118002
            ],
            [
              86.05792146938981,
              26.109691420779043
            ],
            [
              86.05811609927757,
              26.1111743459974
            ],
            [
              86.04805365475852,
              26.112941048396088
            ],
            [
              86.04700613918715,
              26.113263324337744
            ],
            [
              86.04675849881617,
              26.113832407350067
            ],
            [
              86.04674799301891,
              26.11512744871825
            ],
            [
              86.046730635771,
              26.115496955848176
            ],
            [
              86.04668923780942,
              26.116378202338794
            ],
            [
              86.04705616456872,
              26.11757687232138
            ],
            [
              86.04765944526575,
              26.118107697275644
            ],
            [
              86.04825024836347,
              26.118658686819042
            ],
            [
              86.04903426201084,
              26.119389855386757
            ],
            [
              86.04929963512556,
              26.119633040046136
            ],
            [
              86.04920118156704,
              26.11978606281934
            ],
            [
              86.04883308969288,
              26.120222620924043
            ],
            [
              86.04856167271292,
              26.12072572902865
            ],
            [
              86.04870322294721,
              26.121253411819147
            ],
            [
              86.04943757143744,
              26.122103364761745
            ],
            [
              86.04945689958909,
              26.12271809205206
            ],
            [
              86.04957344162418,
              26.12333346134879
            ],
            [
              86.04934707515571,
              26.12427585418526
            ],
            [
              86.04939105577371,
              26.125060224832772
            ],
            [
              86.04943203242541,
              26.125790928298578
            ],
            [
              86.04951055326606,
              26.12627294181611
            ],
            [
              86.04960564443049,
              26.126856674938562
            ],
            [
              86.04983607487728,
              26.128416678844825
            ],
            [
              86.04961111966213,
              26.129183376853977
            ],
            [
              86.04975339393852,
              26.129623301693073
            ],
            [
              86.05023540117388,
              26.13013137689848
            ],
            [
              86.05074126227332,
              26.130683488842163
            ],
            [
              86.050696782192,
              26.131681885775684
            ],
            [
              86.05056372103716,
              26.133107761159586
            ],
            [
              86.05065703623227,
              26.133591334055524
            ],
            [
              86.05111262940503,
              26.134362607099344
            ],
            [
              86.05193165039903,
              26.135267910993942
            ],
            [
              86.05197671708018,
              26.135707194355
            ],
            [
              86.0519086454429,
              26.1366176749709
            ],
            [
              86.0516581376495,
              26.1375378791473
            ],
            [
              86.05158505700619,
              26.138552951231656
            ],
            [
              86.05157599839488,
              26.13867877606192
            ],
            [
              86.05161396658869,
              26.13960204378332
            ],
            [
              86.05161663009349,
              26.139666807232
            ],
            [
              86.05173302031328,
              26.14030411335989
            ],
            [
              86.04933282338374,
              26.141045550177008
            ],
            [
              86.04929838287408,
              26.142296460156295
            ],
            [
              86.04991597642854,
              26.14407850880324
            ],
            [
              86.05004742690403,
              26.14585734982146
            ],
            [
              86.05066074807104,
              26.1466625287515
            ],
            [
              86.05128565930178,
              26.14754461825265
            ],
            [
              86.0500330664359,
              26.149138722254516
            ],
            [
              86.04949365865052,
              26.150298868219114
            ],
            [
              86.04885790744923,
              26.151666194188795
            ],
            [
              86.04787762718365,
              26.152647479179805
            ],
            [
              86.04575371430626,
              26.15375291472441
            ],
            [
              86.04526234393066,
              26.15438619531108
            ],
            [
              86.04469291265185,
              26.15491538140066
            ],
            [
              86.04416010478883,
              26.155410525902834
            ],
            [
              86.04498739567335,
              26.15680980367304
            ],
            [
              86.04516327861946,
              26.156962013340074
            ],
            [
              86.04770165620262,
              26.15915867463166
            ],
            [
              86.04802907056411,
              26.159442003662885
            ],
            [
              86.04927219698352,
              26.159033171825275
            ],
            [
              86.05214348931268,
              26.15870087561916
            ],
            [
              86.05387280282847,
              26.158295204335822
            ],
            [
              86.05439303966739,
              26.158594950269656
            ],
            [
              86.05583213626096,
              26.161018903367335
            ],
            [
              86.05904557801725,
              26.16046922074309
            ],
            [
              86.06140319210735,
              26.160528489007127
            ],
            [
              86.06192978183195,
              26.161563562653463
            ],
            [
              86.06200326492052,
              26.16181246634501
            ],
            [
              86.06229663942096,
              26.16280616411391
            ],
            [
              86.06287151808364,
              26.163885431830444
            ],
            [
              86.06405603392236,
              26.164727318152693
            ],
            [
              86.06417268824683,
              26.165342674040104
            ],
            [
              86.06487371013836,
              26.16585203616473
            ],
            [
              86.06523514190303,
              26.166249488008308
            ],
            [
              86.06549592821992,
              26.16708527169981
            ],
            [
              86.0665201540692,
              26.168222337122486
            ],
            [
              86.06732072456558,
              26.16844701766058
            ],
            [
              86.0700330474288,
              26.168769450008273
            ],
            [
              86.07239716621989,
              26.16905044582868
            ],
            [
              86.0720724216514,
              26.167072914326635
            ],
            [
              86.07411370120076,
              26.167195759151543
            ],
            [
              86.07431478728046,
              26.166362959390312
            ],
            [
              86.07457131558289,
              26.16620001139065
            ],
            [
              86.07503342064315,
              26.166181041021424
            ],
            [
              86.07615203068269,
              26.166144341906577
            ],
            [
              86.07759885188942,
              26.165729272162604
            ],
            [
              86.07824751996621,
              26.165543173963382
            ],
            [
              86.07858305958943,
              26.166159921173257
            ],
            [
              86.07797283581355,
              26.16646335888413
            ],
            [
              86.07818232742937,
              26.167649928969517
            ],
            [
              86.08020361766701,
              26.167223869785733
            ],
            [
              86.08183451984513,
              26.166970906890082
            ],
            [
              86.08223485225486,
              26.167072236271473
            ],
            [
              86.08242162188392,
              26.169873399266873
            ],
            [
              86.08253939730588,
              26.171639748904937
            ],
            [
              86.08478024927365,
              26.17112717508668
            ],
            [
              86.08954092322413,
              26.17015867268795
            ],
            [
              86.08979518956869,
              26.170077848366624
            ]
          ]
        ]
      }
    }
  ]
}