{
  "type": "FeatureCollection",
  "features": [
    {
      "type": "Feature",
      "properties": {
        "object_id": "10-229-01389",
        "stname": "BIHAR",
        "dtname": "Nalanda",
        "sdtname": "Parbalpur",
        "st_area_sh": 0.0,
        "st_length_": 0.0,
        "remarks": "",
        "dist_lgd": 209,
        "state_lgd": 10,
        "subdt_lgd": 1389,
        "ac_no": null,
        "st_length(shape)": 54466.2339431045,
        "st_area(shape)": 76043839.88376136
      },
      "geometry": {
        "type": "Polygon",
        "coordinates": [
          [
            [
              85.34256623525671,
              25.25781821490164
            ],
            [
              85.34301253176459,
              25.25735756580999
            ],
            [
              85.34344447499087,
              25.257560406703238
            ],
            [
              85.34375233572358,
              25.257636920211777
            ],
            [
              85.34425350222732,
              25.257537373347585
            ],
            [
              85.34481416505066,
              25.257230092805187
            ],
            [
              85.34567754485336,
              25.256927098728823
            ],
            [
              85.34629311540183,
              25.257129765666857
            ],
            [
              85.34727128911805,
              25.25755791983873
            ],
            [
              85.34832881102335,
              25.25804025036023
            ],
            [
              85.34911294235002,
              25.25791332321452
            ],
            [
              85.3499762359145,
              25.25750650160847
            ],
            [
              85.35138597107299,
              25.25768161874128
            ],
            [
              85.35319752265812,
              25.257553982777075
            ],
            [
              85.35540105501575,
              25.25732222805959
            ],
            [
              85.35780311235627,
              25.257018082174714
            ],
            [
              85.36069201435993,
              25.25728673106123
            ],
            [
              85.36298046356306,
              25.25764161039778
            ],
            [
              85.36359092179924,
              25.2576681810739
            ],
            [
              85.36412196087943,
              25.257563943234093
            ],
            [
              85.36462827562808,
              25.257667436883832
            ],
            [
              85.36504566524842,
              25.258073271658443
            ],
            [
              85.36593938385322,
              25.258451732710352
            ],
            [
              85.36638651489602,
              25.258907286176104
            ],
            [
              85.36658060938788,
              25.25943967527488
            ],
            [
              85.36688823925354,
              25.25936269575884
            ],
            [
              85.36747397495476,
              25.259362291984456
            ],
            [
              85.36778194079037,
              25.25961477337157
            ],
            [
              85.36800586563787,
              25.260201392320305
            ],
            [
              85.36822935300583,
              25.26035465318678
            ],
            [
              85.36886973142917,
              25.260476051728613
            ],
            [
              85.36963379169744,
              25.26014587899778
            ],
            [
              85.36975164078126,
              25.25885944888132
            ],
            [
              85.36967148590509,
              25.258015468741373
            ],
            [
              85.37067795116289,
              25.256913298629918
            ],
            [
              85.3726499930617,
              25.25357611878016
            ],
            [
              85.37418420776916,
              25.25416166439228
            ],
            [
              85.37523155176228,
              25.25419688281855
            ],
            [
              85.37656574579191,
              25.253387808637953
            ],
            [
              85.37809411156853,
              25.253020829008243
            ],
            [
              85.37902160772637,
              25.252433285721082
            ],
            [
              85.38007371009556,
              25.252360170746723
            ],
            [
              85.3814435169363,
              25.252395014334226
            ],
            [
              85.38245096674765,
              25.252317446999225
            ],
            [
              85.38378528025326,
              25.251585031178966
            ],
            [
              85.38665793263172,
              25.2505217303768
            ],
            [
              85.38655857267311,
              25.250001157168438
            ],
            [
              85.38628051714323,
              25.249079278761915
            ],
            [
              85.38618902822311,
              25.24862763472293
            ],
            [
              85.38600618962175,
              25.248037264628685
            ],
            [
              85.38574233555819,
              25.24657249315137
            ],
            [
              85.3857249567507,
              25.244949803923703
            ],
            [
              85.38595956436357,
              25.243456172365935
            ],
            [
              85.38643217971263,
              25.242733872807808
            ],
            [
              85.38673110669983,
              25.242577433820493
            ],
            [
              85.38635513390567,
              25.24175648903905
            ],
            [
              85.3852525507091,
              25.240985742699326
            ],
            [
              85.38415502862082,
              25.240255523149358
            ],
            [
              85.38344975410475,
              25.23969643393203
            ],
            [
              85.38318498825116,
              25.23814851209871
            ],
            [
              85.3832930717495,
              25.23714185512326
            ],
            [
              85.38352566893276,
              25.236577420275065
            ],
            [
              85.38423950619016,
              25.235863703752468
            ],
            [
              85.38434333886059,
              25.235457292611457
            ],
            [
              85.38375637336573,
              25.234257237127014
            ],
            [
              85.38329868622003,
              25.233142768149115
            ],
            [
              85.38300933617208,
              25.23173478261421
            ],
            [
              85.38279530267418,
              25.23118882176688
            ],
            [
              85.3839206581632,
              25.23014973975396
            ],
            [
              85.38563920537031,
              25.231606024808897
            ],
            [
              85.38672699870405,
              25.232530281798006
            ],
            [
              85.38777361865507,
              25.23215020011442
            ],
            [
              85.38989414668048,
              25.23357448963532
            ],
            [
              85.39080305220347,
              25.23428231368696
            ],
            [
              85.39126963177213,
              25.23437208789158
            ],
            [
              85.3919878815542,
              25.233215954818814
            ],
            [
              85.39280584972266,
              25.232501978843363
            ],
            [
              85.39263555968752,
              25.23113904766815
            ],
            [
              85.3924359549297,
              25.230195873727826
            ],
            [
              85.39317877363477,
              25.228931382723783
            ],
            [
              85.39402629637608,
              25.228063923346237
            ],
            [
              85.39463231693476,
              25.227234420986846
            ],
            [
              85.39523132434597,
              25.226123555920697
            ],
            [
              85.39589519012073,
              25.225197484342083
            ],
            [
              85.39641921695184,
              25.223581102088612
            ],
            [
              85.3956542853177,
              25.222994338856154
            ],
            [
              85.39586396198649,
              25.222178649035982
            ],
            [
              85.39580959684382,
              25.2216559520046
            ],
            [
              85.39511330188732,
              25.221356012668785
            ],
            [
              85.39417643989438,
              25.22101864870339
            ],
            [
              85.39402474498559,
              25.22062368008598
            ],
            [
              85.39436949323881,
              25.22030372097753
            ],
            [
              85.39519555971957,
              25.220044679180987
            ],
            [
              85.39581830780715,
              25.2198251952197
            ],
            [
              85.39626776907976,
              25.21910608486654
            ],
            [
              85.39563257034237,
              25.21852487433163
            ],
            [
              85.39468087177417,
              25.218444925310454
            ],
            [
              85.39367541173115,
              25.217797031133202
            ],
            [
              85.39299897493233,
              25.218026364609557
            ],
            [
              85.39252755613921,
              25.21779499206606
            ],
            [
              85.39193073971896,
              25.216774460273328
            ],
            [
              85.38854595959363,
              25.216060091946186
            ],
            [
              85.38722094993945,
              25.215853601784627
            ],
            [
              85.38530025484393,
              25.215399531876653
            ],
            [
              85.38495278828866,
              25.215219318219116
            ],
            [
              85.3825308179933,
              25.214675318290553
            ],
            [
              85.38241413402442,
              25.21455117900878
            ],
            [
              85.38252684204984,
              25.212972175948238
            ],
            [
              85.38259628002467,
              25.21003522694658
            ],
            [
              85.38259838298075,
              25.209297341733276
            ],
            [
              85.38242894724341,
              25.20880122923948
            ],
            [
              85.38207101262016,
              25.20867200582822
            ],
            [
              85.38090946670327,
              25.20855486806395
            ],
            [
              85.37814548711796,
              25.208677721170947
            ],
            [
              85.37753268338061,
              25.208726686822523
            ],
            [
              85.37674510881143,
              25.20868323413569
            ],
            [
              85.37578332216259,
              25.20850559674433
            ],
            [
              85.37422572790157,
              25.207673994122157
            ],
            [
              85.37325309319739,
              25.20716207472185
            ],
            [
              85.37208349388398,
              25.2065017922764
            ],
            [
              85.36961594756264,
              25.20505447976315
            ],
            [
              85.36913442631584,
              25.205014362254026
            ],
            [
              85.3669469216995,
              25.204948446877115
            ],
            [
              85.36671954193142,
              25.20478582435877
            ],
            [
              85.36686533221382,
              25.20418179619229
            ],
            [
              85.36708053441991,
              25.203536765148947
            ],
            [
              85.36725720069695,
              25.20291219294296
            ],
            [
              85.3671777483033,
              25.201985453759782
            ],
            [
              85.36677595882618,
              25.201131728985978
            ],
            [
              85.3664972627975,
              25.20080146578453
            ],
            [
              85.36599457275102,
              25.2006288400931
            ],
            [
              85.36499592103958,
              25.200353267598537
            ],
            [
              85.36383364030078,
              25.200298642178645
            ],
            [
              85.36248775290109,
              25.200241975747367
            ],
            [
              85.36031918836416,
              25.19991164510682
            ],
            [
              85.35908797180882,
              25.199292349044267
            ],
            [
              85.35872291264702,
              25.198557355785635
            ],
            [
              85.35880165357494,
              25.19839115721654
            ],
            [
              85.35901865600485,
              25.198184724864543
            ],
            [
              85.35931131993789,
              25.198041783380916
            ],
            [
              85.36032113231846,
              25.198052984219714
            ],
            [
              85.36183641233633,
              25.198028010737055
            ],
            [
              85.36243572786971,
              25.1978397299884
            ],
            [
              85.36337990664069,
              25.196464871378474
            ],
            [
              85.36356843966261,
              25.196098006073992
            ],
            [
              85.36358985909223,
              25.19506795999378
            ],
            [
              85.36309713585385,
              25.193579735932204
            ],
            [
              85.36265575582553,
              25.192829983095244
            ],
            [
              85.36220986086458,
              25.192353686324154
            ],
            [
              85.36099628272981,
              25.19105733794237
            ],
            [
              85.36026144286107,
              25.190513169071327
            ],
            [
              85.35954536071382,
              25.190282463633476
            ],
            [
              85.35853579986154,
              25.19025734061232
            ],
            [
              85.35491911156076,
              25.190669645752607
            ],
            [
              85.3537618676758,
              25.19081688139901
            ],
            [
              85.35256655857897,
              25.190949759775094
            ],
            [
              85.35161500733446,
              25.191161921368582
            ],
            [
              85.35049937970166,
              25.191058984836538
            ],
            [
              85.34980954992024,
              25.19058488080117
            ],
            [
              85.34802269481895,
              25.1897643801403
            ],
            [
              85.34655924759294,
              25.189358193005337
            ],
            [
              85.34618611527169,
              25.18922871728428
            ],
            [
              85.3449717250599,
              25.189075907337678
            ],
            [
              85.34400892690806,
              25.188988556276083
            ],
            [
              85.34334285756594,
              25.18902286525276
            ],
            [
              85.34288852562783,
              25.18924053835715
            ],
            [
              85.34215172563518,
              25.189413276112635
            ],
            [
              85.3417124063421,
              25.18965199828283
            ],
            [
              85.34090647380181,
              25.189844838170558
            ],
            [
              85.3404327687963,
              25.189797754890122
            ],
            [
              85.3400068505706,
              25.189611982187657
            ],
            [
              85.33909750487314,
              25.189532158870527
            ],
            [
              85.33755891896352,
              25.189591448602112
            ],
            [
              85.33644974482772,
              25.189578978064564
            ],
            [
              85.33560113871815,
              25.188970758785263
            ],
            [
              85.33545194741406,
              25.188126760970643
            ],
            [
              85.33483071119113,
              25.185989608242824
            ],
            [
              85.33346295969572,
              25.18474205281169
            ],
            [
              85.33267344117229,
              25.18373072837443
            ],
            [
              85.33230359039679,
              25.18280070530414
            ],
            [
              85.33132112902169,
              25.180791731873008
            ],
            [
              85.32966218862693,
              25.17902572416691
            ],
            [
              85.32777962791356,
              25.175711763390517
            ],
            [
              85.32766109700846,
              25.174868106248347
            ],
            [
              85.32787316139925,
              25.173902880384915
            ],
            [
              85.32819159081127,
              25.173551451796516
            ],
            [
              85.32876478872608,
              25.173028867944048
            ],
            [
              85.32957422918756,
              25.172571599341232
            ],
            [
              85.33061377939731,
              25.172068191735455
            ],
            [
              85.33094050834421,
              25.171668122043247
            ],
            [
              85.3309070056757,
              25.171319678081428
            ],
            [
              85.32989417675242,
              25.17042416476678
            ],
            [
              85.32767471187489,
              25.1716647366737
            ],
            [
              85.3275967300234,
              25.171715605824872
            ],
            [
              85.32645144810475,
              25.17246097560175
            ],
            [
              85.32470605025378,
              25.1733239800572
            ],
            [
              85.32415063269337,
              25.17354997214298
            ],
            [
              85.32350587318643,
              25.173550229862858
            ],
            [
              85.32261315440653,
              25.173758342956095
            ],
            [
              85.32194849182612,
              25.173686417261504
            ],
            [
              85.32097151915742,
              25.173844914704784
            ],
            [
              85.32008389562179,
              25.174251522650447
            ],
            [
              85.31952351037788,
              25.174445890130144
            ],
            [
              85.31886380200626,
              25.17440556010477
            ],
            [
              85.31827852264922,
              25.174356222125287
            ],
            [
              85.31690965095466,
              25.1745057758071
            ],
            [
              85.31608114914116,
              25.174244361005663
            ],
            [
              85.31540672906014,
              25.174425222284444
            ],
            [
              85.31473252726973,
              25.17507998690897
            ],
            [
              85.31292698541388,
              25.17499045676531
            ],
            [
              85.31236670078128,
              25.17532922628778
            ],
            [
              85.31205981741559,
              25.176575160263013
            ],
            [
              85.31163835932533,
              25.17689580418903
            ],
            [
              85.31136552210893,
              25.176909405245624
            ],
            [
              85.31100830793449,
              25.17667489696495
            ],
            [
              85.31093818544343,
              25.175302722174358
            ],
            [
              85.30973243702466,
              25.174364395937285
            ],
            [
              85.30928598510825,
              25.17417946066416
            ],
            [
              85.30775335772393,
              25.174351592953993
            ],
            [
              85.3072079599722,
              25.174744546694694
            ],
            [
              85.30610691199645,
              25.17488942603497
            ],
            [
              85.30551668741373,
              25.174835419261967
            ],
            [
              85.3046635511002,
              25.174971144261217
            ],
            [
              85.30406337767573,
              25.17498489918709
            ],
            [
              85.3038458443415,
              25.17642035809975
            ],
            [
              85.30348891044143,
              25.17686735415572
            ],
            [
              85.30194128029353,
              25.176655745696934
            ],
            [
              85.30136633695213,
              25.177676044679036
            ],
            [
              85.30104414359907,
              25.17825844772878
            ],
            [
              85.29986873038915,
              25.17870113728733
            ],
            [
              85.29946716998244,
              25.17908038432866
            ],
            [
              85.29897163681382,
              25.1804527661661
            ],
            [
              85.2983666053003,
              25.180804987804862
            ],
            [
              85.29747881916963,
              25.18108066874968
            ],
            [
              85.29641742103388,
              25.181157708387214
            ],
            [
              85.29610497619828,
              25.18140604597689
            ],
            [
              85.29615981026151,
              25.182132767017432
            ],
            [
              85.29577834696433,
              25.183523060723022
            ],
            [
              85.29602178411812,
              25.18435800681312
            ],
            [
              85.29630027892418,
              25.18636201878156
            ],
            [
              85.2975455559104,
              25.18685806499956
            ],
            [
              85.29763003707296,
              25.187246277385466
            ],
            [
              85.29823543420083,
              25.187692924016485
            ],
            [
              85.29879125690141,
              25.188306605847174
            ],
            [
              85.29956053997475,
              25.18927672097789
            ],
            [
              85.30028038157147,
              25.19069830309991
            ],
            [
              85.30070261670446,
              25.192205694938668
            ],
            [
              85.30210652359341,
              25.192259393250804
            ],
            [
              85.30311358712919,
              25.1922590672893
            ],
            [
              85.30369884582504,
              25.192073767368182
            ],
            [
              85.30500353558747,
              25.192100350746934
            ],
            [
              85.3058521048661,
              25.192646220365198
            ],
            [
              85.30666633783963,
              25.194198648927287
            ],
            [
              85.3071827631268,
              25.195101129264383
            ],
            [
              85.30777356263128,
              25.19625187285071
            ],
            [
              85.30871695986792,
              25.197939593967924
            ],
            [
              85.30926291637175,
              25.198417896905497
            ],
            [
              85.30972953456799,
              25.1990044778973
            ],
            [
              85.3097295767888,
              25.19908120626723
            ],
            [
              85.3100080033229,
              25.200317817366024
            ],
            [
              85.31009781598671,
              25.201410112855985
            ],
            [
              85.31024709442734,
              25.20225406413736
            ],
            [
              85.31039623812072,
              25.202989700763908
            ],
            [
              85.31109113080709,
              25.203531050377617
            ],
            [
              85.311974458599,
              25.20406786301303
            ],
            [
              85.31273847934139,
              25.204112660893475
            ],
            [
              85.31364641827714,
              25.204170937289994
            ],
            [
              85.31452443882239,
              25.203976470929202
            ],
            [
              85.31500077858662,
              25.203976236031924
            ],
            [
              85.31637503118974,
              25.20400724816109
            ],
            [
              85.31698031962142,
              25.20413788915771
            ],
            [
              85.3177889480059,
              25.203984012839154
            ],
            [
              85.31835926412528,
              25.203554988854755
            ],
            [
              85.31858787278865,
              25.20421843522694
            ],
            [
              85.31928271067777,
              25.204728157035127
            ],
            [
              85.31946662725748,
              25.20531484417317
            ],
            [
              85.31956667263066,
              25.2068222932234
            ],
            [
              85.31943863934647,
              25.20850595598565
            ],
            [
              85.31824850724064,
              25.209531137006426
            ],
            [
              85.31773301170979,
              25.210420576088026
            ],
            [
              85.31681024967354,
              25.210569895311483
            ],
            [
              85.31651278334698,
              25.210962737098225
            ],
            [
              85.31581842425989,
              25.211594967919645
            ],
            [
              85.31454346334344,
              25.211699350838884
            ],
            [
              85.31348672836236,
              25.211911921659514
            ],
            [
              85.3128573228602,
              25.213207588812544
            ],
            [
              85.31249523802033,
              25.213600427773663
            ],
            [
              85.31183550000432,
              25.213808391170772
            ],
            [
              85.3109724256288,
              25.21426004916035
            ],
            [
              85.30756356526393,
              25.21387329884388
            ],
            [
              85.30587724421935,
              25.215196413375867
            ],
            [
              85.3052817222714,
              25.2148942548289
            ],
            [
              85.30427451859843,
              25.21502999533361
            ],
            [
              85.30351569640658,
              25.2155989781884
            ],
            [
              85.30285629525879,
              25.216926204944752
            ],
            [
              85.30310499833678,
              25.218230615350784
            ],
            [
              85.30280738109325,
              25.21856015184591
            ],
            [
              85.30277298010945,
              25.219165014802197
            ],
            [
              85.30184524230484,
              25.219558040139216
            ],
            [
              85.30081820472871,
              25.21976600635641
            ],
            [
              85.30052066833353,
              25.220100140931947
            ],
            [
              85.3002928250348,
              25.22112031487935
            ],
            [
              85.29982682218453,
              25.221996107359864
            ],
            [
              85.29942995278019,
              25.222298638350694
            ],
            [
              85.29837312437431,
              25.222447918617352
            ],
            [
              85.29771308542266,
              25.222145727694734
            ],
            [
              85.29684932383596,
              25.22115305364541
            ],
            [
              85.29539508434162,
              25.22003863279615
            ],
            [
              85.29380701742951,
              25.219380109800287
            ],
            [
              85.29340043993196,
              25.220048262313973
            ],
            [
              85.2926961553593,
              25.221005312630364
            ],
            [
              85.29207112824585,
              25.22168258662349
            ],
            [
              85.29188787462283,
              25.222558267783377
            ],
            [
              85.29168961284637,
              25.223127000885633
            ],
            [
              85.29108438729675,
              25.22352892264469
            ],
            [
              85.29052355469182,
              25.223235655029484
            ],
            [
              85.28933268237418,
              25.223177326812728
            ],
            [
              85.28929805591324,
              25.22365572561097
            ],
            [
              85.28895105378697,
              25.224558549092585
            ],
            [
              85.28861390977264,
              25.225393702183414
            ],
            [
              85.28777028302468,
              25.22512306980464
            ],
            [
              85.28685727130252,
              25.225141355289995
            ],
            [
              85.28586494912055,
              25.22572843972507
            ],
            [
              85.28540344593154,
              25.22560667734332
            ],
            [
              85.28495693831958,
              25.225845926647267
            ],
            [
              85.28479346110753,
              25.226559177821695
            ],
            [
              85.28462515455254,
              25.22799002577207
            ],
            [
              85.28437716922848,
              25.22857683885186
            ],
            [
              85.28444678776467,
              25.229150049004133
            ],
            [
              85.28411442009272,
              25.229493167351443
            ],
            [
              85.28404061271233,
              25.231894464043858
            ],
            [
              85.28417524591892,
              25.23406095395411
            ],
            [
              85.28506848482337,
              25.234123956668178
            ],
            [
              85.28688962143256,
              25.233821108117496
            ],
            [
              85.28851254297767,
              25.234542895892524
            ],
            [
              85.28890976991147,
              25.235174639308788
            ],
            [
              85.28973366875746,
              25.235657418666896
            ],
            [
              85.29049792216351,
              25.23571586522241
            ],
            [
              85.29122259759477,
              25.23616702582335
            ],
            [
              85.29091050939037,
              25.237837204999202
            ],
            [
              85.29104523063184,
              25.240098461807136
            ],
            [
              85.2926236631125,
              25.240829189330203
            ],
            [
              85.29414731093728,
              25.241221433672123
            ],
            [
              85.29501568627126,
              25.241000066262163
            ],
            [
              85.29677234270768,
              25.240651963717614
            ],
            [
              85.29716903514387,
              25.239812274936185
            ],
            [
              85.2973374719546,
              25.23908548871012
            ],
            [
              85.29819581310689,
              25.23854363181243
            ],
            [
              85.29932218189558,
              25.238064809736258
            ],
            [
              85.30057739784208,
              25.237342178297745
            ],
            [
              85.30173880901164,
              25.23772998508378
            ],
            [
              85.30340651516694,
              25.23836580725795
            ],
            [
              85.30360525664376,
              25.2388757288965
            ],
            [
              85.30443421480145,
              25.239295257099876
            ],
            [
              85.30449912526724,
              25.240261093999173
            ],
            [
              85.30436531132422,
              25.2406222293182
            ],
            [
              85.30393854778386,
              25.240830091257607
            ],
            [
              85.30320932777555,
              25.241462244833784
            ],
            [
              85.30264880329278,
              25.242157516365335
            ],
            [
              85.3039546015763,
              25.243384717675816
            ],
            [
              85.30468408928255,
              25.24332131999677
            ],
            [
              85.30545810198586,
              25.242797418674485
            ],
            [
              85.30649521865946,
              25.24274290819078
            ],
            [
              85.30761189642287,
              25.242846299087773
            ],
            [
              85.30872861101719,
              25.243058001313557
            ],
            [
              85.30962189304076,
              25.242980858659724
            ],
            [
              85.31025213038285,
              25.242768491646494
            ],
            [
              85.31060921969143,
              25.242470431783815
            ],
            [
              85.31192422121505,
              25.242208136679814
            ],
            [
              85.31393416393402,
              25.242207243700584
            ],
            [
              85.31447988597753,
              25.24191817565356
            ],
            [
              85.31539312766843,
              25.241985479129347
            ],
            [
              85.31548326282739,
              25.24348393893818
            ],
            [
              85.31620291757454,
              25.24369125565179
            ],
            [
              85.31646097031802,
              25.24353760162167
            ],
            [
              85.31714553597185,
              25.243067923145123
            ],
            [
              85.32013314665555,
              25.24298529508883
            ],
            [
              85.32020279932776,
              25.24338698300976
            ],
            [
              85.32187139212023,
              25.245236756275755
            ],
            [
              85.32187244225081,
              25.24696099280172
            ],
            [
              85.32106820393312,
              25.246568706860305
            ],
            [
              85.3195444572937,
              25.24646557832104
            ],
            [
              85.31954426235926,
              25.24610000698886
            ],
            [
              85.31874524684666,
              25.245996566046937
            ],
            [
              85.31659260404987,
              25.2482949053532
            ],
            [
              85.31627489239172,
              25.2482680482525
            ],
            [
              85.31570401123206,
              25.24790263265608
            ],
            [
              85.31541608142057,
              25.24790275290607
            ],
            [
              85.31527234109363,
              25.24824139508276
            ],
            [
              85.31547621913725,
              25.24886865464318
            ],
            [
              85.31561860210981,
              25.250000187060284
            ],
            [
              85.31567494444442,
              25.250447938266138
            ],
            [
              85.31590914422213,
              25.250980851121454
            ],
            [
              85.31677804507059,
              25.25169359813975
            ],
            [
              85.31773098421218,
              25.251693208151956
            ],
            [
              85.3185593638548,
              25.250902932704633
            ],
            [
              85.31878324378656,
              25.250448057701114
            ],
            [
              85.31953258156564,
              25.25000032762036
            ],
            [
              85.32020636294448,
              25.249597737762883
            ],
            [
              85.32089637418558,
              25.24977795896916
            ],
            [
              85.32201809598929,
              25.249908247748316
            ],
            [
              85.32296071887815,
              25.249411347054245
            ],
            [
              85.3235662453634,
              25.249383901145112
            ],
            [
              85.32603307662578,
              25.249748290989363
            ],
            [
              85.32653068490269,
              25.250000322745453
            ],
            [
              85.32680757262271,
              25.25014056178961
            ],
            [
              85.3269989236597,
              25.25044816169893
            ],
            [
              85.32682293920395,
              25.250826609136777
            ],
            [
              85.32747841740891,
              25.251381489701295
            ],
            [
              85.32806413065224,
              25.25153008102592
            ],
            [
              85.32890279600485,
              25.25135366724802
            ],
            [
              85.3295428339667,
              25.251150187131003
            ],
            [
              85.32982123894125,
              25.25183611665505
            ],
            [
              85.329682375568,
              25.251962570792912
            ],
            [
              85.32912668042816,
              25.252265296951677
            ],
            [
              85.32878953012563,
              25.252725836174793
            ],
            [
              85.32895846011144,
              25.253005558714907
            ],
            [
              85.32943506038713,
              25.253231034008547
            ],
            [
              85.32988170723797,
              25.25323076914519
            ],
            [
              85.33026866013985,
              25.25290105769654
            ],
            [
              85.33077447542522,
              25.252241836044604
            ],
            [
              85.33116129717308,
              25.251857967318088
            ],
            [
              85.33144413623184,
              25.251681789634
            ],
            [
              85.33222349840267,
              25.251988297739956
            ],
            [
              85.33277037478136,
              25.253310475114
            ],
            [
              85.33291066557757,
              25.255242223911704
            ],
            [
              85.33262879400435,
              25.25686723491851
            ],
            [
              85.33259013320948,
              25.258419945595566
            ],
            [
              85.33225331169034,
              25.25930933416301
            ],
            [
              85.33208504555952,
              25.260067744670238
            ],
            [
              85.33512773464827,
              25.26014275200081
            ],
            [
              85.3376146243926,
              25.260421074726295
            ],
            [
              85.34007158766157,
              25.260496367808926
            ],
            [
              85.34186857755591,
              25.260761565178157
            ],
            [
              85.34239892044178,
              25.259799806304375
            ],
            [
              85.34231385986583,
              25.25883394274493
            ],
            [
              85.34256623525671,
              25.25781821490164
            ]
          ]
        ]
      }
    }
  ]
}