{
  "type": "FeatureCollection",
  "features": [
    {
      "type": "Feature",
      "properties": {
        "object_id": "10-230-01418",
        "stname": "BIHAR",
        "dtname": "Patna",
        "sdtname": "Pandarak",
        "st_area_sh": 0.0,
        "st_length_": 0.0,
        "remarks": "",
        "dist_lgd": 212,
        "state_lgd": 10,
        "subdt_lgd": 1418,
        "ac_no": null,
        "st_length(shape)": 106894.44852036482,
        "st_area(shape)": 252509471.6555304
      },
      "geometry": {
        "type": "Polygon",
        "coordinates": [
          [
            [
              85.79522641220252,
              25.54641312829229
            ],
            [
              85.7962912284279,
              25.54622866084256
            ],
            [
              85.79741560385497,
              25.54622923061975
            ],
            [
              85.79839568199961,
              25.54624784117819
            ],
            [
              85.79885341226442,
              25.546198414018452
            ],
            [
              85.79954259615714,
              25.546015804704037
            ],
            [
              85.80048561699971,
              25.545765932795863
            ],
            [
              85.80171463358093,
              25.54548227634578
            ],
            [
              85.80252074039439,
              25.54527957364034
            ],
            [
              85.80340640200943,
              25.545063341697887
            ],
            [
              85.8046503548789,
              25.544797659744553
            ],
            [
              85.80566540713252,
              25.544590505398997
            ],
            [
              85.80611070201883,
              25.544554633255753
            ],
            [
              85.8065559978035,
              25.544518760291282
            ],
            [
              85.80726249223174,
              25.54447395311181
            ],
            [
              85.80797393997045,
              25.544451665012907
            ],
            [
              85.80856601867589,
              25.544442939106364
            ],
            [
              85.80896902896349,
              25.544420574814097
            ],
            [
              85.80932722499652,
              25.54433048621864
            ],
            [
              85.8099095192519,
              25.543992201321366
            ],
            [
              85.81110400459359,
              25.5432299970652
            ],
            [
              85.81193002166702,
              25.542842124089486
            ],
            [
              85.81287055956615,
              25.54230547082991
            ],
            [
              85.81464225919031,
              25.54116886865832
            ],
            [
              85.81627468760607,
              25.53990574803638
            ],
            [
              85.81790708278416,
              25.538642606813585
            ],
            [
              85.82233605201935,
              25.535629296061376
            ],
            [
              85.82328155939864,
              25.534970717072202
            ],
            [
              85.82551084465881,
              25.533486594821593
            ],
            [
              85.82641648300914,
              25.532882031939312
            ],
            [
              85.82709277607754,
              25.53362251928193
            ],
            [
              85.82787903281816,
              25.53294123536444
            ],
            [
              85.82945144209485,
              25.531781812211072
            ],
            [
              85.83179015742803,
              25.530144154086578
            ],
            [
              85.83372565406447,
              25.528786134175323
            ],
            [
              85.83487014187241,
              25.527955970026007
            ],
            [
              85.83658160227026,
              25.526913869054095
            ],
            [
              85.83724335430912,
              25.526543954628504
            ],
            [
              85.83746227733714,
              25.526431112068032
            ],
            [
              85.83780120091407,
              25.524233186078344
            ],
            [
              85.83814556199337,
              25.520590887232597
            ],
            [
              85.83829562825656,
              25.51785123885979
            ],
            [
              85.83836037702558,
              25.517616628642795
            ],
            [
              85.84018108334176,
              25.516940037729977
            ],
            [
              85.8429216546274,
              25.51599551080392
            ],
            [
              85.84323037055624,
              25.515889109866293
            ],
            [
              85.84635927006448,
              25.51481102387691
            ],
            [
              85.85156232476652,
              25.513047195634986
            ],
            [
              85.85275614265997,
              25.512609594355926
            ],
            [
              85.8567752268007,
              25.511247139136298
            ],
            [
              85.85779284284612,
              25.510919717992063
            ],
            [
              85.85782865508325,
              25.51090819505139
            ],
            [
              85.85428843766768,
              25.506436040690993
            ],
            [
              85.85224008388546,
              25.503596579097366
            ],
            [
              85.85096442138477,
              25.502103330127504
            ],
            [
              85.84974944996301,
              25.500436458400035
            ],
            [
              85.84912448034174,
              25.50000027061594
            ],
            [
              85.84698782396373,
              25.49850898370749
            ],
            [
              85.84590715157526,
              25.497213564837978
            ],
            [
              85.84466366493143,
              25.495146959371713
            ],
            [
              85.84268284918721,
              25.49281704468872
            ],
            [
              85.84055636712812,
              25.49016274192458
            ],
            [
              85.83837932069831,
              25.487332632874313
            ],
            [
              85.83658907984669,
              25.48528625661341
            ],
            [
              85.83522227427727,
              25.483359979085712
            ],
            [
              85.83433584280606,
              25.48206371329634
            ],
            [
              85.83367881860049,
              25.48090637272379
            ],
            [
              85.83254314416382,
              25.47946665526283
            ],
            [
              85.83138147517775,
              25.47780582904698
            ],
            [
              85.83026386406476,
              25.47597781593706
            ],
            [
              85.82917136355894,
              25.474185786624545
            ],
            [
              85.82749731170448,
              25.47245483481542
            ],
            [
              85.82746625964008,
              25.471146009898497
            ],
            [
              85.82658159335836,
              25.469150142238853
            ],
            [
              85.82653751033241,
              25.46823861632913
            ],
            [
              85.82601494955188,
              25.46708972986725
            ],
            [
              85.82554825320221,
              25.46619794189501
            ],
            [
              85.82500755633438,
              25.465396621243773
            ],
            [
              85.82461116483381,
              25.464653528270535
            ],
            [
              85.82474766743448,
              25.464070776727365
            ],
            [
              85.82560713866738,
              25.463936535147052
            ],
            [
              85.8257830566478,
              25.463290403595064
            ],
            [
              85.82531093088056,
              25.462285799001403
            ],
            [
              85.82459165432414,
              25.460537466625755
            ],
            [
              85.82437710429494,
              25.460375763027127
            ],
            [
              85.82344655386518,
              25.46018530580541
            ],
            [
              85.82247417607913,
              25.458537287245758
            ],
            [
              85.82180766656249,
              25.4574250117486
            ],
            [
              85.8218759798466,
              25.456093378971477
            ],
            [
              85.82069048394592,
              25.45454536571816
            ],
            [
              85.82007661121338,
              25.452990631056633
            ],
            [
              85.81949626899711,
              25.45114688121075
            ],
            [
              85.81850954781093,
              25.4495800603815
            ],
            [
              85.81821278486525,
              25.447798431970266
            ],
            [
              85.81853503481219,
              25.44760313412637
            ],
            [
              85.81932227430974,
              25.44799279666701
            ],
            [
              85.81996479162174,
              25.448247510196648
            ],
            [
              85.82103233423403,
              25.447986103811562
            ],
            [
              85.82177866086029,
              25.447071520116417
            ],
            [
              85.82262563473098,
              25.445353165161546
            ],
            [
              85.82311441616191,
              25.443600075833594
            ],
            [
              85.82426648485254,
              25.44228668885667
            ],
            [
              85.82468821333572,
              25.441084450865176
            ],
            [
              85.82471243371239,
              25.43885028919517
            ],
            [
              85.82452943341428,
              25.43693736494527
            ],
            [
              85.8246808076245,
              25.435334456097717
            ],
            [
              85.8249249616339,
              25.433356665650358
            ],
            [
              85.82463127631638,
              25.43222495088906
            ],
            [
              85.82505004664733,
              25.43037738408754
            ],
            [
              85.82651233774153,
              25.430583774019457
            ],
            [
              85.82833553328936,
              25.43038252838536
            ],
            [
              85.83062502723318,
              25.42998540027999
            ],
            [
              85.83240515485133,
              25.42909819622625
            ],
            [
              85.83486676869852,
              25.428325710927577
            ],
            [
              85.83747637819218,
              25.428364931891533
            ],
            [
              85.83669003880651,
              25.427131387359143
            ],
            [
              85.83515951886984,
              25.4251380919865
            ],
            [
              85.8336848840253,
              25.423388253148264
            ],
            [
              85.83206501944709,
              25.421413302650112
            ],
            [
              85.82705649132657,
              25.41751546219744
            ],
            [
              85.82604693855913,
              25.41631880511797
            ],
            [
              85.82367375127525,
              25.413696787813052
            ],
            [
              85.82221372393555,
              25.410759779869977
            ],
            [
              85.82119747332935,
              25.408132452633915
            ],
            [
              85.82032500976247,
              25.40436708882274
            ],
            [
              85.82029821661081,
              25.402886816269167
            ],
            [
              85.81999924470784,
              25.399543624161563
            ],
            [
              85.82009332616586,
              25.397363256028957
            ],
            [
              85.82063741866547,
              25.39471177524597
            ],
            [
              85.82130696538607,
              25.392335143611884
            ],
            [
              85.82226139123946,
              25.390318476007273
            ],
            [
              85.82236005230881,
              25.389113045684272
            ],
            [
              85.82343413375804,
              25.389271300058404
            ],
            [
              85.8239355347221,
              25.389174536235533
            ],
            [
              85.82419615305399,
              25.387562226729028
            ],
            [
              85.82443848617831,
              25.385218845956807
            ],
            [
              85.82474898705962,
              25.383628976032274
            ],
            [
              85.82560884726306,
              25.3836887796471
            ],
            [
              85.82599885443693,
              25.383168228226584
            ],
            [
              85.82640127093813,
              25.381067896396626
            ],
            [
              85.82759999812461,
              25.3771635823605
            ],
            [
              85.82859225113631,
              25.37582827731263
            ],
            [
              85.83065448299133,
              25.373838772043793
            ],
            [
              85.82858319342331,
              25.37287199121092
            ],
            [
              85.82648301134078,
              25.373164657594636
            ],
            [
              85.82487732217776,
              25.372958794398784
            ],
            [
              85.82269382584418,
              25.3734817882718
            ],
            [
              85.82110315561441,
              25.373293925788488
            ],
            [
              85.81884642592395,
              25.37304538973906
            ],
            [
              85.81654847703669,
              25.372476514626857
            ],
            [
              85.81537820758008,
              25.371871751332943
            ],
            [
              85.81306072123368,
              25.37029185820186
            ],
            [
              85.81132568994111,
              25.368949030768462
            ],
            [
              85.81001810311186,
              25.36873285111476
            ],
            [
              85.80797539793618,
              25.36963871979316
            ],
            [
              85.8065649611934,
              25.36973881905374
            ],
            [
              85.80607422592672,
              25.36996639535525
            ],
            [
              85.80557110828218,
              25.368587211104074
            ],
            [
              85.80581451040169,
              25.367493990644444
            ],
            [
              85.80584501000222,
              25.36656414436978
            ],
            [
              85.80527022925588,
              25.364706798135327
            ],
            [
              85.80558507708484,
              25.364033066197404
            ],
            [
              85.80531349391659,
              25.36330742060559
            ],
            [
              85.80523551565835,
              25.362563009920255
            ],
            [
              85.80526838860787,
              25.36104187478546
            ],
            [
              85.80550931497044,
              25.359420646065974
            ],
            [
              85.80478760128463,
              25.358028729934542
            ],
            [
              85.80528360876372,
              25.35676308984105
            ],
            [
              85.80570230992438,
              25.35491550081209
            ],
            [
              85.8058062881219,
              25.35375067124258
            ],
            [
              85.8059271887827,
              25.35302809908208
            ],
            [
              85.80577843675482,
              25.351999578200086
            ],
            [
              85.80549277069782,
              25.351454545002465
            ],
            [
              85.80538397663209,
              25.350462017072815
            ],
            [
              85.80548175914907,
              25.349048887184974
            ],
            [
              85.80519384820221,
              25.347993890370216
            ],
            [
              85.80508472175981,
              25.346933575754644
            ],
            [
              85.80516602468292,
              25.34515499061917
            ],
            [
              85.80605747773656,
              25.343499701660832
            ],
            [
              85.80700702483965,
              25.342597952179542
            ],
            [
              85.8081357939268,
              25.342882569977974
            ],
            [
              85.81057381711628,
              25.343803072057867
            ],
            [
              85.81195280923086,
              25.343414212016057
            ],
            [
              85.81265571578783,
              25.34289696025973
            ],
            [
              85.8128925682906,
              25.34148338882331
            ],
            [
              85.81249430829422,
              25.33914695812656
            ],
            [
              85.81219875088766,
              25.33645358730269
            ],
            [
              85.81238206200284,
              25.33419159475181
            ],
            [
              85.81181233158502,
              25.33342195770257
            ],
            [
              85.81011359492489,
              25.332309144796106
            ],
            [
              85.80820542324278,
              25.330998468275467
            ],
            [
              85.8065042701145,
              25.32933945283871
            ],
            [
              85.8057069667908,
              25.328751131926673
            ],
            [
              85.80482637706389,
              25.328397878341956
            ],
            [
              85.80285043468008,
              25.328536281040453
            ],
            [
              85.8013685315666,
              25.329214298922206
            ],
            [
              85.80122838180586,
              25.326777525027346
            ],
            [
              85.80097158311055,
              25.32379517483186
            ],
            [
              85.80086526120844,
              25.320058364815726
            ],
            [
              85.80057244815505,
              25.3179111096547
            ],
            [
              85.80109255563657,
              25.31540869865289
            ],
            [
              85.80106255639767,
              25.313179193318916
            ],
            [
              85.80115667199166,
              25.310935641044406
            ],
            [
              85.80137984405097,
              25.308938366936008
            ],
            [
              85.80122016581429,
              25.308764380316443
            ],
            [
              85.80014326275673,
              25.30783858733918
            ],
            [
              85.79959735116866,
              25.307382400624725
            ],
            [
              85.79906627435922,
              25.306953329991824
            ],
            [
              85.79854999190418,
              25.30677711291579
            ],
            [
              85.79798893022885,
              25.30679032668784
            ],
            [
              85.79696088564131,
              25.307047046011604
            ],
            [
              85.79598759696357,
              25.307240637632546
            ],
            [
              85.79489511532236,
              25.30735288722109
            ],
            [
              85.79298812402654,
              25.307663248618397
            ],
            [
              85.79214892507464,
              25.307856830321754
            ],
            [
              85.79169681826347,
              25.308091321918674
            ],
            [
              85.79113035771329,
              25.308768038792827
            ],
            [
              85.79064335674329,
              25.309304907025716
            ],
            [
              85.79052910092062,
              25.309377018054825
            ],
            [
              85.78962039392528,
              25.309376512123787
            ],
            [
              85.78820513502608,
              25.30947043984845
            ],
            [
              85.78779310295808,
              25.309429579648626
            ],
            [
              85.78770393079309,
              25.309127173949253
            ],
            [
              85.787599848391,
              25.308765954151568
            ],
            [
              85.78761497691872,
              25.308463592273153
            ],
            [
              85.78755602857144,
              25.307619488611753
            ],
            [
              85.78760131623818,
              25.30676197526352
            ],
            [
              85.78740768168373,
              25.306725709046738
            ],
            [
              85.78693604280339,
              25.306666750129384
            ],
            [
              85.78617628277038,
              25.306693363668465
            ],
            [
              85.78407076739002,
              25.307048658037935
            ],
            [
              85.78331086272823,
              25.307228755758064
            ],
            [
              85.7820198632907,
              25.307295658386774
            ],
            [
              85.78138407525849,
              25.30752995535342
            ],
            [
              85.78086735622223,
              25.307985460162442
            ],
            [
              85.78083732015237,
              25.30824724524475
            ],
            [
              85.78083713779436,
              25.30851361159659
            ],
            [
              85.78101575611053,
              25.308730350390118
            ],
            [
              85.78132832132036,
              25.30899234906714
            ],
            [
              85.7815566443195,
              25.3091459307907
            ],
            [
              85.78179978592755,
              25.309416925693046
            ],
            [
              85.78188871824237,
              25.309940554073147
            ],
            [
              85.7820270929321,
              25.310784682980245
            ],
            [
              85.78196214922865,
              25.31134884505752
            ],
            [
              85.78185726193607,
              25.3121024760309
            ],
            [
              85.78176222556891,
              25.312973570711222
            ],
            [
              85.78164272268667,
              25.31347001297644
            ],
            [
              85.78142916619416,
              25.31353759428949
            ],
            [
              85.78138397285052,
              25.313540348798462
            ],
            [
              85.78055018624822,
              25.313591182958316
            ],
            [
              85.77959176109516,
              25.313671828618414
            ],
            [
              85.77834523095916,
              25.313824393396963
            ],
            [
              85.7767859658317,
              25.31390916009595
            ],
            [
              85.77573824993605,
              25.31384980676571
            ],
            [
              85.77443219563267,
              25.31393466520945
            ],
            [
              85.77349836096222,
              25.314236423880985
            ],
            [
              85.77259959292721,
              25.31422226081567
            ],
            [
              85.77166110318694,
              25.314167399933908
            ],
            [
              85.77071762240696,
              25.314193846978018
            ],
            [
              85.7696447491918,
              25.314490990912866
            ],
            [
              85.76886977798607,
              25.314946281966222
            ],
            [
              85.76824368726733,
              25.31543333293545
            ],
            [
              85.76748823016453,
              25.316118848700015
            ],
            [
              85.76722980641685,
              25.316407523195316
            ],
            [
              85.76695643470283,
              25.316700677835215
            ],
            [
              85.76671292209059,
              25.3168900631022
            ],
            [
              85.76593817456538,
              25.31694822774378
            ],
            [
              85.7635744034223,
              25.31707279668027
            ],
            [
              85.76238751872617,
              25.317098953192954
            ],
            [
              85.76095246185642,
              25.317039221392417
            ],
            [
              85.76090807160668,
              25.31669609306161
            ],
            [
              85.7607548432737,
              25.315978325365446
            ],
            [
              85.76073207277788,
              25.31590506435044
            ],
            [
              85.76040827503374,
              25.31486326515206
            ],
            [
              85.76025502873446,
              25.314118409384257
            ],
            [
              85.76004226186109,
              25.313287723845487
            ],
            [
              85.76001264710112,
              25.31315230510303
            ],
            [
              85.75990832215393,
              25.313125152148594
            ],
            [
              85.75966503232384,
              25.313165543353772
            ],
            [
              85.75919313383035,
              25.313345679892937
            ],
            [
              85.75850762314883,
              25.31353927606666
            ],
            [
              85.75732524799547,
              25.31412958409392
            ],
            [
              85.75618769787646,
              25.31451231463834
            ],
            [
              85.75525882010974,
              25.31485914561444
            ],
            [
              85.75437978895981,
              25.31499384215983
            ],
            [
              85.75316304156875,
              25.315105630629024
            ],
            [
              85.75267627056742,
              25.315213566633677
            ],
            [
              85.7525519967327,
              25.315339828850945
            ],
            [
              85.75242738513143,
              25.315809203262887
            ],
            [
              85.7521235838855,
              25.31669358304819
            ],
            [
              85.75184952136703,
              25.31763220912441
            ],
            [
              85.75151661111263,
              25.317798869848964
            ],
            [
              85.75130437244867,
              25.31782246262075
            ],
            [
              85.75000411497383,
              25.317966997683783
            ],
            [
              85.74669663937026,
              25.31850071264874
            ],
            [
              85.74593201406165,
              25.3186548409915
            ],
            [
              85.74503821730345,
              25.318772920902383
            ],
            [
              85.74404519892711,
              25.318850421388387
            ],
            [
              85.7429579140398,
              25.319090540138895
            ],
            [
              85.74207915777438,
              25.3193485042108
            ],
            [
              85.74114070755999,
              25.319480174234933
            ],
            [
              85.74108742937881,
              25.31949459409592
            ],
            [
              85.74095700657598,
              25.319529891810078
            ],
            [
              85.74078836225442,
              25.31973766082178
            ],
            [
              85.74060513378426,
              25.320279478391985
            ],
            [
              85.74053093922998,
              25.320527782654203
            ],
            [
              85.74031374366226,
              25.321913549787297
            ],
            [
              85.7402367688222,
              25.32459017133859
            ],
            [
              85.74036669306007,
              25.325465770388625
            ],
            [
              85.74025342718085,
              25.326436264223236
            ],
            [
              85.74017549743162,
              25.32804308262028
            ],
            [
              85.74010273569026,
              25.329889313660146
            ],
            [
              85.74009937329612,
              25.33166318092689
            ],
            [
              85.73988684267968,
              25.3326337273805
            ],
            [
              85.73950899959311,
              25.33287675067777
            ],
            [
              85.73934584128298,
              25.332981692682086
            ],
            [
              85.73838258409204,
              25.333253264304336
            ],
            [
              85.73747382858768,
              25.333384800665275
            ],
            [
              85.7364657849899,
              25.333462298293572
            ],
            [
              85.73547699139039,
              25.333016254103523
            ],
            [
              85.73466717722975,
              25.332795668809844
            ],
            [
              85.73344525015271,
              25.33257541763042
            ],
            [
              85.73256634027535,
              25.332770114893435
            ],
            [
              85.73155842064513,
              25.333055161774098
            ],
            [
              85.73058613628386,
              25.333308383663354
            ],
            [
              85.73058520113766,
              25.33330862805363
            ],
            [
              85.73058527839278,
              25.333312519623778
            ],
            [
              85.73060090997704,
              25.334107582724577
            ],
            [
              85.73057677224537,
              25.33489743621311
            ],
            [
              85.7306322414175,
              25.33590395522115
            ],
            [
              85.73028521773168,
              25.33664434383277
            ],
            [
              85.73032537332318,
              25.337109245698745
            ],
            [
              85.73049109273018,
              25.33927110720912
            ],
            [
              85.73057666534584,
              25.3405348576345
            ],
            [
              85.73025365542419,
              25.3410159601558
            ],
            [
              85.730194653178,
              25.34110383922131
            ],
            [
              85.72977741716956,
              25.34150859098256
            ],
            [
              85.73014560516347,
              25.341618292002437
            ],
            [
              85.73131421633008,
              25.34196646934686
            ],
            [
              85.73170049639383,
              25.341689933199156
            ],
            [
              85.73238228805005,
              25.34075342510637
            ],
            [
              85.73383699736328,
              25.339385592272777
            ],
            [
              85.73507742075202,
              25.33907006899615
            ],
            [
              85.73623937540232,
              25.338984965116463
            ],
            [
              85.73705479594868,
              25.339217028159176
            ],
            [
              85.73817146383058,
              25.340228829872892
            ],
            [
              85.73911959968036,
              25.341354086611776
            ],
            [
              85.74032439318995,
              25.342054117962988
            ],
            [
              85.74084177697954,
              25.342246538923423
            ],
            [
              85.74148250664413,
              25.342244355810664
            ],
            [
              85.7420801045987,
              25.341425421076778
            ],
            [
              85.74285120855713,
              25.340484081876095
            ],
            [
              85.74332178113723,
              25.34017104582244
            ],
            [
              85.74421933195504,
              25.339816019939377
            ],
            [
              85.74490182609384,
              25.33911413508636
            ],
            [
              85.745415065955,
              25.338295456020887
            ],
            [
              85.74580049441589,
              25.337824735783155
            ],
            [
              85.74618662985084,
              25.337512058204204
            ],
            [
              85.74665282224566,
              25.337343424092797
            ],
            [
              85.74771163592833,
              25.33769536714549
            ],
            [
              85.74850796278328,
              25.337960044118542
            ],
            [
              85.7488625781316,
              25.33844182263064
            ],
            [
              85.75000001596118,
              25.338754802266276
            ],
            [
              85.75023988680329,
              25.3388208049528
            ],
            [
              85.7504266016351,
              25.340747370932675
            ],
            [
              85.75067877580334,
              25.341676296190766
            ],
            [
              85.75197531335459,
              25.344122739690263
            ],
            [
              85.75296921477482,
              25.34546885890865
            ],
            [
              85.75350541287972,
              25.346590808186864
            ],
            [
              85.75407337361641,
              25.348222812218303
            ],
            [
              85.75382925733628,
              25.349248177200902
            ],
            [
              85.75285327101776,
              25.351047851390675
            ],
            [
              85.75333138315806,
              25.351366688881033
            ],
            [
              85.75383172411003,
              25.352240611028908
            ],
            [
              85.75383561561186,
              25.353179390070885
            ],
            [
              85.75347111160892,
              25.35510788832286
            ],
            [
              85.75340695123639,
              25.357603987739978
            ],
            [
              85.75313541478049,
              25.360421338054675
            ],
            [
              85.75143192064262,
              25.361726995022636
            ],
            [
              85.75096808991869,
              25.362473288393215
            ],
            [
              85.7509583881136,
              25.363750623270736
            ],
            [
              85.75110844808859,
              25.365208005616196
            ],
            [
              85.75125881169407,
              25.366732989365165
            ],
            [
              85.7516034126236,
              25.36836571989901
            ],
            [
              85.75124720366398,
              25.368723442814986
            ],
            [
              85.75075120426973,
              25.368919257215207
            ],
            [
              85.7500000168595,
              25.368809098819273
            ],
            [
              85.74903620630634,
              25.36866775680171
            ],
            [
              85.7489137533567,
              25.369096942256718
            ],
            [
              85.74934723360042,
              25.370616579110344
            ],
            [
              85.7493115579072,
              25.37158702807539
            ],
            [
              85.74974706744517,
              25.372397959236874
            ],
            [
              85.74992377414638,
              25.373078938933595
            ],
            [
              85.7500000060797,
              25.373197150786304
            ],
            [
              85.75031873642736,
              25.373691394749073
            ],
            [
              85.7506104113153,
              25.374529950943735
            ],
            [
              85.75018321299034,
              25.374567445160864
            ],
            [
              85.75000000068982,
              25.374687691175403
            ],
            [
              85.74929142217012,
              25.37515274384348
            ],
            [
              85.74771085439401,
              25.375451130856867
            ],
            [
              85.74468813215911,
              25.37570991869221
            ],
            [
              85.7430947858481,
              25.376067314686544
            ],
            [
              85.74297145524442,
              25.377521005707397
            ],
            [
              85.74206360344525,
              25.377835490400724
            ],
            [
              85.73990828995709,
              25.378077339337516
            ],
            [
              85.73852811026975,
              25.378316627922793
            ],
            [
              85.73628415911419,
              25.37875735527549
            ],
            [
              85.733936369,
              25.379333795938784
            ],
            [
              85.73360317128474,
              25.381731558746576
            ],
            [
              85.73463704324352,
              25.38184548417765
            ],
            [
              85.73548164915515,
              25.38184270038294
            ],
            [
              85.73619401407375,
              25.382309789398345
            ],
            [
              85.73749714076762,
              25.38389416519646
            ],
            [
              85.73905914306174,
              25.386827235230566
            ],
            [
              85.74016960627998,
              25.38864697308474
            ],
            [
              85.74140019401466,
              25.389468825981858
            ],
            [
              85.7430893618204,
              25.390636693743087
            ],
            [
              85.74351877808577,
              25.39238187888691
            ],
            [
              85.74293605892726,
              25.39326397834756
            ],
            [
              85.74261493816267,
              25.393734498926964
            ],
            [
              85.74255295979796,
              25.39438461802527
            ],
            [
              85.74229792090225,
              25.3952068619597
            ],
            [
              85.74217065657595,
              25.395676741176466
            ],
            [
              85.74178433698636,
              25.39597585895543
            ],
            [
              85.74074647740599,
              25.396155408794492
            ],
            [
              85.73990604237224,
              25.395982131092573
            ],
            [
              85.73893703686181,
              25.395985394973344
            ],
            [
              85.73764112274137,
              25.39622440137094
            ],
            [
              85.73686706691892,
              25.3965203537412
            ],
            [
              85.73621731277898,
              25.396815849321975
            ],
            [
              85.73570269400382,
              25.39734564896355
            ],
            [
              85.73524341234851,
              25.398064805864834
            ],
            [
              85.73468376911305,
              25.398536025896153
            ],
            [
              85.73434263208726,
              25.39896590938857
            ],
            [
              85.73434421491878,
              25.399358614829016
            ],
            [
              85.73486240629381,
              25.399713421173065
            ],
            [
              85.73564123935694,
              25.400609042227433
            ],
            [
              85.73586519923872,
              25.4019442947425
            ],
            [
              85.73595848209445,
              25.404137516266513
            ],
            [
              85.73616206638897,
              25.406596633225192
            ],
            [
              85.73573969830532,
              25.40906683677891
            ],
            [
              85.73583289761773,
              25.410009830887258
            ],
            [
              85.7363083040324,
              25.41082971587571
            ],
            [
              85.73709089205342,
              25.411418366726757
            ],
            [
              85.73799750956738,
              25.411961526849222
            ],
            [
              85.7400929943593,
              25.412762429801127
            ],
            [
              85.74200059201794,
              25.41377613177374
            ],
            [
              85.74333883834784,
              25.414123658972088
            ],
            [
              85.74493457417752,
              25.414235687643597
            ],
            [
              85.74618795756085,
              25.414466130255498
            ],
            [
              85.74770845409557,
              25.414397802085574
            ],
            [
              85.7496512091195,
              25.414305512096842
            ],
            [
              85.74966158376272,
              25.416801338134523
            ],
            [
              85.75000000428307,
              25.41775698415955
            ],
            [
              85.75019958568471,
              25.41832056435448
            ],
            [
              85.75062537095968,
              25.421537131096038
            ],
            [
              85.75066841373655,
              25.423545484109585
            ],
            [
              85.75110801510061,
              25.426491183619433
            ],
            [
              85.75139920220333,
              25.42717176724402
            ],
            [
              85.75432286721187,
              25.42745063163161
            ],
            [
              85.75713865892779,
              25.428063756683297
            ],
            [
              85.75908223321528,
              25.428106729141113
            ],
            [
              85.76126061813487,
              25.428424100809593
            ],
            [
              85.76375789599719,
              25.428934444908116
            ],
            [
              85.76476010863043,
              25.429675622250116
            ],
            [
              85.76597874967011,
              25.431034453790677
            ],
            [
              85.76919002468992,
              25.431117849994195
            ],
            [
              85.76917774471997,
              25.432887203383572
            ],
            [
              85.76982760036955,
              25.433760460877092
            ],
            [
              85.76961707209789,
              25.434505917070435
            ],
            [
              85.767936371812,
              25.434349394837927
            ],
            [
              85.7678681627325,
              25.434674594818677
            ],
            [
              85.76812191793562,
              25.43590137428241
            ],
            [
              85.76858831873956,
              25.43687458292544
            ],
            [
              85.76845379782239,
              25.437944751848246
            ],
            [
              85.76769055502102,
              25.438484536203276
            ],
            [
              85.76579736094963,
              25.438653673209657
            ],
            [
              85.76394119992584,
              25.438172678958104
            ],
            [
              85.7632977950783,
              25.437655902024627
            ],
            [
              85.76269127056479,
              25.437626489382335
            ],
            [
              85.7624749939736,
              25.438204873150013
            ],
            [
              85.7606925882279,
              25.43869405896773
            ],
            [
              85.7585559623926,
              25.438895546252354
            ],
            [
              85.75670188815522,
              25.4389019256716
            ],
            [
              85.75577283431869,
              25.43903607105469
            ],
            [
              85.75527872318318,
              25.439750852681307
            ],
            [
              85.75589112717026,
              25.441174990053295
            ],
            [
              85.75640527971976,
              25.44287928259881
            ],
            [
              85.75708079125384,
              25.4427460719336
            ],
            [
              85.75800231990323,
              25.441998195826645
            ],
            [
              85.7589657738252,
              25.441800771347534
            ],
            [
              85.76320512038203,
              25.44042292971497
            ],
            [
              85.76398932177729,
              25.44013136503636
            ],
            [
              85.76431550095528,
              25.440843319603363
            ],
            [
              85.76451634269323,
              25.442503602283917
            ],
            [
              85.76470436726869,
              25.44464222527127
            ],
            [
              85.76392379776213,
              25.445777844351333
            ],
            [
              85.76375569063313,
              25.44715947611793
            ],
            [
              85.76233617192284,
              25.446523608231463
            ],
            [
              85.76202131061916,
              25.447296500038533
            ],
            [
              85.76206471362042,
              25.448158325277863
            ],
            [
              85.76102210913872,
              25.448468870176196
            ],
            [
              85.76020585226085,
              25.4482505828523
            ],
            [
              85.75925052988883,
              25.44802824340541
            ],
            [
              85.75801749963487,
              25.448000887956404
            ],
            [
              85.75731358876142,
              25.448481764273968
            ],
            [
              85.757404688711,
              25.450038533922413
            ],
            [
              85.75889215688767,
              25.450290683162002
            ],
            [
              85.7592810851849,
              25.450578177279834
            ],
            [
              85.75922051627684,
              25.45272676022792
            ],
            [
              85.75818242043957,
              25.45412501961097
            ],
            [
              85.75807637881186,
              25.454928742396856
            ],
            [
              85.75854505415009,
              25.45643464571593
            ],
            [
              85.758756301074,
              25.457011604081018
            ],
            [
              85.75932335810552,
              25.457072803698814
            ],
            [
              85.75985645702268,
              25.457359824973153
            ],
            [
              85.75950531456125,
              25.45896782623346
            ],
            [
              85.75781011456839,
              25.459005244726484
            ],
            [
              85.75780928901666,
              25.458811201966803
            ],
            [
              85.75738203230121,
              25.457688869033408
            ],
            [
              85.7562153821569,
              25.45808098410437
            ],
            [
              85.75517878291289,
              25.458675787367646
            ],
            [
              85.75496631877178,
              25.457814528133618
            ],
            [
              85.75471542290619,
              25.457237654727038
            ],
            [
              85.75383127225747,
              25.45743026438872
            ],
            [
              85.75312739731659,
              25.457947219251288
            ],
            [
              85.7515788095646,
              25.458561815289208
            ],
            [
              85.75087287388848,
              25.458564225024634
            ],
            [
              85.75047570893842,
              25.45750947329806
            ],
            [
              85.75050904631694,
              25.45593409460059
            ],
            [
              85.7502911383852,
              25.454941961057884
            ],
            [
              85.75000000967296,
              25.454819648035354
            ],
            [
              85.74975827392834,
              25.454718086368135
            ],
            [
              85.74864407012524,
              25.454577467932737
            ],
            [
              85.74770930929174,
              25.454539988040782
            ],
            [
              85.74483007944873,
              25.454369220297533
            ],
            [
              85.74472465855689,
              25.45533087309275
            ],
            [
              85.7440364762857,
              25.456037318002235
            ],
            [
              85.7437353861553,
              25.456548344035067
            ],
            [
              85.74404050073817,
              25.457021170147936
            ],
            [
              85.74494757190136,
              25.457564269899695
            ],
            [
              85.74503926473906,
              25.458114632122008
            ],
            [
              85.74512860668563,
              25.459292249225967
            ],
            [
              85.74577621295374,
              25.45960602269332
            ],
            [
              85.7465973890061,
              25.459797311375034
            ],
            [
              85.74694766638989,
              25.460346749305337
            ],
            [
              85.74673564871146,
              25.460776276902855
            ],
            [
              85.74591302996478,
              25.461446998074706
            ],
            [
              85.74518394290712,
              25.461882779909207
            ],
            [
              85.74466473284258,
              25.462552480278948
            ],
            [
              85.74408626990191,
              25.463357836208868
            ],
            [
              85.74351864783006,
              25.46437076859894
            ],
            [
              85.74369796593383,
              25.465665529224413
            ],
            [
              85.74326861075389,
              25.466452280320414
            ],
            [
              85.7396777651872,
              25.466188932927103
            ],
            [
              85.73955630757091,
              25.46811203868442
            ],
            [
              85.73902264810502,
              25.470176487771585
            ],
            [
              85.73833803573878,
              25.471790029595955
            ],
            [
              85.73816783014526,
              25.472733891157333
            ],
            [
              85.73826129625732,
              25.47371294605561
            ],
            [
              85.738743039388,
              25.47603125386569
            ],
            [
              85.73845493620166,
              25.479800910795564
            ],
            [
              85.73672832661484,
              25.480749917312647
            ],
            [
              85.73569702204112,
              25.481498009973684
            ],
            [
              85.73470290772016,
              25.481578047214743
            ],
            [
              85.73182593803841,
              25.482120122188878
            ],
            [
              85.72957955334677,
              25.48244340421128
            ],
            [
              85.72910521772394,
              25.483189670685476
            ],
            [
              85.7295893476783,
              25.484916667238217
            ],
            [
              85.73065444327978,
              25.487643760240804
            ],
            [
              85.73290328306707,
              25.487911702172646
            ],
            [
              85.73346638122314,
              25.488221280870345
            ],
            [
              85.73442015579796,
              25.48920206413659
            ],
            [
              85.73516322243805,
              25.49096432568253
            ],
            [
              85.73810342812592,
              25.491270559807152
            ],
            [
              85.74128330343325,
              25.49179251900519
            ],
            [
              85.74189690667123,
              25.49347848618331
            ],
            [
              85.74186199095276,
              25.495911303158447
            ],
            [
              85.74173511919025,
              25.49650289979151
            ],
            [
              85.74193955059609,
              25.500000350885742
            ],
            [
              85.74196495225738,
              25.500434895171434
            ],
            [
              85.74197933428508,
              25.50396719178685
            ],
            [
              85.74225562462541,
              25.507071444285007
            ],
            [
              85.7389719597668,
              25.50803927838313
            ],
            [
              85.73489026933899,
              25.507217906082612
            ],
            [
              85.73342803843187,
              25.507222752790415
            ],
            [
              85.73337333911591,
              25.50722292872479
            ],
            [
              85.73331366762484,
              25.50722311114518
            ],
            [
              85.73304280041384,
              25.509133166598183
            ],
            [
              85.73245489617952,
              25.510123466651148
            ],
            [
              85.73170504905569,
              25.51167854980349
            ],
            [
              85.72987317039234,
              25.51380134672507
            ],
            [
              85.72879731117715,
              25.515926144206666
            ],
            [
              85.72680375372893,
              25.51491711770208
            ],
            [
              85.72525077321521,
              25.513369577242372
            ],
            [
              85.7244313210299,
              25.5137017270839
            ],
            [
              85.72690417998781,
              25.516437752320112
            ],
            [
              85.72875668037683,
              25.51822354727684
            ],
            [
              85.73194368291765,
              25.52037045934437
            ],
            [
              85.73127517464953,
              25.521098679935342
            ],
            [
              85.73170779430718,
              25.521455990773834
            ],
            [
              85.73316434786169,
              25.522658993106692
            ],
            [
              85.73513843612272,
              25.52466695361875
            ],
            [
              85.73619819483308,
              25.526093661887693
            ],
            [
              85.73816236030349,
              25.528584552696355
            ],
            [
              85.73988946486202,
              25.53043683313843
            ],
            [
              85.7421593144472,
              25.532257638211224
            ],
            [
              85.74456972072994,
              25.53396675064456
            ],
            [
              85.74545375010608,
              25.534606359647736
            ],
            [
              85.7475325729461,
              25.53567152165356
            ],
            [
              85.74999929281738,
              25.536762539103066
            ],
            [
              85.75069801681843,
              25.5370706131032
            ],
            [
              85.75550130325269,
              25.5395074618458
            ],
            [
              85.75734096042811,
              25.540542465806706
            ],
            [
              85.75907651364187,
              25.54126154115941
            ],
            [
              85.7604788844117,
              25.541912586641445
            ],
            [
              85.76343782536313,
              25.54313801907573
            ],
            [
              85.76409445700489,
              25.54328748600828
            ],
            [
              85.7650245043781,
              25.543522864641826
            ],
            [
              85.76575084079434,
              25.54364979807223
            ],
            [
              85.76705416781249,
              25.5437636181192
            ],
            [
              85.76791474127829,
              25.54385447064097
            ],
            [
              85.76955615194856,
              25.544320538869602
            ],
            [
              85.77121749174343,
              25.544678317092377
            ],
            [
              85.77186917636294,
              25.544778047988952
            ],
            [
              85.77328192626754,
              25.544977695948745
            ],
            [
              85.77401809833783,
              25.54523541190371
            ],
            [
              85.77475920934556,
              25.545389420692306
            ],
            [
              85.7755900413889,
              25.545421561046968
            ],
            [
              85.77605781032702,
              25.54535423284994
            ],
            [
              85.77677913234731,
              25.54540883620704
            ],
            [
              85.7775898636879,
              25.545725305006528
            ],
            [
              85.77956904719322,
              25.546918218118478
            ],
            [
              85.78137215371633,
              25.547994896308655
            ],
            [
              85.78167254226251,
              25.548174260685386
            ],
            [
              85.78193128311547,
              25.54818797077617
            ],
            [
              85.78440919240192,
              25.547833041339793
            ],
            [
              85.78603120485197,
              25.547707630375072
            ],
            [
              85.78801149777668,
              25.54750570868796
            ],
            [
              85.79144977527216,
              25.54698867635506
            ],
            [
              85.79270868958268,
              25.546813421009148
            ],
            [
              85.7943755531182,
              25.546570636891367
            ],
            [
              85.79522641220252,
              25.54641312829229
            ]
          ]
        ]
      }
    }
  ]
}