{
  "type": "FeatureCollection",
  "features": [
    {
      "type": "Feature",
      "properties": {
        "object_id": "10-222-01305",
        "stname": "BIHAR",
        "dtname": "Begusarai",
        "sdtname": "Chhorahi",
        "st_area_sh": 0.0,
        "st_length_": 0.0,
        "remarks": "",
        "dist_lgd": 191,
        "state_lgd": 10,
        "subdt_lgd": 1305,
        "ac_no": null,
        "st_length(shape)": 96201.09768359947,
        "st_area(shape)": 128309829.49376953
      },
      "geometry": {
        "type": "Polygon",
        "coordinates": [
          [
            [
              86.11287807542892,
              25.774676237301286
            ],
            [
              86.11387160494662,
              25.774506216809527
            ],
            [
              86.11475888622412,
              25.774543220329015
            ],
            [
              86.11523037328922,
              25.774609316677164
            ],
            [
              86.11573517976649,
              25.774680083015483
            ],
            [
              86.1165425190685,
              25.77473916413901
            ],
            [
              86.11730293756665,
              25.774400659278268
            ],
            [
              86.11914306815419,
              25.77369848105222
            ],
            [
              86.11981847817864,
              25.773391050720285
            ],
            [
              86.12035909599471,
              25.773105376399517
            ],
            [
              86.1207353742161,
              25.77279161768873
            ],
            [
              86.12116054594176,
              25.772609082360457
            ],
            [
              86.1216184244286,
              25.77272471622568
            ],
            [
              86.12213181430842,
              25.772750386828154
            ],
            [
              86.12245623368675,
              25.772707196661216
            ],
            [
              86.12293561784149,
              25.772610761755015
            ],
            [
              86.12367962232274,
              25.7724662593105
            ],
            [
              86.12445849311513,
              25.772326475347118
            ],
            [
              86.12500259190293,
              25.7722439671777
            ],
            [
              86.12593100613896,
              25.772109589234542
            ],
            [
              86.12693892936245,
              25.772011801259914
            ],
            [
              86.1286320641285,
              25.771745371272686
            ],
            [
              86.13033841221404,
              25.771476842232985
            ],
            [
              86.12998482364013,
              25.770734309864963
            ],
            [
              86.12984778744017,
              25.770381339675936
            ],
            [
              86.13007287560596,
              25.770283360977604
            ],
            [
              86.13069667023085,
              25.77021033821778
            ],
            [
              86.13100592604718,
              25.770194126392095
            ],
            [
              86.13124174189409,
              25.769992369874423
            ],
            [
              86.13136468981544,
              25.769541629311096
            ],
            [
              86.13172196956687,
              25.769092285763957
            ],
            [
              86.13231387669411,
              25.76860370883164
            ],
            [
              86.13258363718067,
              25.76829784606059
            ],
            [
              86.13283673212209,
              25.76801087723299
            ],
            [
              86.13309845358518,
              25.76767383039674
            ],
            [
              86.13318140671345,
              25.767236393017896
            ],
            [
              86.13318758263102,
              25.76722426296794
            ],
            [
              86.1334747776206,
              25.766660252299058
            ],
            [
              86.13389167406588,
              25.766238347228636
            ],
            [
              86.13425035069757,
              25.76628111259772
            ],
            [
              86.13476410888667,
              25.766252564600045
            ],
            [
              86.13468590874454,
              25.76603539232704
            ],
            [
              86.13420514387921,
              25.765639750176533
            ],
            [
              86.13346174755743,
              25.765021319687445
            ],
            [
              86.1327185560515,
              25.76437579860467
            ],
            [
              86.13195644782233,
              25.76359020307514
            ],
            [
              86.1311306876671,
              25.762646208334104
            ],
            [
              86.13179711723366,
              25.762189679595686
            ],
            [
              86.13282318912084,
              25.761640480221118
            ],
            [
              86.13380828166142,
              25.76104385668476
            ],
            [
              86.13417266439178,
              25.761672936140965
            ],
            [
              86.13462627228778,
              25.762404014367107
            ],
            [
              86.13504497344843,
              25.762656800895794
            ],
            [
              86.1350564081037,
              25.762660351705435
            ],
            [
              86.13506433483778,
              25.762665119288126
            ],
            [
              86.13574582196513,
              25.762881360878012
            ],
            [
              86.13608600677668,
              25.76302700034209
            ],
            [
              86.13628612177759,
              25.76324793682927
            ],
            [
              86.13659513594715,
              25.763586375608995
            ],
            [
              86.13676462378675,
              25.76389780603565
            ],
            [
              86.13692034135133,
              25.76398149388895
            ],
            [
              86.13710325541119,
              25.764081310208496
            ],
            [
              86.13754104487332,
              25.764214833214275
            ],
            [
              86.13788225915422,
              25.764362969275055
            ],
            [
              86.13842945802806,
              25.76483186265466
            ],
            [
              86.1384387232519,
              25.764834552612673
            ],
            [
              86.13844891913038,
              25.764843246232985
            ],
            [
              86.1388370200792,
              25.76495389688745
            ],
            [
              86.13939694628401,
              25.764745013787735
            ],
            [
              86.13999655915974,
              25.764563453078118
            ],
            [
              86.14099793007158,
              25.764673205991148
            ],
            [
              86.14214401508409,
              25.764765744680822
            ],
            [
              86.14360459039612,
              25.764805950063444
            ],
            [
              86.14497914842642,
              25.764764434892996
            ],
            [
              86.1449809926677,
              25.76476437826225
            ],
            [
              86.1462726370956,
              25.76472229838783
            ],
            [
              86.14743575057265,
              25.76452595133157
            ],
            [
              86.14739156963034,
              25.763731094355357
            ],
            [
              86.14741797560812,
              25.762128507358817
            ],
            [
              86.14723336103746,
              25.761450210377934
            ],
            [
              86.14683013066261,
              25.760666793646013
            ],
            [
              86.1465648509727,
              25.760114436817112
            ],
            [
              86.14692715410318,
              25.759954181652173
            ],
            [
              86.1472800644491,
              25.759798079904186
            ],
            [
              86.1481150853366,
              25.75945984714979
            ],
            [
              86.14895823957072,
              25.759378996673576
            ],
            [
              86.1497464878763,
              25.75930685230374
            ],
            [
              86.1498806108398,
              25.758675567780564
            ],
            [
              86.15016468328547,
              25.758690770673713
            ],
            [
              86.15015612593407,
              25.758492070624417
            ],
            [
              86.15012032357843,
              25.757918486159475
            ],
            [
              86.15010648862473,
              25.757060598608053
            ],
            [
              86.15008853669211,
              25.756080788654984
            ],
            [
              86.14987290868454,
              25.75485602738598
            ],
            [
              86.14956143941939,
              25.753088932246634
            ],
            [
              86.1491078198453,
              25.751682188341185
            ],
            [
              86.1485202991916,
              25.750223016910898
            ],
            [
              86.14848091076134,
              25.75012518906214
            ],
            [
              86.14843109738219,
              25.750001471202317
            ],
            [
              86.14838838698199,
              25.74989934193347
            ],
            [
              86.1477004903751,
              25.74903741964313
            ],
            [
              86.14723690938283,
              25.748500428147732
            ],
            [
              86.14596578517096,
              25.74696608330923
            ],
            [
              86.14552715937731,
              25.74649677307392
            ],
            [
              86.14518325015055,
              25.746320755365346
            ],
            [
              86.14473478780454,
              25.746320830615005
            ],
            [
              86.1445752892309,
              25.746275739072424
            ],
            [
              86.14441575921623,
              25.74608166027555
            ],
            [
              86.14431113063846,
              25.745711556886558
            ],
            [
              86.14434595113548,
              25.745499476195192
            ],
            [
              86.14473960996096,
              25.745354969073045
            ],
            [
              86.14555188730212,
              25.74507503533102
            ],
            [
              86.1465335249221,
              25.744826698903033
            ],
            [
              86.1467577848412,
              25.744668641791748
            ],
            [
              86.1469171747187,
              25.744379817119096
            ],
            [
              86.14687229398878,
              25.744158601166085
            ],
            [
              86.14647844831373,
              25.742962676769256
            ],
            [
              86.14630386792479,
              25.742168317135047
            ],
            [
              86.14605943004776,
              25.741049116217923
            ],
            [
              86.14596970811382,
              25.74076930584529
            ],
            [
              86.14760422690925,
              25.740507270785653
            ],
            [
              86.14952265735192,
              25.740303852755826
            ],
            [
              86.15076847692056,
              25.740177303874628
            ],
            [
              86.15149599821466,
              25.740032736064876
            ],
            [
              86.15166546090141,
              25.739951465347662
            ],
            [
              86.15199906016365,
              25.739120881030846
            ],
            [
              86.15212471830219,
              25.738813489831525
            ],
            [
              86.1522481378391,
              25.738511571193214
            ],
            [
              86.15251578638642,
              25.73829062429571
            ],
            [
              86.15269650316706,
              25.738141439370406
            ],
            [
              86.1529456329448,
              25.737861526666816
            ],
            [
              86.15306502802923,
              25.7372341248004
            ],
            [
              86.15310489256659,
              25.737067128888068
            ],
            [
              86.15348859177051,
              25.73697229071966
            ],
            [
              86.15366290625815,
              25.736430627382365
            ],
            [
              86.15366027419437,
              25.736418515225246
            ],
            [
              86.15349819835419,
              25.735672449931087
            ],
            [
              86.15320888423882,
              25.73446297314905
            ],
            [
              86.152891954115,
              25.733297776175043
            ],
            [
              86.15288971192007,
              25.733289530174808
            ],
            [
              86.15248071256448,
              25.7315835409961
            ],
            [
              86.15244975661976,
              25.731444747162318
            ],
            [
              86.15226631794381,
              25.73062226866263
            ],
            [
              86.15204681729911,
              25.729692571941364
            ],
            [
              86.15197196607635,
              25.72912842027958
            ],
            [
              86.1514002279239,
              25.72910663518395
            ],
            [
              86.14926128802843,
              25.729025120694082
            ],
            [
              86.14817006582524,
              25.729156175230177
            ],
            [
              86.14727826422525,
              25.729476744965844
            ],
            [
              86.14727818966509,
              25.729151769657182
            ],
            [
              86.14702382540416,
              25.728154409770383
            ],
            [
              86.1467197277142,
              25.727184028125325
            ],
            [
              86.14648046503154,
              25.726669565878936
            ],
            [
              86.1461765523945,
              25.726651532108406
            ],
            [
              86.14501061191926,
              25.72690447564114
            ],
            [
              86.14401907216988,
              25.727094143688127
            ],
            [
              86.14309237371604,
              25.727193531339587
            ],
            [
              86.14303751809322,
              25.727044672379744
            ],
            [
              86.14289283184031,
              25.725799005226172
            ],
            [
              86.14274818780821,
              25.724756413112864
            ],
            [
              86.14232442104765,
              25.72295116612013
            ],
            [
              86.1422993221186,
              25.722183866060245
            ],
            [
              86.14250854603648,
              25.721962698631373
            ],
            [
              86.1428424031152,
              25.721903983765948
            ],
            [
              86.14294704786263,
              25.721795611667837
            ],
            [
              86.14270776901031,
              25.721231481620187
            ],
            [
              86.14257817894573,
              25.721037487373074
            ],
            [
              86.14231410569325,
              25.72094274729319
            ],
            [
              86.1422343811101,
              25.72052294512184
            ],
            [
              86.14202000984564,
              25.719864059196404
            ],
            [
              86.14170599026336,
              25.71863192967055
            ],
            [
              86.14124228889683,
              25.716659667930287
            ],
            [
              86.14112266384372,
              25.71585632364818
            ],
            [
              86.14118725540757,
              25.714398518064534
            ],
            [
              86.14134518911601,
              25.713521162862506
            ],
            [
              86.14004130783732,
              25.713424784317375
            ],
            [
              86.1385518103664,
              25.714014289087594
            ],
            [
              86.13822029070404,
              25.714221725218273
            ],
            [
              86.13745709731003,
              25.71478562223305
            ],
            [
              86.13672439722832,
              25.715708620810368
            ],
            [
              86.13612074462876,
              25.717021194598598
            ],
            [
              86.13561788390237,
              25.718095169859208
            ],
            [
              86.1340041341563,
              25.71760693272508
            ],
            [
              86.1316984561643,
              25.71696502832064
            ],
            [
              86.12856303578543,
              25.716946314855026
            ],
            [
              86.12592007274361,
              25.71728950439001
            ],
            [
              86.12490543820664,
              25.71739724931397
            ],
            [
              86.12339047709067,
              25.7175581097917
            ],
            [
              86.12243331227398,
              25.71755234896752
            ],
            [
              86.12042572942926,
              25.716762443284736
            ],
            [
              86.11944668883874,
              25.71526087687321
            ],
            [
              86.11982356084651,
              25.713378506724503
            ],
            [
              86.1206562038935,
              25.71164949989146
            ],
            [
              86.12123120382876,
              25.710455466184335
            ],
            [
              86.12275109400066,
              25.71022533732943
            ],
            [
              86.12506325423576,
              25.709969970646476
            ],
            [
              86.12673925363772,
              25.70985040036775
            ],
            [
              86.12890440188161,
              25.709695901759652
            ],
            [
              86.1304261291083,
              25.709196441977653
            ],
            [
              86.13221174094127,
              25.708728424169678
            ],
            [
              86.13482843275257,
              25.707427734792283
            ],
            [
              86.13612004663777,
              25.706807206897974
            ],
            [
              86.13626279881788,
              25.705312391647208
            ],
            [
              86.13594080399248,
              25.704203639105746
            ],
            [
              86.13565288316416,
              25.702945555693876
            ],
            [
              86.13460379015119,
              25.701982016187642
            ],
            [
              86.1342807676531,
              25.701803686387574
            ],
            [
              86.13239458403419,
              25.700762354752904
            ],
            [
              86.129558414036,
              25.70050616803165
            ],
            [
              86.12625992068696,
              25.700277043892672
            ],
            [
              86.12607128974865,
              25.69898956074922
            ],
            [
              86.12741549640049,
              25.698247949089545
            ],
            [
              86.12744718177717,
              25.698230467112136
            ],
            [
              86.12750579325619,
              25.69821075910774
            ],
            [
              86.12867123516646,
              25.697818903694422
            ],
            [
              86.13023226099186,
              25.69734357373482
            ],
            [
              86.13088712564746,
              25.697144163229044
            ],
            [
              86.13191270525792,
              25.69679125534672
            ],
            [
              86.1317871692902,
              25.69589305739609
            ],
            [
              86.13130443262284,
              25.69421501384613
            ],
            [
              86.130593437635,
              25.69214670290724
            ],
            [
              86.13038069321954,
              25.689632680355817
            ],
            [
              86.13111966893183,
              25.687842181293654
            ],
            [
              86.1331375761141,
              25.687136243779236
            ],
            [
              86.13562033360813,
              25.68604412815759
            ],
            [
              86.13617785502292,
              25.685620150287704
            ],
            [
              86.13803659331329,
              25.68410550118449
            ],
            [
              86.13939777003911,
              25.68294691095238
            ],
            [
              86.14026237334727,
              25.681551405701757
            ],
            [
              86.14026570519863,
              25.681546026874354
            ],
            [
              86.14057637855652,
              25.679633397928374
            ],
            [
              86.14091937868818,
              25.677809421317352
            ],
            [
              86.1412281997199,
              25.676167151619396
            ],
            [
              86.14218879160941,
              25.67563436581911
            ],
            [
              86.14314749524021,
              25.67512378228605
            ],
            [
              86.14316192937021,
              25.675116094131234
            ],
            [
              86.14458132411296,
              25.67503475802152
            ],
            [
              86.14738650942036,
              25.67493144305998
            ],
            [
              86.1476166065922,
              25.674900097744928
            ],
            [
              86.1507551962274,
              25.67447251625292
            ],
            [
              86.15224498834573,
              25.673763231859265
            ],
            [
              86.15429688598171,
              25.672877680851876
            ],
            [
              86.15638205631754,
              25.671932518245985
            ],
            [
              86.15912759887995,
              25.670931262167297
            ],
            [
              86.15976027874129,
              25.670097315319822
            ],
            [
              86.16106350424985,
              25.667741569188742
            ],
            [
              86.16070587685037,
              25.66699158608397
            ],
            [
              86.16008968376946,
              25.665987824643928
            ],
            [
              86.1576492539933,
              25.665854117670506
            ],
            [
              86.15789456323611,
              25.663184085909826
            ],
            [
              86.1578992218992,
              25.663133388064672
            ],
            [
              86.15867038155318,
              25.661372805726536
            ],
            [
              86.15931129088082,
              25.659372272202916
            ],
            [
              86.1601771419489,
              25.65821062205765
            ],
            [
              86.16118083680236,
              25.65621207525077
            ],
            [
              86.16244684870196,
              25.654265409619185
            ],
            [
              86.16413117279167,
              25.652518077082632
            ],
            [
              86.16454027006363,
              25.652093664151828
            ],
            [
              86.1657375204198,
              25.650694497043162
            ],
            [
              86.16573144511352,
              25.650666019288604
            ],
            [
              86.16551388662646,
              25.649646225826945
            ],
            [
              86.16515274322097,
              25.649404784897317
            ],
            [
              86.16323916457917,
              25.649453698931616
            ],
            [
              86.16125995681932,
              25.64944234399096
            ],
            [
              86.16044013542641,
              25.648749570716816
            ],
            [
              86.16005619367733,
              25.64704228678002
            ],
            [
              86.15958098579038,
              25.64425750624676
            ],
            [
              86.1591372701423,
              25.641673000955997
            ],
            [
              86.15892838309264,
              25.638530818847247
            ],
            [
              86.15831600874998,
              25.63649308182955
            ],
            [
              86.15787080908507,
              25.634127262672354
            ],
            [
              86.15713321767663,
              25.63113155918
            ],
            [
              86.15677757465565,
              25.628968428379462
            ],
            [
              86.1565643487432,
              25.626454410165813
            ],
            [
              86.15727239096866,
              25.62424477229416
            ],
            [
              86.15958412719893,
              25.622470501070065
            ],
            [
              86.15959350471216,
              25.62246330279843
            ],
            [
              86.16144991007774,
              25.621097837013853
            ],
            [
              86.16410023840656,
              25.619378048982192
            ],
            [
              86.1657357561286,
              25.618335904263354
            ],
            [
              86.16605460864712,
              25.618132727124763
            ],
            [
              86.1660763496736,
              25.61811325293341
            ],
            [
              86.16734882495169,
              25.616973465314782
            ],
            [
              86.16796080044236,
              25.616295617796535
            ],
            [
              86.16861170981574,
              25.615574632641586
            ],
            [
              86.16854844775851,
              25.61534550972955
            ],
            [
              86.1683221783081,
              25.61452598908019
            ],
            [
              86.16787149532668,
              25.613292940604037
            ],
            [
              86.16781963738197,
              25.61325889219344
            ],
            [
              86.16741187590482,
              25.612991167970776
            ],
            [
              86.16421883758362,
              25.612165235852018
            ],
            [
              86.16333436084645,
              25.61132257771829
            ],
            [
              86.16110826460549,
              25.60897644615033
            ],
            [
              86.16094929963116,
              25.608137934991348
            ],
            [
              86.16119494394559,
              25.606015593883164
            ],
            [
              86.1611949574203,
              25.606015460218448
            ],
            [
              86.15732112187789,
              25.604031158643465
            ],
            [
              86.15231437781152,
              25.60281659638364
            ],
            [
              86.14851615705982,
              25.604785037775294
            ],
            [
              86.14836757391518,
              25.604889907283955
            ],
            [
              86.14640677982203,
              25.606273794140407
            ],
            [
              86.14391311857707,
              25.606966036152613
            ],
            [
              86.14003207225787,
              25.60585686733309
            ],
            [
              86.13577630539596,
              25.605201227083757
            ],
            [
              86.13500543589787,
              25.60527649781951
            ],
            [
              86.13203073220812,
              25.605566921095573
            ],
            [
              86.12704147474709,
              25.60672963190167
            ],
            [
              86.12455265362489,
              25.608102986739063
            ],
            [
              86.12230770713599,
              25.60811643479404
            ],
            [
              86.11987605839174,
              25.608469357196064
            ],
            [
              86.11825821771787,
              25.609841903855244
            ],
            [
              86.11600501660983,
              25.609399452966237
            ],
            [
              86.11502874013547,
              25.60861908281315
            ],
            [
              86.11487855439637,
              25.60849903339048
            ],
            [
              86.11211267397594,
              25.610144590898326
            ],
            [
              86.11153169305749,
              25.61173213425517
            ],
            [
              86.10974410313426,
              25.615145513343826
            ],
            [
              86.10839766776228,
              25.6190030733028
            ],
            [
              86.10806958415587,
              25.621157711234964
            ],
            [
              86.10810151028107,
              25.625634452200213
            ],
            [
              86.1081633961193,
              25.630106592666127
            ],
            [
              86.1078110067963,
              25.633055689120148
            ],
            [
              86.10689439732138,
              25.635782410201074
            ],
            [
              86.10546804512674,
              25.637546356983705
            ],
            [
              86.10329481294364,
              25.63931467364252
            ],
            [
              86.10180298524288,
              25.640284690895385
            ],
            [
              86.10030631562275,
              25.6405777048369
            ],
            [
              86.09855865491558,
              25.640587836120577
            ],
            [
              86.09526834342213,
              25.639302653649107
            ],
            [
              86.09320151039621,
              25.63852031565922
            ],
            [
              86.0899486263108,
              25.638313338119424
            ],
            [
              86.0885269902714,
              25.640077117119638
            ],
            [
              86.08635267382174,
              25.641732391911237
            ],
            [
              86.08523089272921,
              25.642248759777164
            ],
            [
              86.08254936231732,
              25.643283974195544
            ],
            [
              86.07924908311749,
              25.644151216027833
            ],
            [
              86.07954001959024,
              25.6459051617874
            ],
            [
              86.08047926930523,
              25.646351137019362
            ],
            [
              86.08235794929655,
              25.646570587146957
            ],
            [
              86.08491461388398,
              25.64615886718831
            ],
            [
              86.08746721089977,
              25.64517850034893
            ],
            [
              86.09034114966576,
              25.644597857013796
            ],
            [
              86.0920797589481,
              25.643283558749424
            ],
            [
              86.0934934404057,
              25.640387042177903
            ],
            [
              86.09458799356194,
              25.640263323630766
            ],
            [
              86.09596855862654,
              25.641162473673543
            ],
            [
              86.0970362683255,
              25.64217631439429
            ],
            [
              86.09853460791375,
              25.642113446997833
            ],
            [
              86.09990685457885,
              25.641821101710136
            ],
            [
              86.10122112307714,
              25.642494934133317
            ],
            [
              86.1019134402936,
              25.64322652762084
            ],
            [
              86.10242806895018,
              25.644866286207215
            ],
            [
              86.10144454486812,
              25.64730912081989
            ],
            [
              86.09961053809583,
              25.648497671821445
            ],
            [
              86.09824185504749,
              25.649299963373476
            ],
            [
              86.09806683178911,
              25.650605183260822
            ],
            [
              86.09817417238071,
              25.65310482074389
            ],
            [
              86.0980330066254,
              25.65567813221153
            ],
            [
              86.0981807372688,
              25.65827224531794
            ],
            [
              86.09810707721213,
              25.661233246628942
            ],
            [
              86.09533258015148,
              25.662562626312624
            ],
            [
              86.09281118432042,
              25.66376413110802
            ],
            [
              86.08872425312126,
              25.6654394943358
            ],
            [
              86.0842471710178,
              25.666895701837127
            ],
            [
              86.07559838909164,
              25.668637268630718
            ],
            [
              86.0682171264381,
              25.670041845879652
            ],
            [
              86.06969181158833,
              25.67448341865924
            ],
            [
              86.07109501689305,
              25.67573916905537
            ],
            [
              86.07155721807304,
              25.68068742479377
            ],
            [
              86.07917344137729,
              25.682196859989254
            ],
            [
              86.08421980294432,
              25.683720628786357
            ],
            [
              86.08551160637404,
              25.684683480595748
            ],
            [
              86.08548416104549,
              25.688596444311845
            ],
            [
              86.0872073983567,
              25.694972519778393
            ],
            [
              86.08482653407037,
              25.69501325469774
            ],
            [
              86.08394146803838,
              25.695253020723673
            ],
            [
              86.0821455399527,
              25.697023378000754
            ],
            [
              86.07929173961875,
              25.697842944834843
            ],
            [
              86.0768426411001,
              25.697378453762756
            ],
            [
              86.07259814540006,
              25.69663077396337
            ],
            [
              86.0692905098964,
              25.69664484586146
            ],
            [
              86.06635677657016,
              25.697433033012707
            ],
            [
              86.06472140527352,
              25.698692272309422
            ],
            [
              86.06242289673581,
              25.70133165219707
            ],
            [
              86.06213950341653,
              25.702881294121607
            ],
            [
              86.06311760167425,
              25.704590804768646
            ],
            [
              86.0599690748754,
              25.705330409226796
            ],
            [
              86.05722271304943,
              25.705869149784796
            ],
            [
              86.05745534436868,
              25.707117936251507
            ],
            [
              86.05777553986853,
              25.708804022159008
            ],
            [
              86.05798187300785,
              25.709849913927794
            ],
            [
              86.05815672917957,
              25.71286821692605
            ],
            [
              86.06175646088104,
              25.713249917922468
            ],
            [
              86.06213475132864,
              25.716867237035753
            ],
            [
              86.06249816028527,
              25.719758070296443
            ],
            [
              86.0627852753248,
              25.722414619222537
            ],
            [
              86.06128513461441,
              25.723831073060182
            ],
            [
              86.05982297916577,
              25.72412000188773
            ],
            [
              86.05987995032109,
              25.724123910744805
            ],
            [
              86.06074972343372,
              25.72418358594694
            ],
            [
              86.06089890036473,
              25.724684688778993
            ],
            [
              86.06109792301423,
              25.725312071902202
            ],
            [
              86.06131677058376,
              25.72610653771273
            ],
            [
              86.06164044975031,
              25.72643612124326
            ],
            [
              86.06193931834702,
              25.7264723579846
            ],
            [
              86.06245260312393,
              25.7264455023173
            ],
            [
              86.06391251817423,
              25.726351412344567
            ],
            [
              86.06426595942446,
              25.727005968356053
            ],
            [
              86.06513298459062,
              25.726997267920265
            ],
            [
              86.06540584336658,
              25.726960701966874
            ],
            [
              86.06577083874798,
              25.726911787379482
            ],
            [
              86.06615947868598,
              25.726902901614366
            ],
            [
              86.06736533759752,
              25.72672741732882
            ],
            [
              86.06838188913935,
              25.72656533997025
            ],
            [
              86.0698269846824,
              25.726389830099116
            ],
            [
              86.07031031244121,
              25.72633133430437
            ],
            [
              86.07160591843952,
              25.72621453604478
            ],
            [
              86.07332493995712,
              25.726115861354373
            ],
            [
              86.07418059694334,
              25.72614643813526
            ],
            [
              86.0746004452526,
              25.726161439635383
            ],
            [
              86.07634922885387,
              25.72645533901037
            ],
            [
              86.07741543836627,
              25.726676904337655
            ],
            [
              86.07821755127,
              25.72691629662177
            ],
            [
              86.07915424078642,
              25.72724610612089
            ],
            [
              86.08044459792852,
              25.72774753512866
            ],
            [
              86.08120679958246,
              25.72803207634086
            ],
            [
              86.08184435729582,
              25.728659580995263
            ],
            [
              86.08237233940909,
              25.729368378959578
            ],
            [
              86.08257148961938,
              25.7297610611149
            ],
            [
              86.08298967963867,
              25.730826373313892
            ],
            [
              86.08387663213273,
              25.730627976252936
            ],
            [
              86.084818489657,
              25.730380077379778
            ],
            [
              86.08529189462521,
              25.730303411141286
            ],
            [
              86.08545118299308,
              25.730696108820954
            ],
            [
              86.08564534216366,
              25.731273860390186
            ],
            [
              86.08617312395263,
              25.732691186245738
            ],
            [
              86.08606836511913,
              25.732871750961802
            ],
            [
              86.08508151996546,
              25.73371992530737
            ],
            [
              86.08388033858162,
              25.734410174169085
            ],
            [
              86.08388025144505,
              25.73459067234603
            ],
            [
              86.08384520008096,
              25.735222605185427
            ],
            [
              86.08379525644611,
              25.735547532339858
            ],
            [
              86.08304265778253,
              25.73583616322999
            ],
            [
              86.08206590430275,
              25.736156337053934
            ],
            [
              86.08105922524594,
              25.736517037326756
            ],
            [
              86.0801323049082,
              25.736643197642493
            ],
            [
              86.07919542405062,
              25.736742200223322
            ],
            [
              86.07827849567381,
              25.736800511253133
            ],
            [
              86.07729676013746,
              25.73687239982847
            ],
            [
              86.07727684718257,
              25.736895028306066
            ],
            [
              86.07710723627378,
              25.737260549155852
            ],
            [
              86.07643414929261,
              25.738325460760993
            ],
            [
              86.07613996181686,
              25.738659309634563
            ],
            [
              86.07585085700896,
              25.73899319236534
            ],
            [
              86.07535222375434,
              25.739683578104415
            ],
            [
              86.07516265227991,
              25.74025673760481
            ],
            [
              86.07515256599591,
              25.740568099739885
            ],
            [
              86.07513742938337,
              25.740875004942794
            ],
            [
              86.07526181640581,
              25.7413173353794
            ],
            [
              86.07538125460937,
              25.741755208086122
            ],
            [
              86.0754907897852,
              25.742017034056822
            ],
            [
              86.07559533931123,
              25.742278830320686
            ],
            [
              86.07590413608848,
              25.742635466205893
            ],
            [
              86.07608847757128,
              25.742816050608635
            ],
            [
              86.07646707524273,
              25.743055385307574
            ],
            [
              86.0768706595538,
              25.743312754006748
            ],
            [
              86.07708485115519,
              25.743385082869462
            ],
            [
              86.07729917840221,
              25.743452898218393
            ],
            [
              86.07765302299597,
              25.743412340096924
            ],
            [
              86.07800680201275,
              25.743367355877467
            ],
            [
              86.07841056868185,
              25.743213972944538
            ],
            [
              86.07888410929564,
              25.742907258270858
            ],
            [
              86.07944244817733,
              25.742334258013
            ],
            [
              86.07982623900944,
              25.741977762018596
            ],
            [
              86.08021012685958,
              25.74162135719985
            ],
            [
              86.08119705914984,
              25.740917600618353
            ],
            [
              86.08234346665755,
              25.74039886062025
            ],
            [
              86.0828069048177,
              25.740340380619603
            ],
            [
              86.0828118733995,
              25.740394498350305
            ],
            [
              86.08291632860245,
              25.741008346082044
            ],
            [
              86.08319502912273,
              25.74202844328789
            ],
            [
              86.08386696805692,
              25.74438457410759
            ],
            [
              86.08421574705082,
              25.7443937199211
            ],
            [
              86.08595502737471,
              25.744312998362528
            ],
            [
              86.08708622730295,
              25.744272688134547
            ],
            [
              86.08908956021808,
              25.7442505586891
            ],
            [
              86.09053971237786,
              25.744287072393263
            ],
            [
              86.09119261960446,
              25.744251056316426
            ],
            [
              86.09212958400536,
              25.74401662586726
            ],
            [
              86.09289708392285,
              25.743804702362787
            ],
            [
              86.09332061173156,
              25.74377772195577
            ],
            [
              86.09364004096848,
              25.74375471610486
            ],
            [
              86.09400841491366,
              25.74372818638511
            ],
            [
              86.09479081967837,
              25.743574854894707
            ],
            [
              86.09541381659926,
              25.743353892327242
            ],
            [
              86.09550849723358,
              25.743200437361917
            ],
            [
              86.09553339943159,
              25.74315075023812
            ],
            [
              86.09507997030032,
              25.743150731627477
            ],
            [
              86.09429765087557,
              25.742924828354607
            ],
            [
              86.09362500137401,
              25.742410206856093
            ],
            [
              86.09299744011311,
              25.74122307835057
            ],
            [
              86.09249440421529,
              25.739932160752502
            ],
            [
              86.09203113134515,
              25.73931373476438
            ],
            [
              86.0932770407453,
              25.739088354213592
            ],
            [
              86.0946176379663,
              25.73879980404802
            ],
            [
              86.09566630697448,
              25.738579047036524
            ],
            [
              86.09690497056356,
              25.73830826303407
            ],
            [
              86.09781200399752,
              25.73806927481889
            ],
            [
              86.09774432222906,
              25.73733174639847
            ],
            [
              86.09769768888604,
              25.736823580758806
            ],
            [
              86.09772057077295,
              25.73682003726878
            ],
            [
              86.09842520479023,
              25.736710883320505
            ],
            [
              86.09894595097391,
              25.736631982102907
            ],
            [
              86.09946669625927,
              25.736553079214502
            ],
            [
              86.10112619810108,
              25.73628702606031
            ],
            [
              86.10132519020789,
              25.737943451022836
            ],
            [
              86.10160915216078,
              25.737952515603595
            ],
            [
              86.1032536557306,
              25.737880571037998
            ],
            [
              86.10445454695859,
              25.73783116328931
            ],
            [
              86.10674679603537,
              25.73775467259629
            ],
            [
              86.1068115196516,
              25.738445284011267
            ],
            [
              86.1069659265742,
              25.739235137909624
            ],
            [
              86.10716515314128,
              25.73952394919331
            ],
            [
              86.10876984876761,
              25.73893746776165
            ],
            [
              86.1099309958325,
              25.738228980129453
            ],
            [
              86.1111121313108,
              25.737136850268335
            ],
            [
              86.11257233741523,
              25.735742387378846
            ],
            [
              86.11323520156844,
              25.735042845160976
            ],
            [
              86.1138480394418,
              25.735119621632744
            ],
            [
              86.11408224101615,
              25.73529116319283
            ],
            [
              86.11411308017983,
              25.735752238677662
            ],
            [
              86.11412208758719,
              25.735886901335284
            ],
            [
              86.11422665777448,
              25.736708411209946
            ],
            [
              86.11414179392959,
              25.73785473267667
            ],
            [
              86.11431118385283,
              25.73902372861169
            ],
            [
              86.11461010904341,
              25.73963756724037
            ],
            [
              86.11503360361442,
              25.739962493653568
            ],
            [
              86.11545222392671,
              25.740097951009172
            ],
            [
              86.11608506099323,
              25.740170237323895
            ],
            [
              86.11669803271555,
              25.740057383650832
            ],
            [
              86.11733593628028,
              25.73961961797352
            ],
            [
              86.1176617776917,
              25.73933633202821
            ],
            [
              86.11820799111369,
              25.73886145520089
            ],
            [
              86.11932432302568,
              25.737733198193762
            ],
            [
              86.1203278741487,
              25.736817136284067
            ],
            [
              86.1218408490896,
              25.735436019993784
            ],
            [
              86.12248374099909,
              25.7351219068483
            ],
            [
              86.1226630743742,
              25.735034285307176
            ],
            [
              86.12379421591197,
              25.734948540267528
            ],
            [
              86.12704313393542,
              25.735106559326653
            ],
            [
              86.13021233635888,
              25.73517869897304
            ],
            [
              86.13094983344422,
              25.735210188641613
            ],
            [
              86.13096977155193,
              25.73521021777325
            ],
            [
              86.1310621336345,
              25.735532854898644
            ],
            [
              86.13117909518282,
              25.73594141436837
            ],
            [
              86.13134855068306,
              25.736753728913367
            ],
            [
              86.13176233177091,
              25.738653844377158
            ],
            [
              86.13195169124292,
              25.739705468073602
            ],
            [
              86.13208631816129,
              25.74041400516442
            ],
            [
              86.132594636153,
              25.74036439131977
            ],
            [
              86.13262445123729,
              25.74043210967311
            ],
            [
              86.13281889427549,
              25.74105937489953
            ],
            [
              86.13303324757364,
              25.74171836265444
            ],
            [
              86.13326251200719,
              25.742562363328336
            ],
            [
              86.13344692266027,
              25.74347399937586
            ],
            [
              86.1336014346858,
              25.743875648893226
            ],
            [
              86.13365629030862,
              25.74435408778774
            ],
            [
              86.1335715962453,
              25.74452559821753
            ],
            [
              86.13337226816859,
              25.744584276827133
            ],
            [
              86.13313802976334,
              25.74450757686566
            ],
            [
              86.13279921667917,
              25.7445256046907
            ],
            [
              86.13247529586583,
              25.74459338378618
            ],
            [
              86.13227095968142,
              25.744764901961997
            ],
            [
              86.13225101079388,
              25.74501309530047
            ],
            [
              86.13241053092709,
              25.745328994782597
            ],
            [
              86.13263478365967,
              25.745572773886998
            ],
            [
              86.13321785226282,
              25.746010476366607
            ],
            [
              86.13412486862879,
              25.746556560033326
            ],
            [
              86.13506683035762,
              25.747152236847658
            ],
            [
              86.13567990089463,
              25.747662253294145
            ],
            [
              86.13598154708221,
              25.74807190626409
            ],
            [
              86.13622816876368,
              25.748406831396775
            ],
            [
              86.13665186006577,
              25.749268864256734
            ],
            [
              86.13689897671894,
              25.75000120015013
            ],
            [
              86.1372269067134,
              25.751111135843175
            ],
            [
              86.13718960057797,
              25.751191974957177
            ],
            [
              86.13714587418319,
              25.75128673219353
            ],
            [
              86.13668020370957,
              25.751568401382503
            ],
            [
              86.13628898111516,
              25.751895660161875
            ],
            [
              86.13581304199954,
              25.752217897599714
            ],
            [
              86.13540790629797,
              25.75240059940144
            ],
            [
              86.13490906373585,
              25.75244278316132
            ],
            [
              86.1343496810118,
              25.752583931205884
            ],
            [
              86.13352903676208,
              25.75300343729865
            ],
            [
              86.13299864267228,
              25.753271165864295
            ],
            [
              86.13239943673334,
              25.75340303916024
            ],
            [
              86.13228521325003,
              25.753465926303015
            ],
            [
              86.1317587403064,
              25.753755885877066
            ],
            [
              86.13078065642168,
              25.75388549319817
            ],
            [
              86.13017364591958,
              25.753719337056232
            ],
            [
              86.12978320485945,
              25.753251983178465
            ],
            [
              86.12936486302488,
              25.752509063343304
            ],
            [
              86.1290185705677,
              25.75214129561282
            ],
            [
              86.12856013602371,
              25.75211146503357
            ],
            [
              86.12764647302293,
              25.752295612852425
            ],
            [
              86.1267879746655,
              25.752434938991307
            ],
            [
              86.12620229106653,
              25.752435669603535
            ],
            [
              86.1257971571616,
              25.752261948008023
            ],
            [
              86.1253614742488,
              25.751848488925226
            ],
            [
              86.12497743278675,
              25.751191542087135
            ],
            [
              86.12450868199004,
              25.75052957029526
            ],
            [
              86.12334431536318,
              25.75091083403011
            ],
            [
              86.12242527055554,
              25.751149094115235
            ],
            [
              86.12149209884177,
              25.751274395002095
            ],
            [
              86.12066793319613,
              25.75149064277162
            ],
            [
              86.11986250640736,
              25.751869531145555
            ],
            [
              86.11901070768526,
              25.752451297260937
            ],
            [
              86.11866912240016,
              25.75280138132911
            ],
            [
              86.11845082819286,
              25.75333279899004
            ],
            [
              86.11820445444641,
              25.753615736019665
            ],
            [
              86.1174625780741,
              25.754162040394775
            ],
            [
              86.11574978457638,
              25.75521261337833
            ],
            [
              86.11464807993212,
              25.7558741011353
            ],
            [
              86.11351698600507,
              25.756463164027522
            ],
            [
              86.11227774839254,
              25.756843881204965
            ],
            [
              86.11112503471153,
              25.756985834700465
            ],
            [
              86.1100235187135,
              25.756947502079214
            ],
            [
              86.10845837141757,
              25.756906322349597
            ],
            [
              86.10696844275535,
              25.756806895630522
            ],
            [
              86.10618955489497,
              25.756960132371425
            ],
            [
              86.1053030982709,
              25.757496455362173
            ],
            [
              86.10450036732628,
              25.75816872966868
            ],
            [
              86.1041573671946,
              25.75869935875812
            ],
            [
              86.10393974672377,
              25.75979510019421
            ],
            [
              86.10358287121421,
              25.76150850119023
            ],
            [
              86.10333576803575,
              25.76254536819965
            ],
            [
              86.10322537317217,
              25.76330316299886
            ],
            [
              86.10300929600702,
              25.764191232651275
            ],
            [
              86.10269862444575,
              25.76506066177157
            ],
            [
              86.10266850303597,
              25.765751229317306
            ],
            [
              86.10263739617432,
              25.766572717930504
            ],
            [
              86.10274717928519,
              25.767223516266828
            ],
            [
              86.10285489267763,
              25.768149698730646
            ],
            [
              86.10266671898181,
              25.768640643810063
            ],
            [
              86.1023092990932,
              25.769094427945344
            ],
            [
              86.10196815757585,
              25.76937223570227
            ],
            [
              86.10162698192254,
              25.769654557710034
            ],
            [
              86.1013289766068,
              25.770162883026572
            ],
            [
              86.10128843114646,
              25.77091207678084
            ],
            [
              86.10137836777777,
              25.7715492081436
            ],
            [
              86.10148502025986,
              25.772615341260057
            ],
            [
              86.10157959219802,
              25.77393632895591
            ],
            [
              86.10157976377623,
              25.77393873962058
            ],
            [
              86.1016593356458,
              25.773966319885925
            ],
            [
              86.10254029637693,
              25.774179432915588
            ],
            [
              86.10305208995051,
              25.77441735427816
            ],
            [
              86.10326745026009,
              25.774529533000077
            ],
            [
              86.10385905555339,
              25.774837690047775
            ],
            [
              86.10387658168457,
              25.774846818954927
            ],
            [
              86.10455780470726,
              25.77509932174076
            ],
            [
              86.10528461723058,
              25.775257293856573
            ],
            [
              86.10603659875156,
              25.775383812638395
            ],
            [
              86.10724669232133,
              25.775594404093646
            ],
            [
              86.10800471141931,
              25.77558099516019
            ],
            [
              86.10905751537273,
              25.77548812029584
            ],
            [
              86.11020973587867,
              25.775436479345057
            ],
            [
              86.11093962243689,
              25.775183601119895
            ],
            [
              86.11195896324766,
              25.774896368240096
            ],
            [
              86.11287807542892,
              25.774676237301286
            ]
          ]
        ]
      }
    }
  ]
}