{
  "type": "FeatureCollection",
  "features": [
    {
      "type": "Feature",
      "properties": {
        "object_id": "10-203-01030",
        "stname": "BIHAR",
        "dtname": "Pashchim Champaran",
        "sdtname": "Nautan",
        "st_area_sh": 0.0,
        "st_length_": 0.0,
        "remarks": "",
        "dist_lgd": 211,
        "state_lgd": 10,
        "subdt_lgd": 1030,
        "ac_no": null,
        "st_length(shape)": 122656.63983711715,
        "st_area(shape)": 245738630.13883996
      },
      "geometry": {
        "type": "Polygon",
        "coordinates": [
          [
            [
              84.50491747370098,
              26.791785579854512
            ],
            [
              84.50640297456721,
              26.791459538359906
            ],
            [
              84.5077328566835,
              26.791877122614604
            ],
            [
              84.50837372468867,
              26.792304646212944
            ],
            [
              84.51037795591904,
              26.79263099881249
            ],
            [
              84.51199778636128,
              26.792522079199845
            ],
            [
              84.51508435635499,
              26.790322596886377
            ],
            [
              84.51650175863446,
              26.789634994165137
            ],
            [
              84.5175363016348,
              26.791395662680273
            ],
            [
              84.51857792335956,
              26.792068885853926
            ],
            [
              84.51942366384336,
              26.791924407115562
            ],
            [
              84.52183157909784,
              26.79045222664457
            ],
            [
              84.52272615289878,
              26.789739340128744
            ],
            [
              84.52337097528783,
              26.788772413817135
            ],
            [
              84.52392443901246,
              26.787137285265732
            ],
            [
              84.52433760026275,
              26.785411084852992
            ],
            [
              84.52518869380735,
              26.784418240061953
            ],
            [
              84.52709803329937,
              26.78383684713617
            ],
            [
              84.52760458789817,
              26.783234734667534
            ],
            [
              84.52774919869262,
              26.78184115226653
            ],
            [
              84.52715237598414,
              26.78001961398386
            ],
            [
              84.52739072597846,
              26.77968683905501
            ],
            [
              84.52843382543189,
              26.780116387822254
            ],
            [
              84.52870571223072,
              26.78005905459988
            ],
            [
              84.52871205433662,
              26.7790573517359
            ],
            [
              84.52833193671573,
              26.77794988708258
            ],
            [
              84.52884388569784,
              26.777284603206436
            ],
            [
              84.52915812536736,
              26.776103932265933
            ],
            [
              84.52861782375827,
              26.775677079864
            ],
            [
              84.52660156588287,
              26.774908679903085
            ],
            [
              84.5261983058636,
              26.77427034964845
            ],
            [
              84.52644383070212,
              26.772818561623797
            ],
            [
              84.52736087406326,
              26.771704206088497
            ],
            [
              84.52844814367923,
              26.770707917008473
            ],
            [
              84.52898140069983,
              26.769059154207756
            ],
            [
              84.53000344903286,
              26.76721874464319
            ],
            [
              84.52894533603613,
              26.764424607015894
            ],
            [
              84.52957392856293,
              26.763593036866514
            ],
            [
              84.5301848404483,
              26.76317195415301
            ],
            [
              84.53126569609312,
              26.763177446821764
            ],
            [
              84.53119771608397,
              26.76278451660593
            ],
            [
              84.53070037191178,
              26.76193366177691
            ],
            [
              84.53073622816636,
              26.761026845374978
            ],
            [
              84.53145155123721,
              26.759997104661085
            ],
            [
              84.5319973128066,
              26.75954864226038
            ],
            [
              84.53449388638971,
              26.759046848831854
            ],
            [
              84.53662494267022,
              26.758299493833064
            ],
            [
              84.53826290380985,
              26.757626347147422
            ],
            [
              84.53934455715861,
              26.757478328922925
            ],
            [
              84.53935532706055,
              26.755754563721773
            ],
            [
              84.54043520623664,
              26.756707663358796
            ],
            [
              84.54193491036581,
              26.757238621175844
            ],
            [
              84.54374419190819,
              26.757310786783943
            ],
            [
              84.54507723339933,
              26.757164002620456
            ],
            [
              84.54699135282694,
              26.756532711606244
            ],
            [
              84.5514277196885,
              26.75526860461785
            ],
            [
              84.55651938060036,
              26.75370073363849
            ],
            [
              84.55689972818995,
              26.753152023660004
            ],
            [
              84.55666355661022,
              26.75229346976235
            ],
            [
              84.55629389717582,
              26.751921630887193
            ],
            [
              84.55609357107086,
              26.75031730705786
            ],
            [
              84.55609288026639,
              26.750312360048262
            ],
            [
              84.5560928272658,
              26.750312367267828
            ],
            [
              84.55604585256295,
              26.75000032660193
            ],
            [
              84.55603940894743,
              26.74995749276828
            ],
            [
              84.55544652984305,
              26.74908819115846
            ],
            [
              84.5546707339839,
              26.747717103623565
            ],
            [
              84.55375718327255,
              26.746683772796235
            ],
            [
              84.55344105803925,
              26.74577069622656
            ],
            [
              84.55377219501929,
              26.744220026147765
            ],
            [
              84.55437561136192,
              26.74335207573306
            ],
            [
              84.55475632905743,
              26.74190994622962
            ],
            [
              84.5546681351578,
              26.740709190157816
            ],
            [
              84.554127387086,
              26.739542313283362
            ],
            [
              84.55321492333616,
              26.73834202078762
            ],
            [
              84.55239018995526,
              26.737593404885196
            ],
            [
              84.5515641998313,
              26.737052352633075
            ],
            [
              84.55133905417331,
              26.736473643976232
            ],
            [
              84.55111390941367,
              26.735894934781733
            ],
            [
              84.55144085395625,
              26.735030146803638
            ],
            [
              84.55268574287027,
              26.734458674107906
            ],
            [
              84.55392812009471,
              26.734297813991
            ],
            [
              84.55594970138651,
              26.734104659121172
            ],
            [
              84.55802932282882,
              26.73427726580395
            ],
            [
              84.55757575984859,
              26.733656826261925
            ],
            [
              84.55720833272773,
              26.732910524637408
            ],
            [
              84.55625320888335,
              26.731294888790416
            ],
            [
              84.55529838417799,
              26.72963857804239
            ],
            [
              84.55475076938416,
              26.72876954473121
            ],
            [
              84.55433424843467,
              26.727842430334476
            ],
            [
              84.55457218430564,
              26.72672898414406
            ],
            [
              84.55517523323736,
              26.725906199144905
            ],
            [
              84.55577978505053,
              26.72483518015471
            ],
            [
              84.55633654020237,
              26.72335324808186
            ],
            [
              84.55533329181159,
              26.722233712089114
            ],
            [
              84.55478928914353,
              26.720787056600997
            ],
            [
              84.55415708269436,
              26.718969940598978
            ],
            [
              84.55315709698466,
              26.71731343761653
            ],
            [
              84.5529829666517,
              26.71619805489432
            ],
            [
              84.55271616341903,
              26.7146308352746
            ],
            [
              84.55514795319881,
              26.714683404602006
            ],
            [
              84.55520521091671,
              26.713528459400425
            ],
            [
              84.55855579667076,
              26.713711868347286
            ],
            [
              84.55891864867188,
              26.714372392800104
            ],
            [
              84.55876504035156,
              26.71734087592635
            ],
            [
              84.56023149244218,
              26.71747440920719
            ],
            [
              84.5623932630206,
              26.717317898197894
            ],
            [
              84.56346454711603,
              26.717165213658276
            ],
            [
              84.56565692060121,
              26.71692304419472
            ],
            [
              84.56818214056044,
              26.717345898993923
            ],
            [
              84.57047895757046,
              26.717275677933763
            ],
            [
              84.57259243022762,
              26.71678935780906
            ],
            [
              84.57452348738991,
              26.716550357877953
            ],
            [
              84.577011185618,
              26.715655203783644
            ],
            [
              84.57908194068845,
              26.7147173552286
            ],
            [
              84.58016022625324,
              26.71422159322771
            ],
            [
              84.58129205590052,
              26.714019365703688
            ],
            [
              84.58239800957604,
              26.71393434817249
            ],
            [
              84.58296055886146,
              26.713982120891202
            ],
            [
              84.58347674340014,
              26.71421467709227
            ],
            [
              84.58396322334731,
              26.71437938274932
            ],
            [
              84.58411981856594,
              26.71424022321937
            ],
            [
              84.58412152177173,
              26.71394239815984
            ],
            [
              84.58386982820214,
              26.713156055662648
            ],
            [
              84.58346297492176,
              26.712274160923926
            ],
            [
              84.58300686701436,
              26.711211559755053
            ],
            [
              84.58244797566876,
              26.70968372369119
            ],
            [
              84.5823006124363,
              26.709096433913917
            ],
            [
              84.58235374778535,
              26.708609350209947
            ],
            [
              84.58338760177787,
              26.707946331139766
            ],
            [
              84.58480294422039,
              26.707375367629556
            ],
            [
              84.58656894583069,
              26.706972967932217
            ],
            [
              84.58896244761641,
              26.70665926681612
            ],
            [
              84.59004323319262,
              26.706574007859523
            ],
            [
              84.59091845458741,
              26.706415647387676
            ],
            [
              84.59213188989006,
              26.705983545863674
            ],
            [
              84.59255985807118,
              26.705832106030723
            ],
            [
              84.59316925629533,
              26.705591271077477
            ],
            [
              84.59381454490999,
              26.705210659168735
            ],
            [
              84.59436460222307,
              26.70480256694602
            ],
            [
              84.59488443482012,
              26.704394349676374
            ],
            [
              84.59533390687253,
              26.703994813202613
            ],
            [
              84.59567488489648,
              26.7032337050418
            ],
            [
              84.59630031176023,
              26.70194606662964
            ],
            [
              84.5967929280991,
              26.701023204617467
            ],
            [
              84.59712789280057,
              26.700438157380503
            ],
            [
              84.59744267415421,
              26.69898206962311
            ],
            [
              84.59763301997641,
              26.69731776883337
            ],
            [
              84.5978723554226,
              26.695865820918296
            ],
            [
              84.59808375326348,
              26.69491917780859
            ],
            [
              84.59832509644436,
              26.69405246374306
            ],
            [
              84.59653724331476,
              26.693356050636186
            ],
            [
              84.59608962179182,
              26.693048779998307
            ],
            [
              84.59508648119886,
              26.69032848678985
            ],
            [
              84.59396397067435,
              26.688590690683323
            ],
            [
              84.5938999621171,
              26.687830833628706
            ],
            [
              84.59441604155286,
              26.687428642601635
            ],
            [
              84.59607446631466,
              26.68756980129949
            ],
            [
              84.59861335863248,
              26.687738529669417
            ],
            [
              84.59982631243813,
              26.687373257952803
            ],
            [
              84.60016305760048,
              26.687062385076864
            ],
            [
              84.60055985603789,
              26.686684690603922
            ],
            [
              84.60142612392426,
              26.684947932933316
            ],
            [
              84.60148067591652,
              26.684530485624148
            ],
            [
              84.60146242664152,
              26.683301995610325
            ],
            [
              84.60137513644703,
              26.682769173359553
            ],
            [
              84.60117682256829,
              26.682289884040696
            ],
            [
              84.60099951758909,
              26.681670983231697
            ],
            [
              84.60062309024737,
              26.680712562707868
            ],
            [
              84.6004601340582,
              26.680228906253834
            ],
            [
              84.59862562063613,
              26.67684520015963
            ],
            [
              84.5980965443748,
              26.676265105856235
            ],
            [
              84.59739216008916,
              26.675683226607063
            ],
            [
              84.59589213076987,
              26.674679385131267
            ],
            [
              84.59180113110078,
              26.67496625074701
            ],
            [
              84.59079242634297,
              26.67473756374842
            ],
            [
              84.58896565280534,
              26.674123154055376
            ],
            [
              84.58785960031516,
              26.67354176236372
            ],
            [
              84.5874351283771,
              26.67311113600342
            ],
            [
              84.58726594326976,
              26.67282156135603
            ],
            [
              84.58702729323812,
              26.672396256741866
            ],
            [
              84.58665160880314,
              26.671385171391783
            ],
            [
              84.58612459507373,
              26.667950370065668
            ],
            [
              84.58595999227265,
              26.667640059146304
            ],
            [
              84.58369400005326,
              26.667373887891305
            ],
            [
              84.5807691223191,
              26.667817636083445
            ],
            [
              84.57843692965321,
              26.66929031974919
            ],
            [
              84.57824389697002,
              26.669562809743244
            ],
            [
              84.57749107103268,
              26.67062549908796
            ],
            [
              84.5719567796376,
              26.66833152063142
            ],
            [
              84.57119576286152,
              26.667921714925793
            ],
            [
              84.57006985041703,
              26.667198931275184
            ],
            [
              84.56900005482997,
              26.66634083528507
            ],
            [
              84.56848944882923,
              26.666040614799055
            ],
            [
              84.56760429116909,
              26.665400083400076
            ],
            [
              84.56671953685249,
              26.664655778155744
            ],
            [
              84.5660186398268,
              26.664264301985575
            ],
            [
              84.56016226197818,
              26.660968539919896
            ],
            [
              84.55910797490621,
              26.660217527198046
            ],
            [
              84.5589055835744,
              26.66007335300512
            ],
            [
              84.55551661729983,
              26.65835536066407
            ],
            [
              84.54888844379005,
              26.65570390634797
            ],
            [
              84.54789303230179,
              26.654617389176142
            ],
            [
              84.54662921229152,
              26.653824265911048
            ],
            [
              84.54408248217283,
              26.653254144067894
            ],
            [
              84.54383371800942,
              26.651908710357233
            ],
            [
              84.54332556710433,
              26.650421604270708
            ],
            [
              84.5428152862937,
              26.649235454051986
            ],
            [
              84.54136450710985,
              26.64755539290586
            ],
            [
              84.54076493914988,
              26.647060515836692
            ],
            [
              84.53861720025621,
              26.64515453798289
            ],
            [
              84.53733436111472,
              26.64389367077103
            ],
            [
              84.53472089515355,
              26.64100605526025
            ],
            [
              84.53415222834104,
              26.64039852668601
            ],
            [
              84.53384901010175,
              26.640133896999757
            ],
            [
              84.53219138304394,
              26.639973387890656
            ],
            [
              84.53086487859314,
              26.639567973696508
            ],
            [
              84.53086323377785,
              26.63895276038442
            ],
            [
              84.5313284191612,
              26.63877361130869
            ],
            [
              84.53164695277778,
              26.636297475736647
            ],
            [
              84.53108791500682,
              26.63494995360724
            ],
            [
              84.53047958128631,
              26.634265471862488
            ],
            [
              84.52996869680779,
              26.633243017926887
            ],
            [
              84.52971637441753,
              26.631847309771466
            ],
            [
              84.52894975664566,
              26.630773932612236
            ],
            [
              84.52818425278471,
              26.629560791839385
            ],
            [
              84.52761674659554,
              26.628768180337804
            ],
            [
              84.52721488884646,
              26.62807959017128
            ],
            [
              84.52105290683315,
              26.628372292110214
            ],
            [
              84.52055215714768,
              26.627130181806326
            ],
            [
              84.51989705443852,
              26.625875690219104
            ],
            [
              84.51996525633152,
              26.62462086604711
            ],
            [
              84.52052782807482,
              26.623947260163288
            ],
            [
              84.52109039263162,
              26.62327365111267
            ],
            [
              84.5218160966339,
              26.62230568389855
            ],
            [
              84.5220597987907,
              26.621385888612743
            ],
            [
              84.52182309181502,
              26.62010434609946
            ],
            [
              84.52102629334452,
              26.618302277892248
            ],
            [
              84.52005354455429,
              26.61610220099948
            ],
            [
              84.51997427990857,
              26.615656547600377
            ],
            [
              84.52027460377602,
              26.61469218538747
            ],
            [
              84.52209864823178,
              26.611285567167123
            ],
            [
              84.52246872987433,
              26.609938143684047
            ],
            [
              84.52288734479671,
              26.60882564718421
            ],
            [
              84.52408273025037,
              26.607947310261604
            ],
            [
              84.52541767796653,
              26.60691614570646
            ],
            [
              84.52612134988816,
              26.60617606239663
            ],
            [
              84.52615529542611,
              26.605688025212142
            ],
            [
              84.52606248059264,
              26.60448278677736
            ],
            [
              84.52612350135327,
              26.603809723288872
            ],
            [
              84.52578766259103,
              26.60054529063878
            ],
            [
              84.52550916059843,
              26.600219258083445
            ],
            [
              84.52435488923874,
              26.59888262509803
            ],
            [
              84.52344659187517,
              26.59875102695737
            ],
            [
              84.52269072603892,
              26.59907236314228
            ],
            [
              84.52237415883448,
              26.59957398073799
            ],
            [
              84.52218761378425,
              26.60087032465802
            ],
            [
              84.52177748075478,
              26.602213977028455
            ],
            [
              84.52095709342326,
              26.602486099352838
            ],
            [
              84.51921390632621,
              26.60259680481128
            ],
            [
              84.51849255915306,
              26.602302028037982
            ],
            [
              84.51765488643882,
              26.600786654149445
            ],
            [
              84.5152301349593,
              26.59790458915001
            ],
            [
              84.51456598621523,
              26.597466094899946
            ],
            [
              84.51388227485924,
              26.597264372891658
            ],
            [
              84.51366379470068,
              26.597199912734162
            ],
            [
              84.51221831378037,
              26.598013298958033
            ],
            [
              84.50944368017579,
              26.600446480628
            ],
            [
              84.50712590367357,
              26.601706566133107
            ],
            [
              84.50545887933959,
              26.602286615120196
            ],
            [
              84.50513176142212,
              26.60240043403525
            ],
            [
              84.50357229686868,
              26.602419404378896
            ],
            [
              84.50136250774507,
              26.60212578297848
            ],
            [
              84.50000047043318,
              26.60168981818257
            ],
            [
              84.49965544729548,
              26.6015211031872
            ],
            [
              84.49909962010332,
              26.60130608132897
            ],
            [
              84.49844419669563,
              26.600968693331914
            ],
            [
              84.49783900977354,
              26.60096549569069
            ],
            [
              84.4961714473487,
              26.6007376669371
            ],
            [
              84.49367775376439,
              26.601853321641705
            ],
            [
              84.49070186789177,
              26.603213093332215
            ],
            [
              84.48572424181701,
              26.60429829378118
            ],
            [
              84.4856265572164,
              26.605780992294612
            ],
            [
              84.48547806929318,
              26.607750078828616
            ],
            [
              84.4853078771744,
              26.61048129719099
            ],
            [
              84.4852391282074,
              26.611558431707426
            ],
            [
              84.48464868892734,
              26.61330763920283
            ],
            [
              84.48409276202219,
              26.615084525399233
            ],
            [
              84.47989947119166,
              26.615628399760418
            ],
            [
              84.47788723956536,
              26.615827341907707
            ],
            [
              84.47553161973516,
              26.61611942068005
            ],
            [
              84.47372292299602,
              26.61642117707089
            ],
            [
              84.47306194710157,
              26.61703207369212
            ],
            [
              84.47210054762661,
              26.617836149019197
            ],
            [
              84.46991280765165,
              26.619620039300557
            ],
            [
              84.46842026129865,
              26.620834238856222
            ],
            [
              84.4674711750313,
              26.621304619071623
            ],
            [
              84.46564735425606,
              26.62228729024972
            ],
            [
              84.46526487316767,
              26.621648809400895
            ],
            [
              84.46347569412467,
              26.622880222131215
            ],
            [
              84.46097675797239,
              26.621473030228962
            ],
            [
              84.46020659544837,
              26.621341964021845
            ],
            [
              84.45947650856583,
              26.621441715663227
            ],
            [
              84.45865440275716,
              26.62161652235272
            ],
            [
              84.45768115809688,
              26.621815690185276
            ],
            [
              84.45723361832066,
              26.622303990211737
            ],
            [
              84.45701228062116,
              26.622778288191185
            ],
            [
              84.45642667427734,
              26.62360701659992
            ],
            [
              84.45583294357007,
              26.624575465872358
            ],
            [
              84.45530651644054,
              26.62522477402877
            ],
            [
              84.45530413770166,
              26.625558609232563
            ],
            [
              84.45549998301,
              26.62600878776172
            ],
            [
              84.45625139589741,
              26.62812025024515
            ],
            [
              84.45672074317548,
              26.629595000690216
            ],
            [
              84.45708129638778,
              26.63099561627849
            ],
            [
              84.45443739640316,
              26.62887734985364
            ],
            [
              84.45264471393057,
              26.6275413103965
            ],
            [
              84.45107066612681,
              26.626308430124134
            ],
            [
              84.44948099662025,
              26.625102324900773
            ],
            [
              84.44802041861327,
              26.623736095834513
            ],
            [
              84.44673660659633,
              26.62254898909512
            ],
            [
              84.44516660570292,
              26.621140162051628
            ],
            [
              84.443724191631,
              26.619864456072342
            ],
            [
              84.44225270897479,
              26.61854309476496
            ],
            [
              84.44165641717066,
              26.618045089203786
            ],
            [
              84.44091623322433,
              26.61724671020859
            ],
            [
              84.44022051408791,
              26.616480711323174
            ],
            [
              84.4394908871428,
              26.615659956855232
            ],
            [
              84.43887827294995,
              26.614994709318886
            ],
            [
              84.4376299893025,
              26.613573554191966
            ],
            [
              84.43690110256917,
              26.612721219352853
            ],
            [
              84.43618887509277,
              26.612022583121767
            ],
            [
              84.43550857194496,
              26.611243306042418
            ],
            [
              84.43471658934271,
              26.610520665620246
            ],
            [
              84.43393706637346,
              26.60968996214403
            ],
            [
              84.43273814515086,
              26.608535858902954
            ],
            [
              84.43129473933885,
              26.60709308617047
            ],
            [
              84.42995703109982,
              26.605638673842616
            ],
            [
              84.42913090982184,
              26.604874782704382
            ],
            [
              84.4280942863233,
              26.604098057697097
            ],
            [
              84.42758887078824,
              26.60335800434721
            ],
            [
              84.42648973981733,
              26.60201165133827
            ],
            [
              84.42557363339898,
              26.600785907951654
            ],
            [
              84.42430293858183,
              26.599034884810944
            ],
            [
              84.42365841263683,
              26.59823364769817
            ],
            [
              84.42259053405465,
              26.597736051713692
            ],
            [
              84.42037621562537,
              26.596888304323205
            ],
            [
              84.4202887313948,
              26.59474812739454
            ],
            [
              84.42024207469557,
              26.5936960317789
            ],
            [
              84.41986742601813,
              26.592723712652184
            ],
            [
              84.41915240657782,
              26.591041379654737
            ],
            [
              84.41803379923321,
              26.588336567277036
            ],
            [
              84.4176646581268,
              26.58756737520299
            ],
            [
              84.41700686406506,
              26.586914761256228
            ],
            [
              84.41659993891943,
              26.58648777674725
            ],
            [
              84.41595482098467,
              26.585271414734432
            ],
            [
              84.41485326276582,
              26.584053433913365
            ],
            [
              84.41405841633446,
              26.583174580675223
            ],
            [
              84.414035096968,
              26.583148796334665
            ],
            [
              84.41397175226572,
              26.583078755380697
            ],
            [
              84.41314381818748,
              26.582183907849206
            ],
            [
              84.40834452925618,
              26.586403804918646
            ],
            [
              84.40812163208139,
              26.586599791841383
            ],
            [
              84.40824030492031,
              26.58691828061977
            ],
            [
              84.40848901608315,
              26.587585759975674
            ],
            [
              84.40855700597373,
              26.58776822422603
            ],
            [
              84.4090018085833,
              26.588961944932855
            ],
            [
              84.40969521725278,
              26.590928168782387
            ],
            [
              84.41087609491458,
              26.59308824613673
            ],
            [
              84.4122854833234,
              26.595577319189903
            ],
            [
              84.41311336979092,
              26.597370017299326
            ],
            [
              84.41399728508104,
              26.59868097064946
            ],
            [
              84.41506065501885,
              26.600270398175578
            ],
            [
              84.41593853542686,
              26.601405271324882
            ],
            [
              84.41651501309077,
              26.60210604631655
            ],
            [
              84.41720785043174,
              26.602989403183717
            ],
            [
              84.41778434336703,
              26.603690173291223
            ],
            [
              84.41856121900113,
              26.604408113964357
            ],
            [
              84.42155452141051,
              26.606781474183233
            ],
            [
              84.4228463463998,
              26.607815531391687
            ],
            [
              84.42294422144325,
              26.60815117718811
            ],
            [
              84.42336803401787,
              26.60894842135963
            ],
            [
              84.4238438078435,
              26.609890981964277
            ],
            [
              84.42433534710234,
              26.610802244628395
            ],
            [
              84.42509684717206,
              26.612210180671074
            ],
            [
              84.42913655932664,
              26.609558141911005
            ],
            [
              84.4299823510144,
              26.61056602800597
            ],
            [
              84.43074447720991,
              26.61150020804531
            ],
            [
              84.4324601093839,
              26.61356602317509
            ],
            [
              84.42898894097266,
              26.615930655381888
            ],
            [
              84.42807677007356,
              26.616541297626807
            ],
            [
              84.42703211114484,
              26.617239773736046
            ],
            [
              84.42657473661285,
              26.617714258970516
            ],
            [
              84.426442424653,
              26.61801866622019
            ],
            [
              84.42633715377978,
              26.61868450732195
            ],
            [
              84.42632256603787,
              26.61955953092248
            ],
            [
              84.42625288461963,
              26.620429045863197
            ],
            [
              84.42620350961833,
              26.6210643163686
            ],
            [
              84.4260373401554,
              26.62220730225647
            ],
            [
              84.42612347062484,
              26.623291692858597
            ],
            [
              84.42625516903537,
              26.62435886116066
            ],
            [
              84.42646527240392,
              26.625287581766152
            ],
            [
              84.42683736717103,
              26.626156071005685
            ],
            [
              84.42703713721886,
              26.627098141234367
            ],
            [
              84.42697098797626,
              26.6278098069666
            ],
            [
              84.42685219566143,
              26.628854392038388
            ],
            [
              84.42676516328343,
              26.629601774202065
            ],
            [
              84.42682072318546,
              26.630482578668616
            ],
            [
              84.42708876609318,
              26.631290531078015
            ],
            [
              84.42749738815635,
              26.63232210535579
            ],
            [
              84.42785115369838,
              26.633113559172447
            ],
            [
              84.42838214786283,
              26.634061620989964
            ],
            [
              84.42900486181442,
              26.63517376591493
            ],
            [
              84.42827768816834,
              26.635157326394914
            ],
            [
              84.42400708922278,
              26.635060703917343
            ],
            [
              84.41598862728374,
              26.634879040205092
            ],
            [
              84.41527787484107,
              26.63488693838897
            ],
            [
              84.41506465162354,
              26.634889308004624
            ],
            [
              84.41434936987518,
              26.63588693029936
            ],
            [
              84.41367838764675,
              26.636700372168576
            ],
            [
              84.413267604237,
              26.63732905378706
            ],
            [
              84.41293840492305,
              26.63834723070512
            ],
            [
              84.41228666281135,
              26.63986484885657
            ],
            [
              84.41194032094683,
              26.640751869296455
            ],
            [
              84.41132432369865,
              26.642464136668533
            ],
            [
              84.41074710043304,
              26.644014685812127
            ],
            [
              84.41028393625908,
              26.645404886659474
            ],
            [
              84.4099541422604,
              26.646224525028835
            ],
            [
              84.40978173040455,
              26.64674474537402
            ],
            [
              84.40973335971975,
              26.64733039007278
            ],
            [
              84.41037815965089,
              26.64834826425929
            ],
            [
              84.41114419980607,
              26.649778915374537
            ],
            [
              84.41122141000473,
              26.650362338199965
            ],
            [
              84.41084425592597,
              26.651722524388173
            ],
            [
              84.41072275788547,
              26.653100904023294
            ],
            [
              84.4107778722231,
              26.654662973306348
            ],
            [
              84.41071579324706,
              26.65583626905861
            ],
            [
              84.41071527581747,
              26.655846038015937
            ],
            [
              84.41081879587419,
              26.65580430879445
            ],
            [
              84.41338271974739,
              26.654770733963637
            ],
            [
              84.41585555175588,
              26.654446003345466
            ],
            [
              84.41788519812229,
              26.653623438177853
            ],
            [
              84.42448592360859,
              26.651587760340593
            ],
            [
              84.42995422566118,
              26.64964755085044
            ],
            [
              84.43380042902548,
              26.648008222629823
            ],
            [
              84.43645794567321,
              26.650930554009495
            ],
            [
              84.43866328993279,
              26.65310025611585
            ],
            [
              84.43999773189744,
              26.65472073822734
            ],
            [
              84.44100676094708,
              26.657179375634424
            ],
            [
              84.4426144066408,
              26.660514013896567
            ],
            [
              84.44414891330068,
              26.663786950687086
            ],
            [
              84.44550143835205,
              26.665916960322424
            ],
            [
              84.44368677320615,
              26.666797529640334
            ],
            [
              84.44123612958522,
              26.667759844076116
            ],
            [
              84.43940736358432,
              26.666217229299864
            ],
            [
              84.43615254812102,
              26.668541452165226
            ],
            [
              84.43483633027851,
              26.669471561052696
            ],
            [
              84.43484749543917,
              26.669790180185238
            ],
            [
              84.43621731485635,
              26.67038911476463
            ],
            [
              84.43808571362929,
              26.67103786222073
            ],
            [
              84.4399608309022,
              26.671877553271585
            ],
            [
              84.44064887573116,
              26.67530195692375
            ],
            [
              84.43899827529549,
              26.676815497332676
            ],
            [
              84.43961255586318,
              26.678137406113795
            ],
            [
              84.44032020372826,
              26.68009444075521
            ],
            [
              84.44073290773608,
              26.681740889928204
            ],
            [
              84.44107025566797,
              26.68326197081944
            ],
            [
              84.44091336400531,
              26.68486070411368
            ],
            [
              84.44012042829054,
              26.68654137977774
            ],
            [
              84.43848521509737,
              26.688500886667473
            ],
            [
              84.4367036861074,
              26.69033701278059
            ],
            [
              84.43793468077887,
              26.693044491823247
            ],
            [
              84.43834292465132,
              26.694563463608294
            ],
            [
              84.43996086773315,
              26.69413498808313
            ],
            [
              84.44108686372098,
              26.693848015803578
            ],
            [
              84.4414669427143,
              26.693550268237765
            ],
            [
              84.4418469597239,
              26.69325256483826
            ],
            [
              84.44205294970676,
              26.69305530014288
            ],
            [
              84.4435037531451,
              26.68988929587588
            ],
            [
              84.4442123433429,
              26.68782840973176
            ],
            [
              84.44575183475432,
              26.68517003310866
            ],
            [
              84.44646036117173,
              26.683109128257346
            ],
            [
              84.44682548411392,
              26.68137679495707
            ],
            [
              84.44735070660268,
              26.68117059534655
            ],
            [
              84.44787587519251,
              26.680964412219
            ],
            [
              84.44754965109875,
              26.679761960176695
            ],
            [
              84.45015132757008,
              26.679050367828363
            ],
            [
              84.4509389991573,
              26.681260085678186
            ],
            [
              84.45184831880367,
              26.68289250295347
            ],
            [
              84.45244258670347,
              26.68364090307363
            ],
            [
              84.45311234362984,
              26.684514749100035
            ],
            [
              84.45412996955672,
              26.685187369190846
            ],
            [
              84.45565071672144,
              26.68603702822458
            ],
            [
              84.45781670039852,
              26.687059579116266
            ],
            [
              84.45981377564938,
              26.687321725845774
            ],
            [
              84.46130997904386,
              26.68747050713394
            ],
            [
              84.46322503361769,
              26.68741601180597
            ],
            [
              84.4657603802851,
              26.686833556196284
            ],
            [
              84.46701669666784,
              26.6862238420331
            ],
            [
              84.46944735187539,
              26.68468778171874
            ],
            [
              84.47145912356427,
              26.683354877177877
            ],
            [
              84.47290124209049,
              26.68197444383371
            ],
            [
              84.47375228083783,
              26.68195016508891
            ],
            [
              84.47425100212737,
              26.68199977806593
            ],
            [
              84.4745481971627,
              26.682373889766506
            ],
            [
              84.47471262030074,
              26.68300697518427
            ],
            [
              84.4747374030228,
              26.68370779302905
            ],
            [
              84.4746214763337,
              26.68444446365369
            ],
            [
              84.47450553616989,
              26.685181212991754
            ],
            [
              84.47489391469813,
              26.686126746695344
            ],
            [
              84.47548157638732,
              26.686684000348187
            ],
            [
              84.47613122272944,
              26.686984298924397
            ],
            [
              84.47781533302013,
              26.68642603382717
            ],
            [
              84.47907169072533,
              26.68581622036604
            ],
            [
              84.47937793179563,
              26.686445154755567
            ],
            [
              84.47921711629176,
              26.687916640350863
            ],
            [
              84.47947266183728,
              26.68912104660432
            ],
            [
              84.48039604281276,
              26.691135486682967
            ],
            [
              84.48146576563624,
              26.69327323519931
            ],
            [
              84.48286982164554,
              26.694827487132475
            ],
            [
              84.48359720370075,
              26.695316872130235
            ],
            [
              84.4845327828995,
              26.695672802274768
            ],
            [
              84.48489652962266,
              26.69591748880701
            ],
            [
              84.48280692430428,
              26.697061433889836
            ],
            [
              84.48063960573069,
              26.69801622828797
            ],
            [
              84.48041335694155,
              26.697640013095388
            ],
            [
              84.47914561488672,
              26.697931408273718
            ],
            [
              84.47676093006551,
              26.698764765045098
            ],
            [
              84.4759142840799,
              26.698916429354146
            ],
            [
              84.47366696693699,
              26.699618318659482
            ],
            [
              84.47141061813221,
              26.700065344882322
            ],
            [
              84.46901919325141,
              26.700707432652454
            ],
            [
              84.4668472124215,
              26.701534665162495
            ],
            [
              84.46311475373848,
              26.702406187940866
            ],
            [
              84.46086505516175,
              26.70304411515671
            ],
            [
              84.45887436603427,
              26.702973227219623
            ],
            [
              84.45833385062613,
              26.703753852383937
            ],
            [
              84.45830111332221,
              26.704838968128687
            ],
            [
              84.45840120989938,
              26.705665219684228
            ],
            [
              84.45879402071523,
              26.706738145177052
            ],
            [
              84.46011580901082,
              26.707976082026768
            ],
            [
              84.46155258076446,
              26.708445388120317
            ],
            [
              84.46255920682067,
              26.708799424348346
            ],
            [
              84.46351280622403,
              26.70966504079401
            ],
            [
              84.46412300844034,
              26.710859441666297
            ],
            [
              84.46416122456917,
              26.711942441868228
            ],
            [
              84.46381883529186,
              26.714311876079186
            ],
            [
              84.46351352218132,
              26.715723572256977
            ],
            [
              84.46263404097544,
              26.716960267182422
            ],
            [
              84.4615326058258,
              26.7179481840494
            ],
            [
              84.46070378780533,
              26.7186095087879
            ],
            [
              84.45624336675539,
              26.718991374987706
            ],
            [
              84.45398514136998,
              26.71889600705196
            ],
            [
              84.45213726011816,
              26.71885279962328
            ],
            [
              84.44964411091291,
              26.718636543179212
            ],
            [
              84.44716003020046,
              26.718675070305064
            ],
            [
              84.44478227408503,
              26.718710638978983
            ],
            [
              84.44255204020388,
              26.718901314901483
            ],
            [
              84.4407641700063,
              26.719557771610944
            ],
            [
              84.43890425043132,
              26.720184418271078
            ],
            [
              84.43700554968724,
              26.720716378700544
            ],
            [
              84.43583831473967,
              26.7208450592255
            ],
            [
              84.43513665863755,
              26.72108815190878
            ],
            [
              84.43515005970497,
              26.721470349198736
            ],
            [
              84.43570565423347,
              26.72212430533903
            ],
            [
              84.43654045413543,
              26.722642776893178
            ],
            [
              84.43819041497059,
              26.724126582900375
            ],
            [
              84.43940378200125,
              26.72632431161517
            ],
            [
              84.44028569135335,
              26.72818057304828
            ],
            [
              84.44217762419008,
              26.730486650675314
            ],
            [
              84.44339681499876,
              26.732843495093793
            ],
            [
              84.44406259777831,
              26.73461027402181
            ],
            [
              84.44514559231179,
              26.73410126223045
            ],
            [
              84.44866589587417,
              26.732215924893914
            ],
            [
              84.4510711125895,
              26.730936051695824
            ],
            [
              84.45358046830079,
              26.729589342845994
            ],
            [
              84.45605426240495,
              26.728243692375326
            ],
            [
              84.45793727676752,
              26.727265538653054
            ],
            [
              84.46046108906667,
              26.726332793991833
            ],
            [
              84.46205744203897,
              26.72628739417355
            ],
            [
              84.46411492270447,
              26.726228855949767
            ],
            [
              84.46796072991171,
              26.72653395097813
            ],
            [
              84.47137632494625,
              26.726723538657
            ],
            [
              84.47427340431392,
              26.727310601901987
            ],
            [
              84.47591757281215,
              26.727614444795037
            ],
            [
              84.4770168394287,
              26.728571665996952
            ],
            [
              84.47661196873015,
              26.730177545035705
            ],
            [
              84.47640653300783,
              26.73139506339229
            ],
            [
              84.47605125380451,
              26.732393694841733
            ],
            [
              84.47569371443998,
              26.733328548788958
            ],
            [
              84.47538182835649,
              26.734549189614242
            ],
            [
              84.47490261039006,
              26.73606141819226
            ],
            [
              84.47456431473553,
              26.737537884982256
            ],
            [
              84.47497201602557,
              26.73902490069879
            ],
            [
              84.47572780370838,
              26.740310652388075
            ],
            [
              84.47661080631018,
              26.741178277846398
            ],
            [
              84.4775693599223,
              26.742171235055167
            ],
            [
              84.47866650741311,
              26.743064657126
            ],
            [
              84.47920291482545,
              26.743671077070204
            ],
            [
              84.47973933391589,
              26.744277587639594
            ],
            [
              84.48008687862458,
              26.74506481490782
            ],
            [
              84.48060450226434,
              26.74664433422912
            ],
            [
              84.48108333844674,
              26.748129291166762
            ],
            [
              84.48167981979539,
              26.749929707762444
            ],
            [
              84.48171620336102,
              26.750000163760063
            ],
            [
              84.48187684638833,
              26.750311246630154
            ],
            [
              84.48244251642106,
              26.751406548779098
            ],
            [
              84.48299006473958,
              26.752825693951827
            ],
            [
              84.48332133377195,
              26.754155442978934
            ],
            [
              84.48304601630703,
              26.75540685727864
            ],
            [
              84.48289305836698,
              26.757101176880663
            ],
            [
              84.48262337333891,
              26.758511835139192
            ],
            [
              84.48253056928522,
              26.758897143205957
            ],
            [
              84.48243765923033,
              26.75928236173398
            ],
            [
              84.48226764767293,
              26.76049884175642
            ],
            [
              84.48239617143724,
              26.762121272638847
            ],
            [
              84.48246105136035,
              26.762948477384153
            ],
            [
              84.48250899444704,
              26.763297842717705
            ],
            [
              84.48166633698132,
              26.76357698482461
            ],
            [
              84.48102880172586,
              26.763627110853104
            ],
            [
              84.48027072423734,
              26.764286391795558
            ],
            [
              84.48035972123088,
              26.764793994752665
            ],
            [
              84.48087344618229,
              26.765257645280865
            ],
            [
              84.4812441602388,
              26.765693458224582
            ],
            [
              84.48153818511949,
              26.765971960012447
            ],
            [
              84.4821239890927,
              26.76646546484141
            ],
            [
              84.48321788558047,
              26.76726317688216
            ],
            [
              84.48451907999815,
              26.767895641026495
            ],
            [
              84.48574821066543,
              26.768498143628996
            ],
            [
              84.48656543862212,
              26.768506699855944
            ],
            [
              84.48746501693752,
              26.76883171329014
            ],
            [
              84.48786892374376,
              26.769202815094083
            ],
            [
              84.48853711580495,
              26.770012664360806
            ],
            [
              84.48904137520819,
              26.77120985221817
            ],
            [
              84.4895098250693,
              26.771897921043923
            ],
            [
              84.4899783090664,
              26.772586073922675
            ],
            [
              84.49075177110244,
              26.773361074918746
            ],
            [
              84.49123004314285,
              26.77382570261012
            ],
            [
              84.49163736893708,
              26.77429226764883
            ],
            [
              84.4917743916623,
              26.7751492197321
            ],
            [
              84.49205228369881,
              26.77597031304598
            ],
            [
              84.49321544119333,
              26.775713771145433
            ],
            [
              84.494386520032,
              26.775680237319655
            ],
            [
              84.49509063122976,
              26.77550066400733
            ],
            [
              84.49611518406583,
              26.775343824642217
            ],
            [
              84.49668862542408,
              26.775486802297248
            ],
            [
              84.49667246203718,
              26.776029323696292
            ],
            [
              84.49665475893788,
              26.77752842612954
            ],
            [
              84.49687409519092,
              26.778701829204465
            ],
            [
              84.49628437366476,
              26.779101375149526
            ],
            [
              84.49526761820536,
              26.779481233769864
            ],
            [
              84.49367750223612,
              26.779718097319588
            ],
            [
              84.49244552031612,
              26.780040355194433
            ],
            [
              84.49220846299748,
              26.780365953129213
            ],
            [
              84.49216807204735,
              26.78122797905868
            ],
            [
              84.49223518518222,
              26.78211884378003
            ],
            [
              84.49239146419391,
              26.783517292953363
            ],
            [
              84.49252737210988,
              26.784342442876387
            ],
            [
              84.49286378399724,
              26.78481103127246
            ],
            [
              84.49347958271775,
              26.785144131197235
            ],
            [
              84.49393526392544,
              26.784971677951766
            ],
            [
              84.49412444463269,
              26.78429671979036
            ],
            [
              84.49435697264565,
              26.78384366761618
            ],
            [
              84.49496031442813,
              26.783826389867933
            ],
            [
              84.49558898690499,
              26.783521397282026
            ],
            [
              84.49655541874216,
              26.782728506069834
            ],
            [
              84.49783880226272,
              26.782329592796607
            ],
            [
              84.49793520317081,
              26.782299696157846
            ],
            [
              84.49935205657964,
              26.782460618251676
            ],
            [
              84.49982265790585,
              26.78276547896105
            ],
            [
              84.50000004103846,
              26.782648219263653
            ],
            [
              84.50248398161375,
              26.781006136922308
            ],
            [
              84.50292419383221,
              26.780584274305347
            ],
            [
              84.50395442312254,
              26.780666379010977
            ],
            [
              84.50460838497129,
              26.781382831872286
            ],
            [
              84.50517459039992,
              26.7824461856028
            ],
            [
              84.50506870328245,
              26.78326244817453
            ],
            [
              84.5045257848809,
              26.78401766710511
            ],
            [
              84.50475343324528,
              26.78535003737316
            ],
            [
              84.50376086222994,
              26.787194906007727
            ],
            [
              84.5027596072008,
              26.78805147601792
            ],
            [
              84.50279084072491,
              26.788660792896877
            ],
            [
              84.5004830678617,
              26.790918372122817
            ],
            [
              84.50060534204658,
              26.792976738163453
            ],
            [
              84.50083507270577,
              26.79397965408985
            ],
            [
              84.50179993698279,
              26.793316938741807
            ],
            [
              84.50491747370098,
              26.791785579854512
            ]
          ]
        ]
      }
    }
  ]
}