{
  "type": "FeatureCollection",
  "features": [
    {
      "type": "Feature",
      "properties": {
        "object_id": "10-204-01052",
        "stname": "BIHAR",
        "dtname": "Purbi Champaran",
        "sdtname": "Pakri Dayal",
        "st_area_sh": 0.0,
        "st_length_": 0.0,
        "remarks": "",
        "dist_lgd": 213,
        "state_lgd": 10,
        "subdt_lgd": 1052,
        "ac_no": null,
        "st_length(shape)": 90143.40730437863,
        "st_area(shape)": 148110040.62869397
      },
      "geometry": {
        "type": "Polygon",
        "coordinates": [
          [
            [
              85.11447789493944,
              26.62600092831357
            ],
            [
              85.11590212261845,
              26.625758680053416
            ],
            [
              85.11728850876611,
              26.625864054817185
            ],
            [
              85.11729231313134,
              26.62563204277625
            ],
            [
              85.11730324832331,
              26.624964885779104
            ],
            [
              85.11731798518552,
              26.624065716894528
            ],
            [
              85.11705033663819,
              26.62266953125048
            ],
            [
              85.11674068196989,
              26.617936544598678
            ],
            [
              85.11907609419777,
              26.617242199132292
            ],
            [
              85.12254428020228,
              26.616359591625393
            ],
            [
              85.12530146043922,
              26.61552556708405
            ],
            [
              85.12562045219659,
              26.61576192364551
            ],
            [
              85.12651731220994,
              26.616179918028926
            ],
            [
              85.12731796804628,
              26.616567576390956
            ],
            [
              85.12859462318534,
              26.61745477367136
            ],
            [
              85.12888035571767,
              26.61774863439796
            ],
            [
              85.12946173997966,
              26.617727307868893
            ],
            [
              85.12994907332634,
              26.617530628174034
            ],
            [
              85.13075682765005,
              26.61748320777184
            ],
            [
              85.13126940994441,
              26.61772200735644
            ],
            [
              85.13181705258602,
              26.617787239782402
            ],
            [
              85.13197462157842,
              26.618021462634847
            ],
            [
              85.13229730810659,
              26.6180257006244
            ],
            [
              85.13298537988496,
              26.6173964028299
            ],
            [
              85.13406256681016,
              26.61665622029343
            ],
            [
              85.13533293913213,
              26.61594753536834
            ],
            [
              85.13682119513133,
              26.61573497408941
            ],
            [
              85.13795725764024,
              26.61534367234037
            ],
            [
              85.13871903618767,
              26.6141350131138
            ],
            [
              85.13989257012204,
              26.613425107854994
            ],
            [
              85.14144852585599,
              26.613010202722435
            ],
            [
              85.14230604774471,
              26.612876352760953
            ],
            [
              85.14155001033025,
              26.61235658618585
            ],
            [
              85.14117946066544,
              26.611340963037623
            ],
            [
              85.14100929639444,
              26.610745152229445
            ],
            [
              85.14065330213216,
              26.61022140996066
            ],
            [
              85.14035215091631,
              26.610175991216984
            ],
            [
              85.139709515925,
              26.61019357562183
            ],
            [
              85.13891613913742,
              26.610373444154458
            ],
            [
              85.13830852856071,
              26.61049486093638
            ],
            [
              85.13775137455688,
              26.610404188295902
            ],
            [
              85.13714428679968,
              26.610051627295768
            ],
            [
              85.13685885160972,
              26.609248145384104
            ],
            [
              85.13652407824941,
              26.607654877297136
            ],
            [
              85.13630436470395,
              26.606467845347694
            ],
            [
              85.13632515980447,
              26.605781941667356
            ],
            [
              85.13601932477276,
              26.60537100791291
            ],
            [
              85.13556269674076,
              26.605113434324753
            ],
            [
              85.13475445103862,
              26.60511278132597
            ],
            [
              85.13438297790567,
              26.605112440770657
            ],
            [
              85.13407681768382,
              26.60511226005144
            ],
            [
              85.13371043799856,
              26.604990109858697
            ],
            [
              85.13350481722328,
              26.604750711809135
            ],
            [
              85.13345530927134,
              26.60412793365601
            ],
            [
              85.1334216278381,
              26.602620665892626
            ],
            [
              85.13347281024973,
              26.601663984196946
            ],
            [
              85.13367943444318,
              26.60084280371174
            ],
            [
              85.13390067602292,
              26.60053614266804
            ],
            [
              85.1345585715943,
              26.600229802094688
            ],
            [
              85.13488002563388,
              26.600049593105734
            ],
            [
              85.13503100368705,
              26.5997292227432
            ],
            [
              85.13498113461235,
              26.599350105155747
            ],
            [
              85.13476057934548,
              26.599047616151445
            ],
            [
              85.13415334695952,
              26.59886665186107
            ],
            [
              85.13327530126146,
              26.598468757214594
            ],
            [
              85.13250280491434,
              26.597876930938327
            ],
            [
              85.1322316448526,
              26.59759572495112
            ],
            [
              85.1315099140988,
              26.596847249990585
            ],
            [
              85.13056721305651,
              26.595876186626572
            ],
            [
              85.12930314780613,
              26.595071880604845
            ],
            [
              85.12700550793933,
              26.59374765273576
            ],
            [
              85.12586188520899,
              26.592956859021992
            ],
            [
              85.1252405465781,
              26.591963562959496
            ],
            [
              85.12512084965975,
              26.59121885315416
            ],
            [
              85.12478524535783,
              26.590568710888654
            ],
            [
              85.12402786675862,
              26.590021986151452
            ],
            [
              85.12305944784805,
              26.589705201784188
            ],
            [
              85.12236766962079,
              26.588932913309673
            ],
            [
              85.12159547510763,
              26.588155982084338
            ],
            [
              85.12073841315629,
              26.587031521967575
            ],
            [
              85.12015683395988,
              26.58645786806637
            ],
            [
              85.11919420019973,
              26.585536429281017
            ],
            [
              85.11823178023863,
              26.58436672090499
            ],
            [
              85.11760043796873,
              26.583449997012924
            ],
            [
              85.11733051039552,
              26.582465978353294
            ],
            [
              85.11734204835705,
              26.58122947665825
            ],
            [
              85.11747402165206,
              26.579893805277656
            ],
            [
              85.11741507779637,
              26.578837835813633
            ],
            [
              85.11708429295595,
              26.578386174970078
            ],
            [
              85.11667832810939,
              26.57794810324674
            ],
            [
              85.11622683844082,
              26.577672360354416
            ],
            [
              85.1156901786019,
              26.577360473033227
            ],
            [
              85.11507358397402,
              26.576741657614335
            ],
            [
              85.11488360196954,
              26.576172860130065
            ],
            [
              85.11462337709972,
              26.575509279044446
            ],
            [
              85.11412712527888,
              26.5749762439738
            ],
            [
              85.11313950577741,
              26.574063767278428
            ],
            [
              85.11247279863144,
              26.573381611778437
            ],
            [
              85.11223736277189,
              26.572984337971608
            ],
            [
              85.11224825304808,
              26.572338956111604
            ],
            [
              85.11254484531386,
              26.571924131791626
            ],
            [
              85.11322285236781,
              26.571505046171218
            ],
            [
              85.11367503104417,
              26.571121854090876
            ],
            [
              85.11402208167945,
              26.570436325907302
            ],
            [
              85.11414312786735,
              26.569903927661453
            ],
            [
              85.11429501142233,
              26.568766809112535
            ],
            [
              85.11450645867056,
              26.56822547832672
            ],
            [
              85.11495865261827,
              26.567774648997013
            ],
            [
              85.11554124241935,
              26.567441204388306
            ],
            [
              85.11624414178982,
              26.567135020312215
            ],
            [
              85.11699737376568,
              26.566747596224182
            ],
            [
              85.11835417839104,
              26.56521453560987
            ],
            [
              85.11872584376343,
              26.564944100376756
            ],
            [
              85.11916290918346,
              26.564484181205223
            ],
            [
              85.11930869766924,
              26.56430385006532
            ],
            [
              85.11937925224993,
              26.56402411475709
            ],
            [
              85.1193796367289,
              26.56371722894453
            ],
            [
              85.11924941425036,
              26.563459882224663
            ],
            [
              85.1187381497845,
              26.562926888314298
            ],
            [
              85.11904955886257,
              26.562651887048183
            ],
            [
              85.11978769375176,
              26.56226898836534
            ],
            [
              85.12070119864902,
              26.56213900977601
            ],
            [
              85.12239252869963,
              26.561937396675418
            ],
            [
              85.12384306174512,
              26.561740144622725
            ],
            [
              85.12522320100828,
              26.561624042711372
            ],
            [
              85.12576772559754,
              26.56157760512792
            ],
            [
              85.12760174943777,
              26.561779542672177
            ],
            [
              85.1283043209232,
              26.561780094677058
            ],
            [
              85.12924265794983,
              26.561780930317614
            ],
            [
              85.13058775303547,
              26.561610625036618
            ],
            [
              85.13183604386944,
              26.561596942204694
            ],
            [
              85.13193771339668,
              26.561575597979978
            ],
            [
              85.1318380929266,
              26.56086702113669
            ],
            [
              85.13155774579442,
              26.560162801375327
            ],
            [
              85.13140276125509,
              26.55962562429585
            ],
            [
              85.13128326825428,
              26.558732006143757
            ],
            [
              85.13119885356704,
              26.557842942654204
            ],
            [
              85.13111922779858,
              26.557211002983376
            ],
            [
              85.13060794626473,
              26.55665549867207
            ],
            [
              85.13022716928042,
              26.556113662300266
            ],
            [
              85.13021789597175,
              26.555323907254166
            ],
            [
              85.13031386479015,
              26.554755410041484
            ],
            [
              85.13056502116719,
              26.554489348771206
            ],
            [
              85.13144318634119,
              26.554458461044852
            ],
            [
              85.13223100255716,
              26.55449070918416
            ],
            [
              85.13282329775657,
              26.55435130574513
            ],
            [
              85.1332148778805,
              26.55413953005848
            ],
            [
              85.133431038589,
              26.553787747993194
            ],
            [
              85.13335192306363,
              26.55256016009324
            ],
            [
              85.13326760000452,
              26.55167109132755
            ],
            [
              85.13345869232671,
              26.551233540234403
            ],
            [
              85.13387538036281,
              26.55105332887333
            ],
            [
              85.13451767938425,
              26.55102224093443
            ],
            [
              85.13516008440683,
              26.550905478877517
            ],
            [
              85.13561188040092,
              26.550657583209734
            ],
            [
              85.13589831631407,
              26.55024266674707
            ],
            [
              85.13613489662728,
              26.549534376644317
            ],
            [
              85.1366621025962,
              26.549178275624165
            ],
            [
              85.13758060302474,
              26.548899143865157
            ],
            [
              85.13834347841518,
              26.548642598007095
            ],
            [
              85.13884046415957,
              26.54839928114946
            ],
            [
              85.13886573376853,
              26.548227760238117
            ],
            [
              85.13866529537411,
              26.54799297429192
            ],
            [
              85.1376772365965,
              26.54756346123789
            ],
            [
              85.13588166244702,
              26.546826497219474
            ],
            [
              85.13472809626481,
              26.546265932893917
            ],
            [
              85.13403620395151,
              26.545764482815855
            ],
            [
              85.13338510593191,
              26.544590605032443
            ],
            [
              85.1331499674147,
              26.54395860276659
            ],
            [
              85.13303019324124,
              26.543272576201115
            ],
            [
              85.13232893419448,
              26.542130240632726
            ],
            [
              85.13144204997235,
              26.5410193829554
            ],
            [
              85.12962252494079,
              26.53927589737565
            ],
            [
              85.128614615192,
              26.53871990113259
            ],
            [
              85.12754134312482,
              26.538353481234335
            ],
            [
              85.1263524515924,
              26.538158405118967
            ],
            [
              85.12547442565729,
              26.538162118056256
            ],
            [
              85.1241094670241,
              26.538427175658565
            ],
            [
              85.12311071739626,
              26.53866100714724
            ],
            [
              85.12174052966981,
              26.53909304408009
            ],
            [
              85.12094253913493,
              26.539317902978013
            ],
            [
              85.11778090232279,
              26.540019016065386
            ],
            [
              85.11713547896083,
              26.5383757756953
            ],
            [
              85.11686575710182,
              26.537328496328634
            ],
            [
              85.11648490735398,
              26.536949127201037
            ],
            [
              85.11624920828805,
              26.536863153278915
            ],
            [
              85.11592799320033,
              26.536939532933733
            ],
            [
              85.11540110074348,
              26.537065421262202
            ],
            [
              85.11458301669232,
              26.53729927802916
            ],
            [
              85.1140961405881,
              26.537483849217253
            ],
            [
              85.113629465798,
              26.537555589673904
            ],
            [
              85.11326321636847,
              26.537532674619957
            ],
            [
              85.11272658078406,
              26.537333586786367
            ],
            [
              85.11254156107317,
              26.53680997086628
            ],
            [
              85.1122561779855,
              26.53628622637889
            ],
            [
              85.11182516810881,
              26.53595633327186
            ],
            [
              85.11112290474556,
              26.53586092177
            ],
            [
              85.11028489785805,
              26.53594578495148
            ],
            [
              85.1097734222881,
              26.535751293841916
            ],
            [
              85.10919720603394,
              26.535123392314404
            ],
            [
              85.10907243543086,
              26.53456366610891
            ],
            [
              85.10912429786715,
              26.533196326751753
            ],
            [
              85.10994975529015,
              26.530954317843783
            ],
            [
              85.11016111180854,
              26.53042199263429
            ],
            [
              85.11062333275146,
              26.529885435759827
            ],
            [
              85.11079900189851,
              26.529799830277195
            ],
            [
              85.11133604082649,
              26.529664974848952
            ],
            [
              85.11190304575574,
              26.52959336930731
            ],
            [
              85.11229450730205,
              26.529458295022728
            ],
            [
              85.11273122597238,
              26.529192547196086
            ],
            [
              85.11301277325377,
              26.528696389010534
            ],
            [
              85.11328414891122,
              26.52833104465031
            ],
            [
              85.11360544125407,
              26.528173413638257
            ],
            [
              85.11420273737467,
              26.527871681897047
            ],
            [
              85.11752488606007,
              26.52700829912417
            ],
            [
              85.11935144490032,
              26.526549684188378
            ],
            [
              85.12095734876071,
              26.52610893720603
            ],
            [
              85.12182540339617,
              26.525951716270615
            ],
            [
              85.12222644008507,
              26.52625900937891
            ],
            [
              85.12263188840036,
              26.52708514427603
            ],
            [
              85.12311785720613,
              26.52768135735209
            ],
            [
              85.12356420401966,
              26.52774036708508
            ],
            [
              85.12444243566898,
              26.527470350631344
            ],
            [
              85.12491446172325,
              26.527069156206334
            ],
            [
              85.12552220525059,
              26.52640181305876
            ],
            [
              85.12609029085311,
              26.525368883172963
            ],
            [
              85.12646703709676,
              26.524868290998548
            ],
            [
              85.12696895908367,
              26.524647572088885
            ],
            [
              85.12753582836731,
              26.52463903936484
            ],
            [
              85.12807747295774,
              26.52474782672636
            ],
            [
              85.12890011955221,
              26.52487933786402
            ],
            [
              85.12981813309389,
              26.524880181007326
            ],
            [
              85.13037002925836,
              26.524858048695034
            ],
            [
              85.13072142055312,
              26.5246462073032
            ],
            [
              85.13087239501303,
              26.524163491711164
            ],
            [
              85.13066764111201,
              26.523224698634884
            ],
            [
              85.13058830010948,
              26.52234906028783
            ],
            [
              85.13062905667391,
              26.52174895091831
            ],
            [
              85.13084517156832,
              26.521374524197306
            ],
            [
              85.13138732191028,
              26.520995944699095
            ],
            [
              85.13193953697669,
              26.520671417941593
            ],
            [
              85.13298350689762,
              26.520085624996597
            ],
            [
              85.13443890611698,
              26.51951826333614
            ],
            [
              85.13643618708203,
              26.51872560379354
            ],
            [
              85.1373996445973,
              26.518433021037406
            ],
            [
              85.1388547536608,
              26.518046077875276
            ],
            [
              85.14121821578344,
              26.51720397369173
            ],
            [
              85.14323034230686,
              26.516564686711835
            ],
            [
              85.14481087504866,
              26.516209361940145
            ],
            [
              85.14617545099955,
              26.516029794086155
            ],
            [
              85.1475651348626,
              26.51579610779839
            ],
            [
              85.14903516943458,
              26.515463237110083
            ],
            [
              85.14888297775745,
              26.511735589253835
            ],
            [
              85.14818343628951,
              26.503011753335336
            ],
            [
              85.14816448183703,
              26.501734558150183
            ],
            [
              85.14803945341747,
              26.5012877620627
            ],
            [
              85.1478543869942,
              26.50070996822418
            ],
            [
              85.14756816218512,
              26.500342496053886
            ],
            [
              85.14735847473655,
              26.500073285836898
            ],
            [
              85.14731152069496,
              26.50000009980001
            ],
            [
              85.14693264903737,
              26.499409545021816
            ],
            [
              85.14642152021712,
              26.498944429344846
            ],
            [
              85.14633156292457,
              26.498565217977745
            ],
            [
              85.14633178570675,
              26.498366717785753
            ],
            [
              85.14651250518236,
              26.498150228957083
            ],
            [
              85.14695407116194,
              26.497902342344048
            ],
            [
              85.14781719674143,
              26.497374919964408
            ],
            [
              85.14778278587615,
              26.496688919702088
            ],
            [
              85.14750768221032,
              26.495795226259112
            ],
            [
              85.14699758914757,
              26.49415669693701
            ],
            [
              85.14659210400137,
              26.49324032200933
            ],
            [
              85.14604148793616,
              26.49206654790365
            ],
            [
              85.14543577460135,
              26.49082510304051
            ],
            [
              85.14498022903929,
              26.4899673319089
            ],
            [
              85.1446296462283,
              26.489470611914196
            ],
            [
              85.14433886696074,
              26.489303392837293
            ],
            [
              85.14376717911392,
              26.489262366712104
            ],
            [
              85.1429947878697,
              26.489361090851215
            ],
            [
              85.14145468919713,
              26.489842816640657
            ],
            [
              85.13996475783992,
              26.49028846327801
            ],
            [
              85.1381986259739,
              26.491153492089552
            ],
            [
              85.13742606943968,
              26.491369522152226
            ],
            [
              85.13680415319206,
              26.491351007786516
            ],
            [
              85.13654359594561,
              26.491089011664968
            ],
            [
              85.13650390478308,
              26.490727930266882
            ],
            [
              85.13650422637996,
              26.490362404023344
            ],
            [
              85.13663497167796,
              26.489947324282838
            ],
            [
              85.13663537322489,
              26.48958630522746
            ],
            [
              85.13656044205212,
              26.48923880122588
            ],
            [
              85.13639522480338,
              26.488972386274078
            ],
            [
              85.13595925442968,
              26.488674184077833
            ],
            [
              85.13522231160488,
              26.48837573186364
            ],
            [
              85.13373311596793,
              26.488094774274767
            ],
            [
              85.13265015377378,
              26.48778695373986
            ],
            [
              85.13255807106728,
              26.489555983743173
            ],
            [
              85.13283258813325,
              26.49086493065235
            ],
            [
              85.13303209317806,
              26.49193008521127
            ],
            [
              85.1334923504038,
              26.49309030236633
            ],
            [
              85.1339678017342,
              26.49413315014148
            ],
            [
              85.13416763825737,
              26.4948779583211
            ],
            [
              85.13416698608047,
              26.495523239752277
            ],
            [
              85.13402112842442,
              26.495951879074493
            ],
            [
              85.13321257460011,
              26.496943985031212
            ],
            [
              85.13196255720416,
              26.498134421766707
            ],
            [
              85.13069293677208,
              26.4988463300592
            ],
            [
              85.1298649173539,
              26.49922471565767
            ],
            [
              85.12892688575442,
              26.499404437607748
            ],
            [
              85.12769803176825,
              26.4993627976635
            ],
            [
              85.12669009507002,
              26.499194928923302
            ],
            [
              85.12587794169639,
              26.498896413982497
            ],
            [
              85.12511106071811,
              26.498417334933162
            ],
            [
              85.12395354284698,
              26.497405446805754
            ],
            [
              85.1228511357202,
              26.496547076786925
            ],
            [
              85.12226475592692,
              26.496117843145797
            ],
            [
              85.12185882162306,
              26.495869230995236
            ],
            [
              85.1213424448449,
              26.49570180817556
            ],
            [
              85.12080583082005,
              26.4956155637861
            ],
            [
              85.12080679740728,
              26.494753654187996
            ],
            [
              85.12078766059679,
              26.493986447257775
            ],
            [
              85.12091929971852,
              26.492880910809337
            ],
            [
              85.12117613344816,
              26.491937929738153
            ],
            [
              85.12158364339703,
              26.490737875722573
            ],
            [
              85.12244796643078,
              26.48918625202338
            ],
            [
              85.12291027361198,
              26.488360769956486
            ],
            [
              85.12309140271934,
              26.487878073135814
            ],
            [
              85.12305688136128,
              26.48736810831257
            ],
            [
              85.12291172528946,
              26.487083632266547
            ],
            [
              85.12265625610077,
              26.48683524982575
            ],
            [
              85.12180894087025,
              26.486613321746663
            ],
            [
              85.12047014387309,
              26.486431580179485
            ],
            [
              85.11925641482136,
              26.486480116934384
            ],
            [
              85.11743567526753,
              26.48672664927437
            ],
            [
              85.11543412281331,
              26.487261855205595
            ],
            [
              85.11392905394527,
              26.487756794192837
            ],
            [
              85.11304566327127,
              26.488333647323973
            ],
            [
              85.11227248959443,
              26.489077507362808
            ],
            [
              85.11197581288702,
              26.489754175136834
            ],
            [
              85.1117740333079,
              26.49065650788016
            ],
            [
              85.11186306982727,
              26.49173062806683
            ],
            [
              85.11233767135145,
              26.493256404834124
            ],
            [
              85.11299814868096,
              26.49457034488157
            ],
            [
              85.1133433407019,
              26.495346868290017
            ],
            [
              85.11338261863939,
              26.4960237837636
            ],
            [
              85.1132864692596,
              26.49670521911251
            ],
            [
              85.11297509701244,
              26.49708393736159
            ],
            [
              85.11245810758328,
              26.49743090472687
            ],
            [
              85.111469616716,
              26.497759404340158
            ],
            [
              85.11065702406617,
              26.49784437125502
            ],
            [
              85.10898677567863,
              26.497964597639886
            ],
            [
              85.10751713906035,
              26.498012742827033
            ],
            [
              85.1062885860098,
              26.497812924813164
            ],
            [
              85.10526102291922,
              26.49734713378658
            ],
            [
              85.10452424807939,
              26.49691758878704
            ],
            [
              85.10388303512113,
              26.496321310060612
            ],
            [
              85.1031674488439,
              26.49502081790375
            ],
            [
              85.10289286889586,
              26.494045783030064
            ],
            [
              85.10265796663559,
              26.493436344347494
            ],
            [
              85.10252818343324,
              26.492971355646723
            ],
            [
              85.10230790933903,
              26.492623607014007
            ],
            [
              85.10179702665718,
              26.492126687047254
            ],
            [
              85.10146669995753,
              26.491580260737017
            ],
            [
              85.10128186170635,
              26.491043080194313
            ],
            [
              85.10093641366554,
              26.490546306155473
            ],
            [
              85.10063104306279,
              26.490117267187124
            ],
            [
              85.10047571896028,
              26.490004283094738
            ],
            [
              85.10021003772343,
              26.489909234609343
            ],
            [
              85.09983895984922,
              26.48987725374594
            ],
            [
              85.09946276606951,
              26.489921986108822
            ],
            [
              85.0990813611628,
              26.490115635866363
            ],
            [
              85.09857938976855,
              26.49046259210572
            ],
            [
              85.09739938976078,
              26.49154892916026
            ],
            [
              85.09625481571457,
              26.49237806335833
            ],
            [
              85.09555197473459,
              26.49290530606329
            ],
            [
              85.09490978440932,
              26.49308060876038
            ],
            [
              85.09442330176722,
              26.49308007893651
            ],
            [
              85.09326987931544,
              26.49301112382426
            ],
            [
              85.09177567287581,
              26.492756754861613
            ],
            [
              85.09055745584092,
              26.49239888419558
            ],
            [
              85.08965981429327,
              26.49232563297282
            ],
            [
              85.08927347134744,
              26.49245610871619
            ],
            [
              85.08896728866767,
              26.492636277009954
            ],
            [
              85.08876104625824,
              26.493078302941104
            ],
            [
              85.08864509621294,
              26.49350689108237
            ],
            [
              85.08881469634196,
              26.494165957914177
            ],
            [
              85.0892345823805,
              26.49517279509876
            ],
            [
              85.08983496690907,
              26.496224961971883
            ],
            [
              85.09018034398298,
              26.496721762119357
            ],
            [
              85.0900142966909,
              26.4971096791495
            ],
            [
              85.08975822024107,
              26.49731698237533
            ],
            [
              85.08902563604202,
              26.497550825239202
            ],
            [
              85.08834819313009,
              26.497802777374552
            ],
            [
              85.08779614784525,
              26.498045842932992
            ],
            [
              85.08719365137748,
              26.498496440611923
            ],
            [
              85.0859742602445,
              26.498932788284378
            ],
            [
              85.08476990601108,
              26.499369143143397
            ],
            [
              85.08410263741803,
              26.499508266073683
            ],
            [
              85.08340007401749,
              26.499773703944417
            ],
            [
              85.0830626102029,
              26.500000018602755
            ],
            [
              85.08292313238199,
              26.500093556998202
            ],
            [
              85.08277945044554,
              26.500341505611118
            ],
            [
              85.08252590544818,
              26.50077904171853
            ],
            [
              85.08204871857265,
              26.50126135395342
            ],
            [
              85.08153680103158,
              26.50148187904544
            ],
            [
              85.08086963574478,
              26.501539755848466
            ],
            [
              85.0799967598512,
              26.50164251316923
            ],
            [
              85.07917893002325,
              26.501831075266736
            ],
            [
              85.07868200266934,
              26.502083197291935
            ],
            [
              85.07822011320475,
              26.502385001620123
            ],
            [
              85.07769231434779,
              26.50315605869034
            ],
            [
              85.0771792784042,
              26.504112158284077
            ],
            [
              85.07677725267015,
              26.504621621146242
            ],
            [
              85.07640572473998,
              26.50486034891168
            ],
            [
              85.07582860298403,
              26.505062722320734
            ],
            [
              85.07502086842327,
              26.505188093328993
            ],
            [
              85.07413298168126,
              26.50524566600013
            ],
            [
              85.07324995841823,
              26.505402522984884
            ],
            [
              85.07257255323552,
              26.505577682015982
            ],
            [
              85.07183961599858,
              26.50598292275544
            ],
            [
              85.07097130174999,
              26.50635188819807
            ],
            [
              85.0696362875585,
              26.50686015379014
            ],
            [
              85.06890331888052,
              26.50727440635033
            ],
            [
              85.06796954439717,
              26.507792192216186
            ],
            [
              85.06689029943169,
              26.508309783622103
            ],
            [
              85.06532449187404,
              26.508826760145883
            ],
            [
              85.06460851033808,
              26.508018015185787
            ],
            [
              85.0631376933335,
              26.5056288088713
            ],
            [
              85.06265785283458,
              26.504594741913234
            ],
            [
              85.06182267474189,
              26.50308635796595
            ],
            [
              85.06146332617035,
              26.50199377819058
            ],
            [
              85.06119010806829,
              26.500377822376525
            ],
            [
              85.06116805622466,
              26.500000090956743
            ],
            [
              85.06107819415355,
              26.498460883782972
            ],
            [
              85.06083030135595,
              26.496532393308588
            ],
            [
              85.05863315512165,
              26.49517414093947
            ],
            [
              85.05747331061393,
              26.494420400135837
            ],
            [
              85.05677478244561,
              26.494216904932845
            ],
            [
              85.0562061264129,
              26.494122242622268
            ],
            [
              85.0558277721849,
              26.494077947647995
            ],
            [
              85.0552501141347,
              26.493757511048912
            ],
            [
              85.05509773021811,
              26.49308424195326
            ],
            [
              85.05499902602966,
              26.492183176054446
            ],
            [
              85.05498326688462,
              26.491788074821528
            ],
            [
              85.05495850392549,
              26.491167199401087
            ],
            [
              85.05457565812108,
              26.491010015055597
            ],
            [
              85.05426224939319,
              26.49102013495401
            ],
            [
              85.05389290796244,
              26.49120161038182
            ],
            [
              85.05390866441249,
              26.49159671202237
            ],
            [
              85.05395593196614,
              26.492782019248306
            ],
            [
              85.05448250282609,
              26.494969130786483
            ],
            [
              85.05453878227866,
              26.49638020486229
            ],
            [
              85.05455454142371,
              26.496775306390294
            ],
            [
              85.0542568729762,
              26.497180526720083
            ],
            [
              85.05363677581703,
              26.49737009464692
            ],
            [
              85.05255312461509,
              26.496952953144373
            ],
            [
              85.05133286481123,
              26.49625763167047
            ],
            [
              85.05080439221777,
              26.495596499388903
            ],
            [
              85.04987058629344,
              26.494213735668627
            ],
            [
              85.04982335557074,
              26.493028430341692
            ],
            [
              85.04979411900152,
              26.49229466821734
            ],
            [
              85.04974464338889,
              26.491052916279322
            ],
            [
              85.04972665103206,
              26.490601369645066
            ],
            [
              85.04958554636218,
              26.49021031112431
            ],
            [
              85.04938850539622,
              26.48999060378466
            ],
            [
              85.04881312906682,
              26.4897265849021
            ],
            [
              85.04779448984031,
              26.489363827693143
            ],
            [
              85.04652063564829,
              26.48889626094124
            ],
            [
              85.0454660593188,
              26.487630392712344
            ],
            [
              85.04510547376712,
              26.486455180010246
            ],
            [
              85.04501583268157,
              26.485779878169136
            ],
            [
              85.04557521810057,
              26.484066363236572
            ],
            [
              85.04557273515712,
              26.48242747297317
            ],
            [
              85.04535099860564,
              26.481586876677163
            ],
            [
              85.04199537420116,
              26.47910104715306
            ],
            [
              85.04102741073642,
              26.47913121459874
            ],
            [
              85.03353523039985,
              26.481224363150787
            ],
            [
              85.03143108405199,
              26.48197021339479
            ],
            [
              85.03027156563267,
              26.482798708296365
            ],
            [
              85.02954406499983,
              26.48344376324385
            ],
            [
              85.0291165432814,
              26.48494845231558
            ],
            [
              85.03095866543396,
              26.48473207329532
            ],
            [
              85.03227463623975,
              26.48458414511745
            ],
            [
              85.03396331895524,
              26.484265692165366
            ],
            [
              85.03595126911941,
              26.484096116905068
            ],
            [
              85.03724668377656,
              26.484212864099064
            ],
            [
              85.03781380728343,
              26.48519845333783
            ],
            [
              85.03784530491222,
              26.485989928296412
            ],
            [
              85.03740395273168,
              26.488170236021112
            ],
            [
              85.03594546869762,
              26.48985491529611
            ],
            [
              85.03433834582343,
              26.49075190629084
            ],
            [
              85.03258251404043,
              26.490861203321664
            ],
            [
              85.02888677309635,
              26.490874372794025
            ],
            [
              85.02766045325758,
              26.49101935427386
            ],
            [
              85.0262646141382,
              26.491328418776963
            ],
            [
              85.0255885725981,
              26.49203690403217
            ],
            [
              85.02503616888546,
              26.49289990571041
            ],
            [
              85.02371764596595,
              26.495161160891982
            ],
            [
              85.02329698288472,
              26.496389817794093
            ],
            [
              85.02330320281976,
              26.496548038319954
            ],
            [
              85.02332416680352,
              26.497075716935612
            ],
            [
              85.02478025413238,
              26.49812249924297
            ],
            [
              85.0280815717847,
              26.50000541621023
            ],
            [
              85.02950250534154,
              26.500903544336236
            ],
            [
              85.03068067009119,
              26.502370924236907
            ],
            [
              85.03172725590619,
              26.50404371464309
            ],
            [
              85.03251880192722,
              26.50566685876793
            ],
            [
              85.03276141981748,
              26.506453301937743
            ],
            [
              85.03264646061396,
              26.50718877918547
            ],
            [
              85.03238471399801,
              26.507530683747788
            ],
            [
              85.03227720811641,
              26.507828592641633
            ],
            [
              85.03196577568211,
              26.508077655617395
            ],
            [
              85.03157751483319,
              26.508325656938197
            ],
            [
              85.03121914722193,
              26.50832071069545
            ],
            [
              85.03063167238233,
              26.50824355233568
            ],
            [
              85.02911644177176,
              26.50702487296871
            ],
            [
              85.02821162537995,
              26.506045052285966
            ],
            [
              85.02681852432553,
              26.505173554852323
            ],
            [
              85.02577592433545,
              26.504767579709206
            ],
            [
              85.024065903937,
              26.504467526910343
            ],
            [
              85.02219830017312,
              26.50439552138927
            ],
            [
              85.02011464799013,
              26.504988503236767
            ],
            [
              85.01964846368016,
              26.505304438859252
            ],
            [
              85.01917477035275,
              26.506057937048936
            ],
            [
              85.01903573001138,
              26.50670090964533
            ],
            [
              85.01901795055528,
              26.507737113650247
            ],
            [
              85.0190041209915,
              26.508543120183397
            ],
            [
              85.01913871377388,
              26.509650486685118
            ],
            [
              85.02002422087868,
              26.511758790805782
            ],
            [
              85.02097898899018,
              26.514305627607214
            ],
            [
              85.02206533693463,
              26.516646959794425
            ],
            [
              85.02304464073153,
              26.517766220898316
            ],
            [
              85.02398611377684,
              26.518101677990938
            ],
            [
              85.02444416294357,
              26.51826931895686
            ],
            [
              85.02479654867334,
              26.518619624035715
            ],
            [
              85.02530103085881,
              26.51906427890922
            ],
            [
              85.02663672327834,
              26.520303443757
            ],
            [
              85.02794893104141,
              26.521427189696126
            ],
            [
              85.02868060075546,
              26.522059197911254
            ],
            [
              85.02930868393751,
              26.522758819345842
            ],
            [
              85.03029872529699,
              26.523256201618405
            ],
            [
              85.03149439910983,
              26.523710294857608
            ],
            [
              85.03309327724638,
              26.524538564401723
            ],
            [
              85.03516762018806,
              26.52601818489965
            ],
            [
              85.03632717992984,
              26.527093631808587
            ],
            [
              85.03755948614167,
              26.528400415794056
            ],
            [
              85.03868189964814,
              26.52977481675639
            ],
            [
              85.04049108417244,
              26.52888707917741
            ],
            [
              85.04066614695671,
              26.529627271272105
            ],
            [
              85.04078572529743,
              26.53084579998394
            ],
            [
              85.04094048166469,
              26.53188384120285
            ],
            [
              85.04114552482325,
              26.53271434312644
            ],
            [
              85.04122541469641,
              26.53331007286894
            ],
            [
              85.04115460768907,
              26.534005005283937
            ],
            [
              85.0411285601391,
              26.535331739230223
            ],
            [
              85.04132368679522,
              26.536126090774495
            ],
            [
              85.04165950669285,
              26.53657758222383
            ],
            [
              85.04209043392453,
              26.537272817925597
            ],
            [
              85.04294264138005,
              26.538333886279347
            ],
            [
              85.04347413410947,
              26.53885765195832
            ],
            [
              85.04393042796815,
              26.539259525248355
            ],
            [
              85.04443173191414,
              26.539747220279647
            ],
            [
              85.04563048425345,
              26.54037066276153
            ],
            [
              85.04699467033551,
              26.54111605028325
            ],
            [
              85.04737570333968,
              26.54159008113328
            ],
            [
              85.04763110605305,
              26.54223551076813
            ],
            [
              85.04792679102039,
              26.542831396803923
            ],
            [
              85.04830756441145,
              26.54357620418861
            ],
            [
              85.04898944769585,
              26.544443012703145
            ],
            [
              85.04969605621012,
              26.545711544006654
            ],
            [
              85.05001676734298,
              26.546329973303894
            ],
            [
              85.05018202681254,
              26.546853487105963
            ],
            [
              85.05051777843819,
              26.54744937486481
            ],
            [
              85.05099406610016,
              26.548108472043054
            ],
            [
              85.05202707477797,
              26.549074753239886
            ],
            [
              85.05250339657589,
              26.549643674787266
            ],
            [
              85.05306002416697,
              26.550158365399856
            ],
            [
              85.05339597701523,
              26.550618858754596
            ],
            [
              85.05381719974693,
              26.551034215019158
            ],
            [
              85.0542233532397,
              26.551521842305117
            ],
            [
              85.05465449157545,
              26.55217642975645
            ],
            [
              85.05488493280204,
              26.55274063426208
            ],
            [
              85.05498491798811,
              26.55336344121138
            ],
            [
              85.05512003718326,
              26.553950172375966
            ],
            [
              85.05525520668405,
              26.554545930043734
            ],
            [
              85.05529405432853,
              26.55519934071165
            ],
            [
              85.05529491940612,
              26.555213855174443
            ],
            [
              85.05518414994506,
              26.555800478033255
            ],
            [
              85.05499812232448,
              26.556445646090555
            ],
            [
              85.05459144960545,
              26.556783984082443
            ],
            [
              85.05405935410647,
              26.557090550172006
            ],
            [
              85.05190100970256,
              26.55795588731907
            ],
            [
              85.05050563860544,
              26.558429074765808
            ],
            [
              85.04996372721536,
              26.558478429612478
            ],
            [
              85.04911049029052,
              26.558586250389013
            ],
            [
              85.04855373603698,
              26.558297103901054
            ],
            [
              85.0480673207685,
              26.55770113190066
            ],
            [
              85.04771648732755,
              26.557064683624592
            ],
            [
              85.04752629332064,
              26.556419245848282
            ],
            [
              85.04746154724654,
              26.555715234198786
            ],
            [
              85.04706072974656,
              26.554659024203204
            ],
            [
              85.0470206603933,
              26.554568710719757
            ],
            [
              85.04698059104007,
              26.554478397968694
            ],
            [
              85.04666985030858,
              26.55390513870973
            ],
            [
              85.04592802603851,
              26.55273593823448
            ],
            [
              85.04543657661117,
              26.552320499742102
            ],
            [
              85.04397714844777,
              26.55127267992981
            ],
            [
              85.0426981478075,
              26.550522835871043
            ],
            [
              85.04195065696462,
              26.55026967511545
            ],
            [
              85.04139865300233,
              26.550377620131613
            ],
            [
              85.04023437800362,
              26.550584550756827
            ],
            [
              85.03974240575681,
              26.550850547963066
            ],
            [
              85.03924529065497,
              26.55126540035086
            ],
            [
              85.03813056043914,
              26.552334252788082
            ],
            [
              85.0378140228791,
              26.55291170807059
            ],
            [
              85.03717539706889,
              26.554698354777727
            ],
            [
              85.03721495617906,
              26.555492642910867
            ],
            [
              85.0373894422449,
              26.55689172288521
            ],
            [
              85.03787068770892,
              26.55752836496887
            ],
            [
              85.03846699568271,
              26.558711035826793
            ],
            [
              85.03932929660877,
              26.55978111170124
            ],
            [
              85.04096889088557,
              26.561681975968828
            ],
            [
              85.04192223606569,
              26.56184500705765
            ],
            [
              85.04212802123264,
              26.561831588605283
            ],
            [
              85.0450636589873,
              26.561882925024403
            ],
            [
              85.04645377493999,
              26.56175279895659
            ],
            [
              85.04768842485637,
              26.561604552973822
            ],
            [
              85.0503129221292,
              26.561560804703994
            ],
            [
              85.05133149488043,
              26.56185012696016
            ],
            [
              85.05218398440695,
              26.56280283864546
            ],
            [
              85.05215373094482,
              26.56298330633053
            ],
            [
              85.05192229618156,
              26.563872179694812
            ],
            [
              85.05137463916688,
              26.564959540819473
            ],
            [
              85.05038497959141,
              26.566565529943652
            ],
            [
              85.04992295987111,
              26.567075220955562
            ],
            [
              85.04871856162025,
              26.567052044247305
            ],
            [
              85.04825661915505,
              26.567331564870702
            ],
            [
              85.04704579525495,
              26.569379747814196
            ],
            [
              85.04624710044091,
              26.570462379851932
            ],
            [
              85.04617676684573,
              26.570620271707277
            ],
            [
              85.04582477637469,
              26.57155874597063
            ],
            [
              85.04811251860369,
              26.572764944910112
            ],
            [
              85.04788125631696,
              26.573374006612053
            ],
            [
              85.04750938163713,
              26.574082321329378
            ],
            [
              85.04700622895825,
              26.57586012515359
            ],
            [
              85.04628178619065,
              26.578431972674565
            ],
            [
              85.04610072086368,
              26.579027547635008
            ],
            [
              85.04593959094947,
              26.579672858869568
            ],
            [
              85.04588402475925,
              26.580196234839054
            ],
            [
              85.04605946393762,
              26.580647683684987
            ],
            [
              85.04652085034563,
              26.581108203152446
            ],
            [
              85.04799560556442,
              26.58239964928952
            ],
            [
              85.04847702979316,
              26.58296405364611
            ],
            [
              85.04926434834249,
              26.584061031140465
            ],
            [
              85.0497157140435,
              26.584652459706245
            ],
            [
              85.05000147262696,
              26.58511742078353
            ],
            [
              85.05013668434857,
              26.58564548662998
            ],
            [
              85.04979974784506,
              26.586701332261878
            ],
            [
              85.04930719259161,
              26.587680308237616
            ],
            [
              85.04887508407533,
              26.58822614203616
            ],
            [
              85.04831763093253,
              26.58868613377235
            ],
            [
              85.04742359073084,
              26.589552096630367
            ],
            [
              85.0465294238667,
              26.59054892724863
            ],
            [
              85.04569063993647,
              26.59135173397934
            ],
            [
              85.04533916420007,
              26.5915817623564
            ],
            [
              85.04494740531142,
              26.591807175370658
            ],
            [
              85.04521273081542,
              26.592836256630484
            ],
            [
              85.04549350195244,
              26.593364339886797
            ],
            [
              85.0471845400506,
              26.594254317340585
            ],
            [
              85.04775404588959,
              26.594588553823833
            ],
            [
              85.04832355622015,
              26.59492279013419
            ],
            [
              85.04860436957794,
              26.59536069891046
            ],
            [
              85.048910139931,
              26.59596105517464
            ],
            [
              85.04885058522093,
              26.596583571742
            ],
            [
              85.04928504822156,
              26.59767074680419
            ],
            [
              85.04986582612075,
              26.59892248267609
            ],
            [
              85.05046151605362,
              26.600059251167746
            ],
            [
              85.0512772150777,
              26.600300678355676
            ],
            [
              85.05193816402272,
              26.600609209142394
            ],
            [
              85.0525734211506,
              26.60091729732284
            ],
            [
              85.05320897472257,
              26.601213922669256
            ],
            [
              85.05354018626275,
              26.601322071896288
            ],
            [
              85.05389728904608,
              26.60141911165183
            ],
            [
              85.05419161126913,
              26.60143469095351
            ],
            [
              85.05440972671168,
              26.60141465698001
            ],
            [
              85.05458949936298,
              26.601394009340925
            ],
            [
              85.05471767907255,
              26.601384298378917
            ],
            [
              85.05487107359383,
              26.601409411937077
            ],
            [
              85.05499652781484,
              26.6015608682789
            ],
            [
              85.05501813589068,
              26.60180296860928
            ],
            [
              85.05501599340873,
              26.601929663604714
            ],
            [
              85.05520140119181,
              26.602323745397054
            ],
            [
              85.05531479283516,
              26.602440466292016
            ],
            [
              85.05557096720136,
              26.602443968310578
            ],
            [
              85.05609606662091,
              26.602451141825842
            ],
            [
              85.05657211263606,
              26.602330921329486
            ],
            [
              85.05689495457277,
              26.602174126219538
            ],
            [
              85.05732155372141,
              26.601949609133946
            ],
            [
              85.05778338569382,
              26.60190988192864
            ],
            [
              85.05875581737875,
              26.60198073867481
            ],
            [
              85.05950993868674,
              26.60208309115753
            ],
            [
              85.06029354360064,
              26.601955586687573
            ],
            [
              85.06081825315135,
              26.601985757183964
            ],
            [
              85.06133772282902,
              26.602326796814967
            ],
            [
              85.06159040634205,
              26.60253747698644
            ],
            [
              85.06172852321528,
              26.602700653129514
            ],
            [
              85.0619812076266,
              26.60291133180929
            ],
            [
              85.06209470077958,
              26.603016586264914
            ],
            [
              85.06223544522506,
              26.603029966960165
            ],
            [
              85.06237783268917,
              26.6029398410117
            ],
            [
              85.0626486073737,
              26.60283981861168
            ],
            [
              85.0632124439449,
              26.602824479661926
            ],
            [
              85.06468536300727,
              26.60284452302709
            ],
            [
              85.06506962904812,
              26.602849748727134
            ],
            [
              85.06551852078888,
              26.602821283678992
            ],
            [
              85.06617442479525,
              26.602668996073135
            ],
            [
              85.066882487682,
              26.60246000932142
            ],
            [
              85.0677676139011,
              26.60239133922504
            ],
            [
              85.06875396677802,
              26.60239326774575
            ],
            [
              85.06948269989941,
              26.60248376039084
            ],
            [
              85.07026301518277,
              26.602551930832306
            ],
            [
              85.0708113989345,
              26.6026975567416
            ],
            [
              85.07118301040794,
              26.60269104187687
            ],
            [
              85.07190024958531,
              26.60270076316976
            ],
            [
              85.0728494202943,
              26.602633020126785
            ],
            [
              85.07385055584753,
              26.6025199420071
            ],
            [
              85.07422255359657,
              26.602490407797806
            ],
            [
              85.07431152364063,
              26.602537734818323
            ],
            [
              85.07427057124346,
              26.602686833037918
            ],
            [
              85.0739949860806,
              26.603074651997062
            ],
            [
              85.07360040019371,
              26.603691202198764
            ],
            [
              85.07347116586202,
              26.60451867298674
            ],
            [
              85.07333265462833,
              26.605138690836426
            ],
            [
              85.07352722432898,
              26.605763127700527
            ],
            [
              85.07385055944079,
              26.60634336575132
            ],
            [
              85.0742017189702,
              26.606797255157176
            ],
            [
              85.07435755062082,
              26.60743281102982
            ],
            [
              85.07437485666476,
              26.6079282123264
            ],
            [
              85.07439611978756,
              26.608193413753806
            ],
            [
              85.07444210993684,
              26.608504983342122
            ],
            [
              85.07452944235212,
              26.608644352997096
            ],
            [
              85.0749645422583,
              26.608673258340563
            ],
            [
              85.07527116421424,
              26.60872343968296
            ],
            [
              85.0757185360055,
              26.6087870789327
            ],
            [
              85.07592343004374,
              26.608789849871673
            ],
            [
              85.0758945536989,
              26.608985233025404
            ],
            [
              85.07575932580761,
              26.609409523303082
            ],
            [
              85.07547842890648,
              26.610119770738624
            ],
            [
              85.07540454696594,
              26.610706094699314
            ],
            [
              85.07543181712302,
              26.611374390251676
            ],
            [
              85.0761213280025,
              26.612281986780694
            ],
            [
              85.07638256886692,
              26.612746208344287
            ],
            [
              85.07655638209461,
              26.613082522339642
            ],
            [
              85.07682070957033,
              26.613362472699958
            ],
            [
              85.07722618303843,
              26.61363286826123
            ],
            [
              85.07746664676861,
              26.613808876334282
            ],
            [
              85.077631466962,
              26.61391472311285
            ],
            [
              85.07774459899225,
              26.614042977228916
            ],
            [
              85.07791985940588,
              26.61428715293688
            ],
            [
              85.07791254083125,
              26.614724635820156
            ],
            [
              85.07775685740262,
              26.61560933764219
            ],
            [
              85.07771147181953,
              26.61602328967791
            ],
            [
              85.07780252595505,
              26.61666112572253
            ],
            [
              85.0784352597153,
              26.617423981632687
            ],
            [
              85.07917603834638,
              26.61752099889301
            ],
            [
              85.08020823404884,
              26.617563909822135
            ],
            [
              85.08217768430808,
              26.617532442397966
            ],
            [
              85.08421120690497,
              26.617530876334822
            ],
            [
              85.08721382574213,
              26.6174842799232
            ],
            [
              85.09080206619447,
              26.617155293618406
            ],
            [
              85.09471499102818,
              26.61671458107229
            ],
            [
              85.09514994540726,
              26.617735930838407
            ],
            [
              85.09539172157609,
              26.618725539361378
            ],
            [
              85.09560223188149,
              26.619656780071008
            ],
            [
              85.09604345739956,
              26.62030092178343
            ],
            [
              85.09667873788368,
              26.620918685738065
            ],
            [
              85.09760650892596,
              26.621424284770665
            ],
            [
              85.09905199433786,
              26.621849788120276
            ],
            [
              85.10043628741089,
              26.62207137265147
            ],
            [
              85.10217475296281,
              26.622355709083184
            ],
            [
              85.10317180926631,
              26.622572099154883
            ],
            [
              85.10400321173987,
              26.62304739905697
            ],
            [
              85.10447816181036,
              26.62360495432482
            ],
            [
              85.10459675200428,
              26.624244770179118
            ],
            [
              85.10503517298206,
              26.625062960689284
            ],
            [
              85.10610475477004,
              26.626760038331103
            ],
            [
              85.10849780110993,
              26.626501793393057
            ],
            [
              85.11006494536073,
              26.62640655527639
            ],
            [
              85.11163208601826,
              26.62631130021637
            ],
            [
              85.11447789493944,
              26.62600092831357
            ]
          ]
        ]
      }
    }
  ]
}