{
  "type": "FeatureCollection",
  "features": [
    {
      "type": "Feature",
      "properties": {
        "object_id": "10-206-01065",
        "stname": "BIHAR",
        "dtname": "Sitamarhi",
        "sdtname": "Majorganj",
        "st_area_sh": 0.0,
        "st_length_": 0.0,
        "remarks": "",
        "dist_lgd": 221,
        "state_lgd": 10,
        "subdt_lgd": 1065,
        "ac_no": null,
        "st_length(shape)": 62808.55729710282,
        "st_area(shape)": 95411217.42446172
      },
      "geometry": {
        "type": "Polygon",
        "coordinates": [
          [
            [
              85.4247314296429,
              26.786206597249755
            ],
            [
              85.42618177583877,
              26.786082423729713
            ],
            [
              85.42727493301308,
              26.786110701094266
            ],
            [
              85.42879221178248,
              26.78636522993691
            ],
            [
              85.42905329634002,
              26.78640903720581
            ],
            [
              85.42973944841864,
              26.786654880609944
            ],
            [
              85.42997156320659,
              26.786765226049322
            ],
            [
              85.43024038225876,
              26.78697371786763
            ],
            [
              85.43066380406624,
              26.787374991688154
            ],
            [
              85.43081180061097,
              26.78773730970715
            ],
            [
              85.4314313030854,
              26.788653963083487
            ],
            [
              85.43175565778503,
              26.78899756305137
            ],
            [
              85.43266858057399,
              26.790086857267838
            ],
            [
              85.43372141237519,
              26.789620552805797
            ],
            [
              85.43616498625485,
              26.788532071253925
            ],
            [
              85.43778040237578,
              26.787830179685674
            ],
            [
              85.43817038799007,
              26.787660728063802
            ],
            [
              85.44024567056955,
              26.786758980719405
            ],
            [
              85.44077571521473,
              26.786528511926974
            ],
            [
              85.4428767336288,
              26.78561494002203
            ],
            [
              85.44402935119007,
              26.78509036588999
            ],
            [
              85.44436964559611,
              26.784873250662503
            ],
            [
              85.44576063740621,
              26.78424224116159
            ],
            [
              85.44654641175157,
              26.7838638531873
            ],
            [
              85.44804529122729,
              26.783218674174673
            ],
            [
              85.4497674523568,
              26.78235269612453
            ],
            [
              85.45109037342793,
              26.781779956109364
            ],
            [
              85.45168510575672,
              26.780658273599876
            ],
            [
              85.45188508601034,
              26.78028109667186
            ],
            [
              85.4517418092141,
              26.778891368380243
            ],
            [
              85.44934532232669,
              26.77699944300223
            ],
            [
              85.44655984156503,
              26.774006978826495
            ],
            [
              85.44687306973157,
              26.771948701058225
            ],
            [
              85.44648123358779,
              26.769237179340834
            ],
            [
              85.44690152835977,
              26.768067817837352
            ],
            [
              85.44785219656033,
              26.768350761956995
            ],
            [
              85.4482726961482,
              26.767307805607068
            ],
            [
              85.45118434618983,
              26.764966127338557
            ],
            [
              85.45245106057195,
              26.764901132299247
            ],
            [
              85.45326210722116,
              26.76582051982228
            ],
            [
              85.45593643583945,
              26.765753488025624
            ],
            [
              85.45734488730542,
              26.766193703191334
            ],
            [
              85.45728671061097,
              26.767403218767317
            ],
            [
              85.45710260538506,
              26.768459416828787
            ],
            [
              85.45710349112393,
              26.768928711611352
            ],
            [
              85.45732007224402,
              26.769149538701075
            ],
            [
              85.45802899931003,
              26.769202624208308
            ],
            [
              85.45886270865724,
              26.76873208017031
            ],
            [
              85.45944602789034,
              26.76880793108797
            ],
            [
              85.46083425199107,
              26.76919398221539
            ],
            [
              85.46066021777784,
              26.770205117393886
            ],
            [
              85.46067636499507,
              26.77077821415341
            ],
            [
              85.46110940236933,
              26.771192720120226
            ],
            [
              85.46206969332324,
              26.771182202337354
            ],
            [
              85.46143816061048,
              26.772225639610333
            ],
            [
              85.4607862002082,
              26.773093039882934
            ],
            [
              85.45902801394088,
              26.77389882730905
            ],
            [
              85.45742629712805,
              26.77503386734373
            ],
            [
              85.45643785476977,
              26.776145447391688
            ],
            [
              85.45622281605705,
              26.77677755089957
            ],
            [
              85.45647602508451,
              26.777801508785736
            ],
            [
              85.45832320924367,
              26.778881902696707
            ],
            [
              85.45962583198266,
              26.77913716711695
            ],
            [
              85.46075244241814,
              26.779356590958137
            ],
            [
              85.46199947920398,
              26.779399856394996
            ],
            [
              85.46412931826733,
              26.778345198832127
            ],
            [
              85.46520786164857,
              26.77707107797419
            ],
            [
              85.46535556983412,
              26.77543273567712
            ],
            [
              85.4644909341866,
              26.772807646993773
            ],
            [
              85.46402621233392,
              26.77164863467475
            ],
            [
              85.46399405983328,
              26.7705656439363
            ],
            [
              85.46460088618078,
              26.769793093334975
            ],
            [
              85.46632935797513,
              26.769266962321222
            ],
            [
              85.46841984813405,
              26.768821485628475
            ],
            [
              85.46956018392878,
              26.768345902353552
            ],
            [
              85.47042374429286,
              26.767794022811323
            ],
            [
              85.47103448460003,
              26.766461813862374
            ],
            [
              85.47152653589856,
              26.7661316468103
            ],
            [
              85.47230093128421,
              26.76623878389737
            ],
            [
              85.47282540278137,
              26.767041191965873
            ],
            [
              85.47319802306289,
              26.767347458370466
            ],
            [
              85.47384685193813,
              26.76751343694477
            ],
            [
              85.47507233903859,
              26.766933815820558
            ],
            [
              85.47599483607183,
              26.765682342393323
            ],
            [
              85.47621550362814,
              26.76286160911355
            ],
            [
              85.47394373074992,
              26.763068320084493
            ],
            [
              85.47338059666124,
              26.763051164300165
            ],
            [
              85.47306386326846,
              26.76302458321634
            ],
            [
              85.4729630318694,
              26.762871227726666
            ],
            [
              85.4727917689588,
              26.76268196179325
            ],
            [
              85.47258526244467,
              26.762488313735236
            ],
            [
              85.47237881701595,
              26.762312604085285
            ],
            [
              85.47217745156019,
              26.762159534783045
            ],
            [
              85.47201127131747,
              26.76203790085548
            ],
            [
              85.47188548921139,
              26.761956905610234
            ],
            [
              85.47179490130151,
              26.761902835757578
            ],
            [
              85.47171433230197,
              26.76186240306356
            ],
            [
              85.47161880006477,
              26.76182193987561
            ],
            [
              85.47149297933116,
              26.76175897794903
            ],
            [
              85.47132181343858,
              26.761668983809685
            ],
            [
              85.47111053237872,
              26.76155195819544
            ],
            [
              85.47088403026467,
              26.761412460939077
            ],
            [
              85.47064750025709,
              26.761263835646492
            ],
            [
              85.47042092717612,
              26.761110816265543
            ],
            [
              85.4702145383413,
              26.76095764267546
            ],
            [
              85.47003327538494,
              26.76080000599234
            ],
            [
              85.46986707537928,
              26.76064230331815
            ],
            [
              85.46955982819593,
              26.76030890772892
            ],
            [
              85.46941365343456,
              26.760133116904296
            ],
            [
              85.4692674966395,
              26.75994830932979
            ],
            [
              85.46912143506589,
              26.75976800609157
            ],
            [
              85.4689852962829,
              26.759596740730682
            ],
            [
              85.46885433538921,
              26.75944802082032
            ],
            [
              85.46873348144076,
              26.759317352221874
            ],
            [
              85.46864784684136,
              26.75924976714191
            ],
            [
              85.46860754931603,
              26.759213815703465
            ],
            [
              85.46848169714139,
              26.759119203392203
            ],
            [
              85.46833582960386,
              26.759038169169123
            ],
            [
              85.4681697652438,
              26.758961702121958
            ],
            [
              85.46797357498237,
              26.758885365767874
            ],
            [
              85.46776732538642,
              26.758813427356046
            ],
            [
              85.46756107938369,
              26.758741581141873
            ],
            [
              85.46736997987499,
              26.758678683281797
            ],
            [
              85.46720899997946,
              26.758620256380393
            ],
            [
              85.46709329158097,
              26.758575340293543
            ],
            [
              85.46701784926675,
              26.758534818182586
            ],
            [
              85.46696248070592,
              26.75849874860682
            ],
            [
              85.46692719308494,
              26.758467223011763
            ],
            [
              85.46689190636225,
              26.75843569821008
            ],
            [
              85.46685672025087,
              26.75840416938906
            ],
            [
              85.46681643081038,
              26.758363618340844
            ],
            [
              85.46677111709249,
              26.758323056850628
            ],
            [
              85.46672572342457,
              26.758273484349985
            ],
            [
              85.46667533602198,
              26.758210373669346
            ],
            [
              85.46662999086307,
              26.7581382559576
            ],
            [
              85.46658455317767,
              26.758061632693607
            ],
            [
              85.46653922868002,
              26.757980496649168
            ],
            [
              85.46649880089898,
              26.7579083001837
            ],
            [
              85.46645855098434,
              26.757849713264072
            ],
            [
              85.46642319239645,
              26.7578046661268
            ],
            [
              85.46638801706487,
              26.757768627602008
            ],
            [
              85.46635271686746,
              26.75774161213645
            ],
            [
              85.46631250108884,
              26.7577145830284
            ],
            [
              85.46626715862487,
              26.75768754829906
            ],
            [
              85.46621682781614,
              26.75764707079039
            ],
            [
              85.46615644755428,
              26.757606483376474
            ],
            [
              85.46609599093567,
              26.75755697232673
            ],
            [
              85.46603561516544,
              26.757516477124828
            ],
            [
              85.46598024929955,
              26.75748040722582
            ],
            [
              85.46592989693124,
              26.757448947122413
            ],
            [
              85.46588464789204,
              26.75742641705958
            ],
            [
              85.46584440965553,
              26.757408405358824
            ],
            [
              85.46580918491661,
              26.757394912022246
            ],
            [
              85.46577396916082,
              26.757376908337726
            ],
            [
              85.46574378576729,
              26.757354406335
            ],
            [
              85.46570849006146,
              26.75732738996883
            ],
            [
              85.46567831834601,
              26.757300377606896
            ],
            [
              85.4656481439356,
              26.757273366842757
            ],
            [
              85.46562289768288,
              26.75724176791433
            ],
            [
              85.46560278081041,
              26.75721026603433
            ],
            [
              85.46558758940063,
              26.757174176787075
            ],
            [
              85.46558749058595,
              26.75712449469607
            ],
            [
              85.46559738732545,
              26.757052292873936
            ],
            [
              85.46563243958782,
              26.75695749908638
            ],
            [
              85.4656875332642,
              26.756835509862032
            ],
            [
              85.4657525200868,
              26.756691093772773
            ],
            [
              85.4658125931248,
              26.75654206524996
            ],
            [
              85.46585256007008,
              26.756402108638746
            ],
            [
              85.46585734539562,
              26.756275707090403
            ],
            [
              85.46582198141782,
              26.75618548401097
            ],
            [
              85.46575151936355,
              26.756117921132244
            ],
            [
              85.46565086583094,
              26.756077447877296
            ],
            [
              85.46554526886928,
              26.756050581206615
            ],
            [
              85.46543964675482,
              26.756032638271297
            ],
            [
              85.46534917742252,
              26.756023829234735
            ],
            [
              85.46526372338451,
              26.756014846134377
            ],
            [
              85.46518830712145,
              26.75601048011793
            ],
            [
              85.46511792411897,
              26.756001614930252
            ],
            [
              85.46504242071933,
              26.755988143886448
            ],
            [
              85.4649670358973,
              26.755970252277876
            ],
            [
              85.46488655223774,
              26.755938737211242
            ],
            [
              85.46480105957215,
              26.75590279595515
            ],
            [
              85.46471547078683,
              26.75586225684849
            ],
            [
              85.46462488467357,
              26.755812784343462
            ],
            [
              85.46453932104109,
              26.75576332064035
            ],
            [
              85.4644487501992,
              26.755704738229827
            ],
            [
              85.46435817486572,
              26.755650756845615
            ],
            [
              85.46426760402383,
              26.755592174377057
            ],
            [
              85.4641770179106,
              26.75554270015018
            ],
            [
              85.46408643179733,
              26.755493228308154
            ],
            [
              85.46400094721656,
              26.755452685044695
            ],
            [
              85.4639153620245,
              26.7554122380234
            ],
            [
              85.4638348999245,
              26.75537170515885
            ],
            [
              85.46376448098938,
              26.7553311899269
            ],
            [
              85.46369898302541,
              26.75529068671262
            ],
            [
              85.46363860815345,
              26.755250190703133
            ],
            [
              85.46358827734474,
              26.755209620080237
            ],
            [
              85.46354798880255,
              26.755169067089934
            ],
            [
              85.46351775510334,
              26.755124025307158
            ],
            [
              85.46349755199262,
              26.755083416136433
            ],
            [
              85.46348237226093,
              26.755042818181217
            ],
            [
              85.46348236058283,
              26.75500224267142
            ],
            [
              85.46348224380185,
              26.75496157891156
            ],
            [
              85.46348715219655,
              26.754921017009185
            ],
            [
              85.46349718188671,
              26.754880367658824
            ],
            [
              85.46350711905038,
              26.75483521506597
            ],
            [
              85.46351714874054,
              26.75479456488279
            ],
            [
              85.46353208862203,
              26.75475843796981
            ],
            [
              85.46355223424057,
              26.75473133114648
            ],
            [
              85.46357226936637,
              26.754708734769093
            ],
            [
              85.46359229640733,
              26.75469074028475
            ],
            [
              85.46361242226293,
              26.75467264873815
            ],
            [
              85.46363245379547,
              26.754650053953412
            ],
            [
              85.46364747722026,
              26.754622940687064
            ],
            [
              85.46365750691042,
              26.754582292032243
            ],
            [
              85.46366744317578,
              26.754537137716675
            ],
            [
              85.46366735963245,
              26.754483040268973
            ],
            [
              85.46366225091343,
              26.75442884092307
            ],
            [
              85.46364197503914,
              26.754374709733693
            ],
            [
              85.46361176379781,
              26.754320650711712
            ],
            [
              85.4635713944073,
              26.754271083684415
            ],
            [
              85.4635260932658,
              26.75422601427277
            ],
            [
              85.46348077415806,
              26.75418996097661
            ],
            [
              85.4634405583794,
              26.754162931023814
            ],
            [
              85.46341036600269,
              26.75414493725519
            ],
            [
              85.46338015476137,
              26.754135959621333
            ],
            [
              85.4633600792114,
              26.7541315069008
            ],
            [
              85.46333990844002,
              26.754122457072608
            ],
            [
              85.46331984277151,
              26.754113494677796
            ],
            [
              85.46330471424383,
              26.754095435125254
            ],
            [
              85.46328457760842,
              26.754072950922126
            ],
            [
              85.46326434485326,
              26.754045868801896
            ],
            [
              85.46324423516732,
              26.754009765715384
            ],
            [
              85.4632139817052,
              26.75397373962366
            ],
            [
              85.4631787057623,
              26.753937706301176
            ],
            [
              85.46314855380976,
              26.753901676977993
            ],
            [
              85.46311328595172,
              26.753861040899604
            ],
            [
              85.46308303159127,
              26.753825016365035
            ],
            [
              85.46305780240654,
              26.753788999840562
            ],
            [
              85.46304772600399,
              26.753757423205627
            ],
            [
              85.46304759934152,
              26.753721268689866
            ],
            [
              85.46304756700216,
              26.753689711287727
            ],
            [
              85.4630575652513,
              26.753662588166474
            ],
            [
              85.46307259855756,
              26.753630967378108
            ],
            [
              85.46308762288068,
              26.753603945313902
            ],
            [
              85.46310766698961,
              26.753576839819484
            ],
            [
              85.46312268771948,
              26.75354972709927
            ],
            [
              85.46313267788376,
              26.753527112839645
            ],
            [
              85.46314276326949,
              26.75350909731225
            ],
            [
              85.46314771029172,
              26.753495492013595
            ],
            [
              85.46315277229837,
              26.753477466053205
            ],
            [
              85.46315773908356,
              26.753454842153367
            ],
            [
              85.46317276969489,
              26.753423219702935
            ],
            [
              85.46319777519916,
              26.753378093804344
            ],
            [
              85.4632328795638,
              26.75330584067071
            ],
            [
              85.46328297681058,
              26.75322000060903
            ],
            [
              85.46334306601824,
              26.753111639190145
            ],
            [
              85.46340820375781,
              26.752989668297957
            ],
            [
              85.46347830199439,
              26.75284967522574
            ],
            [
              85.46355336072796,
              26.752691659906855
            ],
            [
              85.46362852905598,
              26.7525290391748
            ],
            [
              85.46369855542731,
              26.752375524329278
            ],
            [
              85.46376363926797,
              26.752231011928416
            ],
            [
              85.46381872575785,
              26.752113622841183
            ],
            [
              85.4638688230046,
              26.752027782681267
            ],
            [
              85.46390890942583,
              26.751973574142873
            ],
            [
              85.46394404882481,
              26.751932971065973
            ],
            [
              85.46397414328514,
              26.751901284019052
            ],
            [
              85.46400925124307,
              26.751874206194298
            ],
            [
              85.46404437896393,
              26.751838019795112
            ],
            [
              85.46407950488818,
              26.75180183418655
            ],
            [
              85.46411465237198,
              26.751756629032148
            ],
            [
              85.46414476839186,
              26.751716017053916
            ],
            [
              85.4641697729978,
              26.7516708896754
            ],
            [
              85.4641898422596,
              26.751630166967757
            ],
            [
              85.46420478124276,
              26.751594039851074
            ],
            [
              85.46422485409776,
              26.751553409364952
            ],
            [
              85.46424985780538,
              26.7515082811197
            ],
            [
              85.46428502415382,
              26.751454061103235
            ],
            [
              85.46434018430553,
              26.751395278336293
            ],
            [
              85.46440540558842,
              26.751327496826946
            ],
            [
              85.46448570689,
              26.751255232763732
            ],
            [
              85.46458107473548,
              26.751178304848075
            ],
            [
              85.4646864812543,
              26.75110599416421
            ],
            [
              85.46480192015821,
              26.75103811862857
            ],
            [
              85.4649274210916,
              26.75096124511353
            ],
            [
              85.46506306400457,
              26.750884292933776
            ],
            [
              85.46520858838562,
              26.750789331160828
            ],
            [
              85.46536428528897,
              26.75068076527734
            ],
            [
              85.46549211106233,
              26.750602036898087
            ],
            [
              85.4658102296573,
              26.750513833197132
            ],
            [
              85.46772278871126,
              26.750330373675805
            ],
            [
              85.46866915577824,
              26.7500003819521
            ],
            [
              85.4703346682476,
              26.749419611005376
            ],
            [
              85.4711935097615,
              26.748584123871
            ],
            [
              85.47140415301752,
              26.748037973850323
            ],
            [
              85.47147907341056,
              26.747509990906018
            ],
            [
              85.47145839329437,
              26.74687815291815
            ],
            [
              85.47135238041278,
              26.746282596664532
            ],
            [
              85.47088417130014,
              26.745371386020615
            ],
            [
              85.47083345601247,
              26.74488854404545
            ],
            [
              85.47109960527159,
              26.744500277248463
            ],
            [
              85.47174269391213,
              26.744287754937545
            ],
            [
              85.47201375156595,
              26.74385432191426
            ],
            [
              85.47181228819385,
              26.74332650084367
            ],
            [
              85.47099232217217,
              26.742541834289327
            ],
            [
              85.47065017184674,
              26.742059217759145
            ],
            [
              85.4705866160404,
              26.74119062109308
            ],
            [
              85.47052305304751,
              26.740321915907288
            ],
            [
              85.47032653130778,
              26.73969482499694
            ],
            [
              85.47022068730939,
              26.739356426093657
            ],
            [
              85.46935905742488,
              26.736626831305706
            ],
            [
              85.4684982378207,
              26.734957703100555
            ],
            [
              85.46804556237598,
              26.734565420653844
            ],
            [
              85.46679878340665,
              26.734020202952845
            ],
            [
              85.46482820037183,
              26.733511512647375
            ],
            [
              85.46298341381615,
              26.732980197709193
            ],
            [
              85.46171158263016,
              26.732610906354893
            ],
            [
              85.46063575126274,
              26.732209938917848
            ],
            [
              85.46006704043278,
              26.731118167349162
            ],
            [
              85.45949344007273,
              26.730202485842746
            ],
            [
              85.45847281467113,
              26.729593846271523
            ],
            [
              85.45797008869201,
              26.729336968604027
            ],
            [
              85.45739706235545,
              26.72917482234114
            ],
            [
              85.45675374733942,
              26.72919324769978
            ],
            [
              85.455552795026,
              26.729401472097244
            ],
            [
              85.45487428132222,
              26.729352200693725
            ],
            [
              85.45421586472798,
              26.72920819418163
            ],
            [
              85.4532105771615,
              26.72898763769799
            ],
            [
              85.45215050583744,
              26.729466598957686
            ],
            [
              85.4514374581992,
              26.730351399661107
            ],
            [
              85.45074444389013,
              26.73107834870497
            ],
            [
              85.45027175218424,
              26.73068597585839
            ],
            [
              85.44948743041473,
              26.730176442652862
            ],
            [
              85.44902488607832,
              26.729919522173223
            ],
            [
              85.44882858622242,
              26.729468316727964
            ],
            [
              85.44893378882368,
              26.728908738648425
            ],
            [
              85.44975182526412,
              26.727202515866193
            ],
            [
              85.44966571365929,
              26.726160091009486
            ],
            [
              85.44878589199192,
              26.725533247780138
            ],
            [
              85.44699667701634,
              26.72532663705215
            ],
            [
              85.44531816322989,
              26.72527782282888
            ],
            [
              85.44417229381301,
              26.725165604355126
            ],
            [
              85.44171982212046,
              26.724972661849066
            ],
            [
              85.43993059097521,
              26.724653168379234
            ],
            [
              85.43747782283862,
              26.72399533612643
            ],
            [
              85.43561325897365,
              26.723526862797005
            ],
            [
              85.43334154897754,
              26.723175802607383
            ],
            [
              85.43209040689084,
              26.723302687868344
            ],
            [
              85.431467190781,
              26.723158562171268
            ],
            [
              85.43053221255518,
              26.722630876146678
            ],
            [
              85.42992413934613,
              26.722662694914355
            ],
            [
              85.42883386935713,
              26.723033146685644
            ],
            [
              85.42738194032974,
              26.724049132751194
            ],
            [
              85.42632723104957,
              26.725349105275903
            ],
            [
              85.42536295696574,
              26.726779996959934
            ],
            [
              85.42477516502082,
              26.72721345012044
            ],
            [
              85.42365969099993,
              26.727520695976548
            ],
            [
              85.42216201167338,
              26.727426370201336
            ],
            [
              85.42055371290445,
              26.726957602096252
            ],
            [
              85.41920659032125,
              26.72625409368736
            ],
            [
              85.41852286010061,
              26.725414946140347
            ],
            [
              85.41839641234291,
              26.72326243000244
            ],
            [
              85.41902883618442,
              26.72136689375936
            ],
            [
              85.41967181433216,
              26.720626632106466
            ],
            [
              85.42046046059146,
              26.719931383666644
            ],
            [
              85.42172649405062,
              26.71925854905303
            ],
            [
              85.423017832153,
              26.718824974120405
            ],
            [
              85.42489195229597,
              26.718422663833564
            ],
            [
              85.4262033713382,
              26.717939326325713
            ],
            [
              85.42688151673272,
              26.717492337363776
            ],
            [
              85.42770519638977,
              26.716571422810194
            ],
            [
              85.42793618918193,
              26.716219402341785
            ],
            [
              85.42881009095157,
              26.715366118382327
            ],
            [
              85.42949338459097,
              26.71498233266038
            ],
            [
              85.43013647502815,
              26.71481956733629
            ],
            [
              85.43149832010056,
              26.715013104798867
            ],
            [
              85.43332264393236,
              26.715540340676014
            ],
            [
              85.43502152432296,
              26.716342876271725
            ],
            [
              85.43596657895134,
              26.7169697436401
            ],
            [
              85.43663489497997,
              26.71709581896763
            ],
            [
              85.43779549856414,
              26.716630489976367
            ],
            [
              85.43784550328441,
              26.716246912330227
            ],
            [
              85.43755854275511,
              26.71534899311432
            ],
            [
              85.43587937589344,
              26.713644003396226
            ],
            [
              85.43486644096896,
              26.712897559286795
            ],
            [
              85.43385354916362,
              26.712151131949604
            ],
            [
              85.43261703703965,
              26.711411511706842
            ],
            [
              85.43036567118973,
              26.710879917848896
            ],
            [
              85.42875781978182,
              26.71088056382316
            ],
            [
              85.42664771401036,
              26.711513116921825
            ],
            [
              85.42607480714967,
              26.711350852983543
            ],
            [
              85.42467710043285,
              26.709632047602152
            ],
            [
              85.4223708978247,
              26.70990356006154
            ],
            [
              85.41998939932782,
              26.71045036099886
            ],
            [
              85.41821586085229,
              26.71090223405108
            ],
            [
              85.41578387164652,
              26.710952567061515
            ],
            [
              85.41353271330745,
              26.710921631730216
            ],
            [
              85.4122062843151,
              26.711003208993553
            ],
            [
              85.40934184343664,
              26.710200617302092
            ],
            [
              85.40673372784131,
              26.709104639119083
            ],
            [
              85.40529656532054,
              26.708495755920406
            ],
            [
              85.40418574187788,
              26.707340755979814
            ],
            [
              85.39609022065713,
              26.712713500657
            ],
            [
              85.39483428426176,
              26.7168935612432
            ],
            [
              85.38751123693025,
              26.719829579750645
            ],
            [
              85.38439519411034,
              26.720387780649677
            ],
            [
              85.38436615427216,
              26.720360554904133
            ],
            [
              85.38381031899516,
              26.717734653258592
            ],
            [
              85.38368237913578,
              26.711453142741224
            ],
            [
              85.38395581283352,
              26.708961882106912
            ],
            [
              85.38330313377902,
              26.705144706306644
            ],
            [
              85.38209791806123,
              26.701301027752432
            ],
            [
              85.38194567697678,
              26.700051136913128
            ],
            [
              85.38014078460287,
              26.699032961651433
            ],
            [
              85.37927507816354,
              26.69764827369898
            ],
            [
              85.37828924361459,
              26.696651846208223
            ],
            [
              85.37659022578174,
              26.695922316995436
            ],
            [
              85.37523955125987,
              26.696690726672493
            ],
            [
              85.37459222167288,
              26.69740879460134
            ],
            [
              85.3705602988101,
              26.69976338502889
            ],
            [
              85.36355542397246,
              26.70383058606375
            ],
            [
              85.36021035567089,
              26.7050742016638
            ],
            [
              85.36137795623279,
              26.7070544501218
            ],
            [
              85.36223933009747,
              26.70932367173649
            ],
            [
              85.36212178105094,
              26.712365283871605
            ],
            [
              85.36115604091655,
              26.716630526887315
            ],
            [
              85.36092632193545,
              26.718097361846116
            ],
            [
              85.35975703882906,
              26.719650590599414
            ],
            [
              85.35916991972228,
              26.72061677722806
            ],
            [
              85.35938711618833,
              26.721699653316257
            ],
            [
              85.36073076678295,
              26.723715817608056
            ],
            [
              85.36251891366166,
              26.7227712249603
            ],
            [
              85.3635641538004,
              26.722743394798773
            ],
            [
              85.36467504910829,
              26.723130570828854
            ],
            [
              85.36525358211755,
              26.72372576288504
            ],
            [
              85.36633997497776,
              26.724604812012227
            ],
            [
              85.36695409115377,
              26.725574540675243
            ],
            [
              85.36655793770673,
              26.72648646194025
            ],
            [
              85.36507921193439,
              26.730170070655216
            ],
            [
              85.36345434284173,
              26.73362807692918
            ],
            [
              85.36203851980054,
              26.735181537362823
            ],
            [
              85.36191873664393,
              26.736066138778085
            ],
            [
              85.36386740258243,
              26.739670219204687
            ],
            [
              85.36272406102478,
              26.74232459922327
            ],
            [
              85.35340974335578,
              26.741442717133456
            ],
            [
              85.34700589983368,
              26.740792876823004
            ],
            [
              85.34301107020563,
              26.74193278582121
            ],
            [
              85.34018214691685,
              26.74292737218142
            ],
            [
              85.33937832002756,
              26.743419732037513
            ],
            [
              85.3372506063782,
              26.744119358246106
            ],
            [
              85.33723506372716,
              26.744124469177684
            ],
            [
              85.33726413141315,
              26.744151235181178
            ],
            [
              85.33787113023713,
              26.74471018073577
            ],
            [
              85.33799942582937,
              26.744828326735302
            ],
            [
              85.33872708456573,
              26.74549837487878
            ],
            [
              85.33885240403944,
              26.745613766080638
            ],
            [
              85.33932386056178,
              26.74604788871026
            ],
            [
              85.34036827784371,
              26.74700958025788
            ],
            [
              85.34140683002516,
              26.747965844870546
            ],
            [
              85.34240968675047,
              26.748874804646874
            ],
            [
              85.34253190074826,
              26.748985575854128
            ],
            [
              85.34402808078654,
              26.750341628982902
            ],
            [
              85.34476171511616,
              26.75100653721854
            ],
            [
              85.3453282277686,
              26.751492120682524
            ],
            [
              85.34660160585352,
              26.752584713793823
            ],
            [
              85.34681372414325,
              26.75276671536575
            ],
            [
              85.34729732409163,
              26.753200046226656
            ],
            [
              85.34984334184628,
              26.75548133821798
            ],
            [
              85.35044571524489,
              26.755991908302978
            ],
            [
              85.3529668855988,
              26.75812877009562
            ],
            [
              85.35343315165545,
              26.758517625618484
            ],
            [
              85.35470657555445,
              26.75956331604583
            ],
            [
              85.35538695416075,
              26.760134295998807
            ],
            [
              85.35609189270691,
              26.76041389264984
            ],
            [
              85.3567866066285,
              26.760623040848586
            ],
            [
              85.3576071844029,
              26.760941377704885
            ],
            [
              85.35887313970859,
              26.76151932976433
            ],
            [
              85.3589779102202,
              26.76156867225182
            ],
            [
              85.36081575908693,
              26.762434374875948
            ],
            [
              85.36174748990298,
              26.76279688638162
            ],
            [
              85.36210397644203,
              26.762400335823546
            ],
            [
              85.36239168257303,
              26.76205881699789
            ],
            [
              85.36262125333207,
              26.761786319713536
            ],
            [
              85.36281611139192,
              26.76152258466712
            ],
            [
              85.36294947078743,
              26.7613421018512
            ],
            [
              85.36326419734385,
              26.760897445107684
            ],
            [
              85.36401461399961,
              26.760193858704007
            ],
            [
              85.36443609814101,
              26.759952660757026
            ],
            [
              85.36491804429093,
              26.759719449690103
            ],
            [
              85.36561821368129,
              26.759432560952117
            ],
            [
              85.36602357216502,
              26.759257532381607
            ],
            [
              85.36623648636208,
              26.75916731166961
            ],
            [
              85.36730253866932,
              26.758849626774435
            ],
            [
              85.36769248924932,
              26.75872260229878
            ],
            [
              85.36816146282823,
              26.75864659064092
            ],
            [
              85.36864249089994,
              26.758607335096368
            ],
            [
              85.36921866223834,
              26.75855292034394
            ],
            [
              85.36982085507556,
              26.75852357732287
            ],
            [
              85.36997759671961,
              26.758498324287103
            ],
            [
              85.37018094655383,
              26.75846557065099
            ],
            [
              85.37052169101585,
              26.758410698623827
            ],
            [
              85.3708267229537,
              26.758361575347305
            ],
            [
              85.37113034363827,
              26.758710726182443
            ],
            [
              85.37150139186808,
              26.758955548307924
            ],
            [
              85.37185434802804,
              26.75918843127478
            ],
            [
              85.37208564085752,
              26.75935878765771
            ],
            [
              85.37249091489963,
              26.759657287904787
            ],
            [
              85.37322937497892,
              26.760111196171557
            ],
            [
              85.37362212470934,
              26.7604267992906
            ],
            [
              85.37382994456046,
              26.76063436572126
            ],
            [
              85.37397947902096,
              26.76078371533196
            ],
            [
              85.37461881000866,
              26.76084040698042
            ],
            [
              85.37510903772721,
              26.760910546603704
            ],
            [
              85.3754976417326,
              26.76126876774164
            ],
            [
              85.37661436081846,
              26.762298159250484
            ],
            [
              85.3767746876388,
              26.762408222765462
            ],
            [
              85.37706806932576,
              26.762609627147626
            ],
            [
              85.37722183485126,
              26.762820632144244
            ],
            [
              85.37800694893484,
              26.764369304746012
            ],
            [
              85.37824952101103,
              26.764847793733196
            ],
            [
              85.37838251479221,
              26.764900516308366
            ],
            [
              85.37853951784598,
              26.765372304185284
            ],
            [
              85.37896281658426,
              26.766113229041597
            ],
            [
              85.37916094361346,
              26.76639838770787
            ],
            [
              85.3793286015848,
              26.766652307065286
            ],
            [
              85.37959433492396,
              26.76705475874806
            ],
            [
              85.37991030205377,
              26.767434592700827
            ],
            [
              85.38010288198606,
              26.76768926286849
            ],
            [
              85.38049042867436,
              26.768138053254503
            ],
            [
              85.38073966355503,
              26.76849757979061
            ],
            [
              85.38093224708057,
              26.76875224917904
            ],
            [
              85.38190206107477,
              26.77036529870898
            ],
            [
              85.38222076806623,
              26.77083077517405
            ],
            [
              85.38312830365841,
              26.772156219167424
            ],
            [
              85.38325006760022,
              26.772357664011235
            ],
            [
              85.38325009814295,
              26.772357708924304
            ],
            [
              85.38381948001442,
              26.773299676093682
            ],
            [
              85.38443663069945,
              26.774264973004865
            ],
            [
              85.3845813771395,
              26.774363542624652
            ],
            [
              85.38472605261263,
              26.77446208168275
            ],
            [
              85.38617423117375,
              26.77456255027509
            ],
            [
              85.39001586840143,
              26.775114684844446
            ],
            [
              85.39067528302397,
              26.775178001871442
            ],
            [
              85.3924362423906,
              26.775397433364258
            ],
            [
              85.39281964515048,
              26.775609611182954
            ],
            [
              85.39286577094539,
              26.775635555745044
            ],
            [
              85.39361923558486,
              26.776059291759683
            ],
            [
              85.39483478372507,
              26.776752482369062
            ],
            [
              85.3958677645551,
              26.77737057666043
            ],
            [
              85.39616122080221,
              26.77754616597607
            ],
            [
              85.39682415322739,
              26.778008304041627
            ],
            [
              85.39755499199984,
              26.778517772817374
            ],
            [
              85.3981225502913,
              26.778857018282594
            ],
            [
              85.39839081867616,
              26.779077680107036
            ],
            [
              85.39861532473367,
              26.779252677334487
            ],
            [
              85.39869885188541,
              26.779317783654115
            ],
            [
              85.39913102238542,
              26.779664872373985
            ],
            [
              85.39941278705915,
              26.779885956868025
            ],
            [
              85.39967172823641,
              26.78013185931059
            ],
            [
              85.39988163667054,
              26.78033119688274
            ],
            [
              85.40035310307437,
              26.780709833211183
            ],
            [
              85.40063202368188,
              26.781003573865462
            ],
            [
              85.40106349259769,
              26.781368819310856
            ],
            [
              85.40130246242956,
              26.78160305974209
            ],
            [
              85.4014277423774,
              26.781725877248988
            ],
            [
              85.40177460256984,
              26.782009636603036
            ],
            [
              85.40191702776319,
              26.782162379223077
            ],
            [
              85.40217648457347,
              26.782440629710138
            ],
            [
              85.40253717882129,
              26.782888506121658
            ],
            [
              85.4029124554211,
              26.783136787037627
            ],
            [
              85.4029274545914,
              26.783200004961554
            ],
            [
              85.40295303322083,
              26.783307811605486
            ],
            [
              85.40322888069173,
              26.78368026067084
            ],
            [
              85.40351964558627,
              26.78401680662733
            ],
            [
              85.4037390528062,
              26.78427834987617
            ],
            [
              85.40424166110601,
              26.78492995113642
            ],
            [
              85.40438823022777,
              26.785123852028182
            ],
            [
              85.40447158759793,
              26.78523506904784
            ],
            [
              85.4046189229826,
              26.785439776178837
            ],
            [
              85.4048680329974,
              26.785805313684655
            ],
            [
              85.40501086333097,
              26.786125061104247
            ],
            [
              85.4052769964204,
              26.786745752294753
            ],
            [
              85.40527729286444,
              26.786748538154914
            ],
            [
              85.40528509473269,
              26.78682197529689
            ],
            [
              85.40533127891807,
              26.78725669827484
            ],
            [
              85.40546048630033,
              26.78775182107234
            ],
            [
              85.40556484179027,
              26.788191599719475
            ],
            [
              85.40557687741841,
              26.788222114680202
            ],
            [
              85.40561839305927,
              26.78832740819201
            ],
            [
              85.40566564713819,
              26.78844724977002
            ],
            [
              85.40572459638375,
              26.788596752053373
            ],
            [
              85.40596778470423,
              26.78911365824483
            ],
            [
              85.40592637506457,
              26.78929245623801
            ],
            [
              85.405919002591,
              26.789324298847358
            ],
            [
              85.40598847560014,
              26.789371950077907
            ],
            [
              85.40637289525294,
              26.789635671767876
            ],
            [
              85.40666200455239,
              26.789891911165572
            ],
            [
              85.40673494595686,
              26.789956559114184
            ],
            [
              85.40694738494514,
              26.79014484217552
            ],
            [
              85.40715545003629,
              26.79035146098101
            ],
            [
              85.40740600184714,
              26.79068066510364
            ],
            [
              85.40748161394292,
              26.790992226755254
            ],
            [
              85.40773796527724,
              26.79134586324873
            ],
            [
              85.40809849333672,
              26.791314796629322
            ],
            [
              85.41004664364226,
              26.79114691308675
            ],
            [
              85.41089664034386,
              26.791073655158577
            ],
            [
              85.41135528329701,
              26.7910341253511
            ],
            [
              85.41556638592297,
              26.79067110738405
            ],
            [
              85.41683807337853,
              26.790626272935867
            ],
            [
              85.41775431544245,
              26.79051568106088
            ],
            [
              85.41843004077558,
              26.79033689221208
            ],
            [
              85.41948107414956,
              26.789715238339877
            ],
            [
              85.42027288876686,
              26.789158170124914
            ],
            [
              85.42231498398651,
              26.78737340069334
            ],
            [
              85.42255141158611,
              26.787225134953236
            ],
            [
              85.42312511884569,
              26.786865392658164
            ],
            [
              85.42388555171685,
              26.7865922451991
            ],
            [
              85.4247314296429,
              26.786206597249755
            ]
          ]
        ]
      }
    }
  ]
}