{
  "type": "FeatureCollection",
  "features": [
    {
      "type": "Feature",
      "properties": {
        "object_id": "10-230-01403",
        "stname": "BIHAR",
        "dtname": "Patna",
        "sdtname": "Bihta",
        "st_area_sh": 0.0,
        "st_length_": 0.0,
        "remarks": "",
        "dist_lgd": 212,
        "state_lgd": 10,
        "subdt_lgd": 1403,
        "ac_no": null,
        "st_length(shape)": 116564.9809665079,
        "st_area(shape)": 244879174.98088208
      },
      "geometry": {
        "type": "Polygon",
        "coordinates": [
          [
            [
              84.85957841778774,
              25.635048156758433
            ],
            [
              84.86342819195528,
              25.633171883829394
            ],
            [
              84.86491912493403,
              25.633997179117415
            ],
            [
              84.8660040283875,
              25.634162552379
            ],
            [
              84.86774982688708,
              25.633165180244823
            ],
            [
              84.8684529652094,
              25.63281498566223
            ],
            [
              84.86937951544122,
              25.6326368771502
            ],
            [
              84.86954151492462,
              25.631797762610702
            ],
            [
              84.86895927726309,
              25.630153460637462
            ],
            [
              84.86896057802362,
              25.629742753971158
            ],
            [
              84.87018318961691,
              25.62884323363873
            ],
            [
              84.87072780313937,
              25.628230878704528
            ],
            [
              84.8706385680923,
              25.628104216390287
            ],
            [
              84.86810518334548,
              25.62789449129408
            ],
            [
              84.86778678986605,
              25.627812482322483
            ],
            [
              84.86729635733165,
              25.625468725327064
            ],
            [
              84.86729679211625,
              25.625346893104034
            ],
            [
              84.86870197730785,
              25.624939894109566
            ],
            [
              84.86929032800487,
              25.62465709997272
            ],
            [
              84.86938088716866,
              25.624368450741038
            ],
            [
              84.86862772436311,
              25.620096896294662
            ],
            [
              84.86858517386302,
              25.619401751159437
            ],
            [
              84.87098230304589,
              25.618586484929153
            ],
            [
              84.87397108243778,
              25.617975909654703
            ],
            [
              84.87673516712597,
              25.617617441641375
            ],
            [
              84.87962848794253,
              25.6172952878593
            ],
            [
              84.88062263639947,
              25.617749128224748
            ],
            [
              84.8811620630495,
              25.618815667237087
            ],
            [
              84.88138715121528,
              25.620089036925076
            ],
            [
              84.88115701811086,
              25.620458503685587
            ],
            [
              84.87998389290995,
              25.61988239274823
            ],
            [
              84.87930726926156,
              25.619754294368587
            ],
            [
              84.87930656677898,
              25.61996186135093
            ],
            [
              84.87925554157256,
              25.621970217324634
            ],
            [
              84.87972084822846,
              25.624453681685047
            ],
            [
              84.88313672982558,
              25.624236689646906
            ],
            [
              84.8844081980922,
              25.62358541390848
            ],
            [
              84.88513150988088,
              25.623135889379867
            ],
            [
              84.88580867162014,
              25.623096915895804
            ],
            [
              84.8884584834177,
              25.622674803988932
            ],
            [
              84.8890016012452,
              25.622509098928955
            ],
            [
              84.88918249589226,
              25.621936386841504
            ],
            [
              84.88837859534115,
              25.619433946163845
            ],
            [
              84.88788582628868,
              25.617749311286953
            ],
            [
              84.8883437110637,
              25.616148204684126
            ],
            [
              84.88988965058225,
              25.613570421868683
            ],
            [
              84.89088882780813,
              25.612381349852097
            ],
            [
              84.89353659324347,
              25.61253221273251
            ],
            [
              84.89543225588525,
              25.612866308855146
            ],
            [
              84.89622839229739,
              25.612981086188718
            ],
            [
              84.89509464744191,
              25.61425104300856
            ],
            [
              84.8945939525537,
              25.615233739865914
            ],
            [
              84.89454760667157,
              25.61572561299452
            ],
            [
              84.89536175071187,
              25.61650841297374
            ],
            [
              84.89621595512229,
              25.617210021027933
            ],
            [
              84.89621386384431,
              25.617905097103442
            ],
            [
              84.89625421077699,
              25.6194261637005
            ],
            [
              84.89553035101598,
              25.620119492688076
            ],
            [
              84.895349052127,
              25.62081865038217
            ],
            [
              84.89541503158802,
              25.622073445314417
            ],
            [
              84.89609050090128,
              25.62260766908704
            ],
            [
              84.89708589172827,
              25.62269130077445
            ],
            [
              84.89871478976497,
              25.62236583004194
            ],
            [
              84.9000289531604,
              25.62241407072355
            ],
            [
              84.90156898176438,
              25.621840088128902
            ],
            [
              84.90247175898052,
              25.62122837606104
            ],
            [
              84.90428438315405,
              25.62107024723483
            ],
            [
              84.90541362116173,
              25.62135723991622
            ],
            [
              84.90762863398874,
              25.62148433300665
            ],
            [
              84.90948773519847,
              25.620712349017754
            ],
            [
              84.91081107668116,
              25.619248547142707
            ],
            [
              84.91176165864346,
              25.619332029711746
            ],
            [
              84.91221414993353,
              25.6195361338782
            ],
            [
              84.9128443396649,
              25.620277792871086
            ],
            [
              84.91352086629527,
              25.62044184378347
            ],
            [
              84.91424838938602,
              25.620199775986087
            ],
            [
              84.9151046437519,
              25.620201786388815
            ],
            [
              84.91576009860061,
              25.620794568601156
            ],
            [
              84.91679694038974,
              25.62211025729549
            ],
            [
              84.91833209832826,
              25.62326016430445
            ],
            [
              84.920839406779,
              25.625707599322322
            ],
            [
              84.92178941112458,
              25.62513424002216
            ],
            [
              84.92152013033838,
              25.6243957344017
            ],
            [
              84.92147787987562,
              25.623452340607642
            ],
            [
              84.92265347903682,
              25.623206719890216
            ],
            [
              84.92401410509537,
              25.622636539893882
            ],
            [
              84.92509964096281,
              25.622557749401135
            ],
            [
              84.92532467343305,
              25.622188191125
            ],
            [
              84.92535056108291,
              25.62179557313378
            ],
            [
              84.92426809206387,
              25.620768581720704
            ],
            [
              84.92295563367082,
              25.620111204023356
            ],
            [
              84.92178213297416,
              25.61961211567402
            ],
            [
              84.92178376521302,
              25.618998355855958
            ],
            [
              84.92138007939232,
              25.617354545136518
            ],
            [
              84.92151624871802,
              25.616700425983566
            ],
            [
              84.92215424121596,
              25.616412997666814
            ],
            [
              84.9223343911597,
              25.616088420295085
            ],
            [
              84.92206757984218,
              25.615347713810166
            ],
            [
              84.92155202142926,
              25.612737753380035
            ],
            [
              84.92137184094285,
              25.611261529661746
            ],
            [
              84.92115323412183,
              25.609288740349836
            ],
            [
              84.9217018792833,
              25.60707387026855
            ],
            [
              84.92148274335457,
              25.60530863992247
            ],
            [
              84.92075815955145,
              25.604530773815522
            ],
            [
              84.91979582672691,
              25.603314491101926
            ],
            [
              84.92096012777678,
              25.603484053769666
            ],
            [
              84.92267076801276,
              25.604088224689473
            ],
            [
              84.92367604210452,
              25.60413104020563
            ],
            [
              84.92417823358598,
              25.604339796006148
            ],
            [
              84.92431011884611,
              25.6052924210299
            ],
            [
              84.92456343567139,
              25.605478035313315
            ],
            [
              84.92524483296722,
              25.605664624658772
            ],
            [
              84.92769801163392,
              25.60597245338589
            ],
            [
              84.92817513203413,
              25.606244238906772
            ],
            [
              84.9284712760406,
              25.607197265137597
            ],
            [
              84.92871000961556,
              25.60721807774143
            ],
            [
              84.92894906568571,
              25.607238918694463
            ],
            [
              84.92931353016279,
              25.606801944059015
            ],
            [
              84.92956927243932,
              25.606102949008434
            ],
            [
              84.92988899991691,
              25.60568838626216
            ],
            [
              84.93066517127187,
              25.605793860116215
            ],
            [
              84.9316703501422,
              25.60591793435162
            ],
            [
              84.93315543419011,
              25.605257706873118
            ],
            [
              84.93307499814128,
              25.603664323356742
            ],
            [
              84.93273236811548,
              25.603388281339814
            ],
            [
              84.93215396626022,
              25.60375710627997
            ],
            [
              84.93178550967004,
              25.603787865943413
            ],
            [
              84.93151285032006,
              25.60338556667128
            ],
            [
              84.9311784021499,
              25.601845825257595
            ],
            [
              84.93117897527505,
              25.601660817785216
            ],
            [
              84.93196109707043,
              25.601387183681993
            ],
            [
              84.93331616165905,
              25.600929788747784
            ],
            [
              84.93471242478329,
              25.599948883776992
            ],
            [
              84.93481538518958,
              25.59865823070534
            ],
            [
              84.9350930733085,
              25.59715134560014
            ],
            [
              84.93548220372665,
              25.596804727606703
            ],
            [
              84.93718039061783,
              25.596469817763005
            ],
            [
              84.93762283425146,
              25.596682918012934
            ],
            [
              84.93761793933147,
              25.598560419339496
            ],
            [
              84.93747427176811,
              25.60022105969975
            ],
            [
              84.9375078148608,
              25.600713086147735
            ],
            [
              84.93771138208736,
              25.60089860303407
            ],
            [
              84.94076300402325,
              25.60071998193248
            ],
            [
              84.94361537873084,
              25.600635762921343
            ],
            [
              84.94503908898025,
              25.60057552682471
            ],
            [
              84.94565108333555,
              25.60067160287409
            ],
            [
              84.94620808821904,
              25.60083977830628
            ],
            [
              84.94702196096813,
              25.601798297278346
            ],
            [
              84.9478010365764,
              25.60275221037536
            ],
            [
              84.94820580756193,
              25.604107084678336
            ],
            [
              84.94843605565072,
              25.605583447785925
            ],
            [
              84.94887797826148,
              25.606017618296004
            ],
            [
              84.94975875932955,
              25.606109719728703
            ],
            [
              84.95033603918904,
              25.606174012388994
            ],
            [
              84.95131750163755,
              25.605837575031995
            ],
            [
              84.95193094138212,
              25.605346843138154
            ],
            [
              84.95247218173068,
              25.60589855538076
            ],
            [
              84.95287982013862,
              25.606116035988943
            ],
            [
              84.95325296862954,
              25.606180011091304
            ],
            [
              84.95416972542816,
              25.605843317762645
            ],
            [
              84.95495122738598,
              25.605813325783753
            ],
            [
              84.95563653684488,
              25.606473691148924
            ],
            [
              84.95629651830434,
              25.60730548707352
            ],
            [
              84.95665923286323,
              25.60759501838475
            ],
            [
              84.95741078229457,
              25.607614589069208
            ],
            [
              84.95862000090526,
              25.607761444032707
            ],
            [
              84.95869173587225,
              25.606917627218138
            ],
            [
              84.95883778397115,
              25.60416922759556
            ],
            [
              84.95938208757485,
              25.60347072670955
            ],
            [
              84.96028904734693,
              25.60302123264215
            ],
            [
              84.96259655969874,
              25.601834264881198
            ],
            [
              84.96445569594275,
              25.60077273483468
            ],
            [
              84.96454754239234,
              25.59978904010347
            ],
            [
              84.96423274486902,
              25.59822681063932
            ],
            [
              84.9649155740794,
              25.597817413613594
            ],
            [
              84.96563789592464,
              25.597575078016327
            ],
            [
              84.96672369320181,
              25.597247724965552
            ],
            [
              84.96796806468622,
              25.59722754173213
            ],
            [
              84.97000362106888,
              25.59731269886454
            ],
            [
              84.97045688311347,
              25.597191656189036
            ],
            [
              84.97059145792954,
              25.597106225950046
            ],
            [
              84.97059221520932,
              25.596781246170785
            ],
            [
              84.97005137461107,
              25.596039983381225
            ],
            [
              84.97005254062431,
              25.595548044648403
            ],
            [
              84.97055107955585,
              25.59517895782213
            ],
            [
              84.9713175940215,
              25.59518039262008
            ],
            [
              84.97263075310043,
              25.59555300120779
            ],
            [
              84.97367114233664,
              25.595473740791792
            ],
            [
              84.97532499377532,
              25.594876566680146
            ],
            [
              84.97613651832826,
              25.59475618587494
            ],
            [
              84.97837722476899,
              25.594327102842374
            ],
            [
              84.97950770155343,
              25.594040307756867
            ],
            [
              84.98022942781566,
              25.594041662361644
            ],
            [
              84.98122443955357,
              25.594210492821652
            ],
            [
              84.98204142406681,
              25.593923144109713
            ],
            [
              84.98339369669156,
              25.594584558679816
            ],
            [
              84.98452535026904,
              25.596021928226122
            ],
            [
              84.986103453068,
              25.598159606104762
            ],
            [
              84.98709604833782,
              25.599474715199374
            ],
            [
              84.98795010901779,
              25.600419584750846
            ],
            [
              84.98890028404325,
              25.600624430073307
            ],
            [
              84.99005525339396,
              25.600563296351208
            ],
            [
              84.99091788669666,
              25.59982461539709
            ],
            [
              84.99218543202043,
              25.59831038323384
            ],
            [
              84.99351931882624,
              25.598335278065942
            ],
            [
              84.9945580237213,
              25.599077305170557
            ],
            [
              84.99568651163574,
              25.599733654649327
            ],
            [
              84.9966810733177,
              25.60014614466863
            ],
            [
              84.99674058311201,
              25.600250033129935
            ],
            [
              84.99673031985989,
              25.598038455727202
            ],
            [
              84.99656442707807,
              25.59644045535321
            ],
            [
              84.99570181623322,
              25.59483668631873
            ],
            [
              84.99555890235635,
              25.594168436933224
            ],
            [
              84.99539144201432,
              25.593306129167424
            ],
            [
              84.99542773664676,
              25.592660753137558
            ],
            [
              84.99559760896533,
              25.592354179142863
            ],
            [
              84.99637976399836,
              25.591971831087676
            ],
            [
              84.9972408638769,
              25.59192819779296
            ],
            [
              84.99778336456178,
              25.591942695235577
            ],
            [
              84.99779907699445,
              25.59193616838893
            ],
            [
              85.00000003118721,
              25.591021878097912
            ],
            [
              85.00008081129084,
              25.590988039666065
            ],
            [
              85.00186810566832,
              25.590706821234978
            ],
            [
              85.00411509582447,
              25.59201494584874
            ],
            [
              85.00841610004746,
              25.59409826975743
            ],
            [
              85.0096591779578,
              25.594700641728064
            ],
            [
              85.01004853115818,
              25.594137059876708
            ],
            [
              85.01004913392772,
              25.59382110382566
            ],
            [
              85.00718006492887,
              25.592475935622065
            ],
            [
              85.003575741938,
              25.590465994397412
            ],
            [
              85.00291501038525,
              25.589864522298893
            ],
            [
              85.00249362775348,
              25.589055978640996
            ],
            [
              85.00164210661084,
              25.58687000460224
            ],
            [
              85.0011027967418,
              25.585357135729726
            ],
            [
              85.00033642780325,
              25.582909564111812
            ],
            [
              85.00033790193862,
              25.582205448007077
            ],
            [
              85.00095592578613,
              25.581782221847924
            ],
            [
              85.00095760294074,
              25.580974412769535
            ],
            [
              85.00000001501755,
              25.580515717099487
            ],
            [
              84.99929157214346,
              25.579944172391752
            ],
            [
              84.99914030842604,
              25.578499647806176
            ],
            [
              84.99782194540664,
              25.578321357884906
            ],
            [
              84.9977993626587,
              25.578289119399706
            ],
            [
              84.99725328488233,
              25.57891619272018
            ],
            [
              84.99698469400228,
              25.57888404190463
            ],
            [
              84.99685574533478,
              25.578658166766537
            ],
            [
              84.99663275832846,
              25.578192954070435
            ],
            [
              84.99627993781412,
              25.57798017416936
            ],
            [
              84.99583711778638,
              25.577929778042606
            ],
            [
              84.9953292732068,
              25.578023648873877
            ],
            [
              84.99519525265124,
              25.57788348028951
            ],
            [
              84.99500722088922,
              25.5773461453351
            ],
            [
              84.99482489881915,
              25.576528875366108
            ],
            [
              84.99467154741703,
              25.57606823335508
            ],
            [
              84.99494604382176,
              25.5757166698296
            ],
            [
              84.99518002980042,
              25.57564035628093
            ],
            [
              84.99570753221337,
              25.57565478925268
            ],
            [
              84.99585247987604,
              25.575352694765954
            ],
            [
              84.99585314373103,
              25.575032222747126
            ],
            [
              84.9956149177042,
              25.57472487026638
            ],
            [
              84.99520693344486,
              25.574692595969655
            ],
            [
              84.99456485181575,
              25.574754593727256
            ],
            [
              84.99395287991837,
              25.57472197181937
            ],
            [
              84.99368434832712,
              25.574613201000595
            ],
            [
              84.99344659481413,
              25.57408924814714
            ],
            [
              84.99336353568464,
              25.573366944604366
            ],
            [
              84.99306187063245,
              25.572472750906535
            ],
            [
              84.9928734256454,
              25.572197124730373
            ],
            [
              84.99258482838565,
              25.57215143087854
            ],
            [
              84.99217646503728,
              25.572304157992548
            ],
            [
              84.99178785564197,
              25.572533692351374
            ],
            [
              84.99156895237692,
              25.572515222008903
            ],
            [
              84.99143481414207,
              25.57237956611278
            ],
            [
              84.99130645387113,
              25.571937086856092
            ],
            [
              84.99113898634262,
              25.571119885304586
            ],
            [
              84.99120948522778,
              25.57073630091439
            ],
            [
              84.9917182146479,
              25.570213672194168
            ],
            [
              84.99283994273982,
              25.569218188626905
            ],
            [
              84.99346744381357,
              25.568989073340926
            ],
            [
              84.99416453557572,
              25.568787184276083
            ],
            [
              84.9943835816729,
              25.568728939362266
            ],
            [
              84.99450361006961,
              25.568467337286613
            ],
            [
              84.99451433415746,
              25.56791759336477
            ],
            [
              84.9943541178299,
              25.567889283073153
            ],
            [
              84.99430281504402,
              25.567852742884952
            ],
            [
              84.9940503004143,
              25.567672895014866
            ],
            [
              84.99371152775433,
              25.567248859799577
            ],
            [
              84.99318323033238,
              25.56635562525813
            ],
            [
              84.99256516785735,
              25.565295512210326
            ],
            [
              84.99229091938764,
              25.564708974333172
            ],
            [
              84.99210621678206,
              25.56411788496093
            ],
            [
              84.99153287064523,
              25.562985445115768
            ],
            [
              84.99136338280563,
              25.562687668800027
            ],
            [
              84.99097965126235,
              25.562096736392746
            ],
            [
              84.99065600892672,
              25.561817151899817
            ],
            [
              84.99007354488975,
              25.56154231726235
            ],
            [
              84.9893219451528,
              25.561312728610677
            ],
            [
              84.98835644307196,
              25.561038131071665
            ],
            [
              84.98758007498594,
              25.560921389750145
            ],
            [
              84.98671916195701,
              25.560849789754666
            ],
            [
              84.98615189741466,
              25.56079161472685
            ],
            [
              84.98543003730347,
              25.560331780114446
            ],
            [
              84.98486243319796,
              25.560002697910235
            ],
            [
              84.98372230401577,
              25.559240742156373
            ],
            [
              84.98310510841495,
              25.558997538300524
            ],
            [
              84.98244819200724,
              25.55882644980831
            ],
            [
              84.9811504255607,
              25.55859731869603
            ],
            [
              84.98112438879048,
              25.55859272285963
            ],
            [
              84.97976598067238,
              25.5584763957064
            ],
            [
              84.97899962431022,
              25.558440808931934
            ],
            [
              84.97764131231182,
              25.55845535581338
            ],
            [
              84.97564070039371,
              25.55804594916644
            ],
            [
              84.97504869894334,
              25.558087046060805
            ],
            [
              84.97495382876453,
              25.557757606780594
            ],
            [
              84.9749336669763,
              25.557441659245058
            ],
            [
              84.9749880159493,
              25.556949635619954
            ],
            [
              84.97509699955955,
              25.556439592611422
            ],
            [
              84.97540472734163,
              25.555514083907227
            ],
            [
              84.97554362485083,
              25.55495886764294
            ],
            [
              84.97565740726135,
              25.55416896825654
            ],
            [
              84.97558712307351,
              25.55346038130653
            ],
            [
              84.97531293209599,
              25.552788060218692
            ],
            [
              84.97494932820496,
              25.552314355599894
            ],
            [
              84.97454107175608,
              25.55201677806816
            ],
            [
              84.97458076920681,
              25.551863329715136
            ],
            [
              84.97466993867687,
              25.55138929968889
            ],
            [
              84.97473891132437,
              25.550536223757632
            ],
            [
              84.97403010283597,
              25.55184347435788
            ],
            [
              84.9736900949925,
              25.55255144520031
            ],
            [
              84.97247009659841,
              25.553009413224494
            ],
            [
              84.9720273367578,
              25.552981508685914
            ],
            [
              84.97135163208591,
              25.552578545871697
            ],
            [
              84.97033474637081,
              25.551254148286482
            ],
            [
              84.96796666960256,
              25.549033539783185
            ],
            [
              84.96630830323129,
              25.54755449502557
            ],
            [
              84.9655948657242,
              25.548415189610473
            ],
            [
              84.96537464103737,
              25.54895180984614
            ],
            [
              84.96550769500568,
              25.551628496687567
            ],
            [
              84.96526679828753,
              25.552490097277854
            ],
            [
              84.96479133797395,
              25.55365819373784
            ],
            [
              84.96442868899204,
              25.555516995786004
            ],
            [
              84.96385011555857,
              25.556129710077172
            ],
            [
              84.96195288535661,
              25.55677140113912
            ],
            [
              84.95893132464339,
              25.55732052438013
            ],
            [
              84.95808432472155,
              25.557779168703878
            ],
            [
              84.95784492639328,
              25.558026966839165
            ],
            [
              84.95774291730287,
              25.55904231573804
            ],
            [
              84.95783610942877,
              25.561655708638906
            ],
            [
              84.9562921506954,
              25.56225289534602
            ],
            [
              84.95479853534728,
              25.562588416346674
            ],
            [
              84.95422198132654,
              25.562307448863578
            ],
            [
              84.95381646923089,
              25.561295591253128
            ],
            [
              84.95334571429275,
              25.560491251031507
            ],
            [
              84.95277101080154,
              25.55950614978155
            ],
            [
              84.95284139290573,
              25.55719997532617
            ],
            [
              84.95229887155958,
              25.557262032385463
            ],
            [
              84.95141686698605,
              25.55777930890579
            ],
            [
              84.95083933739494,
              25.557936125870768
            ],
            [
              84.94962108263081,
              25.557622194312604
            ],
            [
              84.94866999671366,
              25.55790002918484
            ],
            [
              84.94840056860374,
              25.558206415071542
            ],
            [
              84.94826012778886,
              25.558666518793665
            ],
            [
              84.94822544742898,
              25.56057558986975
            ],
            [
              84.94818402161965,
              25.56122545261888
            ],
            [
              84.94811312388251,
              25.561717226912624
            ],
            [
              84.94992436105726,
              25.563702364742788
            ],
            [
              84.95154763474196,
              25.565244754183794
            ],
            [
              84.95017212090418,
              25.56612205319201
            ],
            [
              84.94847383340169,
              25.566705290864892
            ],
            [
              84.94688083294207,
              25.56694573926587
            ],
            [
              84.94532372377127,
              25.566820563048996
            ],
            [
              84.94393069727705,
              25.56669585670742
            ],
            [
              84.94355812101296,
              25.566446848002904
            ],
            [
              84.94329047965215,
              25.566044586869076
            ],
            [
              84.94213961739894,
              25.56462944065435
            ],
            [
              84.9410932840105,
              25.563241623954948
            ],
            [
              84.94051784210413,
              25.562563417642714
            ],
            [
              84.93906302319643,
              25.561332691801677
            ],
            [
              84.93660869378789,
              25.559896712038235
            ],
            [
              84.9358626591141,
              25.559773279733967
            ],
            [
              84.93499803604301,
              25.55931557663094
            ],
            [
              84.93386541138669,
              25.558631573920405
            ],
            [
              84.93304883021702,
              25.558841961029113
            ],
            [
              84.93233705728817,
              25.55893520011818
            ],
            [
              84.93152561538025,
              25.55908685084716
            ],
            [
              84.93108108316358,
              25.559731277387986
            ],
            [
              84.93083787777513,
              25.56136011869555
            ],
            [
              84.929993016742,
              25.560988134632225
            ],
            [
              84.92870501228764,
              25.56071004921556
            ],
            [
              84.92591071905304,
              25.55991850129932
            ],
            [
              84.92482631326624,
              25.559794239976114
            ],
            [
              84.92299781765826,
              25.55883783929112
            ],
            [
              84.921745360438,
              25.558343095984316
            ],
            [
              84.92130244518884,
              25.558369196108167
            ],
            [
              84.92066013269272,
              25.558521231688253
            ],
            [
              84.92038427444201,
              25.559324004035897
            ],
            [
              84.92029510137867,
              25.56100724615334
            ],
            [
              84.91860896179377,
              25.56075522796924
            ],
            [
              84.91824292795988,
              25.559946457708836
            ],
            [
              84.91802364111419,
              25.5582715130874
            ],
            [
              84.91616878624082,
              25.556087301240243
            ],
            [
              84.91541926969701,
              25.555444719092122
            ],
            [
              84.91421057660075,
              25.555315571894635
            ],
            [
              84.91341559811701,
              25.55492111028906
            ],
            [
              84.91293449458684,
              25.554360355979863
            ],
            [
              84.91213897891056,
              25.554173458905403
            ],
            [
              84.91084027731779,
              25.554211040629422
            ],
            [
              84.90990954632665,
              25.554317179841306
            ],
            [
              84.90931257539616,
              25.554275190170493
            ],
            [
              84.90913386275689,
              25.554125864988663
            ],
            [
              84.90867798391987,
              25.553483911763095
            ],
            [
              84.9082471096888,
              25.5527607788644
            ],
            [
              84.90781620401668,
              25.552073741675038
            ],
            [
              84.90722467418188,
              25.551869229022465
            ],
            [
              84.90644766829203,
              25.552174270388495
            ],
            [
              84.9063768199622,
              25.552589406724
            ],
            [
              84.90646403829146,
              25.553420000879743
            ],
            [
              84.90673458121064,
              25.554517457020538
            ],
            [
              84.90673219079366,
              25.555343329201456
            ],
            [
              84.90580632058652,
              25.555481151225862
            ],
            [
              84.90452894769354,
              25.555022233093634
            ],
            [
              84.90375919929288,
              25.554501416834388
            ],
            [
              84.90338702816899,
              25.554161966863767
            ],
            [
              84.9024811850028,
              25.554250149209874
            ],
            [
              84.90133685709493,
              25.554247418028357
            ],
            [
              84.8997570852262,
              25.55339063277235
            ],
            [
              84.89703881282085,
              25.552255742835342
            ],
            [
              84.89576161330271,
              25.551765164842237
            ],
            [
              84.89429955038058,
              25.5515043491462
            ],
            [
              84.89352843474407,
              25.551470919362323
            ],
            [
              84.89285490489348,
              25.550431169652153
            ],
            [
              84.89128496867876,
              25.547985656003988
            ],
            [
              84.88991123709853,
              25.54651987822657
            ],
            [
              84.88886989115656,
              25.545357436755467
            ],
            [
              84.88851827707963,
              25.544823931403204
            ],
            [
              84.88875278497947,
              25.54458081500162
            ],
            [
              84.89030001986868,
              25.544616251085458
            ],
            [
              84.89171390793871,
              25.544281187949498
            ],
            [
              84.89222249093346,
              25.543916812615514
            ],
            [
              84.89235946964124,
              25.54300096662616
            ],
            [
              84.89259478332993,
              25.54251407508967
            ],
            [
              84.89320171298364,
              25.542515575360284
            ],
            [
              84.89431100030718,
              25.542581438923527
            ],
            [
              84.89498198792552,
              25.542795188676095
            ],
            [
              84.8953835627053,
              25.54328364336255
            ],
            [
              84.89632303789742,
              25.54356120591305
            ],
            [
              84.89787037878777,
              25.543533393194238
            ],
            [
              84.89840897898773,
              25.54307882230558
            ],
            [
              84.89874790885285,
              25.542867478671887
            ],
            [
              84.89791958939736,
              25.541994421882563
            ],
            [
              84.89617667089658,
              25.540861892918496
            ],
            [
              84.89526776896683,
              25.54034063417829
            ],
            [
              84.89469648805687,
              25.5400638876762
            ],
            [
              84.89451356501388,
              25.539684378937988
            ],
            [
              84.89451540386527,
              25.539043420716506
            ],
            [
              84.89471487387576,
              25.53889044289285
            ],
            [
              84.89545618430948,
              25.538892299847916
            ],
            [
              84.89599274982531,
              25.539137265282672
            ],
            [
              84.8968688461792,
              25.538958893269097
            ],
            [
              84.89643307433317,
              25.538271790753715
            ],
            [
              84.89569351830923,
              25.537687733012252
            ],
            [
              84.89458587759759,
              25.53710735721162
            ],
            [
              84.8929406922065,
              25.53658434188021
            ],
            [
              84.89190179866523,
              25.53630648434626
            ],
            [
              84.89068747942038,
              25.53645699406904
            ],
            [
              84.88991428867554,
              25.53715466284352
            ],
            [
              84.88974131806759,
              25.53844052801283
            ],
            [
              84.88963428739474,
              25.53929327421385
            ],
            [
              84.88949635018453,
              25.54051606271413
            ],
            [
              84.88922807012158,
              25.54039357012024
            ],
            [
              84.88836012957215,
              25.53950679234033
            ],
            [
              84.8876861011566,
              25.538647607066473
            ],
            [
              84.88688002398756,
              25.538677218707246
            ],
            [
              84.88533096192509,
              25.53931419913187
            ],
            [
              84.88513033398617,
              25.539832769729966
            ],
            [
              84.88539692880966,
              25.540505979689684
            ],
            [
              84.88572828497863,
              25.541179269354032
            ],
            [
              84.88539327536138,
              25.541724536233428
            ],
            [
              84.88498839388306,
              25.542364453194125
            ],
            [
              84.88515146864985,
              25.54270334408847
            ],
            [
              84.88569145764522,
              25.54349456317518
            ],
            [
              84.88579017800339,
              25.543743026287032
            ],
            [
              84.88528750682153,
              25.543800466353478
            ],
            [
              84.88491476706406,
              25.54367766101574
            ],
            [
              84.88431585756919,
              25.542638103880652
            ],
            [
              84.88290840682645,
              25.540865305250346
            ],
            [
              84.88142967386759,
              25.539611411844398
            ],
            [
              84.8801374554162,
              25.53919291220638
            ],
            [
              84.87983965401806,
              25.537364204148364
            ],
            [
              84.88075197493576,
              25.536725658715223
            ],
            [
              84.881995955653,
              25.536633965105793
            ],
            [
              84.8813958100763,
              25.53440738908072
            ],
            [
              84.8811648074027,
              25.533490596654918
            ],
            [
              84.88150428524014,
              25.533094278328246
            ],
            [
              84.88261456610039,
              25.53279011004874
            ],
            [
              84.88308761713238,
              25.531013030168097
            ],
            [
              84.88275278627988,
              25.529883844998544
            ],
            [
              84.8821880244439,
              25.52911963397809
            ],
            [
              84.88114594457834,
              25.52829105364662
            ],
            [
              84.88079429995871,
              25.527789205653196
            ],
            [
              84.88066173197895,
              25.527206618404705
            ],
            [
              84.88076276190571,
              25.52669237708011
            ],
            [
              84.88143596117624,
              25.52617506207666
            ],
            [
              84.8818092992117,
              25.52608118304967
            ],
            [
              84.88190939039897,
              25.525869280930305
            ],
            [
              84.88171227038121,
              25.52528660491688
            ],
            [
              84.88120816099662,
              25.524188612080767
            ],
            [
              84.88044180193953,
              25.522670120131302
            ],
            [
              84.87950889972034,
              25.5203163172078
            ],
            [
              84.8792614390124,
              25.51831620426712
            ],
            [
              84.87909672841346,
              25.51688054104559
            ],
            [
              84.87870147058678,
              25.514379158308465
            ],
            [
              84.87723086288966,
              25.512236071088022
            ],
            [
              84.87884371971033,
              25.511815847205924
            ],
            [
              84.88185417365341,
              25.511376608629732
            ],
            [
              84.8828309459978,
              25.510738216752326
            ],
            [
              84.88327550067237,
              25.51011647403731
            ],
            [
              84.88331252922835,
              25.509412426405348
            ],
            [
              84.8826730428321,
              25.508711244690755
            ],
            [
              84.88220678935187,
              25.50828132811436
            ],
            [
              84.88200481394001,
              25.50763995728265
            ],
            [
              84.88227471456376,
              25.507211836752315
            ],
            [
              84.88308172687904,
              25.506789562710022
            ],
            [
              84.885471285959,
              25.50603275285935
            ],
            [
              84.88675927873525,
              25.50579578778051
            ],
            [
              84.88729728784377,
              25.50543075882817
            ],
            [
              84.88741994021939,
              25.5049684377132
            ],
            [
              84.8873307033757,
              25.504793857972498
            ],
            [
              84.88673350337481,
              25.504405006987472
            ],
            [
              84.88554992807222,
              25.503634338825048
            ],
            [
              84.88155100661805,
              25.50357659170084
            ],
            [
              84.88121719625175,
              25.50441302637677
            ],
            [
              84.88080322921262,
              25.50545028702065
            ],
            [
              84.87953909479197,
              25.505710044271716
            ],
            [
              84.87724588361954,
              25.50544514431049
            ],
            [
              84.8745231879097,
              25.505405684157342
            ],
            [
              84.87141700769331,
              25.50491264762569
            ],
            [
              84.87056307098088,
              25.504822334777177
            ],
            [
              84.86658890979088,
              25.504401956846525
            ],
            [
              84.8665070957264,
              25.504393301807713
            ],
            [
              84.86418675363572,
              25.50374163923874
            ],
            [
              84.86047319281133,
              25.501030654873702
            ],
            [
              84.85997245480398,
              25.500299306093908
            ],
            [
              84.85938015241801,
              25.50005248003447
            ],
            [
              84.85855196501487,
              25.498905305967973
            ],
            [
              84.85856050889153,
              25.498875702350972
            ],
            [
              84.8587596043046,
              25.498185764359686
            ],
            [
              84.8585268121869,
              25.49738153359824
            ],
            [
              84.85797018279919,
              25.496925055131534
            ],
            [
              84.85750090469142,
              25.496517781759994
            ],
            [
              84.8570045720222,
              25.495645701296077
            ],
            [
              84.85650038717911,
              25.49522193762236
            ],
            [
              84.85586356877924,
              25.49332275014455
            ],
            [
              84.85522179437397,
              25.49251954824236
            ],
            [
              84.8550737493202,
              25.49233426087024
            ],
            [
              84.85392497565003,
              25.491941046044605
            ],
            [
              84.85255944658662,
              25.49182500860125
            ],
            [
              84.85217884657041,
              25.491891465966408
            ],
            [
              84.85214031064137,
              25.49191966608275
            ],
            [
              84.85196431899911,
              25.492048451773467
            ],
            [
              84.85153997372352,
              25.49259483463613
            ],
            [
              84.85130471034051,
              25.492927713321503
            ],
            [
              84.85145381271134,
              25.49347437436205
            ],
            [
              84.85141739411142,
              25.494034384313416
            ],
            [
              84.85128635326765,
              25.49445688807043
            ],
            [
              84.85066333388889,
              25.49476007020616
            ],
            [
              84.85005077359496,
              25.494967270848132
            ],
            [
              84.84966860512026,
              25.49561834126919
            ],
            [
              84.84967603957757,
              25.496194968957543
            ],
            [
              84.84933976692905,
              25.496742545963688
            ],
            [
              84.84823194026616,
              25.4980075033694
            ],
            [
              84.84759362527303,
              25.49867078197524
            ],
            [
              84.84694077194537,
              25.499080289133293
            ],
            [
              84.84643358044102,
              25.499398424726813
            ],
            [
              84.84564911314442,
              25.499851396784067
            ],
            [
              84.84514541788313,
              25.499892014161848
            ],
            [
              84.84368173799349,
              25.499341990700856
            ],
            [
              84.84281499130508,
              25.49896096019681
            ],
            [
              84.84179887993777,
              25.49854558962179
            ],
            [
              84.84111994133086,
              25.49851952593953
            ],
            [
              84.8404868680074,
              25.498398092375993
            ],
            [
              84.84011082694127,
              25.498208412947946
            ],
            [
              84.83974778898889,
              25.497786674014662
            ],
            [
              84.83924193238101,
              25.496970451700005
            ],
            [
              84.83856006526631,
              25.496119589141262
            ],
            [
              84.83779709824772,
              25.49537160127096
            ],
            [
              84.8372501302409,
              25.49487511396777
            ],
            [
              84.83715721299949,
              25.494573642189806
            ],
            [
              84.83706665473403,
              25.49427982403021
            ],
            [
              84.83704450587237,
              25.493550793725447
            ],
            [
              84.83696098500883,
              25.492300307002097
            ],
            [
              84.83676081700733,
              25.491160296702787
            ],
            [
              84.83669868323409,
              25.49019842760904
            ],
            [
              84.83653951164719,
              25.489723636611647
            ],
            [
              84.83657718070201,
              25.488114693148855
            ],
            [
              84.83624110029298,
              25.486684462735035
            ],
            [
              84.83614484311532,
              25.48582880627266
            ],
            [
              84.83611927975728,
              25.48560157110547
            ],
            [
              84.83557852988885,
              25.484272304278644
            ],
            [
              84.83488216666039,
              25.483741561827838
            ],
            [
              84.83350495141345,
              25.483296888803686
            ],
            [
              84.83192832095328,
              25.48315344609114
            ],
            [
              84.83100323407706,
              25.48308371264181
            ],
            [
              84.82986059140869,
              25.483339043602548
            ],
            [
              84.82921584717309,
              25.483625964093907
            ],
            [
              84.82860658998445,
              25.483897087280884
            ],
            [
              84.82721265619176,
              25.48438895800869
            ],
            [
              84.8261525606132,
              25.48495779404904
            ],
            [
              84.8252772448953,
              25.48555337424624
            ],
            [
              84.82440389379292,
              25.486525376995743
            ],
            [
              84.82324187715881,
              25.487853330405112
            ],
            [
              84.82190830566168,
              25.48939499561741
            ],
            [
              84.82154942601073,
              25.49021449261005
            ],
            [
              84.82119792422318,
              25.49209108434264
            ],
            [
              84.82096746682697,
              25.493128577067534
            ],
            [
              84.82085628324255,
              25.493338723912526
            ],
            [
              84.82070263988794,
              25.49362912340088
            ],
            [
              84.81996106085796,
              25.494138646144034
            ],
            [
              84.81920552380508,
              25.494936170260353
            ],
            [
              84.8184899276464,
              25.49596652984345
            ],
            [
              84.81812541196535,
              25.49612123269842
            ],
            [
              84.8178245652784,
              25.496164775197784
            ],
            [
              84.81761345759334,
              25.496129678327726
            ],
            [
              84.81756986414926,
              25.496062031382543
            ],
            [
              84.81746757029288,
              25.495903292120722
            ],
            [
              84.81740067095707,
              25.495213586797348
            ],
            [
              84.81724490218848,
              25.494554601978148
            ],
            [
              84.81704984021104,
              25.493142415076022
            ],
            [
              84.81647518612718,
              25.491740461682607
            ],
            [
              84.81583730591863,
              25.490425753011554
            ],
            [
              84.81518434658977,
              25.48896666572495
            ],
            [
              84.81457066879163,
              25.487772453207146
            ],
            [
              84.8133612067375,
              25.48635308394691
            ],
            [
              84.81310901999282,
              25.486149119348656
            ],
            [
              84.81279016477936,
              25.486216484005087
            ],
            [
              84.81237263592013,
              25.48637841478367
            ],
            [
              84.81191690979672,
              25.486699903005004
            ],
            [
              84.81119932476798,
              25.487345767696368
            ],
            [
              84.8110207738255,
              25.48746324311956
            ],
            [
              84.81096135476102,
              25.487334271686315
            ],
            [
              84.81086413099614,
              25.486860293243048
            ],
            [
              84.8106449241005,
              25.485808072323167
            ],
            [
              84.81026337905661,
              25.484473068152525
            ],
            [
              84.80992930638224,
              25.48342707364767
            ],
            [
              84.80947432406387,
              25.482731659997217
            ],
            [
              84.8090134461023,
              25.482170073647662
            ],
            [
              84.80883558596426,
              25.48195334686707
            ],
            [
              84.80824722897903,
              25.48132002265173
            ],
            [
              84.80781448625217,
              25.481345508626173
            ],
            [
              84.80738086766786,
              25.481419180156415
            ],
            [
              84.80736771184054,
              25.48142555894367
            ],
            [
              84.80682014375913,
              25.48169106167406
            ],
            [
              84.8063217350833,
              25.48193183132538
            ],
            [
              84.80560832362737,
              25.482353518048946
            ],
            [
              84.80339266670832,
              25.483881894790855
            ],
            [
              84.80242051799269,
              25.484459814623534
            ],
            [
              84.80187582541848,
              25.48530851677669
            ],
            [
              84.80144453077584,
              25.48573440996984
            ],
            [
              84.80009098074676,
              25.48642682376726
            ],
            [
              84.79953877735845,
              25.48671477970038
            ],
            [
              84.79944553313027,
              25.486985612107567
            ],
            [
              84.79928729129972,
              25.48743969728232
            ],
            [
              84.79904421976025,
              25.48770828108238
            ],
            [
              84.79860853505082,
              25.48789390886184
            ],
            [
              84.79783550959601,
              25.488194610027715
            ],
            [
              84.79764357285745,
              25.488278158808537
            ],
            [
              84.7969284968233,
              25.488589423199297
            ],
            [
              84.79668356577119,
              25.4889541043727
            ],
            [
              84.7964584596391,
              25.48968735479252
            ],
            [
              84.7962686474162,
              25.490421225109085
            ],
            [
              84.79596482640731,
              25.491113303776284
            ],
            [
              84.79465864903477,
              25.492583083708503
            ],
            [
              84.79394903924913,
              25.492973601155896
            ],
            [
              84.79386550131757,
              25.493019574923217
            ],
            [
              84.79326537730044,
              25.493026519070373
            ],
            [
              84.7925414259113,
              25.49305569680909
            ],
            [
              84.79202524766082,
              25.49329614530219
            ],
            [
              84.79144801002221,
              25.49350362821191
            ],
            [
              84.7912883030394,
              25.493557184031626
            ],
            [
              84.79035307328532,
              25.494039624002834
            ],
            [
              84.78871690158975,
              25.49425514110226
            ],
            [
              84.78758518333358,
              25.494382212598076
            ],
            [
              84.78638814857308,
              25.494708494187595
            ],
            [
              84.78554622323426,
              25.49491195613306
            ],
            [
              84.78512477502548,
              25.49480151717418
            ],
            [
              84.78464467132021,
              25.494521942032232
            ],
            [
              84.78425374966137,
              25.49370728599044
            ],
            [
              84.78386933090691,
              25.493020898235727
            ],
            [
              84.78360546606355,
              25.49249636828131
            ],
            [
              84.78323692233676,
              25.49238672417517
            ],
            [
              84.78310395370842,
              25.49242469987107
            ],
            [
              84.78237829102864,
              25.492541896260146
            ],
            [
              84.78182822563072,
              25.492709766140276
            ],
            [
              84.7812646890968,
              25.492740508095523
            ],
            [
              84.78056531561381,
              25.492778657202535
            ],
            [
              84.7801322360187,
              25.492820210265165
            ],
            [
              84.77949211092027,
              25.493082745241185
            ],
            [
              84.77883183301678,
              25.493489122104524
            ],
            [
              84.77845283739168,
              25.493947776154545
            ],
            [
              84.7784974836613,
              25.494396872657976
            ],
            [
              84.77864896387271,
              25.49527191120449
            ],
            [
              84.77873348635777,
              25.495953855706208
            ],
            [
              84.77853190530632,
              25.49683961016136
            ],
            [
              84.77831423273322,
              25.497156649777036
            ],
            [
              84.77759769064853,
              25.4977383571759
            ],
            [
              84.77617752065966,
              25.498575863053986
            ],
            [
              84.77592970242225,
              25.498722004399184
            ],
            [
              84.77522498755658,
              25.49913572030777
            ],
            [
              84.77483603320825,
              25.49917783387512
            ],
            [
              84.77451255795924,
              25.499012800336402
            ],
            [
              84.77380406927108,
              25.49868170203288
            ],
            [
              84.77336931162303,
              25.497858411389625
            ],
            [
              84.77266499201609,
              25.4963422370106
            ],
            [
              84.77225659992162,
              25.49551094197471
            ],
            [
              84.77219731829938,
              25.495390270800527
            ],
            [
              84.7716367992065,
              25.494204649777924
            ],
            [
              84.77104905577062,
              25.493066632783297
            ],
            [
              84.770657163033,
              25.493268907989727
            ],
            [
              84.77015304825846,
              25.49333326931697
            ],
            [
              84.76978848676333,
              25.493487848259022
            ],
            [
              84.76867443567384,
              25.49409550509002
            ],
            [
              84.7680715026248,
              25.494254484317864
            ],
            [
              84.76727858577468,
              25.49419439015231
            ],
            [
              84.76669101481531,
              25.49400121582522
            ],
            [
              84.7660340382205,
              25.493742987650137
            ],
            [
              84.76571480032469,
              25.493834251033743
            ],
            [
              84.76512931435512,
              25.494001425834526
            ],
            [
              84.76431287601758,
              25.49426129460428
            ],
            [
              84.76341333543142,
              25.49423954125566
            ],
            [
              84.76209622915509,
              25.49437161973065
            ],
            [
              84.76152062465366,
              25.494482969661792
            ],
            [
              84.75900956214333,
              25.49430045678425
            ],
            [
              84.75626801079571,
              25.494330278834944
            ],
            [
              84.75657025615956,
              25.497477071310428
            ],
            [
              84.75661856216566,
              25.498843458716483
            ],
            [
              84.75662627420236,
              25.498926164955417
            ],
            [
              84.75668753391487,
              25.499574093118287
            ],
            [
              84.75669980759656,
              25.500005537612594
            ],
            [
              84.75557471890718,
              25.5042223721628
            ],
            [
              84.75591420932105,
              25.50481850306105
            ],
            [
              84.75672165731923,
              25.506236322914507
            ],
            [
              84.75857384778949,
              25.509293369604304
            ],
            [
              84.7591798378054,
              25.51011534873317
            ],
            [
              84.76001765963998,
              25.512991055827726
            ],
            [
              84.76121745043179,
              25.517058591615818
            ],
            [
              84.7623783935791,
              25.520264075255728
            ],
            [
              84.76371665787529,
              25.522598379744764
            ],
            [
              84.76372770984825,
              25.522617656274193
            ],
            [
              84.76389795137439,
              25.522914596636344
            ],
            [
              84.7645836974145,
              25.523673416660912
            ],
            [
              84.76607942200697,
              25.52546183416844
            ],
            [
              84.76697343076759,
              25.526906826349077
            ],
            [
              84.76777183362918,
              25.52978243997447
            ],
            [
              84.76814427334936,
              25.530981078873488
            ],
            [
              84.76859523840177,
              25.532432417942704
            ],
            [
              84.76975692804909,
              25.535168418975335
            ],
            [
              84.77031236537243,
              25.537082559884077
            ],
            [
              84.77097278071815,
              25.538604037827337
            ],
            [
              84.7720210194333,
              25.540265724633652
            ],
            [
              84.77286109603926,
              25.541101237366945
            ],
            [
              84.77364161344353,
              25.541693125980775
            ],
            [
              84.77366029121491,
              25.54170749171653
            ],
            [
              84.77432280592346,
              25.54221706977082
            ],
            [
              84.77619703925416,
              25.543888396959964
            ],
            [
              84.77719689291146,
              25.54482867203723
            ],
            [
              84.77889147935502,
              25.546422231744945
            ],
            [
              84.77966190778035,
              25.547397640160458
            ],
            [
              84.78149157838473,
              25.548919840637932
            ],
            [
              84.78189420688832,
              25.54937589604618
            ],
            [
              84.7828837667508,
              25.550049075110405
            ],
            [
              84.78491239712262,
              25.551837633402133
            ],
            [
              84.78600132592689,
              25.552736505893808
            ],
            [
              84.78650320389633,
              25.55345219662263
            ],
            [
              84.78682141861101,
              25.55390597284061
            ],
            [
              84.78719683085644,
              25.554408585997777
            ],
            [
              84.78722289727106,
              25.554443484286836
            ],
            [
              84.7877758561425,
              25.555183794701943
            ],
            [
              84.789058379077,
              25.556732658882215
            ],
            [
              84.78969990285233,
              25.557225069968425
            ],
            [
              84.7905403935816,
              25.55773104215509
            ],
            [
              84.79144576692892,
              25.558101604330975
            ],
            [
              84.7930970455926,
              25.55906397467895
            ],
            [
              84.79421077957682,
              25.560228988316773
            ],
            [
              84.79566763586357,
              25.56192683387183
            ],
            [
              84.79672639205405,
              25.56359736999288
            ],
            [
              84.79728773310542,
              25.565005873669183
            ],
            [
              84.79727243659276,
              25.56562420791758
            ],
            [
              84.79682402904398,
              25.566472507147644
            ],
            [
              84.79594274941091,
              25.567270865707847
            ],
            [
              84.79593300089344,
              25.56739143379998
            ],
            [
              84.79590260819245,
              25.567767333028243
            ],
            [
              84.79595729133872,
              25.56778097361827
            ],
            [
              84.79597930994464,
              25.56778741183361
            ],
            [
              84.79625087784156,
              25.567866812139055
            ],
            [
              84.79769404739666,
              25.56774123819353
            ],
            [
              84.8000676730584,
              25.567539381059714
            ],
            [
              84.80192380084453,
              25.567567372156333
            ],
            [
              84.80342151071379,
              25.567680940967946
            ],
            [
              84.8056106367892,
              25.568313947279186
            ],
            [
              84.80706340214816,
              25.56877043371047
            ],
            [
              84.80870005893397,
              25.569583580168604
            ],
            [
              84.81068495392786,
              25.570812162995136
            ],
            [
              84.81223684927673,
              25.572081091159955
            ],
            [
              84.8133016978415,
              25.573203165388904
            ],
            [
              84.81375373099077,
              25.57367948087137
            ],
            [
              84.81600708930398,
              25.57565730683858
            ],
            [
              84.81780753861047,
              25.5777477616023
            ],
            [
              84.81871770896142,
              25.578975729924217
            ],
            [
              84.81967735672153,
              25.580785992612363
            ],
            [
              84.8201248210393,
              25.581697907668275
            ],
            [
              84.82042285599941,
              25.582875942962385
            ],
            [
              84.82035248557334,
              25.584369912045247
            ],
            [
              84.82059096043349,
              25.585358411840566
            ],
            [
              84.82106805478259,
              25.586712600037984
            ],
            [
              84.82170962976186,
              25.587800615946527
            ],
            [
              84.82211249811564,
              25.588473206348205
            ],
            [
              84.82228614156175,
              25.589574559163193
            ],
            [
              84.8223754691353,
              25.59046956897557
            ],
            [
              84.82239515571473,
              25.590666825246185
            ],
            [
              84.8211406251828,
              25.591551028713145
            ],
            [
              84.81969204956633,
              25.59209664234778
            ],
            [
              84.81699415274828,
              25.592578459110793
            ],
            [
              84.81534659221154,
              25.592871210080748
            ],
            [
              84.81515723992607,
              25.593426291064514
            ],
            [
              84.81571360341245,
              25.59554331169302
            ],
            [
              84.81632007223043,
              25.597050997232667
            ],
            [
              84.81704590379347,
              25.598942450634
            ],
            [
              84.81738828318929,
              25.600806215663884
            ],
            [
              84.81741322940472,
              25.600942010272444
            ],
            [
              84.81794418583992,
              25.604313740739617
            ],
            [
              84.81814214398584,
              25.606859383041094
            ],
            [
              84.81836548762334,
              25.608177385627787
            ],
            [
              84.8191363050192,
              25.609635433944064
            ],
            [
              84.82054949330167,
              25.61090430438525
            ],
            [
              84.82076544200775,
              25.611077023602792
            ],
            [
              84.82210197884368,
              25.612145993171843
            ],
            [
              84.82336086440809,
              25.613374086320242
            ],
            [
              84.82577930612105,
              25.615491726615264
            ],
            [
              84.82597377700704,
              25.615697437137996
            ],
            [
              84.82673965187219,
              25.616507567314887
            ],
            [
              84.82758072021818,
              25.617216450913467
            ],
            [
              84.8285609968905,
              25.618205226784834
            ],
            [
              84.8296058759065,
              25.61958660562475
            ],
            [
              84.82988918658083,
              25.62082786319501
            ],
            [
              84.83029209356215,
              25.62164946035001
            ],
            [
              84.83117299769943,
              25.622371823881664
            ],
            [
              84.83202399781922,
              25.623157466252454
            ],
            [
              84.83214834621411,
              25.62370359415662
            ],
            [
              84.83206864858043,
              25.623816413106283
            ],
            [
              84.83145638293392,
              25.623626708606697
            ],
            [
              84.83092367478392,
              25.623320916261363
            ],
            [
              84.83090890198905,
              25.623312435855382
            ],
            [
              84.83132053969663,
              25.62439522493397
            ],
            [
              84.83154191782032,
              25.62657130137518
            ],
            [
              84.83248938891677,
              25.6275578996405
            ],
            [
              84.83336916387177,
              25.62798465711808
            ],
            [
              84.83644277926078,
              25.62889605188178
            ],
            [
              84.83709919890015,
              25.629123579967622
            ],
            [
              84.83775054126149,
              25.629351077652547
            ],
            [
              84.83933068772775,
              25.630258179916293
            ],
            [
              84.84136502509656,
              25.63083703828003
            ],
            [
              84.84480138289226,
              25.63199754402963
            ],
            [
              84.84615725686298,
              25.632985231338026
            ],
            [
              84.8482750773661,
              25.635410204819763
            ],
            [
              84.84886017256852,
              25.636151949090962
            ],
            [
              84.85097836407587,
              25.638495661630515
            ],
            [
              84.85243449901544,
              25.639312030248302
            ],
            [
              84.8535726986164,
              25.638412433796965
            ],
            [
              84.85443012618207,
              25.638089805634028
            ],
            [
              84.85381913883819,
              25.637659375043818
            ],
            [
              84.85431880695205,
              25.637128228105077
            ],
            [
              84.85957841778774,
              25.635048156758433
            ]
          ]
        ]
      }
    }
  ]
}