{
  "type": "FeatureCollection",
  "features": [
    {
      "type": "Feature",
      "properties": {
        "object_id": "10-214-01171",
        "stname": "BIHAR",
        "dtname": "Saharsa",
        "sdtname": "Nauhatta",
        "st_area_sh": 0.0,
        "st_length_": 0.0,
        "remarks": "",
        "dist_lgd": 216,
        "state_lgd": 10,
        "subdt_lgd": 1171,
        "ac_no": null,
        "st_length(shape)": 93228.84620468391,
        "st_area(shape)": 212763144.21707585
      },
      "geometry": {
        "type": "Polygon",
        "coordinates": [
          [
            [
              86.44005770175004,
              26.074052323044302
            ],
            [
              86.44035833014641,
              26.073909018345184
            ],
            [
              86.44038323234437,
              26.073922700808286
            ],
            [
              86.44143369618648,
              26.07379128470658
            ],
            [
              86.44211002428918,
              26.072430445990655
            ],
            [
              86.44098464724058,
              26.069396691717937
            ],
            [
              86.44104784731408,
              26.06871972262523
            ],
            [
              86.44164928556647,
              26.068823983264938
            ],
            [
              86.44184701194702,
              26.068858259090337
            ],
            [
              86.4428324808817,
              26.069769530644177
            ],
            [
              86.44431724333276,
              26.069752681340113
            ],
            [
              86.44473148435804,
              26.069627828897936
            ],
            [
              86.44561881234789,
              26.069360385831562
            ],
            [
              86.44605419791834,
              26.06925821802285
            ],
            [
              86.45034037993912,
              26.068805067284952
            ],
            [
              86.45166624119621,
              26.068557283158032
            ],
            [
              86.45451685071423,
              26.06828816810775
            ],
            [
              86.45662786019089,
              26.067966550986956
            ],
            [
              86.45879674722299,
              26.068101111783157
            ],
            [
              86.45996546888234,
              26.068322197169294
            ],
            [
              86.46186658429791,
              26.06907874834343
            ],
            [
              86.46352162780096,
              26.070087185687377
            ],
            [
              86.46488090189504,
              26.071284128817013
            ],
            [
              86.46566384834384,
              26.070600784712973
            ],
            [
              86.46739733004253,
              26.06864787216152
            ],
            [
              86.4704357826764,
              26.065507742258813
            ],
            [
              86.47357716697047,
              26.062787793228797
            ],
            [
              86.47292301288223,
              26.06152126964967
            ],
            [
              86.47246577758914,
              26.060932680036633
            ],
            [
              86.47172829038531,
              26.060419814129503
            ],
            [
              86.47062057870677,
              26.059982338829908
            ],
            [
              86.46832613055416,
              26.059649475287635
            ],
            [
              86.46825782176164,
              26.059639563835802
            ],
            [
              86.46752480726958,
              26.05924859181897
            ],
            [
              86.46714715372748,
              26.05875508887079
            ],
            [
              86.46716701368182,
              26.056574526168827
            ],
            [
              86.46729995266574,
              26.054809739986872
            ],
            [
              86.46781660522669,
              26.05440531487022
            ],
            [
              86.4681423639931,
              26.054212379780125
            ],
            [
              86.46899734544624,
              26.053820586659857
            ],
            [
              86.46954978598977,
              26.05356742828771
            ],
            [
              86.47049809341776,
              26.052758247690615
            ],
            [
              86.4711226372376,
              26.052810199102673
            ],
            [
              86.472833355627,
              26.052513963647762
            ],
            [
              86.47451395619987,
              26.05224468665228
            ],
            [
              86.47638248882178,
              26.051298854171364
            ],
            [
              86.4773549600326,
              26.05066127762747
            ],
            [
              86.4779517324354,
              26.050369405324123
            ],
            [
              86.47966408755528,
              26.049531890190046
            ],
            [
              86.48131615404145,
              26.048919306070346
            ],
            [
              86.48367240179405,
              26.048426607044345
            ],
            [
              86.48495002711361,
              26.048855560109974
            ],
            [
              86.48616762610759,
              26.049297831346475
            ],
            [
              86.48736197310878,
              26.04934270717467
            ],
            [
              86.48861159165273,
              26.049320048935037
            ],
            [
              86.48893466176152,
              26.04973655227901
            ],
            [
              86.48915075868963,
              26.05061770004403
            ],
            [
              86.4890738745794,
              26.05221114925109
            ],
            [
              86.49165029132328,
              26.051669436090112
            ],
            [
              86.49205770155913,
              26.052235217639662
            ],
            [
              86.4921916987585,
              26.052456914035638
            ],
            [
              86.49254715133664,
              26.052322718614914
            ],
            [
              86.49290246557425,
              26.052220128391628
            ],
            [
              86.49306260015511,
              26.05217554177892
            ],
            [
              86.493257837304,
              26.05210399026556
            ],
            [
              86.49341803027534,
              26.052045859824144
            ],
            [
              86.493578357994,
              26.051956127168335
            ],
            [
              86.49373880339195,
              26.051839305214536
            ],
            [
              86.49388425231456,
              26.05172243068644
            ],
            [
              86.49441994197299,
              26.05151662605963
            ],
            [
              86.49505561142759,
              26.051306655092475
            ],
            [
              86.49548122242943,
              26.051127550138094
            ],
            [
              86.4959314562532,
              26.051034313378008
            ],
            [
              86.49606165717215,
              26.0509760742614
            ],
            [
              86.4966618512579,
              26.0508788416743
            ],
            [
              86.49745621888722,
              26.050958358711025
            ],
            [
              86.49835668114486,
              26.050771867899485
            ],
            [
              86.4999993440667,
              26.050136285951464
            ],
            [
              86.50040961992828,
              26.05106364074063
            ],
            [
              86.50096512911684,
              26.0517181711049
            ],
            [
              86.50234514980238,
              26.051544949336552
            ],
            [
              86.50404769621765,
              26.05276703229321
            ],
            [
              86.50731905056364,
              26.05580396674787
            ],
            [
              86.51017460890061,
              26.056199313782052
            ],
            [
              86.51168148517901,
              26.057124004278496
            ],
            [
              86.51441257115357,
              26.05585765835061
            ],
            [
              86.51664251308223,
              26.056455145748625
            ],
            [
              86.51776417200387,
              26.055423928340645
            ],
            [
              86.51793250281337,
              26.05441590870182
            ],
            [
              86.51819947313267,
              26.05337855603752
            ],
            [
              86.51771221075289,
              26.052071709388848
            ],
            [
              86.51748573199504,
              26.05124035612379
            ],
            [
              86.518344171962,
              26.050115985274857
            ],
            [
              86.51805237669986,
              26.049195423292772
            ],
            [
              86.51737150222353,
              26.047057331081685
            ],
            [
              86.51621248865742,
              26.043746570035196
            ],
            [
              86.51604071101215,
              26.043255867833675
            ],
            [
              86.51546259841443,
              26.04227860419897
            ],
            [
              86.51368547027099,
              26.041052811344958
            ],
            [
              86.51377186664178,
              26.0397823320236
            ],
            [
              86.51389521072018,
              26.037968443352792
            ],
            [
              86.511891233713,
              26.038199000043967
            ],
            [
              86.51163247758869,
              26.037248871622168
            ],
            [
              86.50972812733977,
              26.037212759175894
            ],
            [
              86.50933669004797,
              26.03658848209806
            ],
            [
              86.50888522104069,
              26.03586559822044
            ],
            [
              86.50722760655931,
              26.034049766660022
            ],
            [
              86.50540631184663,
              26.03222064584832
            ],
            [
              86.50344839775228,
              26.031317809603863
            ],
            [
              86.49999966296859,
              26.028622648267955
            ],
            [
              86.49959740726585,
              26.028308274331117
            ],
            [
              86.49870441988968,
              26.027364383843732
            ],
            [
              86.4984904708334,
              26.026511246983034
            ],
            [
              86.49905153700027,
              26.024936893071256
            ],
            [
              86.49904621627887,
              26.024858744402326
            ],
            [
              86.49893846066557,
              26.02327613366056
            ],
            [
              86.49841087201439,
              26.021655745620222
            ],
            [
              86.49819256702729,
              26.020184423612523
            ],
            [
              86.49947681742208,
              26.01955824764664
            ],
            [
              86.49999963691744,
              26.019695665221096
            ],
            [
              86.50156169580544,
              26.019356647331364
            ],
            [
              86.50268694080168,
              26.017224698687922
            ],
            [
              86.50255621975816,
              26.016550445132093
            ],
            [
              86.50230136142387,
              26.015235868346682
            ],
            [
              86.50240447634039,
              26.014138645858132
            ],
            [
              86.50634783789252,
              26.0132325736555
            ],
            [
              86.50782799378283,
              26.012734000879266
            ],
            [
              86.50990187588877,
              26.011197830215384
            ],
            [
              86.50994837807775,
              26.00985783033515
            ],
            [
              86.51014164522125,
              26.00879583673396
            ],
            [
              86.51260948978327,
              26.00740995522999
            ],
            [
              86.51576335976146,
              26.006827264627137
            ],
            [
              86.51672725026467,
              26.00392338729449
            ],
            [
              86.51872521933923,
              26.001738045986926
            ],
            [
              86.51975449102548,
              26.000004327095873
            ],
            [
              86.5199352410438,
              25.99934501419063
            ],
            [
              86.5202719062561,
              25.998564744355807
            ],
            [
              86.52033645200586,
              25.99732540581134
            ],
            [
              86.52038569136154,
              25.99637993960974
            ],
            [
              86.51972718313915,
              25.996147499396937
            ],
            [
              86.51985429385354,
              25.994373590895187
            ],
            [
              86.52039344472075,
              25.994470191253992
            ],
            [
              86.52061630955623,
              25.994949501878295
            ],
            [
              86.52147240941188,
              25.994500852917007
            ],
            [
              86.52183980688835,
              25.995066423272732
            ],
            [
              86.52239962619366,
              25.99496232071785
            ],
            [
              86.52267473255445,
              25.994911161621946
            ],
            [
              86.52400668438915,
              25.99538960891738
            ],
            [
              86.52611537980563,
              25.99527463133555
            ],
            [
              86.52718457891129,
              25.995251042180886
            ],
            [
              86.52789217108081,
              25.99570483725864
            ],
            [
              86.52888830930613,
              25.995211452116116
            ],
            [
              86.52938923326474,
              25.994874470136704
            ],
            [
              86.52889028110816,
              25.993464216361804
            ],
            [
              86.52940674232795,
              25.992987323639674
            ],
            [
              86.53010043306844,
              25.991910531870623
            ],
            [
              86.53065221424855,
              25.991012500884924
            ],
            [
              86.53065762210656,
              25.991003700354167
            ],
            [
              86.5304293619895,
              25.99085374079164
            ],
            [
              86.53011011600887,
              25.990478927043256
            ],
            [
              86.52982096538692,
              25.989860447750527
            ],
            [
              86.52980705138148,
              25.98851095720353
            ],
            [
              86.52863917413848,
              25.987661757143893
            ],
            [
              86.52812049407996,
              25.986903140104292
            ],
            [
              86.5274670442709,
              25.98606783109063
            ],
            [
              86.52739338690921,
              25.984560310877775
            ],
            [
              86.52748923535339,
              25.98332382778573
            ],
            [
              86.52783531041827,
              25.981550327331927
            ],
            [
              86.52863018110416,
              25.980395524667024
            ],
            [
              86.53012412793066,
              25.9791509053774
            ],
            [
              86.53117850573247,
              25.9781631436881
            ],
            [
              86.53118373572407,
              25.977887824381355
            ],
            [
              86.53039572187872,
              25.976740974131417
            ],
            [
              86.53002164542814,
              25.976275896856972
            ],
            [
              86.52937353969673,
              25.974944134063715
            ],
            [
              86.52873058221023,
              25.973603220017075
            ],
            [
              86.52775195035319,
              25.973548449808757
            ],
            [
              86.52604506417677,
              25.972743916764692
            ],
            [
              86.52534148567993,
              25.972161298156863
            ],
            [
              86.52488788317383,
              25.971316955612583
            ],
            [
              86.52495858867155,
              25.970382774839067
            ],
            [
              86.52519402812435,
              25.969394535699774
            ],
            [
              86.52515466305032,
              25.968722105023133
            ],
            [
              86.5247810097062,
              25.96771986876325
            ],
            [
              86.52447237642232,
              25.966668121139854
            ],
            [
              86.52400375588134,
              25.965896058028832
            ],
            [
              86.52363007109619,
              25.964952487375864
            ],
            [
              86.52363092988558,
              25.963941560207545
            ],
            [
              86.52295746471371,
              25.963358864082476
            ],
            [
              86.52190918557437,
              25.963114395614504
            ],
            [
              86.52135017924442,
              25.962987678706845
            ],
            [
              86.52077161659075,
              25.962359924227105
            ],
            [
              86.52017337095087,
              25.961375642293884
            ],
            [
              86.51959467624486,
              25.96082460703348
            ],
            [
              86.51892607275528,
              25.960399827842235
            ],
            [
              86.51814225583898,
              25.960363189393032
            ],
            [
              86.51511701113475,
              25.960180398389802
            ],
            [
              86.51332460175003,
              25.96025573334249
            ],
            [
              86.51229579898437,
              25.960683730005343
            ],
            [
              86.51107257294343,
              25.960718844281043
            ],
            [
              86.51003420222169,
              25.96062327020213
            ],
            [
              86.50820232625328,
              25.96025166589917
            ],
            [
              86.50686941322124,
              25.96024159824948
            ],
            [
              86.50604550898535,
              25.96036728671634
            ],
            [
              86.5048967371118,
              25.96080862729145
            ],
            [
              86.50313889579755,
              25.96128551968858
            ],
            [
              86.5014611015616,
              25.961586548659884
            ],
            [
              86.50000000432841,
              25.96214042412488
            ],
            [
              86.49874891075072,
              25.962426821791748
            ],
            [
              86.49870267715801,
              25.95280301013177
            ],
            [
              86.49732473427572,
              25.9528640183583
            ],
            [
              86.49683911671123,
              25.952885511895232
            ],
            [
              86.49685484261857,
              25.94464868308098
            ],
            [
              86.49687517418839,
              25.944210727114164
            ],
            [
              86.49708555333974,
              25.942376880339506
            ],
            [
              86.49720466814979,
              25.941369576955925
            ],
            [
              86.49621988013811,
              25.94029052899443
            ],
            [
              86.49594652010221,
              25.939448984682702
            ],
            [
              86.49575679591418,
              25.93897677723094
            ],
            [
              86.4949656873727,
              25.93874443118235
            ],
            [
              86.49447792463131,
              25.93841018427648
            ],
            [
              86.4942795191244,
              25.93709874294515
            ],
            [
              86.49408338725347,
              25.936017457728006
            ],
            [
              86.49332869910855,
              25.93544631126669
            ],
            [
              86.49268377880315,
              25.934874266941414
            ],
            [
              86.4916496984352,
              25.932419225068514
            ],
            [
              86.4912686106338,
              25.931777231292088
            ],
            [
              86.49085573235277,
              25.931916107888355
            ],
            [
              86.49048856933662,
              25.93259610764343
            ],
            [
              86.48996733806267,
              25.9328713866865
            ],
            [
              86.48798764611088,
              25.933059799976284
            ],
            [
              86.4827274531669,
              25.934593710050542
            ],
            [
              86.48100694224257,
              25.934743704976697
            ],
            [
              86.47947253619397,
              25.934553727959162
            ],
            [
              86.47898480130036,
              25.93469319989874
            ],
            [
              86.47840141918515,
              25.935713450299804
            ],
            [
              86.47793015669892,
              25.936967479015188
            ],
            [
              86.47741067534315,
              25.937414133164342
            ],
            [
              86.4764723203502,
              25.937422031318974
            ],
            [
              86.4750484394209,
              25.937298699841044
            ],
            [
              86.47429759696368,
              25.937101968619324
            ],
            [
              86.47391491465267,
              25.936292934775803
            ],
            [
              86.47344601204068,
              25.934397104375616
            ],
            [
              86.47265310417367,
              25.933496807779644
            ],
            [
              86.47143848399317,
              25.9318824779627
            ],
            [
              86.47013212336428,
              25.9281435876212
            ],
            [
              86.46956107332133,
              25.927466980389607
            ],
            [
              86.46903499114485,
              25.92726834711375
            ],
            [
              86.46817625114058,
              25.92724397116253
            ],
            [
              86.4661195187717,
              25.927698994819696
            ],
            [
              86.46522567440275,
              25.928148721785323
            ],
            [
              86.4645949510721,
              25.928460788868232
            ],
            [
              86.4636435040322,
              25.928644793282604
            ],
            [
              86.4626699126222,
              25.92862137819777
            ],
            [
              86.46200033805383,
              25.92903304206625
            ],
            [
              86.46125377876392,
              25.929242419677433
            ],
            [
              86.46076289976678,
              25.92907499485226
            ],
            [
              86.46057342171719,
              25.92860273693342
            ],
            [
              86.46052687281578,
              25.927962358351202
            ],
            [
              86.46026393772875,
              25.927626137863733
            ],
            [
              86.45984858458917,
              25.927525850308488
            ],
            [
              86.4593662485704,
              25.92770132479381
            ],
            [
              86.45899432538152,
              25.927939085320304
            ],
            [
              86.458729821836,
              25.92794130622383
            ],
            [
              86.45779447530093,
              25.927745979659488
            ],
            [
              86.45689708707818,
              25.927857243905787
            ],
            [
              86.45320276098064,
              25.928763405242673
            ],
            [
              86.45073289161598,
              25.928851561294877
            ],
            [
              86.449280693094,
              25.92936899112977
            ],
            [
              86.44748460061662,
              25.929451568285252
            ],
            [
              86.44605910631306,
              25.9291609726089
            ],
            [
              86.44541655666171,
              25.928791724186972
            ],
            [
              86.44504084527726,
              25.928659454873554
            ],
            [
              86.44474209705479,
              25.928729658081156
            ],
            [
              86.44167943662069,
              25.92943173633002
            ],
            [
              86.44044699925483,
              25.929477924712707
            ],
            [
              86.4396214223559,
              25.92928163527165
            ],
            [
              86.4390554729471,
              25.929083261962504
            ],
            [
              86.43773877540426,
              25.92769062985684
            ],
            [
              86.43791278087141,
              25.926132377349134
            ],
            [
              86.43846632813938,
              25.925586267809987
            ],
            [
              86.43950936201577,
              25.92507231963773
            ],
            [
              86.4399537217559,
              25.924594823297703
            ],
            [
              86.4400224940791,
              25.92398512964015
            ],
            [
              86.43971382126938,
              25.923071550330988
            ],
            [
              86.43918874879931,
              25.922972061173883
            ],
            [
              86.43491022132307,
              25.923855440286115
            ],
            [
              86.42785016657074,
              25.925605268263972
            ],
            [
              86.42635563314433,
              25.92588817979755
            ],
            [
              86.42481848004763,
              25.92539523705297
            ],
            [
              86.42078490338642,
              25.925328512348187
            ],
            [
              86.4192466408703,
              25.92523720764522
            ],
            [
              86.41627542893208,
              25.92356888497909
            ],
            [
              86.41499887530266,
              25.92317295661664
            ],
            [
              86.41128647240667,
              25.921754272216457
            ],
            [
              86.40940971481004,
              25.92122773334951
            ],
            [
              86.40932953118778,
              25.920686909283887
            ],
            [
              86.40917159837767,
              25.9198397373605
            ],
            [
              86.40894494804161,
              25.919638526791655
            ],
            [
              86.40872141396125,
              25.91974406385347
            ],
            [
              86.40779681127695,
              25.920631460828783
            ],
            [
              86.40715864001429,
              25.920704233234485
            ],
            [
              86.40648187982197,
              25.920402732141046
            ],
            [
              86.40332311133052,
              25.918397246691892
            ],
            [
              86.40260805685594,
              25.918267504328536
            ],
            [
              86.40208575119694,
              25.91843864334715
            ],
            [
              86.40153142059803,
              25.918916868354632
            ],
            [
              86.39976826934212,
              25.922725769381554
            ],
            [
              86.39972434891126,
              25.922820644657524
            ],
            [
              86.39972152101473,
              25.92282675584101
            ],
            [
              86.39975081956773,
              25.922828139017376
            ],
            [
              86.39980489455458,
              25.922830692076463
            ],
            [
              86.40060201911352,
              25.923168088043987
            ],
            [
              86.40149480526703,
              25.923347855067657
            ],
            [
              86.4025881412061,
              25.923361395915663
            ],
            [
              86.40363132599946,
              25.923419870385597
            ],
            [
              86.40389554657567,
              25.923497709994717
            ],
            [
              86.40429327836266,
              25.92383344215501
            ],
            [
              86.40442705816969,
              25.92403715900853
            ],
            [
              86.40440913138988,
              25.924624013371112
            ],
            [
              86.40438074013532,
              25.92530563467463
            ],
            [
              86.40430305921944,
              25.925860638980133
            ],
            [
              86.40422628380539,
              25.926235052646685
            ],
            [
              86.40429976779225,
              25.926515276385015
            ],
            [
              86.40447213113906,
              25.926990039892722
            ],
            [
              86.40469385780908,
              25.927577878113855
            ],
            [
              86.40469703515024,
              25.927939077241337
            ],
            [
              86.40452489728054,
              25.928412426050016
            ],
            [
              86.40426808421219,
              25.928844793610125
            ],
            [
              86.40386681665623,
              25.929208843925007
            ],
            [
              86.40348145736566,
              25.92938785120976
            ],
            [
              86.40289713291774,
              25.929417048174923
            ],
            [
              86.40233266572919,
              25.92946889902655
            ],
            [
              86.40209761434856,
              25.929544681807258
            ],
            [
              86.40192694432605,
              25.929724569982046
            ],
            [
              86.40182118207439,
              25.92990472609888
            ],
            [
              86.4017932768084,
              25.930487023090677
            ],
            [
              86.40175399527766,
              25.931344677370745
            ],
            [
              86.40156560598618,
              25.93206627022025
            ],
            [
              86.40153699194943,
              25.932788522713068
            ],
            [
              86.4017733512771,
              25.933444147611716
            ],
            [
              86.40195191569434,
              25.933679656367143
            ],
            [
              86.40245924823418,
              25.93407002290935
            ],
            [
              86.40287739064273,
              25.934324576317206
            ],
            [
              86.40311076756367,
              25.934582883251824
            ],
            [
              86.40312454233023,
              25.9348222253928
            ],
            [
              86.40288918282747,
              25.934956699673346
            ],
            [
              86.40279857784961,
              25.934998849888427
            ],
            [
              86.40214845001051,
              25.93530128709511
            ],
            [
              86.40128764927094,
              25.935690521324776
            ],
            [
              86.40056726778674,
              25.93595843129138
            ],
            [
              86.40018279603167,
              25.935956839846394
            ],
            [
              86.39971873084744,
              25.935896225164953
            ],
            [
              86.39924048755313,
              25.935677531225977
            ],
            [
              86.3987321749513,
              25.935481285234307
            ],
            [
              86.39830274431287,
              25.935484018168356
            ],
            [
              86.397888316438,
              25.935482296654182
            ],
            [
              86.39734839301964,
              25.935610981182354
            ],
            [
              86.39654298240055,
              25.935905606616426
            ],
            [
              86.39595691971253,
              25.936268863630684
            ],
            [
              86.39569564111888,
              25.936588326756194
            ],
            [
              86.39535745775376,
              25.937300254915524
            ],
            [
              86.39517569623246,
              25.937692285704383
            ],
            [
              86.39490893432227,
              25.938106533619223
            ],
            [
              86.39445318933427,
              25.938371004033495
            ],
            [
              86.39398900197918,
              25.938332944229078
            ],
            [
              86.39360068633299,
              25.93810557876965
            ],
            [
              86.39340259882971,
              25.937784197936992
            ],
            [
              86.39315654757843,
              25.93707885734443
            ],
            [
              86.39328479915322,
              25.936411202168916
            ],
            [
              86.39335884189222,
              25.93560336080411
            ],
            [
              86.39331469059431,
              25.935449671896016
            ],
            [
              86.39312550719211,
              25.935340524100337
            ],
            [
              86.39292578295834,
              25.935339687173624
            ],
            [
              86.39271558616501,
              25.93543361681176
            ],
            [
              86.3923731133444,
              25.93600556309598
            ],
            [
              86.39208063805759,
              25.936564171656517
            ],
            [
              86.3916639113939,
              25.937009390200142
            ],
            [
              86.39079602743837,
              25.937795834692466
            ],
            [
              86.39007393556184,
              25.938388751107496
            ],
            [
              86.38956294957373,
              25.938711665958905
            ],
            [
              86.38958127161226,
              25.939032293797304
            ],
            [
              86.38993544498943,
              25.93910150932492
            ],
            [
              86.39068480612472,
              25.939032424663974
            ],
            [
              86.39136449212992,
              25.93891789768469
            ],
            [
              86.39154852369397,
              25.93905863030956
            ],
            [
              86.39155214839616,
              25.93932501876718
            ],
            [
              86.39153517383055,
              25.93971322104799
            ],
            [
              86.39088822962081,
              25.94025679402051
            ],
            [
              86.39034644219822,
              25.940742114323868
            ],
            [
              86.39012524733086,
              25.941030131194324
            ],
            [
              86.3901066162719,
              25.941738877239523
            ],
            [
              86.39029052117347,
              25.942636785205753
            ],
            [
              86.39047681739036,
              25.94354635805638
            ],
            [
              86.39050819194995,
              25.944241770229482
            ],
            [
              86.39026123340027,
              25.944683181764827
            ],
            [
              86.38958893873323,
              25.945294363676876
            ],
            [
              86.38869820433177,
              25.945656305760657
            ],
            [
              86.38845282142707,
              25.945790715167387
            ],
            [
              86.38869591901769,
              25.946098748363355
            ],
            [
              86.38933810934294,
              25.94648521504135
            ],
            [
              86.39014049263956,
              25.946795601865578
            ],
            [
              86.39075200819279,
              25.94732189319802
            ],
            [
              86.39121499809363,
              25.947599243658477
            ],
            [
              86.39197874484985,
              25.947656629355453
            ],
            [
              86.39216722756615,
              25.9479057349597
            ],
            [
              86.39213483162204,
              25.9483796529769
            ],
            [
              86.3915218931374,
              25.94909944762071
            ],
            [
              86.39052212931159,
              25.95026457834966
            ],
            [
              86.39041725998534,
              25.950264137322574
            ],
            [
              86.38996206207129,
              25.95041120765595
            ],
            [
              86.38953232241242,
              25.950463575105708
            ],
            [
              86.38921724910628,
              25.95055254365965
            ],
            [
              86.38865666802964,
              25.950798491342155
            ],
            [
              86.38792736896963,
              25.950836043897212
            ],
            [
              86.3874184284454,
              25.950752626337383
            ],
            [
              86.38678538925794,
              25.950524207329906
            ],
            [
              86.38618248136176,
              25.950264309371605
            ],
            [
              86.38585418305802,
              25.950014603757396
            ],
            [
              86.38537105921675,
              25.949768754597724
            ],
            [
              86.38522682661305,
              25.949655272782
            ],
            [
              86.38436863458108,
              25.9491280007703
            ],
            [
              86.38358493983564,
              25.94914155238715
            ],
            [
              86.38285113482614,
              25.949949465674123
            ],
            [
              86.38229704497573,
              25.951226776831383
            ],
            [
              86.38238703909921,
              25.952030073364394
            ],
            [
              86.38285131628582,
              25.952558116681075
            ],
            [
              86.38389465019951,
              25.953171877158773
            ],
            [
              86.38465850924517,
              25.95386679066205
            ],
            [
              86.38582686259528,
              25.954837104655297
            ],
            [
              86.38641097144753,
              25.955143969660384
            ],
            [
              86.3876090985594,
              25.955365028763133
            ],
            [
              86.38939136057468,
              25.95511656733936
            ],
            [
              86.38965110664245,
              25.956461538356795
            ],
            [
              86.38943652696885,
              25.957377678377792
            ],
            [
              86.38863786988402,
              25.95896189079086
            ],
            [
              86.38802400343968,
              25.960406198762005
            ],
            [
              86.38753494802256,
              25.962184405267163
            ],
            [
              86.38753507378674,
              25.963853901280707
            ],
            [
              86.38753507558336,
              25.963876822348652
            ],
            [
              86.38599743200648,
              25.964350861822588
            ],
            [
              86.38507875101656,
              25.964486289322235
            ],
            [
              86.38464940302313,
              25.96418396018969
            ],
            [
              86.38455446457235,
              25.963597267395347
            ],
            [
              86.38449445980629,
              25.962017646747924
            ],
            [
              86.38427976155508,
              25.961737810349092
            ],
            [
              86.38357077430192,
              25.9612955929026
            ],
            [
              86.38249737467399,
              25.960821751921774
            ],
            [
              86.38142396696121,
              25.96054194821656
            ],
            [
              86.38089968500859,
              25.960767704280844
            ],
            [
              86.38031566239458,
              25.96112873620372
            ],
            [
              86.38007098826064,
              25.961462686010776
            ],
            [
              86.38022581828977,
              25.96182381029797
            ],
            [
              86.38129916761204,
              25.96246011104731
            ],
            [
              86.38194326236571,
              25.9629339349314
            ],
            [
              86.38200814857699,
              25.96320925370481
            ],
            [
              86.38157384637479,
              25.963570298327983
            ],
            [
              86.38088494904466,
              25.9642518856583
            ],
            [
              86.38058037075598,
              25.964865678033693
            ],
            [
              86.38064036025068,
              25.96538919833192
            ],
            [
              86.38125445127382,
              25.966445213603603
            ],
            [
              86.38220815398341,
              25.967889415184636
            ],
            [
              86.38352631308524,
              25.968945445164216
            ],
            [
              86.38463477306043,
              25.9697803403736
            ],
            [
              86.38546369977705,
              25.970335388671792
            ],
            [
              86.38632249727348,
              25.970583553068632
            ],
            [
              86.38758069562675,
              25.97075042220217
            ],
            [
              86.38871908297561,
              25.971003096167358
            ],
            [
              86.38974777884177,
              25.97162578209385
            ],
            [
              86.39036198035768,
              25.972875898320712
            ],
            [
              86.391310969607,
              25.974820979991186
            ],
            [
              86.39165056242881,
              25.975181966365323
            ],
            [
              86.3922946481993,
              25.975484272885645
            ],
            [
              86.39382954562636,
              25.975778846176766
            ],
            [
              86.39389254627388,
              25.97579093625914
            ],
            [
              86.39450672712856,
              25.97598493382083
            ],
            [
              86.39466159668355,
              25.97629186561486
            ],
            [
              86.39444684183844,
              25.9765400933545
            ],
            [
              86.39389264419022,
              25.976707168040523
            ],
            [
              86.39315877090877,
              25.977235303316274
            ],
            [
              86.39266451694112,
              25.978178625236843
            ],
            [
              86.39203561808883,
              25.979582250000913
            ],
            [
              86.3916683068506,
              25.980203994945388
            ],
            [
              86.39133167038442,
              25.980773813079736
            ],
            [
              86.39080751509421,
              25.981193558046947
            ],
            [
              86.38954917031558,
              25.981690208724025
            ],
            [
              86.38856562197898,
              25.98238530506118
            ],
            [
              86.38816621483399,
              25.98338725322763
            ],
            [
              86.38838097057739,
              25.98410935234575
            ],
            [
              86.38900032662644,
              25.984912619790748
            ],
            [
              86.38997904023016,
              25.985467644309015
            ],
            [
              86.3914572368948,
              25.98618964182347
            ],
            [
              86.3922862498497,
              25.986717564123772
            ],
            [
              86.39232419109405,
              25.986894588780398
            ],
            [
              86.39237620714225,
              25.987137273334255
            ],
            [
              86.39214656990787,
              25.98739906979879
            ],
            [
              86.39128272028624,
              25.98787301123504
            ],
            [
              86.39048374699448,
              25.988261259282964
            ],
            [
              86.38980974642668,
              25.98923162307109
            ],
            [
              86.38925554698181,
              25.98998541983238
            ],
            [
              86.38904087029016,
              25.99048186137415
            ],
            [
              86.38910087236125,
              25.991456673692046
            ],
            [
              86.38944046697968,
              25.991650709192676
            ],
            [
              86.38989990224691,
              25.99162357214763
            ],
            [
              86.39088367785726,
              25.991343738365334
            ],
            [
              86.39279116412482,
              25.990707136859378
            ],
            [
              86.3941394365516,
              25.990205961278534
            ],
            [
              86.39503329259867,
              25.990038862172337
            ],
            [
              86.39552270015534,
              25.990147185687636
            ],
            [
              86.39638666655794,
              25.990647961824102
            ],
            [
              86.39721580887023,
              25.99112176823265
            ],
            [
              86.39709101401266,
              25.991397101764065
            ],
            [
              86.39675139873296,
              25.991595690619853
            ],
            [
              86.39580267179171,
              25.992038152647687
            ],
            [
              86.39475899831484,
              25.992426394203243
            ],
            [
              86.39340585342599,
              25.993288558110727
            ],
            [
              86.39208260087648,
              25.9945118340763
            ],
            [
              86.39085436223627,
              25.99598326864956
            ],
            [
              86.39036500139198,
              25.997120554598848
            ],
            [
              86.39057977600004,
              25.997400384313003
            ],
            [
              86.39094942824784,
              25.997621539205657
            ],
            [
              86.3923927891441,
              25.998289295203907
            ],
            [
              86.39276242612057,
              25.998650313667543
            ],
            [
              86.39291234775494,
              25.999205358084147
            ],
            [
              86.39270866913732,
              26.000004930223955
            ],
            [
              86.39239738492509,
              26.001086216849153
            ],
            [
              86.39209558692222,
              26.001482248081803
            ],
            [
              86.39134557361005,
              26.001600993326765
            ],
            [
              86.39054237643981,
              26.001376386255252
            ],
            [
              86.39008296273215,
              26.001333817366074
            ],
            [
              86.3895366828348,
              26.00166560464772
            ],
            [
              86.38944782957176,
              26.001457550011757
            ],
            [
              86.38899138569441,
              26.00084161366667
            ],
            [
              86.38860266580636,
              26.000654864751738
            ],
            [
              86.3875472270942,
              26.000903226743223
            ],
            [
              86.3870881457632,
              26.000797441904762
            ],
            [
              86.38631376385231,
              26.000798673182054
            ],
            [
              86.38604194532545,
              26.001190304289093
            ],
            [
              86.38608411583813,
              26.001727741287276
            ],
            [
              86.38652054255599,
              26.002348116829122
            ],
            [
              86.3873430669796,
              26.002699239658075
            ],
            [
              86.38887654327188,
              26.002759906316573
            ],
            [
              86.38882560160874,
              26.002949311395163
            ],
            [
              86.38795878575004,
              26.0043948859907
            ],
            [
              86.38711514283244,
              26.0052220290248
            ],
            [
              86.38590557926867,
              26.00586559933082
            ],
            [
              86.38587766681619,
              26.005880450719104
            ],
            [
              86.38549101934147,
              26.006253533608454
            ],
            [
              86.3857655400007,
              26.007266007149124
            ],
            [
              86.38624479030646,
              26.00830192286582
            ],
            [
              86.38587844835045,
              26.00861188579341
            ],
            [
              86.38503376338711,
              26.008671503084074
            ],
            [
              86.38414146861204,
              26.008279435121658
            ],
            [
              86.38402686244642,
              26.008220255212365
            ],
            [
              86.38361851975928,
              26.00796117422504
            ],
            [
              86.38338805876975,
              26.00808209032888
            ],
            [
              86.38258432800022,
              26.008909376935105
            ],
            [
              86.38151729832597,
              26.00944658808063
            ],
            [
              86.3811758037707,
              26.009779218712684
            ],
            [
              86.38076196788562,
              26.010567530115317
            ],
            [
              86.38060265256829,
              26.011411107923546
            ],
            [
              86.38094469958747,
              26.011927255182506
            ],
            [
              86.38128814528352,
              26.012177036818713
            ],
            [
              86.38179140486187,
              26.012441046042245
            ],
            [
              86.3822511985569,
              26.01337305268325
            ],
            [
              86.38268468059724,
              26.01360515606767
            ],
            [
              86.38334934407598,
              26.013580903758662
            ],
            [
              86.38419493723605,
              26.013354256118063
            ],
            [
              86.38533109406808,
              26.01297985080832
            ],
            [
              86.38558112395775,
              26.012940281250625
            ],
            [
              86.38551937196847,
              26.014244784387614
            ],
            [
              86.38575233296942,
              26.01652572762704
            ],
            [
              86.38620592739068,
              26.01865862136492
            ],
            [
              86.38631913487939,
              26.018988678960998
            ],
            [
              86.38632284132824,
              26.019237006213633
            ],
            [
              86.38609245489891,
              26.019339866663863
            ],
            [
              86.38565404200597,
              26.01908969259699
            ],
            [
              86.38485759298011,
              26.01850841698444
            ],
            [
              86.38385233056648,
              26.01772759716589
            ],
            [
              86.38256753579262,
              26.016895914870044
            ],
            [
              86.38183974320731,
              26.016567742054452
            ],
            [
              86.38096966107425,
              26.016694946930496
            ],
            [
              86.38074211601617,
              26.01720865476423
            ],
            [
              86.3809230807318,
              26.017954364720126
            ],
            [
              86.38158680367447,
              26.019067835781904
            ],
            [
              86.38263961930598,
              26.02030937876969
            ],
            [
              86.38366818042482,
              26.02141536766396
            ],
            [
              86.38479219293248,
              26.022426947607304
            ],
            [
              86.38529090703553,
              26.02261417530417
            ],
            [
              86.38616013666736,
              26.022658501115362
            ],
            [
              86.38750943407187,
              26.022632621656822
            ],
            [
              86.38819866377868,
              26.022698747904155
            ],
            [
              86.38847168604804,
              26.023047539912938
            ],
            [
              86.38856309232312,
              26.023729654155538
            ],
            [
              86.38826820685641,
              26.02566975135369
            ],
            [
              86.38811114810707,
              26.02608444415042
            ],
            [
              86.38746555765849,
              26.026271329401208
            ],
            [
              86.38707516331071,
              26.026391571990892
            ],
            [
              86.386685281901,
              26.02737413416025
            ],
            [
              86.38647941858059,
              26.027562880399607
            ],
            [
              86.38631951396846,
              26.027562202342462
            ],
            [
              86.38608998183693,
              26.027498020179056
            ],
            [
              86.38531301457466,
              26.027002609316597
            ],
            [
              86.3843971048874,
              26.026321498099843
            ],
            [
              86.38391923708883,
              26.0259673106647
            ],
            [
              86.38339562258446,
              26.025761913686807
            ],
            [
              86.38293578756692,
              26.02578252532435
            ],
            [
              86.38268452429038,
              26.02605233692812
            ],
            [
              86.38254276744361,
              26.026403882079304
            ],
            [
              86.3827987351973,
              26.027145395025133
            ],
            [
              86.38339384032693,
              26.02801476668228
            ],
            [
              86.38403543866241,
              26.028595392227885
            ],
            [
              86.38492267502416,
              26.02902807284242
            ],
            [
              86.38570127632191,
              26.029211974031103
            ],
            [
              86.38629571490162,
              26.029255133368668
            ],
            [
              86.38760135687829,
              26.028989785687124
            ],
            [
              86.38810620198312,
              26.028964836713563
            ],
            [
              86.38835584380058,
              26.029006526229118
            ],
            [
              86.38835380731982,
              26.029399300681
            ],
            [
              86.38822088540387,
              26.029976626022005
            ],
            [
              86.38762466456666,
              26.031238231623334
            ],
            [
              86.38737560665412,
              26.032045315978195
            ],
            [
              86.38753350083668,
              26.03243425423547
            ],
            [
              86.38772055792658,
              26.032981331956996
            ],
            [
              86.38853164320335,
              26.0336529493328
            ],
            [
              86.38853186598557,
              26.033653079287014
            ],
            [
              86.38915942634809,
              26.034016784227585
            ],
            [
              86.3901260261702,
              26.034576182364
            ],
            [
              86.39092454401617,
              26.03478271411526
            ],
            [
              86.39208522305881,
              26.034534775720488
            ],
            [
              86.39328004257379,
              26.03444950215522
            ],
            [
              86.39357839463922,
              26.03473969887176
            ],
            [
              86.39355213598517,
              26.035958572611555
            ],
            [
              86.39366484670552,
              26.03639246181466
            ],
            [
              86.39391887858979,
              26.036556058119515
            ],
            [
              86.39449050535117,
              26.036183730181342
            ],
            [
              86.39533626739453,
              26.03497731890909
            ],
            [
              86.39583655444761,
              26.03487105787727
            ],
            [
              86.39643558521504,
              26.03499997507755
            ],
            [
              86.39732706072661,
              26.03559964317461
            ],
            [
              86.39787605533272,
              26.03574188892615
            ],
            [
              86.39842673158502,
              26.035554562718737
            ],
            [
              86.39941323268394,
              26.03516136897452
            ],
            [
              86.4001379602175,
              26.0351418058696
            ],
            [
              86.40144623066469,
              26.035350394876076
            ],
            [
              86.4027036402971,
              26.03573483923752
            ],
            [
              86.40428034172423,
              26.036229032361952
            ],
            [
              86.40464567577048,
              26.03612669764423
            ],
            [
              86.40553889581034,
              26.035398984928975
            ],
            [
              86.40618117057721,
              26.03488242915541
            ],
            [
              86.40688640736406,
              26.034763427803554
            ],
            [
              86.40811891030692,
              26.035134176604878
            ],
            [
              86.40839294767255,
              26.035297830358697
            ],
            [
              86.40940374819992,
              26.036033356131963
            ],
            [
              86.41109186318015,
              26.038261508807015
            ],
            [
              86.41246551930192,
              26.03940030617557
            ],
            [
              86.41255914531408,
              26.03966705811604
            ],
            [
              86.41241889943363,
              26.039729693622668
            ],
            [
              86.41186966497733,
              26.039628134380926
            ],
            [
              86.41091545292296,
              26.03956104024323
            ],
            [
              86.41050407482852,
              26.039875395322053
            ],
            [
              86.41038633174588,
              26.040434743722784
            ],
            [
              86.41055263775276,
              26.04115778426635
            ],
            [
              86.41073162527647,
              26.041343618851545
            ],
            [
              86.41107854924932,
              26.041927438345404
            ],
            [
              86.41178532934181,
              26.042508205678278
            ],
            [
              86.41251834203725,
              26.042840766006258
            ],
            [
              86.41393494212116,
              26.04339732060264
            ],
            [
              86.4143934961411,
              26.043647492070193
            ],
            [
              86.41453118990786,
              26.04409952623154
            ],
            [
              86.41457537713836,
              26.047278092993142
            ],
            [
              86.41457465938444,
              26.047422563402183
            ],
            [
              86.41480756468987,
              26.047825319377495
            ],
            [
              86.41505703313244,
              26.047912111001303
            ],
            [
              86.41540251441096,
              26.047787095660652
            ],
            [
              86.4157661659127,
              26.047021058626584
            ],
            [
              86.41617999191632,
              26.046214590636822
            ],
            [
              86.4165460625811,
              26.045967758711964
            ],
            [
              86.41698160805167,
              26.04582053031401
            ],
            [
              86.4174357836829,
              26.04594877608932
            ],
            [
              86.41754930468366,
              26.046238177621454
            ],
            [
              86.41748667593869,
              26.046775182366726
            ],
            [
              86.41706828290016,
              26.04749585378882
            ],
            [
              86.41707102455844,
              26.04795185600541
            ],
            [
              86.41730012460029,
              26.048115311087308
            ],
            [
              86.41798414587504,
              26.048258026704815
            ],
            [
              86.4180527780611,
              26.0485291876749
            ],
            [
              86.41789550191943,
              26.049002603914076
            ],
            [
              86.41743363940432,
              26.04941609966454
            ],
            [
              86.41737141040966,
              26.049871839381122
            ],
            [
              86.41753002773599,
              26.05013884915981
            ],
            [
              86.4182626811053,
              26.050557159006328
            ],
            [
              86.41919916939912,
              26.05119750913433
            ],
            [
              86.41988729687304,
              26.051525337314118
            ],
            [
              86.42052942431623,
              26.052060656138266
            ],
            [
              86.42064398376947,
              26.05315820106259
            ],
            [
              86.42123707397795,
              26.05350370099595
            ],
            [
              86.42332174125721,
              26.054442079747083
            ],
            [
              86.4236413160212,
              26.054506561904397
            ],
            [
              86.42428421421889,
              26.053868031146465
            ],
            [
              86.42519519934177,
              26.053600774034294
            ],
            [
              86.42554090699574,
              26.05343059029898
            ],
            [
              86.42537356792629,
              26.052897182338228
            ],
            [
              86.42494126627223,
              26.05237626412426
            ],
            [
              86.42494296318976,
              26.05202863511728
            ],
            [
              86.42518837484056,
              26.051925771855988
            ],
            [
              86.42587804202691,
              26.05194205960092
            ],
            [
              86.42615742796175,
              26.052047009052497
            ],
            [
              86.42645009458975,
              26.052504162963782
            ],
            [
              86.42651806920898,
              26.05291527609563
            ],
            [
              86.42645078629252,
              26.053389057960167
            ],
            [
              86.42628851641622,
              26.053866977972525
            ],
            [
              86.42645585907893,
              26.05440038394041
            ],
            [
              86.42679472516365,
              26.054609408374155
            ],
            [
              86.42748059517126,
              26.05438187560079
            ],
            [
              86.42771132206212,
              26.054215744277588
            ],
            [
              86.42782229005084,
              26.05400850590363
            ],
            [
              86.42775501342258,
              26.053452924123892
            ],
            [
              86.42759198267325,
              26.05305949260393
            ],
            [
              86.42729849857834,
              26.052769385614294
            ],
            [
              86.42723082938632,
              26.05229506698382
            ],
            [
              86.4272469200097,
              26.052069393177693
            ],
            [
              86.42738827081794,
              26.051781009197807
            ],
            [
              86.42766380028527,
              26.05165117427498
            ],
            [
              86.42784911644017,
              26.051651907878973
            ],
            [
              86.42807364136227,
              26.051652798049723
            ],
            [
              86.42821238076803,
              26.051901659016487
            ],
            [
              86.42844573612939,
              26.05222312977775
            ],
            [
              86.42876493360097,
              26.05236434979053
            ],
            [
              86.42924365659567,
              26.052591980904445
            ],
            [
              86.43022570744067,
              26.053128600639234
            ],
            [
              86.43077831776579,
              26.053582255884
            ],
            [
              86.43098014585397,
              26.05422414704698
            ],
            [
              86.4309625568407,
              26.05476133390926
            ],
            [
              86.43070963617245,
              26.055383373201735
            ],
            [
              86.43036644020805,
              26.056068264354863
            ],
            [
              86.42976745255973,
              26.056932732067402
            ],
            [
              86.4295927023892,
              26.05792528807618
            ],
            [
              86.4298946504107,
              26.05853597306333
            ],
            [
              86.4297539975934,
              26.058679889714696
            ],
            [
              86.42954915206421,
              26.0586610221304
            ],
            [
              86.42916116160819,
              26.05827121861158
            ],
            [
              86.42860847133299,
              26.057831102847235
            ],
            [
              86.42835875226042,
              26.05778948087668
            ],
            [
              86.42820338773372,
              26.057874647082375
            ],
            [
              86.42817760698338,
              26.058037076346267
            ],
            [
              86.42820308320483,
              26.058967215694427
            ],
            [
              86.42797142565938,
              26.060352328399457
            ],
            [
              86.42799481778935,
              26.060681998327528
            ],
            [
              86.42820343714106,
              26.060953709157335
            ],
            [
              86.4285679303642,
              26.061036418228433
            ],
            [
              86.42893290508437,
              26.06101980169249
            ],
            [
              86.42946357226207,
              26.060850339682947
            ],
            [
              86.43060834842922,
              26.060827770015234
            ],
            [
              86.43202212510819,
              26.060995869873935
            ],
            [
              86.4340295534427,
              26.061410080253573
            ],
            [
              86.43432790101653,
              26.061736311909947
            ],
            [
              86.43433142510742,
              26.062043328619723
            ],
            [
              86.43405981409134,
              26.0623944156465
            ],
            [
              86.4336495013988,
              26.062483103352076
            ],
            [
              86.43234547459302,
              26.062356082898482
            ],
            [
              86.43206994602404,
              26.06248141194188
            ],
            [
              86.43220362342315,
              26.062748308258232
            ],
            [
              86.43273196755749,
              26.063061903127963
            ],
            [
              86.4339249482211,
              26.06341422095023
            ],
            [
              86.43511395743286,
              26.063554321129445
            ],
            [
              86.4362074757299,
              26.063802392627903
            ],
            [
              86.43659148125934,
              26.063988996657304
            ],
            [
              86.43689505612983,
              26.06427009523169
            ],
            [
              86.43689278968039,
              26.064744136213122
            ],
            [
              86.43643978994385,
              26.066439916312078
            ],
            [
              86.43618866680448,
              26.06668724738268
            ],
            [
              86.43542836598569,
              26.066788115031624
            ],
            [
              86.435227724572,
              26.06693180286487
            ],
            [
              86.43541018857591,
              26.067451713058944
            ],
            [
              86.43543280006992,
              26.067948424048826
            ],
            [
              86.43541152886232,
              26.068214710779653
            ],
            [
              86.43493406710229,
              26.06875009860143
            ],
            [
              86.43467633326074,
              26.06933149233178
            ],
            [
              86.43442637164303,
              26.0693350282697
            ],
            [
              86.43390299339558,
              26.069021458263865
            ],
            [
              86.43351378212905,
              26.06887546034302
            ],
            [
              86.43325873514856,
              26.068897031906147
            ],
            [
              86.43312207174942,
              26.06924864629204
            ],
            [
              86.4333729262925,
              26.070098404269395
            ],
            [
              86.4333484337263,
              26.071032861656466
            ],
            [
              86.4330974677921,
              26.071244068962926
            ],
            [
              86.43234372287824,
              26.07101536861863
            ],
            [
              86.43199938874835,
              26.070892116823366
            ],
            [
              86.43181881929142,
              26.071017819209494
            ],
            [
              86.43163657088319,
              26.071491148622442
            ],
            [
              86.43195519433132,
              26.07176328866743
            ],
            [
              86.43259359556271,
              26.072068287655025
            ],
            [
              86.43392633611823,
              26.072484363167717
            ],
            [
              86.43543497758616,
              26.07270697984433
            ],
            [
              86.43561736433495,
              26.07324494936959
            ],
            [
              86.43568977393672,
              26.073782487156326
            ],
            [
              86.43582394630756,
              26.07395005685388
            ],
            [
              86.43607458884824,
              26.073806564023652
            ],
            [
              86.43660296262702,
              26.073081752854293
            ],
            [
              86.43705535330577,
              26.072564322247185
            ],
            [
              86.43744607014871,
              26.072398799291225
            ],
            [
              86.4380855466635,
              26.07248255570813
            ],
            [
              86.4382279529922,
              26.07302036488488
            ],
            [
              86.43861734302348,
              26.07522959338299
            ],
            [
              86.43882153008757,
              26.075392917619485
            ],
            [
              86.43909716825101,
              26.075249517735283
            ],
            [
              86.43941526887966,
              26.074587084660493
            ],
            [
              86.44005770175004,
              26.074052323044302
            ]
          ]
        ]
      }
    }
  ]
}