{
  "type": "FeatureCollection",
  "features": [
    {
      "type": "Feature",
      "properties": {
        "object_id": "10-229-01386",
        "stname": "BIHAR",
        "dtname": "Nalanda",
        "sdtname": "Bihar",
        "st_area_sh": 0.0,
        "st_length_": 0.0,
        "remarks": "",
        "dist_lgd": 209,
        "state_lgd": 10,
        "subdt_lgd": 1386,
        "ac_no": null,
        "st_length(shape)": 98561.8371020671,
        "st_area(shape)": 215840179.0991975
      },
      "geometry": {
        "type": "Polygon",
        "coordinates": [
          [
            [
              85.56087024587357,
              25.23793582380344
            ],
            [
              85.561206241841,
              25.237389027854412
            ],
            [
              85.5616352493729,
              25.236318348136475
            ],
            [
              85.56200657608044,
              25.235983620245783
            ],
            [
              85.56254224687427,
              25.235860563129204
            ],
            [
              85.56304297410183,
              25.235674463381102
            ],
            [
              85.5632400599836,
              25.235096267897514
            ],
            [
              85.56344065558315,
              25.233981005394476
            ],
            [
              85.56326874498724,
              25.2327626932559
            ],
            [
              85.56286567181759,
              25.232303151010647
            ],
            [
              85.56222531136055,
              25.23221423582676
            ],
            [
              85.5614561693227,
              25.232247485985127
            ],
            [
              85.5603503333265,
              25.232552218817986
            ],
            [
              85.55887735497534,
              25.232893799876233
            ],
            [
              85.5577707428347,
              25.232896127975927
            ],
            [
              85.55747259468686,
              25.232711730152932
            ],
            [
              85.55763546104448,
              25.232345712773306
            ],
            [
              85.56034654962252,
              25.231058244756603
            ],
            [
              85.563458249088,
              25.22922362569919
            ],
            [
              85.56383940875465,
              25.22886173327921
            ],
            [
              85.56426012034491,
              25.228459174976773
            ],
            [
              85.56593481808807,
              25.22749421785061
            ],
            [
              85.56763973336075,
              25.22669617628203
            ],
            [
              85.5678781094062,
              25.226758808997282
            ],
            [
              85.56868415333761,
              25.22761016881101
            ],
            [
              85.56941904710524,
              25.227789151661764
            ],
            [
              85.57022300874179,
              25.227818998905704
            ],
            [
              85.57092807305213,
              25.227970954086167
            ],
            [
              85.57146348602944,
              25.227784682172665
            ],
            [
              85.57273773637849,
              25.22741632338225
            ],
            [
              85.5738445820811,
              25.22750415070415
            ],
            [
              85.57427373064849,
              25.226528300650116
            ],
            [
              85.5751435899994,
              25.225217395931995
            ],
            [
              85.57540935028796,
              25.224422445397447
            ],
            [
              85.57620797683009,
              25.2224527962629
            ],
            [
              85.57640886078885,
              25.22147742010285
            ],
            [
              85.57637142709267,
              25.220470924985044
            ],
            [
              85.5759315634205,
              25.219280321924753
            ],
            [
              85.57549192432722,
              25.21815290024508
            ],
            [
              85.57529077626371,
              25.217146772596312
            ],
            [
              85.57478739720945,
              25.21629486085812
            ],
            [
              85.57324407358502,
              25.216189872347073
            ],
            [
              85.57006392159654,
              25.216318697674115
            ],
            [
              85.56932520280246,
              25.216532455108272
            ],
            [
              85.5691223578214,
              25.21677658387918
            ],
            [
              85.56832249968906,
              25.218272305950105
            ],
            [
              85.56749124364089,
              25.219190387043373
            ],
            [
              85.56722477817482,
              25.219741611899078
            ],
            [
              85.56668950713129,
              25.21998645183257
            ],
            [
              85.56558328216455,
              25.220079098870933
            ],
            [
              85.56397584757492,
              25.22017280395496
            ],
            [
              85.56363802173928,
              25.219992975266944
            ],
            [
              85.56353774370244,
              25.219595966720426
            ],
            [
              85.56330168620872,
              25.218499702687655
            ],
            [
              85.56269213077941,
              25.216830910142164
            ],
            [
              85.56225267314578,
              25.215735042992907
            ],
            [
              85.5618148693106,
              25.215248555758027
            ],
            [
              85.56017465339964,
              25.214123599912675
            ],
            [
              85.5599354158698,
              25.21369979931435
            ],
            [
              85.55966576587603,
              25.21302782378817
            ],
            [
              85.56050925338506,
              25.21303511237733
            ],
            [
              85.56103469416446,
              25.212853468056846
            ],
            [
              85.5618223280224,
              25.212346259937895
            ],
            [
              85.56231219821144,
              25.211835191623724
            ],
            [
              85.56277088608039,
              25.210760016752793
            ],
            [
              85.56319540293418,
              25.20992409674442
            ],
            [
              85.56338849939777,
              25.209770231804193
            ],
            [
              85.5651301988847,
              25.209856763332
            ],
            [
              85.5655917362097,
              25.209887425291523
            ],
            [
              85.56585563518901,
              25.21027495876389
            ],
            [
              85.56579384726714,
              25.211290645031216
            ],
            [
              85.56579481565103,
              25.21167888112082
            ],
            [
              85.56592437337623,
              25.211917779079705
            ],
            [
              85.5678635800548,
              25.211615723737115
            ],
            [
              85.56868250672571,
              25.211731350106923
            ],
            [
              85.56947096074549,
              25.211553573309
            ],
            [
              85.57032249715954,
              25.210861168904376
            ],
            [
              85.57081140525288,
              25.209993523771953
            ],
            [
              85.57117153086715,
              25.209189282272177
            ],
            [
              85.57054848364062,
              25.208084840709326
            ],
            [
              85.57224888128573,
              25.20756655823953
            ],
            [
              85.57327059724209,
              25.207442449093648
            ],
            [
              85.57471299783927,
              25.20693379525699
            ],
            [
              85.57533679605743,
              25.20645396930688
            ],
            [
              85.57549811641445,
              25.20552385721416
            ],
            [
              85.57536295230354,
              25.20507726134615
            ],
            [
              85.5745083104136,
              25.204600753198797
            ],
            [
              85.57342547308527,
              25.20412462682427
            ],
            [
              85.57171209658097,
              25.203442280786717
            ],
            [
              85.57059397791986,
              25.202727071792104
            ],
            [
              85.57030055491039,
              25.202456859609494
            ],
            [
              85.57016483743728,
              25.201771143262732
            ],
            [
              85.57019824308773,
              25.201260995352676
            ],
            [
              85.57037549416802,
              25.20076409337537
            ],
            [
              85.57038046005492,
              25.20075958469122
            ],
            [
              85.5709248166592,
              25.200248365312294
            ],
            [
              85.57215021213153,
              25.20024119625457
            ],
            [
              85.57348927862327,
              25.200098382359222
            ],
            [
              85.5747988740855,
              25.200036851108774
            ],
            [
              85.57663938376213,
              25.200032822774155
            ],
            [
              85.57714022956732,
              25.19993684660571
            ],
            [
              85.57797793012932,
              25.199664207646016
            ],
            [
              85.57992185565807,
              25.19938457697614
            ],
            [
              85.5813952669972,
              25.199381289915532
            ],
            [
              85.58189604542872,
              25.199258310379772
            ],
            [
              85.58233135464236,
              25.198796946828793
            ],
            [
              85.58282972109737,
              25.197793777200246
            ],
            [
              85.58353503424102,
              25.198108156870582
            ],
            [
              85.58393801308759,
              25.198536058022594
            ],
            [
              85.58413891231773,
              25.19944731478654
            ],
            [
              85.58541730479855,
              25.200667620340255
            ],
            [
              85.58601867298236,
              25.20105897412491
            ],
            [
              85.58725878016409,
              25.201029046350236
            ],
            [
              85.5878997092547,
              25.201361575051084
            ],
            [
              85.5889027070155,
              25.201666198306413
            ],
            [
              85.58994050371378,
              25.201997837682256
            ],
            [
              85.5914859249044,
              25.202906028663584
            ],
            [
              85.59222530485856,
              25.202967474745577
            ],
            [
              85.5934306822731,
              25.202874454608526
            ],
            [
              85.59406615230174,
              25.203053504735323
            ],
            [
              85.59500347872365,
              25.202929444632954
            ],
            [
              85.59660972214722,
              25.202528514725437
            ],
            [
              85.59778538688543,
              25.202467026968915
            ],
            [
              85.59868689298544,
              25.201977518327546
            ],
            [
              85.59935517038654,
              25.201456830759426
            ],
            [
              85.59934229393528,
              25.200427789132885
            ],
            [
              85.59872522769187,
              25.199752225693096
            ],
            [
              85.5985544130406,
              25.197261089692823
            ],
            [
              85.59884172301454,
              25.19534661865201
            ],
            [
              85.59864358430728,
              25.193722191684675
            ],
            [
              85.59802581558131,
              25.192811933363778
            ],
            [
              85.59792383703366,
              25.191810151596588
            ],
            [
              85.59814907162483,
              25.190775994277498
            ],
            [
              85.59869824319904,
              25.190260165387656
            ],
            [
              85.60025034156719,
              25.190048885018186
            ],
            [
              85.60154406200171,
              25.189693748256598
            ],
            [
              85.60229349769715,
              25.189840910296898
            ],
            [
              85.60297552920356,
              25.19069236011906
            ],
            [
              85.60352896957201,
              25.191666003639458
            ],
            [
              85.60456010526248,
              25.19139717481563
            ],
            [
              85.60579478392494,
              25.1912452349305
            ],
            [
              85.6068627550336,
              25.191716610824955
            ],
            [
              85.6074798967355,
              25.192419224031482
            ],
            [
              85.60835494475543,
              25.193067076088347
            ],
            [
              85.60874133890522,
              25.192890115790874
            ],
            [
              85.60887386107089,
              25.192415879069046
            ],
            [
              85.60877147468807,
              25.191337382791616
            ],
            [
              85.6088634478001,
              25.190542752329304
            ],
            [
              85.60921962621703,
              25.190216918273364
            ],
            [
              85.61015663373706,
              25.190007009981592
            ],
            [
              85.61064318914272,
              25.190154817074706
            ],
            [
              85.61080857617303,
              25.190741143602434
            ],
            [
              85.61139044911853,
              25.191213619646607
            ],
            [
              85.61297761142713,
              25.191151094633224
            ],
            [
              85.61394920228899,
              25.190882428062043
            ],
            [
              85.61485760295878,
              25.19111486867373
            ],
            [
              85.61767353301529,
              25.190521142643263
            ],
            [
              85.6191310450722,
              25.190219604859134
            ],
            [
              85.62039190603197,
              25.190482789993233
            ],
            [
              85.62094127882878,
              25.1900797169821
            ],
            [
              85.62103560373028,
              25.188468080614594
            ],
            [
              85.62065994804139,
              25.185620969308644
            ],
            [
              85.6207548056438,
              25.18418995572181
            ],
            [
              85.62258919958995,
              25.182235433066484
            ],
            [
              85.62378996685045,
              25.180724896948277
            ],
            [
              85.62371053511811,
              25.177466204208795
            ],
            [
              85.62350685470382,
              25.17572904576141
            ],
            [
              85.62353100321528,
              25.17223996765811
            ],
            [
              85.62673980696975,
              25.172173164629324
            ],
            [
              85.62737619597489,
              25.172658985748107
            ],
            [
              85.6278144238149,
              25.173235564057855
            ],
            [
              85.62838867006364,
              25.174484365711486
            ],
            [
              85.62895510815592,
              25.174785353019022
            ],
            [
              85.63039305131268,
              25.174628211238623
            ],
            [
              85.63193582696479,
              25.17471900178077
            ],
            [
              85.63206707172613,
              25.173865619233634
            ],
            [
              85.63162914482174,
              25.17337931918987
            ],
            [
              85.63149264311936,
              25.172558154710252
            ],
            [
              85.63179369911379,
              25.172069925877967
            ],
            [
              85.63339455444226,
              25.171700200122274
            ],
            [
              85.63533865244756,
              25.171631900860717
            ],
            [
              85.63633835159462,
              25.17094328415026
            ],
            [
              85.63697041880495,
              25.17002982797457
            ],
            [
              85.63707059533218,
              25.16877933187026
            ],
            [
              85.63689872516042,
              25.167746201092342
            ],
            [
              85.6382363327882,
              25.167286797151384
            ],
            [
              85.63950533517935,
              25.167039731660257
            ],
            [
              85.64004462618374,
              25.168193781002252
            ],
            [
              85.64014804473082,
              25.16953404660114
            ],
            [
              85.64041802979621,
              25.170201382375964
            ],
            [
              85.64135658780843,
              25.1705644841547
            ],
            [
              85.64219403774048,
              25.17031857491237
            ],
            [
              85.64285938483714,
              25.169007855202306
            ],
            [
              85.64375354092147,
              25.166355985981188
            ],
            [
              85.64381496143241,
              25.1653808613169
            ],
            [
              85.6444499939815,
              25.165455899389865
            ],
            [
              85.64616031980712,
              25.166760295229427
            ],
            [
              85.64659902465252,
              25.167458774126292
            ],
            [
              85.64696593973369,
              25.167426130683477
            ],
            [
              85.64729675871011,
              25.166969392309007
            ],
            [
              85.64659456721209,
              25.1660595317366
            ],
            [
              85.64515164020214,
              25.164632539144407
            ],
            [
              85.64447752824326,
              25.1632035589842
            ],
            [
              85.64403552119086,
              25.16149859111572
            ],
            [
              85.64420041863936,
              25.16033812009581
            ],
            [
              85.64486579897368,
              25.15902747199555
            ],
            [
              85.64486254707232,
              25.15803894902291
            ],
            [
              85.64436064395005,
              25.157701764172593
            ],
            [
              85.64282195293755,
              25.157313217829323
            ],
            [
              85.64164937840394,
              25.156616707098124
            ],
            [
              85.6400674397987,
              25.155090728737616
            ],
            [
              85.63972198996125,
              25.15407156698266
            ],
            [
              85.63955779858856,
              25.152334254148183
            ],
            [
              85.63955028687616,
              25.149978162748514
            ],
            [
              85.63982078398126,
              25.1492688281106
            ],
            [
              85.64050357815736,
              25.148770526118344
            ],
            [
              85.64284953570836,
              25.14888617472424
            ],
            [
              85.64343116790536,
              25.14931792090756
            ],
            [
              85.64462191266223,
              25.14949981282935
            ],
            [
              85.64506412363221,
              25.149778466700948
            ],
            [
              85.64510061140241,
              25.15033806236912
            ],
            [
              85.64473129602281,
              25.15114248904699
            ],
            [
              85.64446155260426,
              25.152072988599663
            ],
            [
              85.64521229175516,
              25.152657837062524
            ],
            [
              85.64605991690443,
              25.152565278600317
            ],
            [
              85.64656840737268,
              25.151850746766105
            ],
            [
              85.64653117400078,
              25.151074510849917
            ],
            [
              85.64598393110948,
              25.150520842356475
            ],
            [
              85.64635738233265,
              25.149468177774107
            ],
            [
              85.64601426542,
              25.14915762866058
            ],
            [
              85.6453988314155,
              25.14745760129342
            ],
            [
              85.64491867111634,
              25.146186066979535
            ],
            [
              85.64318089457224,
              25.14550908069633
            ],
            [
              85.64239686565352,
              25.14535776425556
            ],
            [
              85.64100406733135,
              25.145546457850703
            ],
            [
              85.64011615813152,
              25.14545851938392
            ],
            [
              85.6397074058126,
              25.14477808765294
            ],
            [
              85.6402465198489,
              25.142790628861064
            ],
            [
              85.64027195295122,
              25.141436530303825
            ],
            [
              85.64013215802503,
              25.13957726974428
            ],
            [
              85.63992463102473,
              25.13824630777409
            ],
            [
              85.64001740094245,
              25.136232922931207
            ],
            [
              85.63977623203475,
              25.135209029168298
            ],
            [
              85.6396018923943,
              25.13341302299203
            ],
            [
              85.63943259140426,
              25.133196811705236
            ],
            [
              85.63874797634308,
              25.133076768798045
            ],
            [
              85.63684318412307,
              25.132833524710893
            ],
            [
              85.63657704474541,
              25.130189190839733
            ],
            [
              85.63709990286834,
              25.129321234941447
            ],
            [
              85.6371992529455,
              25.12781796024113
            ],
            [
              85.63690161324408,
              25.125197922231614
            ],
            [
              85.63640305275297,
              25.125437126325533
            ],
            [
              85.63441488968805,
              25.126737095264705
            ],
            [
              85.63348947492678,
              25.127008472383874
            ],
            [
              85.63181485084547,
              25.127313560378138
            ],
            [
              85.63003774875321,
              25.12746869730783
            ],
            [
              85.6293039221841,
              25.127457397268326
            ],
            [
              85.62652309379735,
              25.127345871336747
            ],
            [
              85.62377318721927,
              25.127130743206347
            ],
            [
              85.62239682177862,
              25.126928339700818
            ],
            [
              85.62064198892222,
              25.12686686993418
            ],
            [
              85.61930520055802,
              25.126673836122496
            ],
            [
              85.6186386021082,
              25.127299670762365
            ],
            [
              85.61813656513692,
              25.127403341033606
            ],
            [
              85.61750727911071,
              25.1273568403717
            ],
            [
              85.61680216629141,
              25.126998119804057
            ],
            [
              85.61565622500932,
              25.12703256496212
            ],
            [
              85.61497698007689,
              25.12657927104492
            ],
            [
              85.6144255941555,
              25.12622197636958
            ],
            [
              85.61379631711247,
              25.126175459805083
            ],
            [
              85.61325967344318,
              25.12626976005568
            ],
            [
              85.6125235013729,
              25.126028110332943
            ],
            [
              85.61175253036515,
              25.126233075635355
            ],
            [
              85.61120688737338,
              25.126246021930882
            ],
            [
              85.61066921423479,
              25.125992678342588
            ],
            [
              85.60943479698209,
              25.125958527310818
            ],
            [
              85.60870814256222,
              25.12575306379905
            ],
            [
              85.60796089067122,
              25.12561512225555
            ],
            [
              85.60773746079545,
              25.124764277049778
            ],
            [
              85.60749137900147,
              25.124599437814076
            ],
            [
              85.60568593506196,
              25.124632123618817
            ],
            [
              85.60560398984343,
              25.124508500179065
            ],
            [
              85.60548116409294,
              25.124323203863447
            ],
            [
              85.60533874159455,
              25.12289073184517
            ],
            [
              85.60512711917487,
              25.122748787088895
            ],
            [
              85.60450092694649,
              25.12286930211945
            ],
            [
              85.60440346782302,
              25.122281484611058
            ],
            [
              85.60437727294932,
              25.121531813185566
            ],
            [
              85.60408845919557,
              25.1203282067872
            ],
            [
              85.60369949227083,
              25.119647351986444
            ],
            [
              85.60384571015132,
              25.118998625179067
            ],
            [
              85.60364234055413,
              25.117258584655623
            ],
            [
              85.60396639970803,
              25.11623230563844
            ],
            [
              85.60399580426224,
              25.11451702923898
            ],
            [
              85.60389539417305,
              25.1137531140051
            ],
            [
              85.60287108478043,
              25.11356739468294
            ],
            [
              85.60285644583458,
              25.11180204167753
            ],
            [
              85.60283237278158,
              25.111231481964488
            ],
            [
              85.60280243642474,
              25.111000215005927
            ],
            [
              85.6027288024192,
              25.109907290361132
            ],
            [
              85.60204164782073,
              25.109917010734396
            ],
            [
              85.59705068805222,
              25.109976957357343
            ],
            [
              85.5958096484192,
              25.10994289783349
            ],
            [
              85.59448252233422,
              25.1099064671797
            ],
            [
              85.59153005823599,
              25.110020572112564
            ],
            [
              85.59056961726344,
              25.110669519015566
            ],
            [
              85.59007182932348,
              25.11100585683917
            ],
            [
              85.58923103586197,
              25.11096455578309
            ],
            [
              85.58806550771341,
              25.110907296349996
            ],
            [
              85.58676953340587,
              25.110610085997514
            ],
            [
              85.58617454865046,
              25.110735390183653
            ],
            [
              85.58490846129239,
              25.11100201996963
            ],
            [
              85.58441560061176,
              25.110841711596294
            ],
            [
              85.5834895067241,
              25.11054048768905
            ],
            [
              85.58238125605641,
              25.10987934367364
            ],
            [
              85.58156220362137,
              25.109963657940828
            ],
            [
              85.58141874626376,
              25.109978423953468
            ],
            [
              85.58111257077056,
              25.110009942344306
            ],
            [
              85.5794712157958,
              25.110178884619987
            ],
            [
              85.57789229103832,
              25.11079467184568
            ],
            [
              85.57715902861128,
              25.111357005948
            ],
            [
              85.57662125126812,
              25.11255213637722
            ],
            [
              85.57598544976116,
              25.113453943778037
            ],
            [
              85.575506551595,
              25.11394177102259
            ],
            [
              85.5735488656727,
              25.113692119954024
            ],
            [
              85.57263521435009,
              25.113775655613104
            ],
            [
              85.57127662297562,
              25.11433193820191
            ],
            [
              85.57066733883752,
              25.114403004961762
            ],
            [
              85.56897354830133,
              25.113263315957553
            ],
            [
              85.56864254606859,
              25.112659974831512
            ],
            [
              85.56853005633376,
              25.109258066914908
            ],
            [
              85.56894610117614,
              25.10794542340172
            ],
            [
              85.56989336206685,
              25.106839864744682
            ],
            [
              85.57071988399343,
              25.105875200685638
            ],
            [
              85.57067142617208,
              25.105331614190305
            ],
            [
              85.57060414864549,
              25.104576936108074
            ],
            [
              85.57043617356882,
              25.10385620559353
            ],
            [
              85.57041903191659,
              25.103782650833054
            ],
            [
              85.57073178667093,
              25.10304702514264
            ],
            [
              85.5712869670761,
              25.102536865367746
            ],
            [
              85.5720256086151,
              25.10223621239488
            ],
            [
              85.57246329836426,
              25.10165566900366
            ],
            [
              85.57247008603451,
              25.101070974926525
            ],
            [
              85.5721411238758,
              25.100502450909854
            ],
            [
              85.57155142570586,
              25.100138826744075
            ],
            [
              85.5703852606518,
              25.099419724714075
            ],
            [
              85.57014570062678,
              25.098948070349373
            ],
            [
              85.56989408880389,
              25.096606613321274
            ],
            [
              85.56973343679341,
              25.095889503972522
            ],
            [
              85.56946358288208,
              25.09511748361066
            ],
            [
              85.56892006710089,
              25.09462750597326
            ],
            [
              85.56814441766713,
              25.0944815258677
            ],
            [
              85.56737845207213,
              25.09458111568475
            ],
            [
              85.56711164704288,
              25.094854230282817
            ],
            [
              85.56676715660612,
              25.095206865698014
            ],
            [
              85.5662198589176,
              25.09576709776957
            ],
            [
              85.56542250888153,
              25.096032530160603
            ],
            [
              85.56459468260111,
              25.09601298063588
            ],
            [
              85.56375717787184,
              25.096062181880622
            ],
            [
              85.56304859396224,
              25.09635963503598
            ],
            [
              85.56141827479077,
              25.097044001272717
            ],
            [
              85.55972593593206,
              25.09725070726587
            ],
            [
              85.55907871863448,
              25.097183926656914
            ],
            [
              85.55777892109705,
              25.096597365352213
            ],
            [
              85.556689069723,
              25.09610553232599
            ],
            [
              85.55597464676408,
              25.095783118308464
            ],
            [
              85.555121072971,
              25.095797886846817
            ],
            [
              85.55425733474046,
              25.095958742097903
            ],
            [
              85.55361318878282,
              25.09673571466877
            ],
            [
              85.55331451242562,
              25.097095976970444
            ],
            [
              85.55284168956568,
              25.097783837142266
            ],
            [
              85.55278701540257,
              25.09812184635392
            ],
            [
              85.55284253488038,
              25.09843015386947
            ],
            [
              85.55296781662486,
              25.09855448213905
            ],
            [
              85.55316372661191,
              25.098564856651905
            ],
            [
              85.55371560121682,
              25.098196304247956
            ],
            [
              85.55437988919972,
              25.097752672727253
            ],
            [
              85.55456630309592,
              25.097708326326185
            ],
            [
              85.55470058506123,
              25.09775018422694
            ],
            [
              85.55473201890963,
              25.09798692994672
            ],
            [
              85.55486398501814,
              25.098980761386304
            ],
            [
              85.55509521586384,
              25.099436969077118
            ],
            [
              85.55542083269647,
              25.099770990070937
            ],
            [
              85.55605232408669,
              25.099961799183774
            ],
            [
              85.556354314329,
              25.10014939879949
            ],
            [
              85.55635951108292,
              25.1004264390393
            ],
            [
              85.55610324508856,
              25.10066246290171
            ],
            [
              85.55572096791771,
              25.100835705949084
            ],
            [
              85.55532773399534,
              25.10086265168196
            ],
            [
              85.55483415286587,
              25.10080013731226
            ],
            [
              85.55397054489107,
              25.100471091951558
            ],
            [
              85.55356430066846,
              25.100283788937578
            ],
            [
              85.55296760372414,
              25.100008673896617
            ],
            [
              85.55259817875005,
              25.1001666463136
            ],
            [
              85.55218302144317,
              25.100620395305643
            ],
            [
              85.5520535373798,
              25.10121157983937
            ],
            [
              85.55193978281707,
              25.102260719032426
            ],
            [
              85.5519756318851,
              25.10316453025373
            ],
            [
              85.55204824899774,
              25.10345437001744
            ],
            [
              85.55218544958939,
              25.104001993109815
            ],
            [
              85.55222135435298,
              25.104540934173773
            ],
            [
              85.55203257429434,
              25.104785302646533
            ],
            [
              85.55130254759891,
              25.105066702252344
            ],
            [
              85.55051809916696,
              25.105305247805735
            ],
            [
              85.54865347062326,
              25.105421655842953
            ],
            [
              85.54649552417305,
              25.10568904802978
            ],
            [
              85.54585979273469,
              25.10567704397037
            ],
            [
              85.54522406129631,
              25.105665038282915
            ],
            [
              85.54424068902951,
              25.105574599032806
            ],
            [
              85.54362299216878,
              25.105433346749127
            ],
            [
              85.54323981219108,
              25.104822286348117
            ],
            [
              85.54274221469397,
              25.104028750235944
            ],
            [
              85.54223983187131,
              25.10363910577027
            ],
            [
              85.54180249156684,
              25.103465534800954
            ],
            [
              85.54135350819793,
              25.103561141911968
            ],
            [
              85.54098344362336,
              25.104126865613754
            ],
            [
              85.54090827260042,
              25.104764739329386
            ],
            [
              85.54104731922997,
              25.105464719077148
            ],
            [
              85.54113950973431,
              25.10592882392764
            ],
            [
              85.54235247431976,
              25.107679623974633
            ],
            [
              85.54284659623502,
              25.11019276235364
            ],
            [
              85.54295630927732,
              25.11305604894201
            ],
            [
              85.5427608592277,
              25.11528541982114
            ],
            [
              85.54253981168405,
              25.11682206774132
            ],
            [
              85.54237068406886,
              25.117543649876485
            ],
            [
              85.54185039782261,
              25.1179463208351
            ],
            [
              85.54122053777296,
              25.118287675803607
            ],
            [
              85.5409998253009,
              25.118407290773284
            ],
            [
              85.5393956542907,
              25.118802140858765
            ],
            [
              85.53725738274181,
              25.119713024737887
            ],
            [
              85.53522726116661,
              25.120577794686525
            ],
            [
              85.53520891487355,
              25.120580246121524
            ],
            [
              85.53361897677074,
              25.120792713937945
            ],
            [
              85.53247710306027,
              25.120873741260613
            ],
            [
              85.53146565844082,
              25.12064828765704
            ],
            [
              85.5300680891662,
              25.120203566369852
            ],
            [
              85.52809528010611,
              25.119806976980342
            ],
            [
              85.52585033182064,
              25.11955384534049
            ],
            [
              85.52448512076084,
              25.119232496831778
            ],
            [
              85.52267105029968,
              25.11899129924631
            ],
            [
              85.5215648406043,
              25.118918716610416
            ],
            [
              85.52153808967346,
              25.118920501123167
            ],
            [
              85.52005935401965,
              25.11901910313935
            ],
            [
              85.5182686990447,
              25.118939659826143
            ],
            [
              85.51708514530164,
              25.118973987692137
            ],
            [
              85.5162020744279,
              25.119319076355808
            ],
            [
              85.51477151362616,
              25.11951248698425
            ],
            [
              85.51371647286767,
              25.119401888347944
            ],
            [
              85.51295171909999,
              25.11941598382753
            ],
            [
              85.51197940958592,
              25.11908439232283
            ],
            [
              85.51149127134875,
              25.118917914637034
            ],
            [
              85.51107172217844,
              25.119367650071496
            ],
            [
              85.5107565177183,
              25.12027237835891
            ],
            [
              85.51052875706453,
              25.121631933231615
            ],
            [
              85.51023702737936,
              25.12269077677456
            ],
            [
              85.50951610331275,
              25.12445177331154
            ],
            [
              85.50907495684636,
              25.12582594574164
            ],
            [
              85.50874996074963,
              25.12683828705149
            ],
            [
              85.5084742201782,
              25.127274071996318
            ],
            [
              85.50784121782168,
              25.12789860797325
            ],
            [
              85.50746181975134,
              25.12851800234996
            ],
            [
              85.50747638413702,
              25.12871049891257
            ],
            [
              85.50806506721068,
              25.129647404118728
            ],
            [
              85.50827777479523,
              25.130226596269228
            ],
            [
              85.50821884710923,
              25.130903076848902
            ],
            [
              85.50765484075643,
              25.13183528484298
            ],
            [
              85.50673325820813,
              25.13213454100427
            ],
            [
              85.50563218238462,
              25.132492073752367
            ],
            [
              85.5056301539887,
              25.13249273168786
            ],
            [
              85.50431163196748,
              25.132494816098994
            ],
            [
              85.5036567915664,
              25.132826739617567
            ],
            [
              85.503316798096,
              25.133677339176117
            ],
            [
              85.502976800134,
              25.13452793768995
            ],
            [
              85.50216543009128,
              25.135218559667734
            ],
            [
              85.50000007882815,
              25.135266403268027
            ],
            [
              85.49914275816202,
              25.13523253377444
            ],
            [
              85.49838616019882,
              25.135190057624857
            ],
            [
              85.49762956403221,
              25.13514757902071
            ],
            [
              85.49652980783384,
              25.13502503402449
            ],
            [
              85.49606253386746,
              25.134463356160495
            ],
            [
              85.4960892551539,
              25.133530759154425
            ],
            [
              85.49558935707134,
              25.133135828172964
            ],
            [
              85.49393667973074,
              25.133202576943283
            ],
            [
              85.49331547135559,
              25.132722865752516
            ],
            [
              85.49277346743902,
              25.132021182972142
            ],
            [
              85.49252117918472,
              25.131392064110024
            ],
            [
              85.49186734759168,
              25.13107909505171
            ],
            [
              85.49148717876682,
              25.12965503927566
            ],
            [
              85.49152665792693,
              25.128931423045653
            ],
            [
              85.48942701483358,
              25.1289579616318
            ],
            [
              85.48664696977772,
              25.128993052805484
            ],
            [
              85.48481083669317,
              25.129057829164633
            ],
            [
              85.48439467596815,
              25.12931811678306
            ],
            [
              85.48374996676682,
              25.131984806069813
            ],
            [
              85.48333395156884,
              25.133470346699948
            ],
            [
              85.4828428821289,
              25.13453045715857
            ],
            [
              85.48235180640071,
              25.135590563294187
            ],
            [
              85.48175223664413,
              25.13707421726246
            ],
            [
              85.48182283434399,
              25.13816792278102
            ],
            [
              85.48205969942319,
              25.138803862249446
            ],
            [
              85.4835335581233,
              25.139598665636303
            ],
            [
              85.48420098392151,
              25.14005104434095
            ],
            [
              85.4846493151135,
              25.14090495621738
            ],
            [
              85.48459861958878,
              25.141294290760484
            ],
            [
              85.48358543044105,
              25.141590235122294
            ],
            [
              85.4824971412373,
              25.1417740170711
            ],
            [
              85.4807350490951,
              25.142020496988405
            ],
            [
              85.47885352863082,
              25.142029032404587
            ],
            [
              85.47804380699667,
              25.141951097103988
            ],
            [
              85.47700484698008,
              25.141856878083857
            ],
            [
              85.47383551789417,
              25.142102721906713
            ],
            [
              85.46834269902082,
              25.142227026081393
            ],
            [
              85.4680806173333,
              25.142391395077276
            ],
            [
              85.46760701922732,
              25.143569972642315
            ],
            [
              85.46651833206987,
              25.145006725881945
            ],
            [
              85.4650832428608,
              25.146008257975268
            ],
            [
              85.4637879854088,
              25.14622456123401
            ],
            [
              85.46305659956234,
              25.148919716792054
            ],
            [
              85.4635747002075,
              25.150254982683876
            ],
            [
              85.46344213402442,
              25.15102699626399
            ],
            [
              85.46317989333511,
              25.151361425925508
            ],
            [
              85.46234204994097,
              25.151547696016706
            ],
            [
              85.46206014243513,
              25.151985898061877
            ],
            [
              85.46241886757586,
              25.152906189603495
            ],
            [
              85.46320388194644,
              25.153771727100665
            ],
            [
              85.46347318608885,
              25.154633362787873
            ],
            [
              85.46380786422775,
              25.156045663945626
            ],
            [
              85.4633689536681,
              25.157454605272157
            ],
            [
              85.463435650883,
              25.158727322307712
            ],
            [
              85.46214214873909,
              25.159270875291337
            ],
            [
              85.46097645440224,
              25.159091952714842
            ],
            [
              85.45972593484805,
              25.158651366988465
            ],
            [
              85.45935952821333,
              25.159031100830802
            ],
            [
              85.45984667830369,
              25.159639749212513
            ],
            [
              85.46042786134306,
              25.1602436957382
            ],
            [
              85.46046397361748,
              25.161020065205093
            ],
            [
              85.4598304682044,
              25.161806337046766
            ],
            [
              85.45950409678694,
              25.162380034740735
            ],
            [
              85.45959543389179,
              25.163571464037116
            ],
            [
              85.46224455757981,
              25.163946845697744
            ],
            [
              85.46284574520223,
              25.16458241017166
            ],
            [
              85.46272521464732,
              25.166577656650812
            ],
            [
              85.46260889180117,
              25.16813501908792
            ],
            [
              85.4623732026167,
              25.169525535060597
            ],
            [
              85.46206279066858,
              25.1706995439842
            ],
            [
              85.46233181004504,
              25.171430380092524
            ],
            [
              85.462214236744,
              25.172274623625427
            ],
            [
              85.4620466470446,
              25.172852576098926
            ],
            [
              85.46178958873618,
              25.173380997216885
            ],
            [
              85.46145301605034,
              25.173756178763195
            ],
            [
              85.46007935004711,
              25.173911595681364
            ],
            [
              85.45971291736124,
              25.174282208208144
            ],
            [
              85.45977853120792,
              25.174945610776582
            ],
            [
              85.46011697957604,
              25.175586030775865
            ],
            [
              85.46018813512971,
              25.176579011331597
            ],
            [
              85.46031856511907,
              25.177454477924112
            ],
            [
              85.45993660685015,
              25.177477532949883
            ],
            [
              85.45985282367856,
              25.177734911745404
            ],
            [
              85.45965530930039,
              25.17829042570483
            ],
            [
              85.45943628925437,
              25.180750625955742
            ],
            [
              85.45920483113487,
              25.181721392257955
            ],
            [
              85.45915220063901,
              25.18284087971992
            ],
            [
              85.45891053316633,
              25.183667201243793
            ],
            [
              85.45845025078779,
              25.18425463937228
            ],
            [
              85.4584660431705,
              25.184791757279054
            ],
            [
              85.45819909980065,
              25.185333780403216
            ],
            [
              85.4575752297173,
              25.18600712327527
            ],
            [
              85.45702518138737,
              25.186355460215545
            ],
            [
              85.45613796658522,
              25.18678098994642
            ],
            [
              85.45539460439939,
              25.18720181309478
            ],
            [
              85.45521176669635,
              25.187653447857848
            ],
            [
              85.4551140910789,
              25.188578866223253
            ],
            [
              85.45531983672001,
              25.189973228845677
            ],
            [
              85.45522748002732,
              25.19109733405364
            ],
            [
              85.45486243883184,
              25.19233449281241
            ],
            [
              85.45386180723348,
              25.193198046653283
            ],
            [
              85.4535014570404,
              25.194236620802425
            ],
            [
              85.45346405478523,
              25.195622416256402
            ],
            [
              85.45412938032233,
              25.1959689959629
            ],
            [
              85.45545273887302,
              25.19525407064975
            ],
            [
              85.45679702367828,
              25.195211566629546
            ],
            [
              85.45850823614107,
              25.195055707048677
            ],
            [
              85.4589739488355,
              25.194680405749565
            ],
            [
              85.46045190564998,
              25.194479692057936
            ],
            [
              85.4617809271802,
              25.194198001891774
            ],
            [
              85.46228665532898,
              25.1940301927879
            ],
            [
              85.46474162164307,
              25.193683682347302
            ],
            [
              85.46637815535966,
              25.193360787069246
            ],
            [
              85.46802047063348,
              25.193538960287498
            ],
            [
              85.47006419270207,
              25.19347724933127
            ],
            [
              85.47153217372531,
              25.193240302639445
            ],
            [
              85.47320416304788,
              25.193368736068823
            ],
            [
              85.47395366072708,
              25.193570675762835
            ],
            [
              85.47603816630956,
              25.19408657029327
            ],
            [
              85.47655021410635,
              25.19470422972846
            ],
            [
              85.47657599216177,
              25.195245782001184
            ],
            [
              85.47655400409855,
              25.196735318764524
            ],
            [
              85.4765264348025,
              25.197945025322763
            ],
            [
              85.47689450062552,
              25.198436422124747
            ],
            [
              85.47768890957735,
              25.198818866359534
            ],
            [
              85.4793555718903,
              25.198676420633046
            ],
            [
              85.4799223639188,
              25.199320965347123
            ],
            [
              85.48026096589885,
              25.20001549589429
            ],
            [
              85.48054562763933,
              25.200994545680445
            ],
            [
              85.48008219307248,
              25.202575059072743
            ],
            [
              85.47983015814309,
              25.205739458304507
            ],
            [
              85.47958169042371,
              25.208163675733893
            ],
            [
              85.4819290170072,
              25.208466896206495
            ],
            [
              85.4823813843298,
              25.2089537283421
            ],
            [
              85.48286514866987,
              25.210266449256775
            ],
            [
              85.48314836681769,
              25.210446541834838
            ],
            [
              85.48445066885812,
              25.209130979831635
            ],
            [
              85.48517101530804,
              25.209630877610014
            ],
            [
              85.4858284931628,
              25.210970320838126
            ],
            [
              85.48585767134155,
              25.21323612707293
            ],
            [
              85.48611638704169,
              25.213569716360418
            ],
            [
              85.48635728196324,
              25.214995674179725
            ],
            [
              85.48926949075693,
              25.214864619784418
            ],
            [
              85.49164593533206,
              25.214756939931352
            ],
            [
              85.49390761563804,
              25.21436507022009
            ],
            [
              85.49543481360477,
              25.21387506977673
            ],
            [
              85.4977451358868,
              25.213380828157373
            ],
            [
              85.49856474976887,
              25.21322065428794
            ],
            [
              85.49860837465401,
              25.215372726836982
            ],
            [
              85.5000000231326,
              25.21853577340073
            ],
            [
              85.50007884131561,
              25.21871490695051
            ],
            [
              85.50045236081078,
              25.219395810980703
            ],
            [
              85.50185296459442,
              25.220043348001116
            ],
            [
              85.50229685361734,
              25.221157538819128
            ],
            [
              85.50233367466252,
              25.222177500730645
            ],
            [
              85.50243424195689,
              25.22280021220128
            ],
            [
              85.50284283168072,
              25.223634521632604
            ],
            [
              85.50283075473004,
              25.22499759786851
            ],
            [
              85.50281867598274,
              25.22636076122104
            ],
            [
              85.50383968676161,
              25.228155420046217
            ],
            [
              85.50425330705104,
              25.22902132502989
            ],
            [
              85.50586285537653,
              25.230988299926548
            ],
            [
              85.5062970911034,
              25.231094080150772
            ],
            [
              85.5064073817624,
              25.230224929703663
            ],
            [
              85.50639047636706,
              25.229831651979964
            ],
            [
              85.5067155119897,
              25.229557475066464
            ],
            [
              85.50717418009567,
              25.23015390279892
            ],
            [
              85.50707131760576,
              25.231120338088516
            ],
            [
              85.5069374317975,
              25.232481753968845
            ],
            [
              85.50672911338143,
              25.233233165645306
            ],
            [
              85.50722958009756,
              25.235583520019773
            ],
            [
              85.50739887839265,
              25.23586305125041
            ],
            [
              85.5085619218011,
              25.236727615036337
            ],
            [
              85.51007277761622,
              25.23714050625399
            ],
            [
              85.51370390094527,
              25.23708871291229
            ],
            [
              85.51502790718128,
              25.236621427738005
            ],
            [
              85.51506170809047,
              25.23618802528437
            ],
            [
              85.51923862892154,
              25.23551699632866
            ],
            [
              85.51982100492364,
              25.236314854053777
            ],
            [
              85.52039301526563,
              25.236909598300475
            ],
            [
              85.52092426634825,
              25.23702145791695
            ],
            [
              85.52264174096692,
              25.237203391174322
            ],
            [
              85.5236644558499,
              25.23742261868941
            ],
            [
              85.52435999083166,
              25.2377553916424
            ],
            [
              85.52557193043936,
              25.238240604944956
            ],
            [
              85.52573660061408,
              25.23642579031789
            ],
            [
              85.5259342551294,
              25.23602826498588
            ],
            [
              85.52573449136979,
              25.235482432305286
            ],
            [
              85.52539435327063,
              25.23430952085475
            ],
            [
              85.5249896487604,
              25.233060062649454
            ],
            [
              85.52465060391091,
              25.23237006488497
            ],
            [
              85.52438470618006,
              25.2310842410409
            ],
            [
              85.52434822110482,
              25.23028985787154
            ],
            [
              85.5241789560474,
              25.23003291114835
            ],
            [
              85.52382635112869,
              25.229925282102837
            ],
            [
              85.52327570721575,
              25.229971363341594
            ],
            [
              85.5227053048581,
              25.230085299082663
            ],
            [
              85.52248729811167,
              25.230252709049818
            ],
            [
              85.52215104612443,
              25.230803939840765
            ],
            [
              85.52210222268873,
              25.231156084077078
            ],
            [
              85.52227308944231,
              25.232112677249944
            ],
            [
              85.52255795240542,
              25.23302844928842
            ],
            [
              85.52150166658195,
              25.233314739078992
            ],
            [
              85.5209511771792,
              25.233496304902218
            ],
            [
              85.51988923915596,
              25.233484702652753
            ],
            [
              85.51933683903663,
              25.230538317090627
            ],
            [
              85.51899437430086,
              25.228214413046008
            ],
            [
              85.51888563413405,
              25.22616994009146
            ],
            [
              85.52038337993588,
              25.225810630929757
            ],
            [
              85.52129213184698,
              25.226120431298725
            ],
            [
              85.5220170570099,
              25.226340246836433
            ],
            [
              85.52321888967232,
              25.22674882976231
            ],
            [
              85.52393623215595,
              25.225808631816655
            ],
            [
              85.52557632140446,
              25.22475388460914
            ],
            [
              85.5258587939506,
              25.224599919774786
            ],
            [
              85.52612620803762,
              25.22436920660945
            ],
            [
              85.52620977202032,
              25.224003476992518
            ],
            [
              85.5262234542604,
              25.223470841618195
            ],
            [
              85.5266940421119,
              25.223090834826717
            ],
            [
              85.52716020755723,
              25.222981617375595
            ],
            [
              85.52784991337113,
              25.223011893261898
            ],
            [
              85.52833664664321,
              25.22319154682725
            ],
            [
              85.52835152633757,
              25.223196082311013
            ],
            [
              85.52886720512471,
              25.223028071821236
            ],
            [
              85.52903505264062,
              25.222635103205054
            ],
            [
              85.52951966588861,
              25.221921038286876
            ],
            [
              85.53107700772306,
              25.221597536074032
            ],
            [
              85.53178171719884,
              25.22167294667026
            ],
            [
              85.53213471378297,
              25.221961181916836
            ],
            [
              85.53227008001483,
              25.222570291225328
            ],
            [
              85.5327078191713,
              25.223043318250458
            ],
            [
              85.53311036502991,
              25.223313383141313
            ],
            [
              85.5331749871365,
              25.22336293370991
            ],
            [
              85.53503592360437,
              25.223454115382626
            ],
            [
              85.5356567025848,
              25.223651521710437
            ],
            [
              85.53643126865035,
              25.223862126139494
            ],
            [
              85.53740501457057,
              25.22437934613312
            ],
            [
              85.53830956236611,
              25.224986913918794
            ],
            [
              85.53852869020999,
              25.225352049781424
            ],
            [
              85.53876399042394,
              25.226236317744757
            ],
            [
              85.53889844037423,
              25.226434622403662
            ],
            [
              85.53921624635542,
              25.22652430163487
            ],
            [
              85.54002002832893,
              25.22646855188688
            ],
            [
              85.54047055590179,
              25.226074942644797
            ],
            [
              85.5409213017653,
              25.225735579651364
            ],
            [
              85.54145733458014,
              25.225752595688512
            ],
            [
              85.54214780575866,
              25.226071653867116
            ],
            [
              85.54318651604359,
              25.22676927012767
            ],
            [
              85.54392681407597,
              25.227151385600216
            ],
            [
              85.5446667384092,
              25.227393680066744
            ],
            [
              85.5454559892347,
              25.227500453209046
            ],
            [
              85.54649278880298,
              25.22736742213691
            ],
            [
              85.54719698084918,
              25.227217099605078
            ],
            [
              85.54779613738073,
              25.226696828020664
            ],
            [
              85.54806232257246,
              25.225933511309254
            ],
            [
              85.54859583471467,
              25.22497103873961
            ],
            [
              85.54932384918385,
              25.224400820596436
            ],
            [
              85.54979455740957,
              25.224097469172662
            ],
            [
              85.55033017340615,
              25.223988086030218
            ],
            [
              85.55099988182351,
              25.22392354538726
            ],
            [
              85.551654751869,
              25.22389508764919
            ],
            [
              85.55257872124099,
              25.22429038289703
            ],
            [
              85.55329906679262,
              25.224622965874943
            ],
            [
              85.55363784843571,
              25.22517290325145
            ],
            [
              85.55377356590883,
              25.225885798370342
            ],
            [
              85.55359261826115,
              25.226951338997385
            ],
            [
              85.55336148084022,
              25.227791339273463
            ],
            [
              85.55334327198942,
              25.228445825904856
            ],
            [
              85.55347797616291,
              25.228761555807456
            ],
            [
              85.55423307663455,
              25.22909399491262
            ],
            [
              85.55465517432529,
              25.22920145810579
            ],
            [
              85.55500217465493,
              25.229078837005506
            ],
            [
              85.55575552700502,
              25.228693662355457
            ],
            [
              85.55649339509455,
              25.228096344129302
            ],
            [
              85.55678109224242,
              25.228082149879864
            ],
            [
              85.55698178935161,
              25.228966437810715
            ],
            [
              85.55665102157914,
              25.229608011239616
            ],
            [
              85.55608164060597,
              25.230141802907923
            ],
            [
              85.55513995016837,
              25.230586150909083
            ],
            [
              85.55440581457883,
              25.23070948640304
            ],
            [
              85.5535679289639,
              25.231004558686077
            ],
            [
              85.55313239067982,
              25.231474860729815
            ],
            [
              85.5528311469375,
              25.232066820289337
            ],
            [
              85.55276765401324,
              25.232464086353044
            ],
            [
              85.55291694682694,
              25.232644344344934
            ],
            [
              85.55338891718563,
              25.232855493081782
            ],
            [
              85.55444634297118,
              25.2330384540112
            ],
            [
              85.55539981571208,
              25.233325358914453
            ],
            [
              85.55585207703345,
              25.233586212952925
            ],
            [
              85.55587268258944,
              25.23388853227771
            ],
            [
              85.55535513261152,
              25.235293341668466
            ],
            [
              85.55483599081893,
              25.236066205120014
            ],
            [
              85.5546536346129,
              25.236585642727576
            ],
            [
              85.55459071301715,
              25.237213176159255
            ],
            [
              85.55473982616778,
              25.2373167066471
            ],
            [
              85.55529133785332,
              25.237577317288643
            ],
            [
              85.55584723062248,
              25.237621300012513
            ],
            [
              85.55660144086367,
              25.237574613871747
            ],
            [
              85.55755931265449,
              25.23758620191717
            ],
            [
              85.55827947135653,
              25.2378284057086
            ],
            [
              85.55876681278804,
              25.238211057658088
            ],
            [
              85.55897112561625,
              25.238585262631663
            ],
            [
              85.56040441639819,
              25.23821213186862
            ],
            [
              85.56087024587357,
              25.23793582380344
            ]
          ]
        ]
      }
    }
  ]
}