{
  "type": "FeatureCollection",
  "features": [
    {
      "type": "Feature",
      "properties": {
        "object_id": "10-237-01511",
        "stname": "BIHAR",
        "dtname": "Nawada",
        "sdtname": "Nardiganj",
        "st_area_sh": 0.0,
        "st_length_": 0.0,
        "remarks": "",
        "dist_lgd": 210,
        "state_lgd": 10,
        "subdt_lgd": 1511,
        "ac_no": null,
        "st_length(shape)": 60262.24041371029,
        "st_area(shape)": 129808165.4472442
      },
      "geometry": {
        "type": "Polygon",
        "coordinates": [
          [
            [
              85.50688279356696,
              25.00701900017677
            ],
            [
              85.51117907444815,
              25.006520331387808
            ],
            [
              85.5126682215761,
              25.00638984870242
            ],
            [
              85.5128900461625,
              25.00637041187731
            ],
            [
              85.51139739290997,
              25.00295739610715
            ],
            [
              85.51071095696372,
              25.002084609246033
            ],
            [
              85.51071093270919,
              25.002084579937144
            ],
            [
              85.51007566120826,
              25.00127683274201
            ],
            [
              85.509810366247,
              25.000458926194305
            ],
            [
              85.50977371139011,
              25.00000040176484
            ],
            [
              85.50977370779687,
              25.00000036268564
            ],
            [
              85.50974180682451,
              24.999601299021666
            ],
            [
              85.50772172212596,
              24.998832309775924
            ],
            [
              85.50589941411363,
              24.998537503670196
            ],
            [
              85.50537923297026,
              24.99862734128937
            ],
            [
              85.50404202419455,
              24.99851348188213
            ],
            [
              85.50000000965787,
              24.996128814266992
            ],
            [
              85.49774925196742,
              24.994800839162977
            ],
            [
              85.49774706816295,
              24.99479955193713
            ],
            [
              85.4976105080701,
              24.99540136396108
            ],
            [
              85.49748646779734,
              24.99574331933959
            ],
            [
              85.49632526144366,
              24.997099418698866
            ],
            [
              85.49371520818227,
              24.997157870345497
            ],
            [
              85.49103761688289,
              24.9956140627609
            ],
            [
              85.48848638800128,
              24.995338229124
            ],
            [
              85.48921251331342,
              24.994344123914672
            ],
            [
              85.49109491861824,
              24.99450801407186
            ],
            [
              85.49188147090459,
              24.99406439885872
            ],
            [
              85.49242890603537,
              24.992844842838092
            ],
            [
              85.491694049997,
              24.991907159706827
            ],
            [
              85.49120341803658,
              24.989195236112344
            ],
            [
              85.48956219870742,
              24.988200297931936
            ],
            [
              85.48895606226611,
              24.987208282130734
            ],
            [
              85.48913618166709,
              24.985601041191092
            ],
            [
              85.48840039587239,
              24.984108234291256
            ],
            [
              85.48858133094363,
              24.98294785867976
            ],
            [
              85.48809308670528,
              24.981400468967596
            ],
            [
              85.48851705379013,
              24.98040216580608
            ],
            [
              85.48821177032396,
              24.978741596759175
            ],
            [
              85.48863041489078,
              24.974981034594045
            ],
            [
              85.49067348388415,
              24.968829955922917
            ],
            [
              85.49133807819261,
              24.966838360825964
            ],
            [
              85.4910326968101,
              24.96512362174538
            ],
            [
              85.49080229421105,
              24.96376531863525
            ],
            [
              85.4901952513696,
              24.962272263837523
            ],
            [
              85.4894652677933,
              24.961167553856775
            ],
            [
              85.48970559497958,
              24.959948395631077
            ],
            [
              85.4900653882172,
              24.95911735365827
            ],
            [
              85.48963608244459,
              24.957289919039937
            ],
            [
              85.48963240025026,
              24.95540765327887
            ],
            [
              85.48932753000913,
              24.9539140792948
            ],
            [
              85.48956627436388,
              24.951923145280098
            ],
            [
              85.48925610316424,
              24.95025803480527
            ],
            [
              85.48852188403141,
              24.94948742164754
            ],
            [
              85.48840094743798,
              24.948435867145683
            ],
            [
              85.48845771018414,
              24.94705003061358
            ],
            [
              85.48827160441009,
              24.945502113737362
            ],
            [
              85.48754118964247,
              24.94411752706555
            ],
            [
              85.48717714737357,
              24.9427323579186
            ],
            [
              85.48626257976932,
              24.940851576117243
            ],
            [
              85.48626040674468,
              24.93969160310881
            ],
            [
              85.48570862107299,
              24.938527843708005
            ],
            [
              85.48502959443115,
              24.93808211569002
            ],
            [
              85.48272218987721,
              24.93781036923675
            ],
            [
              85.48072118809029,
              24.937312416871
            ],
            [
              85.47950124359508,
              24.93615428731932
            ],
            [
              85.47913660933641,
              24.934380900968822
            ],
            [
              85.47858934578389,
              24.932887697627113
            ],
            [
              85.47773551686926,
              24.931616150145693
            ],
            [
              85.4763970208077,
              24.930566487774357
            ],
            [
              85.47566551638363,
              24.928464126996506
            ],
            [
              85.47620752209681,
              24.927077573788594
            ],
            [
              85.47614673579649,
              24.92630126307311
            ],
            [
              85.475415865583,
              24.924533018776096
            ],
            [
              85.47462466182014,
              24.922263715193722
            ],
            [
              85.4748001962199,
              24.920764861134412
            ],
            [
              85.47528388510149,
              24.920046447406342
            ],
            [
              85.47667966313543,
              24.91999022883146
            ],
            [
              85.47741172361667,
              24.919709260218973
            ],
            [
              85.47795419196223,
              24.918602465019365
            ],
            [
              85.47778874743972,
              24.9174924043617
            ],
            [
              85.47802944742683,
              24.91649442706305
            ],
            [
              85.47911963836408,
              24.914502204080726
            ],
            [
              85.47687259520731,
              24.914505634033954
            ],
            [
              85.47408142272003,
              24.914730998046483
            ],
            [
              85.47068246358626,
              24.91550794130893
            ],
            [
              85.46867919175659,
              24.916233084861847
            ],
            [
              85.46674022492822,
              24.917012307152707
            ],
            [
              85.46534358271494,
              24.916513312682195
            ],
            [
              85.46412999380041,
              24.915964347019997
            ],
            [
              85.46279062996629,
              24.91424650039153
            ],
            [
              85.46242362595191,
              24.913804654710162
            ],
            [
              85.4619384835962,
              24.913751247335487
            ],
            [
              85.46157156312515,
              24.913363566768243
            ],
            [
              85.46187631029709,
              24.912144365672024
            ],
            [
              85.46096405765132,
              24.911206815751502
            ],
            [
              85.46096121089019,
              24.90954569329733
            ],
            [
              85.46016540685471,
              24.907276383641964
            ],
            [
              85.45926642771562,
              24.90539995201258
            ],
            [
              85.45896218988844,
              24.904014621595458
            ],
            [
              85.45791893502648,
              24.898649100943654
            ],
            [
              85.45888571990155,
              24.896765476803267
            ],
            [
              85.45858135181868,
              24.89527189789199
            ],
            [
              85.45591350274854,
              24.895000264071896
            ],
            [
              85.45245501136259,
              24.89544727310451
            ],
            [
              85.45075297878365,
              24.895670801051683
            ],
            [
              85.44723432273152,
              24.89561680403249
            ],
            [
              85.44680778466831,
              24.895066655139605
            ],
            [
              85.44456100741287,
              24.895015447068612
            ],
            [
              85.44334092367882,
              24.890142126685756
            ],
            [
              85.44297698112292,
              24.888427304022176
            ],
            [
              85.44169641741404,
              24.885883219863274
            ],
            [
              85.43884642234366,
              24.88610801681485
            ],
            [
              85.43508196656853,
              24.88694323515354
            ],
            [
              85.43223473920754,
              24.889104311016265
            ],
            [
              85.4300555359227,
              24.891210421165145
            ],
            [
              85.42829186903383,
              24.88983130629724
            ],
            [
              85.42604317926516,
              24.88844821322847
            ],
            [
              85.42477017398112,
              24.887565050219955
            ],
            [
              85.42197959707684,
              24.887789471704767
            ],
            [
              85.41718434697107,
              24.88768657768268
            ],
            [
              85.41269104129357,
              24.8876328306037
            ],
            [
              85.408568111906,
              24.88703238737129
            ],
            [
              85.40609325060329,
              24.886524945025993
            ],
            [
              85.40540495783937,
              24.88612397506281
            ],
            [
              85.40604088870371,
              24.884195899335445
            ],
            [
              85.40451659768522,
              24.88406658027994
            ],
            [
              85.39931616336888,
              24.884247893397106
            ],
            [
              85.39892391400004,
              24.883173971955724
            ],
            [
              85.39985076337086,
              24.880356406265452
            ],
            [
              85.39543582761704,
              24.87933164288802
            ],
            [
              85.39410941838764,
              24.879062093691324
            ],
            [
              85.39288259818727,
              24.879334070617762
            ],
            [
              85.39190347674841,
              24.879867684290897
            ],
            [
              85.39018847519172,
              24.881661286364093
            ],
            [
              85.38862057096618,
              24.882335288318128
            ],
            [
              85.38660666128689,
              24.88233711783164
            ],
            [
              85.38508696874435,
              24.881846500013232
            ],
            [
              85.38341938296331,
              24.88180285798981
            ],
            [
              85.38327236917546,
              24.88314362016203
            ],
            [
              85.38022974656208,
              24.883683406691638
            ],
            [
              85.38072283810972,
              24.886729850754474
            ],
            [
              85.3801356219849,
              24.88829663831145
            ],
            [
              85.37945410700979,
              24.889637867000697
            ],
            [
              85.37935625801748,
              24.89075737162632
            ],
            [
              85.37925818983622,
              24.891565408780174
            ],
            [
              85.3784232758482,
              24.89299700639005
            ],
            [
              85.37690531615586,
              24.894248697290873
            ],
            [
              85.3752874305662,
              24.89500792768423
            ],
            [
              85.37530489561198,
              24.89503516385702
            ],
            [
              85.37544084305381,
              24.895247160894534
            ],
            [
              85.37570808107104,
              24.896009998138805
            ],
            [
              85.37607429816121,
              24.89653811459806
            ],
            [
              85.3764603141203,
              24.897115882951454
            ],
            [
              85.376717658093,
              24.897431849385267
            ],
            [
              85.37695025797117,
              24.897607885613688
            ],
            [
              85.37730163129962,
              24.89774781012138
            ],
            [
              85.37931584371117,
              24.898176581604304
            ],
            [
              85.37930105744157,
              24.899982116321297
            ],
            [
              85.37918725077652,
              24.90062308214348
            ],
            [
              85.37796979461469,
              24.90058699920783
            ],
            [
              85.37690081110468,
              24.900600556791176
            ],
            [
              85.3764900438646,
              24.900623131031928
            ],
            [
              85.37656430040265,
              24.902446717605088
            ],
            [
              85.37649503041276,
              24.90395433808307
            ],
            [
              85.376727661732,
              24.905791464224556
            ],
            [
              85.37692069261857,
              24.90664908995497
            ],
            [
              85.37731664663961,
              24.907466087317232
            ],
            [
              85.37878657341372,
              24.907172660135895
            ],
            [
              85.37872226032759,
              24.908125079083167
            ],
            [
              85.37824713688227,
              24.90853584835042
            ],
            [
              85.37661387123664,
              24.90932127795804
            ],
            [
              85.37587147024819,
              24.90981780513776
            ],
            [
              85.37564875004148,
              24.910043497094353
            ],
            [
              85.37559925825919,
              24.910363979142584
            ],
            [
              85.37565370155531,
              24.910675433028235
            ],
            [
              85.37606451371117,
              24.912404226395545
            ],
            [
              85.37613876485929,
              24.913302477173367
            ],
            [
              85.37607937633754,
              24.91419170004074
            ],
            [
              85.37599028771587,
              24.914579888831774
            ],
            [
              85.37556462730669,
              24.915342727154595
            ],
            [
              85.3754903851417,
              24.915834733731383
            ],
            [
              85.37584676208628,
              24.916764581329346
            ],
            [
              85.37596555619777,
              24.917125686339038
            ],
            [
              85.37595070974108,
              24.91754547120312
            ],
            [
              85.37582201889009,
              24.917739565769402
            ],
            [
              85.37548049019888,
              24.91784789888954
            ],
            [
              85.37461924389494,
              24.917965257897176
            ],
            [
              85.37434701034638,
              24.918114212177812
            ],
            [
              85.37426286335712,
              24.918321846820813
            ],
            [
              85.37424306089501,
              24.918890589103395
            ],
            [
              85.37427274662184,
              24.920533618855202
            ],
            [
              85.37410939607228,
              24.921368675120704
            ],
            [
              85.37404009374308,
              24.92199609518028
            ],
            [
              85.37401038735493,
              24.922736360618508
            ],
            [
              85.37401038196505,
              24.923268992390167
            ],
            [
              85.37401334999876,
              24.923277327968812
            ],
            [
              85.37401334999876,
              24.923278328368557
            ],
            [
              85.37413709472575,
              24.92362589265436
            ],
            [
              85.3746617818186,
              24.92440227561195
            ],
            [
              85.37520627676345,
              24.92508838281173
            ],
            [
              85.37585664804598,
              24.9260318922017
            ],
            [
              85.37584681688351,
              24.926785258802877
            ],
            [
              85.37565871684954,
              24.92712830910053
            ],
            [
              85.37557951688251,
              24.9272998338914
            ],
            [
              85.37557951598421,
              24.92735400115165
            ],
            [
              85.375582478628,
              24.92735805393999
            ],
            [
              85.37558248042464,
              24.92736334496701
            ],
            [
              85.37564188062451,
              24.92744459376999
            ],
            [
              85.37589928478431,
              24.92750327483072
            ],
            [
              85.37686455240487,
              24.92759806838236
            ],
            [
              85.37787931989254,
              24.927647715950528
            ],
            [
              85.37984451213731,
              24.927846294618387
            ],
            [
              85.3807553328685,
              24.927904952678354
            ],
            [
              85.38175030597887,
              24.927995198675536
            ],
            [
              85.38245520320254,
              24.92800381335152
            ],
            [
              85.38240580394675,
              24.92976871600829
            ],
            [
              85.38229222186055,
              24.934490170086175
            ],
            [
              85.38122788892879,
              24.934350288068753
            ],
            [
              85.38084671758406,
              24.93445863510428
            ],
            [
              85.38025268863612,
              24.934797191993322
            ],
            [
              85.37964873779588,
              24.934652770655646
            ],
            [
              85.37911904978186,
              24.93466181333678
            ],
            [
              85.37825274057299,
              24.93486946898707
            ],
            [
              85.3775398950557,
              24.93520350301972
            ],
            [
              85.37707950937087,
              24.93521705109628
            ],
            [
              85.37692605106923,
              24.935433716666925
            ],
            [
              85.37666368910735,
              24.936237177392414
            ],
            [
              85.3760993521745,
              24.93771771117613
            ],
            [
              85.37569836489294,
              24.938448951395003
            ],
            [
              85.37546074343228,
              24.939112480822885
            ],
            [
              85.37527757425092,
              24.940574955027763
            ],
            [
              85.3751785619403,
              24.941179805816247
            ],
            [
              85.37494093059817,
              24.941960694170028
            ],
            [
              85.37433694202869,
              24.943391567659553
            ],
            [
              85.37365867715826,
              24.944750219349704
            ],
            [
              85.37365867176835,
              24.945170002182223
            ],
            [
              85.37381708607546,
              24.94625331690687
            ],
            [
              85.37411413288878,
              24.94653768909841
            ],
            [
              85.3748765609182,
              24.94694393534372
            ],
            [
              85.37561424036151,
              24.947390800919266
            ],
            [
              85.37670839107251,
              24.94814911287114
            ],
            [
              85.3784214298103,
              24.94916920539265
            ],
            [
              85.380060231773,
              24.950189278876632
            ],
            [
              85.3804959443302,
              24.95078960039544
            ],
            [
              85.38083759429404,
              24.951439574888393
            ],
            [
              85.38152086817048,
              24.952062451063682
            ],
            [
              85.38289733871402,
              24.953299168124516
            ],
            [
              85.3834122880692,
              24.95379114535932
            ],
            [
              85.38384307875694,
              24.95440499609951
            ],
            [
              85.384501620217,
              24.954919529958307
            ],
            [
              85.3851651185808,
              24.955438573693144
            ],
            [
              85.38524436705684,
              24.955790644799993
            ],
            [
              85.38511567440926,
              24.95626911600063
            ],
            [
              85.38503651756136,
              24.957050008860598
            ],
            [
              85.38540295923038,
              24.957641290957692
            ],
            [
              85.38637880002183,
              24.958637409646812
            ],
            [
              85.3873440559643,
              24.959622702368776
            ],
            [
              85.38751739577982,
              24.9600424703378
            ],
            [
              85.3874530782021,
              24.960548021296503
            ],
            [
              85.38722041095028,
              24.961053585652618
            ],
            [
              85.38725014159292,
              24.96127927175018
            ],
            [
              85.38849793565853,
              24.962023914766522
            ],
            [
              85.38875539820884,
              24.961685412352335
            ],
            [
              85.38884950931129,
              24.961554518856055
            ],
            [
              85.3900426543666,
              24.960786972613707
            ],
            [
              85.39117178367813,
              24.962199730099336
            ],
            [
              85.39169678787626,
              24.96289475374879
            ],
            [
              85.39233059871654,
              24.963540207170222
            ],
            [
              85.39313785806851,
              24.964253261105423
            ],
            [
              85.39397969896567,
              24.965011468389623
            ],
            [
              85.394821580287,
              24.965706468017
            ],
            [
              85.39503450885714,
              24.965914078655807
            ],
            [
              85.39529210256147,
              24.966496328320932
            ],
            [
              85.39567844640561,
              24.967408069768876
            ],
            [
              85.39584201165255,
              24.967909126951113
            ],
            [
              85.39597573037416,
              24.968130239240395
            ],
            [
              85.39623821720187,
              24.968274640051664
            ],
            [
              85.39653033675583,
              24.96831074226393
            ],
            [
              85.39774355466616,
              24.968847658404368
            ],
            [
              85.39884788418767,
              24.969280826044308
            ],
            [
              85.3997194988466,
              24.969641782847237
            ],
            [
              85.40059599405245,
              24.97001632925746
            ],
            [
              85.40089810556736,
              24.970138123188587
            ],
            [
              85.40139831267038,
              24.970490113975213
            ],
            [
              85.40175492497356,
              24.970778893602517
            ],
            [
              85.40230459780771,
              24.97111281313507
            ],
            [
              85.40254230730325,
              24.97122109281153
            ],
            [
              85.40304257010182,
              24.971446764334924
            ],
            [
              85.40335945171661,
              24.97159110425028
            ],
            [
              85.40394378335104,
              24.971627076009682
            ],
            [
              85.40418148655837,
              24.97155938007001
            ],
            [
              85.40501331303672,
              24.971098795060698
            ],
            [
              85.40556289603937,
              24.97091814710249
            ],
            [
              85.40613729500168,
              24.970863804371433
            ],
            [
              85.4070038368742,
              24.970890777040285
            ],
            [
              85.40890036639026,
              24.970912866904108
            ],
            [
              85.4098412420559,
              24.970890145924518
            ],
            [
              85.41047999991846,
              24.97082220934807
            ],
            [
              85.41148028027554,
              24.97078593767489
            ],
            [
              85.41243600778778,
              24.97092560729601
            ],
            [
              85.41343631778925,
              24.971141951082735
            ],
            [
              85.41379291841432,
              24.971187012647487
            ],
            [
              85.41452579636245,
              24.971186875838196
            ],
            [
              85.4154617285991,
              24.971349069647236
            ],
            [
              85.41593218888984,
              24.971529507687688
            ],
            [
              85.4167940020307,
              24.971980642347813
            ],
            [
              85.41757154511308,
              24.972368665366716
            ],
            [
              85.41795288893431,
              24.972454249305805
            ],
            [
              85.41884431503853,
              24.972697749973317
            ],
            [
              85.41990415459725,
              24.97309462899428
            ],
            [
              85.42038452600049,
              24.973360843221517
            ],
            [
              85.42125130143498,
              24.97385254483157
            ],
            [
              85.42160291820687,
              24.973947284797223
            ],
            [
              85.42261321388104,
              24.97425387283241
            ],
            [
              85.4236037421274,
              24.97451085587471
            ],
            [
              85.42417329827204,
              24.97482206538237
            ],
            [
              85.4249807453719,
              24.975408641682623
            ],
            [
              85.4257534636029,
              24.975977061791163
            ],
            [
              85.42657574458303,
              24.97647331794311
            ],
            [
              85.42685804016108,
              24.976622209625774
            ],
            [
              85.42777938106256,
              24.977149934302417
            ],
            [
              85.42861638093866,
              24.97747921132176
            ],
            [
              85.42944366822988,
              24.978043131836117
            ],
            [
              85.42999842373192,
              24.978453662331365
            ],
            [
              85.43074157122037,
              24.978990504890508
            ],
            [
              85.4311525648359,
              24.97907609806539
            ],
            [
              85.43228171660532,
              24.97905314570694
            ],
            [
              85.433787134918,
              24.979034505818834
            ],
            [
              85.43485182088769,
              24.97908823259537
            ],
            [
              85.43520836581723,
              24.979038441277517
            ],
            [
              85.43593140631468,
              24.97902915838285
            ],
            [
              85.43586724504382,
              24.979543674791447
            ],
            [
              85.4356744324479,
              24.980071917845077
            ],
            [
              85.43565473598696,
              24.98041499071455
            ],
            [
              85.43564996862774,
              24.98077609805999
            ],
            [
              85.43568964362058,
              24.980952127623155
            ],
            [
              85.43608092730047,
              24.980983507385094
            ],
            [
              85.4374182420774,
              24.981484036183097
            ],
            [
              85.43822566941435,
              24.981939534648287
            ],
            [
              85.43932051901464,
              24.9825800693347
            ],
            [
              85.43999410635739,
              24.982778364815307
            ],
            [
              85.4414402116068,
              24.982895093605965
            ],
            [
              85.44212866516922,
              24.98306175367662
            ],
            [
              85.44297574773604,
              24.983485680716942
            ],
            [
              85.44382285994729,
              24.983986349967708
            ],
            [
              85.44472457625305,
              24.984541126715772
            ],
            [
              85.445789599091,
              24.985068712373852
            ],
            [
              85.44672570110923,
              24.985284979172746
            ],
            [
              85.44764207792045,
              24.985604959340492
            ],
            [
              85.44802846757865,
              24.985767266858844
            ],
            [
              85.44802825377961,
              24.985767687823202
            ],
            [
              85.44871204957727,
              24.986055828228288
            ],
            [
              85.44913301628908,
              24.986091728175232
            ],
            [
              85.45021782991101,
              24.98637101132819
            ],
            [
              85.45126292182772,
              24.986555610892285
            ],
            [
              85.45205537514717,
              24.98678985263007
            ],
            [
              85.45397259915241,
              24.9877142189573
            ],
            [
              85.45449781625126,
              24.988088599599585
            ],
            [
              85.45486933340163,
              24.988174171785516
            ],
            [
              85.45599870885158,
              24.988552653097642
            ],
            [
              85.45728687410438,
              24.98930576096102
            ],
            [
              85.45783200236147,
              24.98979292795145
            ],
            [
              85.45855054140107,
              24.990419943233615
            ],
            [
              85.45931862073193,
              24.991046927634347
            ],
            [
              85.4597843361213,
              24.991317472852906
            ],
            [
              85.46032920027372,
              24.99146161764968
            ],
            [
              85.462201247105,
              24.99140188661715
            ],
            [
              85.46326103815471,
              24.99130196219605
            ],
            [
              85.46378105760131,
              24.991229413006273
            ],
            [
              85.46424680802501,
              24.991585720601236
            ],
            [
              85.46432662872789,
              24.99232141529343
            ],
            [
              85.46437658224421,
              24.992885611330635
            ],
            [
              85.46451132055367,
              24.994384101333992
            ],
            [
              85.4649130624201,
              24.99516474086646
            ],
            [
              85.46544424792567,
              24.995461829883027
            ],
            [
              85.46592882344447,
              24.995732850634027
            ],
            [
              85.46694436168663,
              24.99594439679968
            ],
            [
              85.46785093428483,
              24.996323025163004
            ],
            [
              85.4686586320147,
              24.99677385392489
            ],
            [
              85.46954051172237,
              24.99710734300894
            ],
            [
              85.4706800219653,
              24.997557962909408
            ],
            [
              85.47176992544165,
              24.99788680668754
            ],
            [
              85.4727853972085,
              24.99809822295009
            ],
            [
              85.47380104774008,
              24.99843161562574
            ],
            [
              85.47588188370466,
              24.999260779964153
            ],
            [
              85.4769720575739,
              24.999851339740417
            ],
            [
              85.4775134407546,
              25.00000143817794
            ],
            [
              85.47827022736402,
              25.00048031790741
            ],
            [
              85.47888474239198,
              25.000895166601914
            ],
            [
              85.47951905628885,
              25.00128746380358
            ],
            [
              85.48058947440836,
              25.00197278187209
            ],
            [
              85.48122367332087,
              25.002198033852213
            ],
            [
              85.48226934015935,
              25.002883358239384
            ],
            [
              85.48285896197248,
              25.003108599594565
            ],
            [
              85.48417696566578,
              25.003604190181843
            ],
            [
              85.48474659457396,
              25.00362633767045
            ],
            [
              85.48536078620843,
              25.003707084299496
            ],
            [
              85.48579189220486,
              25.003891875197027
            ],
            [
              85.48590605999263,
              25.00414007296552
            ],
            [
              85.48610934604649,
              25.004392696608694
            ],
            [
              85.48660979210138,
              25.00455480672333
            ],
            [
              85.48719914801322,
              25.00453624478696
            ],
            [
              85.48751628025796,
              25.004594727088786
            ],
            [
              85.48857626624206,
              25.004616521070957
            ],
            [
              85.48953229468994,
              25.00469702118522
            ],
            [
              85.4901665690609,
              25.00500792307297
            ],
            [
              85.49043913588442,
              25.005170232648233
            ],
            [
              85.49073641985296,
              25.005296406704176
            ],
            [
              85.49167335460947,
              25.005748336599463
            ],
            [
              85.49248843020273,
              25.006045623092632
            ],
            [
              85.4939748805882,
              25.006408303710586
            ],
            [
              85.4944851901449,
              25.006559560752084
            ],
            [
              85.4946014869399,
              25.006846058394235
            ],
            [
              85.49457688118595,
              25.00703569011403
            ],
            [
              85.49516620386011,
              25.00697204022854
            ],
            [
              85.49602802778078,
              25.00693064792112
            ],
            [
              85.49664236584063,
              25.007034013060778
            ],
            [
              85.49774235290606,
              25.00739419391223
            ],
            [
              85.50000004469216,
              25.007453728299787
            ],
            [
              85.50043214063204,
              25.007459717638795
            ],
            [
              85.50317091708375,
              25.007121634177636
            ],
            [
              85.50688279356696,
              25.00701900017677
            ]
          ]
        ]
      }
    }
  ]
}