{
  "type": "FeatureCollection",
  "features": [
    {
      "type": "Feature",
      "properties": {
        "object_id": "10-224-01344",
        "stname": "BIHAR",
        "dtname": "Bhagalpur",
        "sdtname": "Sonhaula",
        "st_area_sh": 0.0,
        "st_length_": 0.0,
        "remarks": "",
        "dist_lgd": 192,
        "state_lgd": 10,
        "subdt_lgd": 1344,
        "ac_no": null,
        "st_length(shape)": 84463.86530366821,
        "st_area(shape)": 214425428.57327408
      },
      "geometry": {
        "type": "Polygon",
        "coordinates": [
          [
            [
              87.2001965624024,
              25.188832313174775
            ],
            [
              87.20171637442088,
              25.188153557377394
            ],
            [
              87.20389793308836,
              25.188356048733063
            ],
            [
              87.20467639155402,
              25.18735712507303
            ],
            [
              87.2055245161666,
              25.186608315930016
            ],
            [
              87.20731181862892,
              25.186727737944818
            ],
            [
              87.21008953255661,
              25.1866489118031
            ],
            [
              87.21244750507452,
              25.18603236504533
            ],
            [
              87.21279476681393,
              25.18429358172763
            ],
            [
              87.21370976471117,
              25.18374418884454
            ],
            [
              87.2154345372432,
              25.183248454308895
            ],
            [
              87.21576181775572,
              25.18313189772288
            ],
            [
              87.217994468105,
              25.18226829285002
            ],
            [
              87.22001083198163,
              25.181515947021023
            ],
            [
              87.22453294663032,
              25.18079856226321
            ],
            [
              87.22701451026334,
              25.18040417285844
            ],
            [
              87.22949603886207,
              25.18000974315556
            ],
            [
              87.23450195288511,
              25.179978311935447
            ],
            [
              87.23673859894076,
              25.180172693858637
            ],
            [
              87.237523996892,
              25.18028784280421
            ],
            [
              87.23799138135116,
              25.175760542302942
            ],
            [
              87.2393527530114,
              25.175241254006774
            ],
            [
              87.24100862655777,
              25.175011953761636
            ],
            [
              87.24274288529921,
              25.175183859678924
            ],
            [
              87.24371868207321,
              25.174733185180077
            ],
            [
              87.24613258370076,
              25.17447957719897
            ],
            [
              87.24752836532794,
              25.174517325956636
            ],
            [
              87.24991418112809,
              25.174503137654277
            ],
            [
              87.24999998910236,
              25.17439130512418
            ],
            [
              87.25007913966203,
              25.17427530834848
            ],
            [
              87.25048511528838,
              25.17149500791315
            ],
            [
              87.25070869428451,
              25.170905435098195
            ],
            [
              87.25102946740112,
              25.170499604618605
            ],
            [
              87.25163158927144,
              25.170013209033062
            ],
            [
              87.25255503582396,
              25.169454785753267
            ],
            [
              87.2534572848307,
              25.169117725960806
            ],
            [
              87.25506754282526,
              25.16870339907164
            ],
            [
              87.25534784234672,
              25.168550708920307
            ],
            [
              87.25531782244656,
              25.168235239131672
            ],
            [
              87.25526389658006,
              25.167667522028882
            ],
            [
              87.25538236819636,
              25.16642063600453
            ],
            [
              87.25511546884398,
              25.16556695064478
            ],
            [
              87.25502672607368,
              25.164990633648404
            ],
            [
              87.25507247188119,
              25.162634769597563
            ],
            [
              87.25520734493799,
              25.162389356598602
            ],
            [
              87.25551565662497,
              25.162132490979058
            ],
            [
              87.25666754565253,
              25.161598069396383
            ],
            [
              87.25720865215212,
              25.161626787242398
            ],
            [
              87.25907174008509,
              25.162418195405863
            ],
            [
              87.26056444184664,
              25.16270473825039
            ],
            [
              87.26235454076443,
              25.16267591089386
            ],
            [
              87.26419008096089,
              25.162389342776407
            ],
            [
              87.26479670069584,
              25.16248030504601
            ],
            [
              87.26527852826814,
              25.163128021115952
            ],
            [
              87.26595069627272,
              25.163583564039932
            ],
            [
              87.26664039490011,
              25.163903526640397
            ],
            [
              87.2668472733168,
              25.16411731915772
            ],
            [
              87.26738270605706,
              25.1656079803772
            ],
            [
              87.26883786901948,
              25.16843058777464
            ],
            [
              87.26937460521525,
              25.169993439636208
            ],
            [
              87.26967080761217,
              25.170210496316226
            ],
            [
              87.27082794459764,
              25.170596218618265
            ],
            [
              87.27173304934867,
              25.170434960010006
            ],
            [
              87.27312956400115,
              25.169693981174834
            ],
            [
              87.2735979680482,
              25.16952070732819
            ],
            [
              87.27537338130772,
              25.169194072331397
            ],
            [
              87.27543969584032,
              25.169008181226033
            ],
            [
              87.27540329790162,
              25.168602688342883
            ],
            [
              87.27500528404364,
              25.16733122073852
            ],
            [
              87.27507465913642,
              25.167028037707315
            ],
            [
              87.27529157532808,
              25.166646023786942
            ],
            [
              87.27542525182885,
              25.16603058809432
            ],
            [
              87.27555586417623,
              25.165830244305408
            ],
            [
              87.27602646729906,
              25.165494455048016
            ],
            [
              87.27685149622569,
              25.16409356237426
            ],
            [
              87.27722396738689,
              25.163822202648426
            ],
            [
              87.27750618930307,
              25.16379132094956
            ],
            [
              87.27774969023723,
              25.164112874162168
            ],
            [
              87.27826330200092,
              25.165477427337162
            ],
            [
              87.27866877187579,
              25.1663020681152
            ],
            [
              87.27904949406287,
              25.166824728769438
            ],
            [
              87.27942657986969,
              25.167135384949923
            ],
            [
              87.2799236123265,
              25.16719171961199
            ],
            [
              87.28083147310882,
              25.166899579767602
            ],
            [
              87.28216881932681,
              25.167381994133166
            ],
            [
              87.28325919711362,
              25.167033133841553
            ],
            [
              87.28389227403032,
              25.166920739965647
            ],
            [
              87.28476026308876,
              25.16691783903653
            ],
            [
              87.28518503775908,
              25.167110469360225
            ],
            [
              87.2854946223588,
              25.16753037665413
            ],
            [
              87.2856916390703,
              25.168042040648555
            ],
            [
              87.28588957475831,
              25.169510107942664
            ],
            [
              87.28674015536483,
              25.170545202657085
            ],
            [
              87.28698950433153,
              25.17152087138957
            ],
            [
              87.28723466175906,
              25.171648313890266
            ],
            [
              87.28833916735036,
              25.171547335674752
            ],
            [
              87.28973290441199,
              25.171239440341104
            ],
            [
              87.29069372267695,
              25.1708472314056
            ],
            [
              87.29177287331935,
              25.170119469892906
            ],
            [
              87.29225176789225,
              25.169684250112095
            ],
            [
              87.29245366155742,
              25.169302456712828
            ],
            [
              87.2924422816994,
              25.168616787898703
            ],
            [
              87.29265184428213,
              25.168392889979334
            ],
            [
              87.29382810460335,
              25.167839712294896
            ],
            [
              87.29603198730399,
              25.167335573743475
            ],
            [
              87.29685508215778,
              25.167017380379257
            ],
            [
              87.29704543516647,
              25.166829773690583
            ],
            [
              87.29727209987558,
              25.166145317045277
            ],
            [
              87.29762640979672,
              25.165680193778474
            ],
            [
              87.29809583702485,
              25.16527673709255
            ],
            [
              87.29886266769743,
              25.164860075882192
            ],
            [
              87.299350473558,
              25.164663776748668
            ],
            [
              87.30063624839383,
              25.164140676724486
            ],
            [
              87.30198838896621,
              25.163724945027894
            ],
            [
              87.30303282960432,
              25.163593142733657
            ],
            [
              87.30466607279205,
              25.163674279060977
            ],
            [
              87.30586026887624,
              25.163305788911607
            ],
            [
              87.30772179643557,
              25.163099414200396
            ],
            [
              87.30820755773053,
              25.162785941027245
            ],
            [
              87.30856181824427,
              25.162320791939063
            ],
            [
              87.30865514871071,
              25.16197203099951
            ],
            [
              87.30872176597556,
              25.160915371353568
            ],
            [
              87.30893324196987,
              25.160510885803323
            ],
            [
              87.30914857802493,
              25.160340978087948
            ],
            [
              87.30997154262302,
              25.160018200179632
            ],
            [
              87.3112882599288,
              25.15975734380728
            ],
            [
              87.31161275566396,
              25.159693056141784
            ],
            [
              87.31231468036233,
              25.15952097064535
            ],
            [
              87.31430665497899,
              25.15940065115548
            ],
            [
              87.31430610161678,
              25.159392966634176
            ],
            [
              87.31420271091748,
              25.157844673290526
            ],
            [
              87.31395523403984,
              25.15691023840632
            ],
            [
              87.31357936275528,
              25.154770641380285
            ],
            [
              87.31341655209322,
              25.15406255998218
            ],
            [
              87.31321815107786,
              25.153199681863864
            ],
            [
              87.31277743580284,
              25.151768686977217
            ],
            [
              87.31252014303413,
              25.150671714108803
            ],
            [
              87.31215887566115,
              25.149263305952374
            ],
            [
              87.31197564808927,
              25.148766726213957
            ],
            [
              87.3114155538995,
              25.148292612201022
            ],
            [
              87.31049339014123,
              25.147962665251193
            ],
            [
              87.30954633496474,
              25.14771404162228
            ],
            [
              87.30880752993235,
              25.14750155314462
            ],
            [
              87.3079744691688,
              25.14740638618573
            ],
            [
              87.30792917880713,
              25.147231929227402
            ],
            [
              87.30788540480164,
              25.147063309788912
            ],
            [
              87.30752389308691,
              25.146164860899578
            ],
            [
              87.30691474279782,
              25.144828567928432
            ],
            [
              87.30653805763959,
              25.144404086361114
            ],
            [
              87.30592814737577,
              25.14442638892789
            ],
            [
              87.30574975363844,
              25.14430447940183
            ],
            [
              87.30524451057993,
              25.143288648691115
            ],
            [
              87.30496568699046,
              25.1429179883433
            ],
            [
              87.30494220413061,
              25.142886767940926
            ],
            [
              87.30497853020407,
              25.14286199702785
            ],
            [
              87.30619233830757,
              25.142034297103674
            ],
            [
              87.30617750532559,
              25.141894349062163
            ],
            [
              87.30582579243398,
              25.141334442255516
            ],
            [
              87.30589031572586,
              25.141149447145306
            ],
            [
              87.30664422413314,
              25.14079324739411
            ],
            [
              87.30653048035016,
              25.140296696627903
            ],
            [
              87.30626898256759,
              25.139624600119753
            ],
            [
              87.30601055971825,
              25.138960394719685
            ],
            [
              87.30573837827198,
              25.13794462607506
            ],
            [
              87.30611523860165,
              25.1379312939202
            ],
            [
              87.30664588601641,
              25.13776457111041
            ],
            [
              87.30691877443678,
              25.137552503648262
            ],
            [
              87.30689414083507,
              25.13722301967811
            ],
            [
              87.30685499494993,
              25.136405990322427
            ],
            [
              87.30658240926182,
              25.136062840721852
            ],
            [
              87.30614112265826,
              25.136017515245072
            ],
            [
              87.30550649435106,
              25.136017199705382
            ],
            [
              87.30496108222631,
              25.135908598707772
            ],
            [
              87.30439118562018,
              25.135447932273046
            ],
            [
              87.30414861174738,
              25.134761725127092
            ],
            [
              87.30373233963124,
              25.134278617388507
            ],
            [
              87.30310757662248,
              25.13437309436636
            ],
            [
              87.30295388206392,
              25.134242099651622
            ],
            [
              87.30277096980069,
              25.133366389616086
            ],
            [
              87.3024046296413,
              25.132409237288783
            ],
            [
              87.30181061416809,
              25.130802142986386
            ],
            [
              87.30067514005573,
              25.12716729397503
            ],
            [
              87.30045960457464,
              25.126477302332464
            ],
            [
              87.30026661501057,
              25.125809137784113
            ],
            [
              87.30008852041225,
              25.12518618929656
            ],
            [
              87.29980141794914,
              25.124405150340934
            ],
            [
              87.29937606656043,
              25.12273945407021
            ],
            [
              87.29918342374604,
              25.12163798612536
            ],
            [
              87.29895121912658,
              25.120256641634718
            ],
            [
              87.29853493533234,
              25.120066840217024
            ],
            [
              87.2980542117895,
              25.119687517918138
            ],
            [
              87.29756428859987,
              25.118211231705594
            ],
            [
              87.29721328088574,
              25.116708025280076
            ],
            [
              87.29722526261499,
              25.116694556600475
            ],
            [
              87.29765487022152,
              25.11621170601783
            ],
            [
              87.29731824543343,
              25.11536293697602
            ],
            [
              87.29677366514862,
              25.11420265696286
            ],
            [
              87.29620407756295,
              25.11336284167673
            ],
            [
              87.29659592987639,
              25.112974813899744
            ],
            [
              87.29769694730943,
              25.112370609141507
            ],
            [
              87.29793015534707,
              25.112050266638214
            ],
            [
              87.29763311392365,
              25.111282697600387
            ],
            [
              87.29725704321311,
              25.110194778818045
            ],
            [
              87.29668822189039,
              25.108185825284682
            ],
            [
              87.29648034544543,
              25.10769821096776
            ],
            [
              87.29578285483129,
              25.105337214799153
            ],
            [
              87.29520928681058,
              25.10306654669878
            ],
            [
              87.29522464530699,
              25.102357862917845
            ],
            [
              87.29523812093457,
              25.10234463832541
            ],
            [
              87.29666806459373,
              25.10094128838156
            ],
            [
              87.29792768587836,
              25.100102411879575
            ],
            [
              87.29812124407603,
              25.09975948165825
            ],
            [
              87.29760175104215,
              25.098161332765017
            ],
            [
              87.2972309453575,
              25.096649041055013
            ],
            [
              87.29715305064258,
              25.094414772220414
            ],
            [
              87.29692081997194,
              25.09319588513693
            ],
            [
              87.29663428883735,
              25.091706268904733
            ],
            [
              87.29634240823525,
              25.09091619639355
            ],
            [
              87.29590700559682,
              25.089661137975195
            ],
            [
              87.29556900728461,
              25.088908580162872
            ],
            [
              87.29540211198294,
              25.08853698279392
            ],
            [
              87.29510468877551,
              25.0886541642147
            ],
            [
              87.29453456759056,
              25.088820833612758
            ],
            [
              87.2937167162031,
              25.08890165513958
            ],
            [
              87.29275495919866,
              25.089104223298975
            ],
            [
              87.29212434995402,
              25.089189569649278
            ],
            [
              87.29185776501201,
              25.08922565013555
            ],
            [
              87.29061348425745,
              25.089518345965182
            ],
            [
              87.28970120286561,
              25.08984731909132
            ],
            [
              87.28849639228802,
              25.090356662915582
            ],
            [
              87.28743544959814,
              25.090730614861435
            ],
            [
              87.2873205667514,
              25.090768635204558
            ],
            [
              87.28657768965581,
              25.09101448906607
            ],
            [
              87.28650912125019,
              25.09103492371392
            ],
            [
              87.2856556417802,
              25.091289271255878
            ],
            [
              87.28546230995802,
              25.091225975872312
            ],
            [
              87.28486277343907,
              25.090990879144073
            ],
            [
              87.28460132057228,
              25.09082687462838
            ],
            [
              87.28429291007062,
              25.090633412115984
            ],
            [
              87.2842434443395,
              25.090602383369298
            ],
            [
              87.28382709496826,
              25.09058854978498
            ],
            [
              87.28307371117711,
              25.09055197018139
            ],
            [
              87.28239957226879,
              25.090691518182243
            ],
            [
              87.28202897140001,
              25.090855069733614
            ],
            [
              87.28154172069833,
              25.091070098179735
            ],
            [
              87.28118016496614,
              25.091236394124504
            ],
            [
              87.280698859315,
              25.091457766723327
            ],
            [
              87.27960825425443,
              25.09162400763391
            ],
            [
              87.27851758002356,
              25.091849033141884
            ],
            [
              87.2780367495812,
              25.09191640159821
            ],
            [
              87.27752912059731,
              25.092065210185535
            ],
            [
              87.27694598731547,
              25.09223614926594
            ],
            [
              87.2758057179961,
              25.092506220778795
            ],
            [
              87.27551663295117,
              25.092621982033513
            ],
            [
              87.27538927070849,
              25.092672983367926
            ],
            [
              87.27463565605032,
              25.09284849528661
            ],
            [
              87.27454036366329,
              25.092858387044295
            ],
            [
              87.27372853727641,
              25.092942647963465
            ],
            [
              87.27280641573894,
              25.093203805679746
            ],
            [
              87.27188433732064,
              25.093261850324087
            ],
            [
              87.27171210692447,
              25.093325204855756
            ],
            [
              87.27146785140545,
              25.09341505521877
            ],
            [
              87.27042669321136,
              25.093757332065355
            ],
            [
              87.26981675689639,
              25.093973558616593
            ],
            [
              87.26919183039426,
              25.094456131744874
            ],
            [
              87.26878990167828,
              25.095010997212363
            ],
            [
              87.26847691605687,
              25.09574198376263
            ],
            [
              87.2679013933021,
              25.09582728318031
            ],
            [
              87.26701019267503,
              25.096597330371313
            ],
            [
              87.26703845277554,
              25.09691453498601
            ],
            [
              87.26704745209807,
              25.09790755838409
            ],
            [
              87.26674984473604,
              25.098146600305906
            ],
            [
              87.26601101724576,
              25.09843944400182
            ],
            [
              87.26507887140805,
              25.0986779943467
            ],
            [
              87.26414161325803,
              25.099124076003775
            ],
            [
              87.26367520257266,
              25.099642829065797
            ],
            [
              87.26350575336059,
              25.10059056328399
            ],
            [
              87.26364923407439,
              25.100992453824443
            ],
            [
              87.26418857718109,
              25.102058044127837
            ],
            [
              87.26409903401188,
              25.102342316680016
            ],
            [
              87.26382603689535,
              25.102779988358563
            ],
            [
              87.26317615519466,
              25.103312069983122
            ],
            [
              87.26226884777452,
              25.10345130814147
            ],
            [
              87.2613067260541,
              25.103933541272507
            ],
            [
              87.26080062240953,
              25.104456779672
            ],
            [
              87.26019087024918,
              25.10446534618368
            ],
            [
              87.25930847580685,
              25.104478180087664
            ],
            [
              87.25813854860836,
              25.10453594118019
            ],
            [
              87.2565967098991,
              25.104652045717472
            ],
            [
              87.25595708695892,
              25.104796019095144
            ],
            [
              87.25473754041744,
              25.10488978269321
            ],
            [
              87.25389459908406,
              25.105182475210775
            ],
            [
              87.2530021542903,
              25.105326237280213
            ],
            [
              87.2516754971259,
              25.105493092207897
            ],
            [
              87.25150488100232,
              25.105514549383678
            ],
            [
              87.25033963492477,
              25.105734797989044
            ],
            [
              87.25000001874677,
              25.105573905974072
            ],
            [
              87.24969055182633,
              25.10542730606813
            ],
            [
              87.249683185641,
              25.10540851211344
            ],
            [
              87.24954718609689,
              25.105061523813042
            ],
            [
              87.24958752224977,
              25.10441159214679
            ],
            [
              87.24983606812259,
              25.10372572806353
            ],
            [
              87.25000001784845,
              25.103397857894272
            ],
            [
              87.25027820273574,
              25.102841397841054
            ],
            [
              87.25066530385968,
              25.102354248667872
            ],
            [
              87.25095321929813,
              25.102011490708744
            ],
            [
              87.25073042992113,
              25.101704365251248
            ],
            [
              87.2502398446731,
              25.10153694792311
            ],
            [
              87.25000001784845,
              25.101505737282725
            ],
            [
              87.24943687297998,
              25.101432457690663
            ],
            [
              87.2488272941945,
              25.10132357540405
            ],
            [
              87.24875811493446,
              25.101102344306277
            ],
            [
              87.24887737527159,
              25.100781996685253
            ],
            [
              87.24928918276076,
              25.100448336385014
            ],
            [
              87.2493440563499,
              25.100118885775593
            ],
            [
              87.2487990897895,
              25.099834063832493
            ],
            [
              87.24773805097989,
              25.099775164076835
            ],
            [
              87.24751042327678,
              25.09976252735689
            ],
            [
              87.24688062610919,
              25.09965628986205
            ],
            [
              87.24665642907216,
              25.099727916696978
            ],
            [
              87.24644416435703,
              25.099814876103764
            ],
            [
              87.2462758613953,
              25.099915127824698
            ],
            [
              87.24616613936986,
              25.100048696599362
            ],
            [
              87.24607848266275,
              25.100255649695267
            ],
            [
              87.2457613791641,
              25.10090608828199
            ],
            [
              87.2457130201574,
              25.101005279958095
            ],
            [
              87.24544233710104,
              25.101192397207605
            ],
            [
              87.24465903491937,
              25.101399867366666
            ],
            [
              87.24435888622338,
              25.101433504635253
            ],
            [
              87.24401382984802,
              25.101325372375833
            ],
            [
              87.24393403429798,
              25.1013003660756
            ],
            [
              87.24373619113643,
              25.10116035103681
            ],
            [
              87.24362960333303,
              25.10097476063985
            ],
            [
              87.24341654810047,
              25.100213983820822
            ],
            [
              87.24272886978416,
              25.09902113260032
            ],
            [
              87.24201811913811,
              25.098494437991466
            ],
            [
              87.24082442431381,
              25.098241708019525
            ],
            [
              87.24053865674722,
              25.097968264195107
            ],
            [
              87.24028372744598,
              25.09738609224969
            ],
            [
              87.2399609780358,
              25.09681233814998
            ],
            [
              87.23992390905558,
              25.09585809990189
            ],
            [
              87.23995180623673,
              25.09399118203708
            ],
            [
              87.23995849868561,
              25.093303737406288
            ],
            [
              87.23987568838945,
              25.09262260276101
            ],
            [
              87.23981084260234,
              25.092089225856174
            ],
            [
              87.23941551830033,
              25.092076227944503
            ],
            [
              87.23766592262206,
              25.092331184288412
            ],
            [
              87.23757164802623,
              25.091478272888896
            ],
            [
              87.23752218229512,
              25.08953625070411
            ],
            [
              87.23747352325111,
              25.088526076987907
            ],
            [
              87.23743219984974,
              25.087668164909868
            ],
            [
              87.23740061059277,
              25.085841347136267
            ],
            [
              87.2352877191456,
              25.08597593197855
            ],
            [
              87.23463970594067,
              25.08607616493688
            ],
            [
              87.23416042239725,
              25.08615029659428
            ],
            [
              87.23307265960622,
              25.086413274133427
            ],
            [
              87.23292162855245,
              25.086501801002026
            ],
            [
              87.23178880087688,
              25.08716579603539
            ],
            [
              87.23130348424803,
              25.087450255330484
            ],
            [
              87.23070466458468,
              25.087801236948643
            ],
            [
              87.23054686742016,
              25.08790171166853
            ],
            [
              87.23014859394907,
              25.08815530097177
            ],
            [
              87.22966550693873,
              25.088349221370514
            ],
            [
              87.22961153885142,
              25.08835837070826
            ],
            [
              87.22907256495229,
              25.088449749335666
            ],
            [
              87.22840637343928,
              25.088463598619462
            ],
            [
              87.22806905515176,
              25.08843454872185
            ],
            [
              87.22717628157464,
              25.088357658026457
            ],
            [
              87.22619806473926,
              25.088458403206015
            ],
            [
              87.22523913563136,
              25.088585934027112
            ],
            [
              87.22419915063705,
              25.088914428845882
            ],
            [
              87.22332084622417,
              25.089208716739453
            ],
            [
              87.22176509620442,
              25.089442965098055
            ],
            [
              87.21911743766864,
              25.090044656170022
            ],
            [
              87.21795697601831,
              25.090321729869224
            ],
            [
              87.21670335458141,
              25.090621033973726
            ],
            [
              87.2161120762749,
              25.090762185398408
            ],
            [
              87.21572246974965,
              25.090855190952126
            ],
            [
              87.2144121915678,
              25.091236480360237
            ],
            [
              87.21428772010375,
              25.09122988739486
            ],
            [
              87.21409154870693,
              25.090996088280274
            ],
            [
              87.2139711421195,
              25.09082293380523
            ],
            [
              87.21358590230486,
              25.090268923098673
            ],
            [
              87.21330733832852,
              25.089815247982614
            ],
            [
              87.21324292912263,
              25.08910090235211
            ],
            [
              87.21330816837184,
              25.088119687156393
            ],
            [
              87.21341737027272,
              25.087271975222848
            ],
            [
              87.21307317089014,
              25.087165363215288
            ],
            [
              87.21265504195632,
              25.0869723399387
            ],
            [
              87.21269597459053,
              25.086672363033056
            ],
            [
              87.21269575899487,
              25.086259919723467
            ],
            [
              87.21285324803723,
              25.085119717061833
            ],
            [
              87.21323615941868,
              25.0834197237959
            ],
            [
              87.21320824067794,
              25.082644908145127
            ],
            [
              87.2129746975687,
              25.082295114247213
            ],
            [
              87.21272747221936,
              25.081945247752394
            ],
            [
              87.21248785290553,
              25.081884772378828
            ],
            [
              87.212480546009,
              25.081882927118727
            ],
            [
              87.21184941933478,
              25.08197079661576
            ],
            [
              87.21109558818264,
              25.082099909336716
            ],
            [
              87.21040423126526,
              25.08221831488655
            ],
            [
              87.20908734597451,
              25.082519011356197
            ],
            [
              87.20851108031302,
              25.08250681626744
            ],
            [
              87.20794848790845,
              25.082369702998985
            ],
            [
              87.2074132105767,
              25.082082545371094
            ],
            [
              87.20729195238641,
              25.081995203984565
            ],
            [
              87.20675436099452,
              25.081607984682314
            ],
            [
              87.20584051294082,
              25.081041659734343
            ],
            [
              87.2034115869902,
              25.080068039336844
            ],
            [
              87.20210778655986,
              25.079456346984614
            ],
            [
              87.20100101901068,
              25.078715053754284
            ],
            [
              87.2004243428191,
              25.07789049371593
            ],
            [
              87.20006161927705,
              25.07606338681922
            ],
            [
              87.1999919863678,
              25.074401151643563
            ],
            [
              87.19968962332463,
              25.073526458055355
            ],
            [
              87.19920910729263,
              25.072851857753452
            ],
            [
              87.19843119769763,
              25.072324859305443
            ],
            [
              87.19815779274596,
              25.07213963770819
            ],
            [
              87.19615492336155,
              25.071071607851497
            ],
            [
              87.19560533586734,
              25.070778532678887
            ],
            [
              87.19516805844489,
              25.07101934689204
            ],
            [
              87.19511712666322,
              25.071047396029062
            ],
            [
              87.19368391942466,
              25.072045027205306
            ],
            [
              87.19270157572885,
              25.070077464337675
            ],
            [
              87.19373197929238,
              25.069377395263178
            ],
            [
              87.19452495902459,
              25.068904761792464
            ],
            [
              87.19414052769368,
              25.068267496946874
            ],
            [
              87.1935777628126,
              25.06778037939479
            ],
            [
              87.19275819923617,
              25.067201888270738
            ],
            [
              87.19225380688223,
              25.06684585713521
            ],
            [
              87.19133231057222,
              25.067306724259772
            ],
            [
              87.19076780834935,
              25.06755837485828
            ],
            [
              87.19021751837262,
              25.06780368621462
            ],
            [
              87.18941972277214,
              25.067989118607535
            ],
            [
              87.18935694580516,
              25.06798915115551
            ],
            [
              87.18895390317819,
              25.06798935132547
            ],
            [
              87.18836910980971,
              25.067930851231008
            ],
            [
              87.18767030496029,
              25.067750664678094
            ],
            [
              87.18698130073064,
              25.06749360986372
            ],
            [
              87.18607418824494,
              25.067056205008345
            ],
            [
              87.18508296200761,
              25.06679030699638
            ],
            [
              87.18430485118999,
              25.06674548800504
            ],
            [
              87.1833583781218,
              25.0668992842891
            ],
            [
              87.18254073424515,
              25.067007940884903
            ],
            [
              87.18195598219914,
              25.066972083315733
            ],
            [
              87.18149005211241,
              25.066760063943498
            ],
            [
              87.18117275098437,
              25.066480311078596
            ],
            [
              87.1808998967,
              25.06588017311769
            ],
            [
              87.18066678478206,
              25.065334083360526
            ],
            [
              87.18034441356258,
              25.06483767936342
            ],
            [
              87.17977432202204,
              25.064309787141624
            ],
            [
              87.17910508611851,
              25.063781922753105
            ],
            [
              87.17839360065055,
              25.063413783149247
            ],
            [
              87.17809389931558,
              25.063258709001214
            ],
            [
              87.17773209564838,
              25.06297891070905
            ],
            [
              87.1775237520795,
              25.062681138015495
            ],
            [
              87.17746914259504,
              25.062351662241667
            ],
            [
              87.17763742309891,
              25.061818994046583
            ],
            [
              87.17769651966819,
              25.060997465379764
            ],
            [
              87.17756731228592,
              25.060090184608676
            ],
            [
              87.1773192182657,
              25.0594493723201
            ],
            [
              87.17703670709199,
              25.059142564033746
            ],
            [
              87.17676402977571,
              25.05891693400841
            ],
            [
              87.17630291196394,
              25.05829867799125
            ],
            [
              87.17579716944216,
              25.057531553014847
            ],
            [
              87.1754550819988,
              25.057017099683133
            ],
            [
              87.1731265086452,
              25.058232063299076
            ],
            [
              87.17144061070708,
              25.059212438956738
            ],
            [
              87.17048592434226,
              25.059767587851542
            ],
            [
              87.17004000872005,
              25.059943752374753
            ],
            [
              87.16863197407235,
              25.059229777683573
            ],
            [
              87.1682606859924,
              25.059041505035644
            ],
            [
              87.16586190211278,
              25.05782348398607
            ],
            [
              87.1658174103534,
              25.058134922640075
            ],
            [
              87.16565932572802,
              25.05957491117449
            ],
            [
              87.16556682979645,
              25.06022365524807
            ],
            [
              87.16545659662962,
              25.060996795667215
            ],
            [
              87.1653281842564,
              25.06238698979344
            ],
            [
              87.16470122396848,
              25.062500374939873
            ],
            [
              87.16310333218212,
              25.062789341847996
            ],
            [
              87.16256817073305,
              25.062897758782924
            ],
            [
              87.16199340525807,
              25.063123620715054
            ],
            [
              87.1616862155669,
              25.06325463302517
            ],
            [
              87.16125505926482,
              25.063363021881543
            ],
            [
              87.16070501542646,
              25.063390259855886
            ],
            [
              87.15998649794646,
              25.063327186843672
            ],
            [
              87.15966584700075,
              25.063278884633235
            ],
            [
              87.15834119577437,
              25.063079333376525
            ],
            [
              87.15684953516023,
              25.063106746366202
            ],
            [
              87.15654874686375,
              25.063147336913907
            ],
            [
              87.15557608521009,
              25.06327859087658
            ],
            [
              87.15392590159273,
              25.063640014376297
            ],
            [
              87.1532519692969,
              25.063707811729444
            ],
            [
              87.1523352232781,
              25.063780191142015
            ],
            [
              87.15206340744616,
              25.0637513933393
            ],
            [
              87.15050657136325,
              25.06358644421224
            ],
            [
              87.15041944196722,
              25.06357090281426
            ],
            [
              87.15000109743774,
              25.063496283896125
            ],
            [
              87.14813776516301,
              25.063067737699566
            ],
            [
              87.14728535019665,
              25.062959582123142
            ],
            [
              87.14662623830637,
              25.062733916812263
            ],
            [
              87.14590273966813,
              25.062725056876477
            ],
            [
              87.14522389897758,
              25.06291925679011
            ],
            [
              87.1447135085725,
              25.063027584099554
            ],
            [
              87.14445954585854,
              25.06307015122792
            ],
            [
              87.14336564398084,
              25.0632534929887
            ],
            [
              87.1427165420178,
              25.06353344770345
            ],
            [
              87.14235978239093,
              25.063772659284464
            ],
            [
              87.14210706384361,
              25.064043560119558
            ],
            [
              87.14167100543503,
              25.06481992073686
            ],
            [
              87.14154222565087,
              25.06518101338876
            ],
            [
              87.1415391075985,
              25.065202516691294
            ],
            [
              87.14146303736193,
              25.06572719170939
            ],
            [
              87.14142837766332,
              25.066196655830772
            ],
            [
              87.14141359139373,
              25.06653063572049
            ],
            [
              87.14143349177223,
              25.066765423019216
            ],
            [
              87.14156730571526,
              25.067419862369523
            ],
            [
              87.14167972358486,
              25.06796645708648
            ],
            [
              87.1417260452125,
              25.06819167987162
            ],
            [
              87.14175576417703,
              25.068512161622465
            ],
            [
              87.14161218015695,
              25.06910798307365
            ],
            [
              87.14150321271639,
              25.069455598968975
            ],
            [
              87.14103743444493,
              25.070448637667134
            ],
            [
              87.14098793637446,
              25.07069234109689
            ],
            [
              87.14098399187203,
              25.07080582026624
            ],
            [
              87.14097804861811,
              25.070976736959878
            ],
            [
              87.14103269134021,
              25.071762109827695
            ],
            [
              87.14100294991779,
              25.0721141657195
            ],
            [
              87.14095342938946,
              25.07224958664649
            ],
            [
              87.14087415396394,
              25.07229472665097
            ],
            [
              87.1403686962081,
              25.0724166730096
            ],
            [
              87.13967486083881,
              25.072646985242383
            ],
            [
              87.13935774925532,
              25.072813995392295
            ],
            [
              87.13927844688035,
              25.0729223513802
            ],
            [
              87.13927851066076,
              25.073242770305477
            ],
            [
              87.13932805993518,
              25.07339173503603
            ],
            [
              87.13947672392818,
              25.073590367142245
            ],
            [
              87.13979896758691,
              25.073924300834268
            ],
            [
              87.1398633435551,
              25.07411840732269
            ],
            [
              87.13983862910503,
              25.074271865631232
            ],
            [
              87.13978411124874,
              25.07437568419355
            ],
            [
              87.13957099043915,
              25.07452471507939
            ],
            [
              87.13935116640093,
              25.07472183439179
            ],
            [
              87.13925886001391,
              25.07480460660562
            ],
            [
              87.13901603191789,
              25.07516571375939
            ],
            [
              87.13865932169831,
              25.07601432724511
            ],
            [
              87.13844634192425,
              25.077702417357205
            ],
            [
              87.13817889639618,
              25.079372583667546
            ],
            [
              87.1381344774003,
              25.080880167342233
            ],
            [
              87.13801016942963,
              25.080950828832936
            ],
            [
              87.13747536012018,
              25.081254840626105
            ],
            [
              87.13663282841854,
              25.08175593605753
            ],
            [
              87.13580519437761,
              25.082645162802468
            ],
            [
              87.13433335778521,
              25.084523047656557
            ],
            [
              87.13342641418276,
              25.08583200316459
            ],
            [
              87.1316916999955,
              25.087425442264482
            ],
            [
              87.13045755942387,
              25.088278604829043
            ],
            [
              87.12970423312494,
              25.08862171936837
            ],
            [
              87.12867815764446,
              25.088653318110502
            ],
            [
              87.1259620411958,
              25.08878876467572
            ],
            [
              87.12555061638892,
              25.08880020008638
            ],
            [
              87.12385057896826,
              25.088847437855982
            ],
            [
              87.12329044884589,
              25.089917170801023
            ],
            [
              87.12224948738289,
              25.091645927707347
            ],
            [
              87.12193717729455,
              25.092029548695706
            ],
            [
              87.12173897660351,
              25.092074686288115
            ],
            [
              87.1214019340988,
              25.092020506206115
            ],
            [
              87.1212907029037,
              25.092187952829356
            ],
            [
              87.121273004296,
              25.092214596203874
            ],
            [
              87.1212767736269,
              25.092241398212494
            ],
            [
              87.12129777174665,
              25.092390679883025
            ],
            [
              87.12152082702498,
              25.092507990219865
            ],
            [
              87.12176367757891,
              25.092684075917376
            ],
            [
              87.121843006005,
              25.092873661140153
            ],
            [
              87.12169927106798,
              25.093040671355904
            ],
            [
              87.12162495344451,
              25.09320310929679
            ],
            [
              87.12164965891145,
              25.093415316361924
            ],
            [
              87.12264594805373,
              25.09430449662845
            ],
            [
              87.12314657736492,
              25.094796541089053
            ],
            [
              87.12333993523826,
              25.094864203230397
            ],
            [
              87.12361254338428,
              25.094841670338976
            ],
            [
              87.1243262836236,
              25.094724302852654
            ],
            [
              87.12448000423332,
              25.094724263803606
            ],
            [
              87.1246882049701,
              25.094855218710236
            ],
            [
              87.12479226221934,
              25.095171125399094
            ],
            [
              87.12475263663384,
              25.095410388250038
            ],
            [
              87.12458242026057,
              25.095573541379082
            ],
            [
              87.12456924107701,
              25.095586465702805
            ],
            [
              87.12424702167282,
              25.09568571538464
            ],
            [
              87.12414293837242,
              25.095735382091373
            ],
            [
              87.12410819692712,
              25.09580305428916
            ],
            [
              87.12416269591877,
              25.095952019224917
            ],
            [
              87.12432895161997,
              25.09605398167453
            ],
            [
              87.12440562732107,
              25.096101006757586
            ],
            [
              87.12478239063272,
              25.096195785775894
            ],
            [
              87.12496578439287,
              25.09630860920609
            ],
            [
              87.12509958755615,
              25.096421473207734
            ],
            [
              87.12515407936128,
              25.09656140581206
            ],
            [
              87.1251590991471,
              25.096719355021758
            ],
            [
              87.12506485239905,
              25.09688641611979
            ],
            [
              87.12467821570415,
              25.09732871826241
            ],
            [
              87.12463338168664,
              25.09745127584143
            ],
            [
              87.12462372120406,
              25.097477683780856
            ],
            [
              87.1246583710212,
              25.097613118950612
            ],
            [
              87.12481211678377,
              25.09782973160785
            ],
            [
              87.12495580141514,
              25.098001290655763
            ],
            [
              87.12506484161928,
              25.098240518685454
            ],
            [
              87.12514915479689,
              25.098448159804864
            ],
            [
              87.12529287176763,
              25.09865123523644
            ],
            [
              87.12551102493941,
              25.09880918337477
            ],
            [
              87.12577873367388,
              25.0988363199117
            ],
            [
              87.12605630501183,
              25.09880926309722
            ],
            [
              87.12634380273366,
              25.09879113681781
            ],
            [
              87.12653714084406,
              25.09883179200383
            ],
            [
              87.126561151015,
              25.09884637063006
            ],
            [
              87.12678990610375,
              25.098985282780728
            ],
            [
              87.12687420490835,
              25.099174860679188
            ],
            [
              87.12686922015682,
              25.099341846836538
            ],
            [
              87.12682961163934,
              25.09949983231711
            ],
            [
              87.12667590809761,
              25.099617186273317
            ],
            [
              87.1263834058613,
              25.099689411858556
            ],
            [
              87.12621491694827,
              25.099802262165564
            ],
            [
              87.12615045025024,
              25.099897051331894
            ],
            [
              87.1261554439849,
              25.10002790470971
            ],
            [
              87.12631905684256,
              25.100190413907935
            ],
            [
              87.12692871108653,
              25.10076814472845
            ],
            [
              87.12724099871697,
              25.10112478086744
            ],
            [
              87.1273352517532,
              25.10125113439865
            ],
            [
              87.12743434491217,
              25.101359419657438
            ],
            [
              87.12775075760638,
              25.101649127848752
            ],
            [
              87.12872938587017,
              25.102545149740028
            ],
            [
              87.12920095378362,
              25.1028862906579
            ],
            [
              87.12931311832831,
              25.102970813113807
            ],
            [
              87.1293436682345,
              25.103069493885695
            ],
            [
              87.1292917420178,
              25.103205365388725
            ],
            [
              87.12919421462236,
              25.103363492302282
            ],
            [
              87.12916847878778,
              25.103506744841887
            ],
            [
              87.12923337488054,
              25.103630863772114
            ],
            [
              87.12935776280132,
              25.103738133350948
            ],
            [
              87.12961550382937,
              25.103801305935793
            ],
            [
              87.13011620231086,
              25.103828412080556
            ],
            [
              87.1303393240645,
              25.1038870983845
            ],
            [
              87.13045333195217,
              25.103932152696068
            ],
            [
              87.13055738381149,
              25.104036007107915
            ],
            [
              87.13060206062384,
              25.10417143176184
            ],
            [
              87.13059213873153,
              25.10444679530467
            ],
            [
              87.13054254633796,
              25.1047266167736
            ],
            [
              87.13052768101664,
              25.104925219988083
            ],
            [
              87.13055747094808,
              25.105051628161444
            ],
            [
              87.13091936983672,
              25.105498430878537
            ],
            [
              87.13112987834543,
              25.105676730792684
            ],
            [
              87.13234215931294,
              25.10670352222988
            ],
            [
              87.13292717815858,
              25.107005896846346
            ],
            [
              87.13329896121027,
              25.107227092047882
            ],
            [
              87.13349725532608,
              25.10733989066043
            ],
            [
              87.1336460199304,
              25.107511434741262
            ],
            [
              87.13375010682405,
              25.107732599744633
            ],
            [
              87.13379970101424,
              25.108007908902447
            ],
            [
              87.13377991202685,
              25.10823360870204
            ],
            [
              87.13380469744386,
              25.108405084827695
            ],
            [
              87.13391376010587,
              25.108549571941015
            ],
            [
              87.13411695992144,
              25.108612694861307
            ],
            [
              87.13433019032551,
              25.10859462128099
            ],
            [
              87.13505893243007,
              25.108617167907326
            ],
            [
              87.13535575017299,
              25.10866665935628
            ],
            [
              87.1356141586493,
              25.108784185910448
            ],
            [
              87.13573314679688,
              25.10893308704348
            ],
            [
              87.13581741685539,
              25.109167814969915
            ],
            [
              87.13578271942754,
              25.109452140948637
            ],
            [
              87.13569845206398,
              25.109668870105256
            ],
            [
              87.13568863437624,
              25.109939627071007
            ],
            [
              87.1357580256387,
              25.110174367706538
            ],
            [
              87.13594636821777,
              25.110341358366462
            ],
            [
              87.13621410480002,
              25.11045869459809
            ],
            [
              87.13634303460283,
              25.110625649079363
            ],
            [
              87.13639261621664,
              25.11079267572651
            ],
            [
              87.13638270240918,
              25.111153832857106
            ],
            [
              87.13637784881169,
              25.111519408988933
            ],
            [
              87.13648688542254,
              25.11181281526315
            ],
            [
              87.136680320551,
              25.112097110688296
            ],
            [
              87.13790492640422,
              25.113356335310787
            ],
            [
              87.13823711261648,
              25.113798632383006
            ],
            [
              87.13826569880545,
              25.113856476105585
            ],
            [
              87.13846020382739,
              25.114250060614868
            ],
            [
              87.13848010779914,
              25.114308742730035
            ],
            [
              87.13849115707714,
              25.11434287017577
            ],
            [
              87.13768551199772,
              25.114520120119856
            ],
            [
              87.13768196275406,
              25.114520900973968
            ],
            [
              87.13685903229192,
              25.114656404300828
            ],
            [
              87.13542137030785,
              25.115022122874585
            ],
            [
              87.13482645831601,
              25.115234260359067
            ],
            [
              87.1345636948072,
              25.115410331230834
            ],
            [
              87.13435547969739,
              25.115672146172486
            ],
            [
              87.13425144221108,
              25.115956534294348
            ],
            [
              87.13417704104428,
              25.116403362229153
            ],
            [
              87.13417711829939,
              25.11674644586197
            ],
            [
              87.13418204825366,
              25.11735575892015
            ],
            [
              87.13414248016035,
              25.118091544967818
            ],
            [
              87.13406315263256,
              25.118479676065654
            ],
            [
              87.13312626009689,
              25.119021382986716
            ],
            [
              87.13260856279528,
              25.12011572840289
            ],
            [
              87.132556102081,
              25.120226620013145
            ],
            [
              87.13335933967545,
              25.121007435981518
            ],
            [
              87.13364699999237,
              25.122095224364323
            ],
            [
              87.13424693356664,
              25.12245176413132
            ],
            [
              87.13441252810784,
              25.122707041039792
            ],
            [
              87.13455436759959,
              25.122925700321552
            ],
            [
              87.1359326751979,
              25.12316023871074
            ],
            [
              87.13739069120969,
              25.126897516984187
            ],
            [
              87.13735554372589,
              25.12737048192322
            ],
            [
              87.13728670582567,
              25.128296774109042
            ],
            [
              87.13581910299318,
              25.12828331565307
            ],
            [
              87.13553155406734,
              25.128405224908846
            ],
            [
              87.13537782716942,
              25.12861741235689
            ],
            [
              87.13548203533564,
              25.129019101775757
            ],
            [
              87.13638948289292,
              25.130937340357598
            ],
            [
              87.13711855198426,
              25.132377188729464
            ],
            [
              87.13730208139006,
              25.13344239482857
            ],
            [
              87.13759962587007,
              25.133997519259502
            ],
            [
              87.13804101038994,
              25.13418712011775
            ],
            [
              87.1391615778585,
              25.13430428706655
            ],
            [
              87.13950578442761,
              25.134263006897008
            ],
            [
              87.14074330625799,
              25.13411458879908
            ],
            [
              87.14140289695028,
              25.13397275223579
            ],
            [
              87.14217122331785,
              25.13380753018123
            ],
            [
              87.14300426521679,
              25.13364489326428
            ],
            [
              87.14370835216005,
              25.13383440439802
            ],
            [
              87.14373291389656,
              25.132696937122613
            ],
            [
              87.14448649082547,
              25.131866352735777
            ],
            [
              87.14417406665112,
              25.13141953661707
            ],
            [
              87.14381203121859,
              25.130706356302053
            ],
            [
              87.14508120967955,
              25.12992539005045
            ],
            [
              87.14726269917674,
              25.129360882879826
            ],
            [
              87.14770208764008,
              25.129307335794472
            ],
            [
              87.14833858803634,
              25.129229764861957
            ],
            [
              87.14930079240179,
              25.130813904660222
            ],
            [
              87.15034237909225,
              25.132637277342855
            ],
            [
              87.15075889465184,
              25.132921598327638
            ],
            [
              87.15130438133676,
              25.132966649255998
            ],
            [
              87.15153757410306,
              25.133819650213823
            ],
            [
              87.15143357614261,
              25.13419887414628
            ],
            [
              87.15112128491893,
              25.134528368715895
            ],
            [
              87.15079947514648,
              25.136884589983588
            ],
            [
              87.15089870215444,
              25.137141869828493
            ],
            [
              87.15175648635126,
              25.13700182834912
            ],
            [
              87.15170681041437,
              25.13662267086115
            ],
            [
              87.1518356521823,
              25.136198356754416
            ],
            [
              87.15298094128748,
              25.13574671765696
            ],
            [
              87.15397348176009,
              25.135848730679047
            ],
            [
              87.15412138038845,
              25.13586393109105
            ],
            [
              87.15443385576677,
              25.13631524120415
            ],
            [
              87.15473411136229,
              25.137242939141704
            ],
            [
              87.15640892498809,
              25.142417337099534
            ],
            [
              87.15717990318238,
              25.144973425068446
            ],
            [
              87.1580616256849,
              25.147896522228177
            ],
            [
              87.15971293309468,
              25.147693091142795
            ],
            [
              87.16371475161563,
              25.14776431088609
            ],
            [
              87.1638270266531,
              25.150367517954237
            ],
            [
              87.16394889120625,
              25.15319293611962
            ],
            [
              87.16394953170503,
              25.15320777822013
            ],
            [
              87.16102877544138,
              25.153835920311174
            ],
            [
              87.15977959168202,
              25.155682282323134
            ],
            [
              87.15946733189936,
              25.156061464359425
            ],
            [
              87.15858463023321,
              25.156440806213077
            ],
            [
              87.15801436980938,
              25.15658085222306
            ],
            [
              87.15518253687738,
              25.156369363049436
            ],
            [
              87.15415606793484,
              25.156690038155713
            ],
            [
              87.15366025988175,
              25.157019638704302
            ],
            [
              87.15291149702443,
              25.157565970352003
            ],
            [
              87.15318438993638,
              25.15806238499816
            ],
            [
              87.15329347685292,
              25.158251920833077
            ],
            [
              87.15349198117453,
              25.158531763792084
            ],
            [
              87.15410712322658,
              25.159511063956497
            ],
            [
              87.15470253558004,
              25.160418226784863
            ],
            [
              87.1548697461904,
              25.160861905594576
            ],
            [
              87.154881147608,
              25.160892161962916
            ],
            [
              87.15489611893052,
              25.16111782827863
            ],
            [
              87.15480186769089,
              25.161366093673365
            ],
            [
              87.1543458002077,
              25.162142503154435
            ],
            [
              87.15425659121176,
              25.162377218263
            ],
            [
              87.15424673040489,
              25.16274288905712
            ],
            [
              87.15431631929668,
              25.163239333858403
            ],
            [
              87.15447515760859,
              25.163925423991227
            ],
            [
              87.15448021961521,
              25.16400660725496
            ],
            [
              87.15436614076067,
              25.16403372768424
            ],
            [
              87.15276478417225,
              25.16441501234478
            ],
            [
              87.15197568965363,
              25.16460288861769
            ],
            [
              87.15065193674253,
              25.16644924783235
            ],
            [
              87.15011791795054,
              25.167103809754366
            ],
            [
              87.149764341953,
              25.16753719477881
            ],
            [
              87.14907971072215,
              25.1678507996463
            ],
            [
              87.1481575541504,
              25.168273201210987
            ],
            [
              87.14648122327007,
              25.168711240733895
            ],
            [
              87.14549423887752,
              25.168878382250764
            ],
            [
              87.14505285076434,
              25.169135744241935
            ],
            [
              87.14479008815385,
              25.16956460570161
            ],
            [
              87.14478646973988,
              25.169708736713265
            ],
            [
              87.14475651721337,
              25.17090211881366
            ],
            [
              87.14474080478072,
              25.171528054332573
            ],
            [
              87.14494732297298,
              25.171961839891242
            ],
            [
              87.14494780087671,
              25.171962844767965
            ],
            [
              87.14507815361095,
              25.172236648157863
            ],
            [
              87.14494798503134,
              25.17299513982431
            ],
            [
              87.14440419706061,
              25.17616365373992
            ],
            [
              87.14444431312626,
              25.178709323815376
            ],
            [
              87.14410727870639,
              25.180221417330927
            ],
            [
              87.14498091637134,
              25.1801226777722
            ],
            [
              87.14600409029343,
              25.181644430206276
            ],
            [
              87.14631865335647,
              25.182112380126338
            ],
            [
              87.14669588918191,
              25.183358713819857
            ],
            [
              87.14716619675904,
              25.184806271990947
            ],
            [
              87.14756592370429,
              25.184990474956514
            ],
            [
              87.14894862136939,
              25.185838556631957
            ],
            [
              87.14968510515507,
              25.187071139296783
            ],
            [
              87.15002186379213,
              25.18811952129003
            ],
            [
              87.1511318688696,
              25.18806822001964
            ],
            [
              87.15158717637809,
              25.188249843604297
            ],
            [
              87.15167181923744,
              25.1897659059316
            ],
            [
              87.15186371375516,
              25.190213064384274
            ],
            [
              87.15281287907425,
              25.190270474394534
            ],
            [
              87.15306024366245,
              25.190715067978264
            ],
            [
              87.15444218494609,
              25.19270661895962
            ],
            [
              87.15512413201088,
              25.192798030882432
            ],
            [
              87.15547926838205,
              25.19268027388376
            ],
            [
              87.15583441373636,
              25.192562512706914
            ],
            [
              87.15671956600661,
              25.192470974612448
            ],
            [
              87.15783242503171,
              25.19247009264825
            ],
            [
              87.16016343641303,
              25.19236223610112
            ],
            [
              87.16138168399064,
              25.192255254108364
            ],
            [
              87.16198373938563,
              25.19207531670388
            ],
            [
              87.1630994281039,
              25.192125048255615
            ],
            [
              87.16389049442455,
              25.192341782640536
            ],
            [
              87.16449254532797,
              25.192161833170797
            ],
            [
              87.16589600126265,
              25.191387539779534
            ],
            [
              87.16825992691598,
              25.19087269462665
            ],
            [
              87.168751671889,
              25.188722009030588
            ],
            [
              87.17149318191414,
              25.18849357468566
            ],
            [
              87.17237688160859,
              25.188376624797506
            ],
            [
              87.17326067023625,
              25.188259656913317
            ],
            [
              87.1770561610078,
              25.18747562126955
            ],
            [
              87.17864297027849,
              25.18699665917684
            ],
            [
              87.18122371330878,
              25.189359551346193
            ],
            [
              87.18248431555372,
              25.190010338752444
            ],
            [
              87.18409219660602,
              25.19089835402213
            ],
            [
              87.1841614414431,
              25.193124434355802
            ],
            [
              87.18459931804179,
              25.19497874122767
            ],
            [
              87.18593133814846,
              25.19491688224869
            ],
            [
              87.1882510253673,
              25.194606458638482
            ],
            [
              87.1893689050765,
              25.194199882033924
            ],
            [
              87.19048686563414,
              25.193793262616158
            ],
            [
              87.19415091221836,
              25.19215354268604
            ],
            [
              87.19653045687951,
              25.19092822819778
            ],
            [
              87.2001965624024,
              25.188832313174775
            ]
          ]
        ]
      }
    }
  ]
}