{
  "type": "FeatureCollection",
  "features": [
    {
      "type": "Feature",
      "properties": {
        "object_id": "10-215-01186",
        "stname": "BIHAR",
        "dtname": "Darbhanga",
        "sdtname": "Tardih",
        "st_area_sh": 0.0,
        "st_length_": 0.0,
        "remarks": "",
        "dist_lgd": 195,
        "state_lgd": 10,
        "subdt_lgd": 1186,
        "ac_no": null,
        "st_length(shape)": 96398.42232606321,
        "st_area(shape)": 109520018.96976715
      },
      "geometry": {
        "type": "Polygon",
        "coordinates": [
          [
            [
              86.24237175077074,
              26.225003015011023
            ],
            [
              86.24316852139347,
              26.22486274664861
            ],
            [
              86.24502916321389,
              26.225075686338883
            ],
            [
              86.2461737381584,
              26.22533450726539
            ],
            [
              86.24842315196919,
              26.225806769620092
            ],
            [
              86.24831346677469,
              26.224379290399494
            ],
            [
              86.24830960132402,
              26.224328972984924
            ],
            [
              86.24828919968562,
              26.224063452366313
            ],
            [
              86.24819194268305,
              26.22206299784912
            ],
            [
              86.24815470302298,
              26.220848388684058
            ],
            [
              86.24820297219811,
              26.219803374872505
            ],
            [
              86.2482070316849,
              26.21971550933114
            ],
            [
              86.24831736007316,
              26.21890346596103
            ],
            [
              86.24934925933158,
              26.218773420223275
            ],
            [
              86.25000003036445,
              26.218714077625005
            ],
            [
              86.25086259180196,
              26.218637298721607
            ],
            [
              86.25138464144109,
              26.218400746657036
            ],
            [
              86.25182802561083,
              26.21794257032168
            ],
            [
              86.25222118317637,
              26.217511218166912
            ],
            [
              86.25174607859566,
              26.216669038698047
            ],
            [
              86.25128357019187,
              26.216206145813114
            ],
            [
              86.25089480808296,
              26.2159513051166
            ],
            [
              86.25064560464337,
              26.21578748274697
            ],
            [
              86.25000930816469,
              26.215811794679446
            ],
            [
              86.2500000222796,
              26.215812515164266
            ],
            [
              86.24980837300194,
              26.215863926660084
            ],
            [
              86.24936840782017,
              26.215789398398808
            ],
            [
              86.24846224934534,
              26.21504879231301
            ],
            [
              86.24765654677374,
              26.21425453128438
            ],
            [
              86.247594155184,
              26.213838864879293
            ],
            [
              86.24778671625165,
              26.213469679681626
            ],
            [
              86.24800488110156,
              26.213010334672024
            ],
            [
              86.24800315543791,
              26.2125001809524
            ],
            [
              86.24777103885333,
              26.2120159101068
            ],
            [
              86.2476231617845,
              26.211662999924247
            ],
            [
              86.24769005123888,
              26.211378933074087
            ],
            [
              86.24796638200344,
              26.211213339251753
            ],
            [
              86.24806751972801,
              26.211051345347457
            ],
            [
              86.24730945391764,
              26.21063655404325
            ],
            [
              86.24660152667653,
              26.210208478395774
            ],
            [
              86.24612844330517,
              26.209840319748615
            ],
            [
              86.24589741637703,
              26.20918901217254
            ],
            [
              86.24579543243945,
              26.208705419063495
            ],
            [
              86.24569959028346,
              26.20804579080001
            ],
            [
              86.24563316435979,
              26.20748112214816
            ],
            [
              86.24555122992103,
              26.206993119721734
            ],
            [
              86.24536786939852,
              26.206712254894246
            ],
            [
              86.24489299837974,
              26.20662398615224
            ],
            [
              86.24454835882267,
              26.20651834131276
            ],
            [
              86.24425449563874,
              26.206300098986194
            ],
            [
              86.24395619298066,
              26.205219550842976
            ],
            [
              86.2437265584412,
              26.204356062301613
            ],
            [
              86.24358042410404,
              26.20373679861642
            ],
            [
              86.2437580848161,
              26.20334948108624
            ],
            [
              86.24439643214856,
              26.202919437790378
            ],
            [
              86.24480294586577,
              26.202740989905234
            ],
            [
              86.24494406490871,
              26.20265215314433
            ],
            [
              86.24526523418234,
              26.202449969647684
            ],
            [
              86.24556197107688,
              26.20222128434109
            ],
            [
              86.24565952632011,
              26.201838057902815
            ],
            [
              86.2455087872188,
              26.201155567667154
            ],
            [
              86.24529192133281,
              26.199863266297974
            ],
            [
              86.24513277939035,
              26.19893242985167
            ],
            [
              86.24502917938356,
              26.197925138380462
            ],
            [
              86.24506427027352,
              26.19713978816421
            ],
            [
              86.24522684378034,
              26.19676141672776
            ],
            [
              86.24548233542697,
              26.19640970322242
            ],
            [
              86.24545799198106,
              26.195924494906933
            ],
            [
              86.24503290469706,
              26.19553651219098
            ],
            [
              86.24474698801012,
              26.19512462624637
            ],
            [
              86.2448529182467,
              26.19501373967318
            ],
            [
              86.24494921584856,
              26.194912934338724
            ],
            [
              86.24530469986772,
              26.194775416247545
            ],
            [
              86.2463205246725,
              26.19478164868062
            ],
            [
              86.2473183148996,
              26.19476709128983
            ],
            [
              86.24799753378085,
              26.19484977095818
            ],
            [
              86.24863271006036,
              26.19496189175888
            ],
            [
              86.24901579212171,
              26.195062802644166
            ],
            [
              86.24915850657258,
              26.195033874935827
            ],
            [
              86.24934621583941,
              26.194827141724268
            ],
            [
              86.24952226317723,
              26.19472914936862
            ],
            [
              86.2496858257292,
              26.19486847711112
            ],
            [
              86.24982480408681,
              26.19496652577344
            ],
            [
              86.24992140172594,
              26.19504849113533
            ],
            [
              86.25000003216107,
              26.19505436002293
            ],
            [
              86.25460720469073,
              26.194932595657907
            ],
            [
              86.25473013284916,
              26.193700748598637
            ],
            [
              86.25631826443995,
              26.193411001902714
            ],
            [
              86.25764578308875,
              26.193183096046226
            ],
            [
              86.25971501281983,
              26.19277841127713
            ],
            [
              86.25971614110385,
              26.19180777938901
            ],
            [
              86.26460712377111,
              26.191150729975085
            ],
            [
              86.26949213264173,
              26.19049431608175
            ],
            [
              86.26985550117419,
              26.189195954677743
            ],
            [
              86.26995239974892,
              26.188099396604393
            ],
            [
              86.26976779955129,
              26.18720908438718
            ],
            [
              86.26924202909024,
              26.18646602082616
            ],
            [
              86.268144572579,
              26.185124123348064
            ],
            [
              86.26802772870997,
              26.184604349650442
            ],
            [
              86.26789539519052,
              26.184161246344967
            ],
            [
              86.26746330643718,
              26.183644381720775
            ],
            [
              86.26599292781046,
              26.18273397304714
            ],
            [
              86.2652593437865,
              26.18242323775843
            ],
            [
              86.265379912969,
              26.18074893539358
            ],
            [
              86.26920415701618,
              26.17889483388355
            ],
            [
              86.26913655879102,
              26.178501719614058
            ],
            [
              86.2691379089589,
              26.178285025037415
            ],
            [
              86.2717954875904,
              26.177847939173045
            ],
            [
              86.27451706130442,
              26.177400276236416
            ],
            [
              86.27466064801943,
              26.177644788743955
            ],
            [
              86.2760778751274,
              26.177439733770722
            ],
            [
              86.27687925680249,
              26.177303808216532
            ],
            [
              86.27709071662711,
              26.178713429249946
            ],
            [
              86.28086651902257,
              26.178210700063218
            ],
            [
              86.28088142297146,
              26.178208715268536
            ],
            [
              86.28216339434037,
              26.178030012664898
            ],
            [
              86.28549810327009,
              26.177631253054987
            ],
            [
              86.2861799227741,
              26.178230564937845
            ],
            [
              86.28654601859174,
              26.178914086760972
            ],
            [
              86.28902323258218,
              26.17883153283158
            ],
            [
              86.28856266274273,
              26.178048228140796
            ],
            [
              86.28900033003397,
              26.177657618221644
            ],
            [
              86.28923127341882,
              26.177527834373524
            ],
            [
              86.28969094404464,
              26.177633939232344
            ],
            [
              86.28998676196265,
              26.176705385624356
            ],
            [
              86.29033118412742,
              26.175185656370644
            ],
            [
              86.290236474747,
              26.174300322123408
            ],
            [
              86.29145200222595,
              26.173516247692877
            ],
            [
              86.29159322098185,
              26.17250115324519
            ],
            [
              86.29355710617791,
              26.17289454332004
            ],
            [
              86.29378710992495,
              26.17208755328382
            ],
            [
              86.29370412266069,
              26.170913343401587
            ],
            [
              86.29398094210876,
              26.170639307365764
            ],
            [
              86.29531037596571,
              26.16920565161191
            ],
            [
              86.29586165408925,
              26.16821512932994
            ],
            [
              86.2958378406494,
              26.167181161227013
            ],
            [
              86.29540274074321,
              26.164655354148948
            ],
            [
              86.29600047524171,
              26.164256474615282
            ],
            [
              86.29671164270606,
              26.164129023704124
            ],
            [
              86.29767218608654,
              26.16412919624571
            ],
            [
              86.29872782063141,
              26.164444326079444
            ],
            [
              86.29982457735505,
              26.16477172237836
            ],
            [
              86.30209229613638,
              26.16537414480834
            ],
            [
              86.30236731356398,
              26.165398049621878
            ],
            [
              86.30332727124289,
              26.165492894011482
            ],
            [
              86.30433730101575,
              26.165592678272528
            ],
            [
              86.3055279846872,
              26.16559390862367
            ],
            [
              86.30741089933677,
              26.165432697846065
            ],
            [
              86.30742504510756,
              26.165431486843456
            ],
            [
              86.30928160139008,
              26.165350109375726
            ],
            [
              86.31063351289208,
              26.16515794103171
            ],
            [
              86.31157355492114,
              26.164390432770276
            ],
            [
              86.31187408989273,
              26.164328663007556
            ],
            [
              86.31315409844275,
              26.164452153317985
            ],
            [
              86.31393307074471,
              26.16470417109088
            ],
            [
              86.31441264893559,
              26.164823835279844
            ],
            [
              86.31477845369906,
              26.164721738799344
            ],
            [
              86.31493762438761,
              26.164022725949817
            ],
            [
              86.31517040931875,
              26.163567852641936
            ],
            [
              86.31557781326643,
              26.163195074173963
            ],
            [
              86.31567491665707,
              26.162843393197544
            ],
            [
              86.31548897617303,
              26.161271412332205
            ],
            [
              86.31567552032493,
              26.16102399267321
            ],
            [
              86.31620129078601,
              26.160940711702022
            ],
            [
              86.31814561516674,
              26.16123886486731
            ],
            [
              86.31910993686128,
              26.16144658489478
            ],
            [
              86.31986619256637,
              26.161301174060927
            ],
            [
              86.32133866067444,
              26.160852562282138
            ],
            [
              86.32135462733032,
              26.16084769873048
            ],
            [
              86.32135570441034,
              26.160847734207316
            ],
            [
              86.32201486211466,
              26.16086886630557
            ],
            [
              86.32309948529378,
              26.161036494207057
            ],
            [
              86.32428900924018,
              26.161231693732404
            ],
            [
              86.32495448479591,
              26.16121224039408
            ],
            [
              86.3254772459008,
              26.16078128204221
            ],
            [
              86.32554632724445,
              26.160077319907455
            ],
            [
              86.32515717257178,
              26.159023581641744
            ],
            [
              86.3247031227047,
              26.15794696685718
            ],
            [
              86.32479672625898,
              26.157328899012988
            ],
            [
              86.32555103172159,
              26.156646203720616
            ],
            [
              86.32816206594326,
              26.15582319081104
            ],
            [
              86.32962600634433,
              26.15526116297676
            ],
            [
              86.32978783335119,
              26.154954919113603
            ],
            [
              86.33024435358531,
              26.153850950400987
            ],
            [
              86.33081977572877,
              26.1520703306494
            ],
            [
              86.33095990303164,
              26.15118159386891
            ],
            [
              86.33072971512996,
              26.150318224194404
            ],
            [
              86.32976158996847,
              26.149036075001575
            ],
            [
              86.3297870643933,
              26.148954929621173
            ],
            [
              86.33228300017258,
              26.148984575148596
            ],
            [
              86.33317993833936,
              26.14871333409698
            ],
            [
              86.33434241401258,
              26.14836656385077
            ],
            [
              86.33468990841561,
              26.147952818631605
            ],
            [
              86.33469040518395,
              26.14698216831613
            ],
            [
              86.33455446942021,
              26.146254678672495
            ],
            [
              86.33388968377062,
              26.1452854689787
            ],
            [
              86.33352641315456,
              26.14495421903668
            ],
            [
              86.33271954097647,
              26.145225880088454
            ],
            [
              86.33254241655865,
              26.14502205271077
            ],
            [
              86.33068702988263,
              26.14288688708095
            ],
            [
              86.32961636742134,
              26.141973578845832
            ],
            [
              86.32876066282441,
              26.141243619350213
            ],
            [
              86.32661256909621,
              26.13989725878745
            ],
            [
              86.3258550072407,
              26.139424193304116
            ],
            [
              86.32523534666277,
              26.138455154316055
            ],
            [
              86.32519090520901,
              26.13748429276565
            ],
            [
              86.32532962934341,
              26.136843859932362
            ],
            [
              86.32588104131595,
              26.13575840409314
            ],
            [
              86.32601465403637,
              26.135136004128434
            ],
            [
              86.32575332693368,
              26.13471819739672
            ],
            [
              86.32574984955521,
              26.13471263918967
            ],
            [
              86.31919987798418,
              26.135280437868143
            ],
            [
              86.3187659297182,
              26.134850578939343
            ],
            [
              86.31851532041517,
              26.13368362114511
            ],
            [
              86.31817058294172,
              26.132603170021508
            ],
            [
              86.31691822363781,
              26.131791102652727
            ],
            [
              86.31657886437799,
              26.13131978991006
            ],
            [
              86.31633386505395,
              26.130757547306896
            ],
            [
              86.3158526402512,
              26.130634811709673
            ],
            [
              86.31427088041069,
              26.13042982411067
            ],
            [
              86.31308855286804,
              26.13071827802695
            ],
            [
              86.31196594802043,
              26.13098831484968
            ],
            [
              86.31120065616189,
              26.13094881418233
            ],
            [
              86.31057478193712,
              26.13084514361803
            ],
            [
              86.31014394274034,
              26.13076254195898
            ],
            [
              86.30959466157165,
              26.13083431233567
            ],
            [
              86.30914253320097,
              26.13114004364568
            ],
            [
              86.30845409760487,
              26.131876060960195
            ],
            [
              86.3083624883105,
              26.13224681518407
            ],
            [
              86.3085155118276,
              26.13369422312308
            ],
            [
              86.30844856937259,
              26.134037645718756
            ],
            [
              86.30830518118526,
              26.1342146543772
            ],
            [
              86.30783100276761,
              26.134303933628434
            ],
            [
              86.3073962127802,
              26.13432974486235
            ],
            [
              86.30704294041325,
              26.134526330226365
            ],
            [
              86.30666151125202,
              26.134917178938338
            ],
            [
              86.30627690295303,
              26.134965079267733
            ],
            [
              86.30601568005494,
              26.134836147939904
            ],
            [
              86.30567787667718,
              26.134513709720302
            ],
            [
              86.30509377231651,
              26.133502684120927
            ],
            [
              86.30451370678136,
              26.132942869867154
            ],
            [
              86.30380365412628,
              26.13237492997839
            ],
            [
              86.30308521030811,
              26.131992047342163
            ],
            [
              86.30207299134094,
              26.131742274361198
            ],
            [
              86.30039779143954,
              26.131709411386858
            ],
            [
              86.29805637666891,
              26.13211454521146
            ],
            [
              86.29571037599878,
              26.132564765916346
            ],
            [
              86.29528069203548,
              26.132590475917315
            ],
            [
              86.29511484776266,
              26.13250587298407
            ],
            [
              86.2950180147649,
              26.132290051069734
            ],
            [
              86.2949401380163,
              26.13196560894785
            ],
            [
              86.29501204905311,
              26.131617701799705
            ],
            [
              86.29526856388082,
              26.131227717900092
            ],
            [
              86.29581152629979,
              26.130443108809047
            ],
            [
              86.29609568678033,
              26.12979574495814
            ],
            [
              86.29611531586761,
              26.12919096773052
            ],
            [
              86.29574674339473,
              26.128218882292764
            ],
            [
              86.29538197798206,
              26.12768003806625
            ],
            [
              86.29528442723038,
              26.12740091698782
            ],
            [
              86.29528190476108,
              26.127121176637957
            ],
            [
              86.29561431824715,
              26.12681634779702
            ],
            [
              86.29604319372672,
              26.126704946224162
            ],
            [
              86.29637602492936,
              26.126463322400557
            ],
            [
              86.29649353624664,
              26.12618272407585
            ],
            [
              86.29655896234542,
              26.125663317625644
            ],
            [
              86.29689992509802,
              26.12501505380282
            ],
            [
              86.29643764396798,
              26.122037647898406
            ],
            [
              86.29624007119932,
              26.120790640061436
            ],
            [
              86.29602230969299,
              26.11957513913628
            ],
            [
              86.29575116130933,
              26.118923704738755
            ],
            [
              86.29533388397836,
              26.118456657728963
            ],
            [
              86.29488930235439,
              26.118373221367175
            ],
            [
              86.294323864087,
              26.1184291443202
            ],
            [
              86.29364892477973,
              26.118398751396754
            ],
            [
              86.29357983624953,
              26.11824491538131
            ],
            [
              86.29366164043259,
              26.11794734929179
            ],
            [
              86.29401502688556,
              26.116545024616066
            ],
            [
              86.29416318333045,
              26.115191357021647
            ],
            [
              86.29418417606033,
              26.11419372095672
            ],
            [
              86.29435345279583,
              26.113485749698647
            ],
            [
              86.2948235708284,
              26.112643721276072
            ],
            [
              86.29506146537688,
              26.1121663323988
            ],
            [
              86.29507460772952,
              26.11164269739294
            ],
            [
              86.29482167987476,
              26.110458622390137
            ],
            [
              86.29441091263465,
              26.10891260078768
            ],
            [
              86.29447138991453,
              26.108000937877783
            ],
            [
              86.29462040964037,
              26.107333497731204
            ],
            [
              86.29497984265355,
              26.10659936829779
            ],
            [
              86.29558164472363,
              26.105428946001158
            ],
            [
              86.2959917112778,
              26.1046314068429
            ],
            [
              86.29417923442792,
              26.105024352085806
            ],
            [
              86.29372459706263,
              26.104958920863414
            ],
            [
              86.29369235203552,
              26.10366757198793
            ],
            [
              86.29213983684912,
              26.104070794395295
            ],
            [
              86.29205641480023,
              26.101316445743556
            ],
            [
              86.29203399913895,
              26.10088744281911
            ],
            [
              86.29163625926714,
              26.100900662305886
            ],
            [
              86.29123852119193,
              26.100913879371067
            ],
            [
              86.29096874992558,
              26.100922841869878
            ],
            [
              86.29046839370223,
              26.100979071652013
            ],
            [
              86.2902570048445,
              26.10120827975312
            ],
            [
              86.29008914026063,
              26.10168149191215
            ],
            [
              86.28955002532602,
              26.103186730932393
            ],
            [
              86.28913287465755,
              26.10331032866907
            ],
            [
              86.28766153663008,
              26.103746261819015
            ],
            [
              86.28735073481316,
              26.10387565096389
            ],
            [
              86.28722037668902,
              26.103933698400375
            ],
            [
              86.28707056105581,
              26.10637538264519
            ],
            [
              86.2846658572785,
              26.106295754007984
            ],
            [
              86.2829366838999,
              26.106138183316933
            ],
            [
              86.28169029210441,
              26.106366831964937
            ],
            [
              86.28005236779575,
              26.106823672153954
            ],
            [
              86.2786622266902,
              26.10764290517252
            ],
            [
              86.27746560515475,
              26.10788973374533
            ],
            [
              86.27676764741665,
              26.107547637072198
            ],
            [
              86.27552713958629,
              26.106801008903517
            ],
            [
              86.27416292565646,
              26.10584607419337
            ],
            [
              86.27295114235565,
              26.105311757925573
            ],
            [
              86.27214125273653,
              26.105285098918703
            ],
            [
              86.27171067764442,
              26.105373217690428
            ],
            [
              86.27006390762513,
              26.105640284028375
            ],
            [
              86.26903682962482,
              26.105747176217207
            ],
            [
              86.26588590162919,
              26.106075054953994
            ],
            [
              86.26608321568305,
              26.10730855495427
            ],
            [
              86.26679928705052,
              26.109551457294828
            ],
            [
              86.26720088069493,
              26.11010428275967
            ],
            [
              86.26654056326555,
              26.11094516307861
            ],
            [
              86.26646141360419,
              26.11160840989962
            ],
            [
              86.26650671294902,
              26.112362584010103
            ],
            [
              86.2666526855894,
              26.113026977871577
            ],
            [
              86.26722677822625,
              26.11398699932601
            ],
            [
              86.2680847582558,
              26.1151335587701
            ],
            [
              86.26871601159245,
              26.1157507506017
            ],
            [
              86.27001176581278,
              26.114840847807347
            ],
            [
              86.27145392116992,
              26.114527603006778
            ],
            [
              86.27363115265268,
              26.114218050044716
            ],
            [
              86.27452118636818,
              26.113423440795344
            ],
            [
              86.2749832123767,
              26.113105225021133
            ],
            [
              86.27566241778325,
              26.11324859302864
            ],
            [
              86.27603965001545,
              26.113706466220812
            ],
            [
              86.27631081187386,
              26.11514799623656
            ],
            [
              86.27572265072136,
              26.115646167994125
            ],
            [
              86.27531309081704,
              26.116375480874094
            ],
            [
              86.27533886258419,
              26.117061834038047
            ],
            [
              86.27543492213248,
              26.117703394864225
            ],
            [
              86.27583658584547,
              26.118256198712476
            ],
            [
              86.27509740980888,
              26.118911618923573
            ],
            [
              86.27408781571896,
              26.118816247892383
            ],
            [
              86.27345341558383,
              26.118700186321497
            ],
            [
              86.27358678126754,
              26.11735098317346
            ],
            [
              86.27318750617486,
              26.116414440401655
            ],
            [
              86.27248143485312,
              26.11656889184084
            ],
            [
              86.27195089703284,
              26.115834842990562
            ],
            [
              86.27144726106042,
              26.11560205320281
            ],
            [
              86.27086676702885,
              26.115666838024993
            ],
            [
              86.27018035443878,
              26.115893611237755
            ],
            [
              86.26979915434798,
              26.116076780783235
            ],
            [
              86.26952184711472,
              26.116441061380247
            ],
            [
              86.26900824163923,
              26.117007300999724
            ],
            [
              86.26771705535212,
              26.117163273697273
            ],
            [
              86.26713528661116,
              26.1174311963184
            ],
            [
              86.26707457037945,
              26.11756254404472
            ],
            [
              86.26690210013311,
              26.117935649731344
            ],
            [
              86.26672321501731,
              26.118553243768933
            ],
            [
              86.26648263809938,
              26.120240491339878
            ],
            [
              86.26617206265792,
              26.121123777355027
            ],
            [
              86.26546124104495,
              26.12203220119973
            ],
            [
              86.26489684661989,
              26.122715547370575
            ],
            [
              86.26398008802471,
              26.123762776304275
            ],
            [
              86.26331886778847,
              26.12418875139258
            ],
            [
              86.2631666213141,
              26.12428682964067
            ],
            [
              86.26187336171532,
              26.124758762762177
            ],
            [
              86.26078786088217,
              26.12479834698344
            ],
            [
              86.26021291664247,
              26.124768308981604
            ],
            [
              86.25872159469323,
              26.124923173618928
            ],
            [
              86.25826550744705,
              26.12507883894404
            ],
            [
              86.25813167284275,
              26.12569665331723
            ],
            [
              86.25787728522567,
              26.12638156530566
            ],
            [
              86.25585128512098,
              26.126461410926158
            ],
            [
              86.255855117334,
              26.12668122624478
            ],
            [
              86.2558696242275,
              26.127513412347348
            ],
            [
              86.25642177102195,
              26.130355954159707
            ],
            [
              86.25467035266196,
              26.13129046088214
            ],
            [
              86.25399355833366,
              26.132329835167543
            ],
            [
              86.25383007124013,
              26.132605762876803
            ],
            [
              86.25350820936542,
              26.133148981325242
            ],
            [
              86.2529145172857,
              26.133701200782202
            ],
            [
              86.25215180359204,
              26.135661100006885
            ],
            [
              86.25163578434339,
              26.136579401219453
            ],
            [
              86.25153166960196,
              26.137298036611824
            ],
            [
              86.25088803119246,
              26.137802946172734
            ],
            [
              86.24999975458164,
              26.139155276781217
            ],
            [
              86.24757475426878,
              26.139371119877705
            ],
            [
              86.24539004610793,
              26.13956258393225
            ],
            [
              86.24426711607016,
              26.139660983135926
            ],
            [
              86.24314584432241,
              26.14013779838833
            ],
            [
              86.24192941583325,
              26.140306931039206
            ],
            [
              86.24095748181496,
              26.14025793131233
            ],
            [
              86.2398843391052,
              26.140822648267907
            ],
            [
              86.23961986879735,
              26.142239015624696
            ],
            [
              86.2399625149928,
              26.14342709574727
            ],
            [
              86.24000027387913,
              26.14355802071387
            ],
            [
              86.24057775675786,
              26.1444610066653
            ],
            [
              86.24108795761842,
              26.144507667667288
            ],
            [
              86.24179333993233,
              26.144445468853142
            ],
            [
              86.24225425741979,
              26.14457963039028
            ],
            [
              86.24220393828914,
              26.144842746062164
            ],
            [
              86.24149723635006,
              26.145124439801144
            ],
            [
              86.24113160765638,
              26.145276101037858
            ],
            [
              86.24107901578806,
              26.14589044105562
            ],
            [
              86.24148659311058,
              26.146770676052522
            ],
            [
              86.24199169962516,
              26.14760745165167
            ],
            [
              86.24210887766746,
              26.147835212763006
            ],
            [
              86.24259182993052,
              26.14877392917568
            ],
            [
              86.24253909972165,
              26.14941030099317
            ],
            [
              86.24243860069924,
              26.149914592902604
            ],
            [
              86.2424311168346,
              26.151073540161217
            ],
            [
              86.24239787557583,
              26.152456275268047
            ],
            [
              86.24135049744672,
              26.15278005729808
            ],
            [
              86.24045120838885,
              26.152999830327133
            ],
            [
              86.23976785276568,
              26.153166829298055
            ],
            [
              86.23954597068713,
              26.153848635398557
            ],
            [
              86.2394205739583,
              26.154233958899717
            ],
            [
              86.23810232771989,
              26.15508313800058
            ],
            [
              86.23761425416143,
              26.155365877020877
            ],
            [
              86.23652078437341,
              26.155294262026665
            ],
            [
              86.23557547282687,
              26.15487219017938
            ],
            [
              86.23472845673537,
              26.154275016789136
            ],
            [
              86.23512902180876,
              26.152499119847047
            ],
            [
              86.23559878770178,
              26.15129432273895
            ],
            [
              86.23606944292688,
              26.14993585196814
            ],
            [
              86.2357861160829,
              26.148661234964223
            ],
            [
              86.2346269848375,
              26.14746972937674
            ],
            [
              86.23388699402895,
              26.14614879927775
            ],
            [
              86.2335725648149,
              26.145998915661767
            ],
            [
              86.2315121331837,
              26.145016711916163
            ],
            [
              86.23125509373986,
              26.14299703214478
            ],
            [
              86.23111909958563,
              26.1419284409694
            ],
            [
              86.23125818124952,
              26.13925121668328
            ],
            [
              86.23115218004598,
              26.137703050241743
            ],
            [
              86.2306215901234,
              26.13706365974314
            ],
            [
              86.22909480268673,
              26.13637506035233
            ],
            [
              86.22776480109451,
              26.135336263209926
            ],
            [
              86.22635987821096,
              26.134604315391087
            ],
            [
              86.22561562399808,
              26.1344107947611
            ],
            [
              86.22573769516373,
              26.13231030684681
            ],
            [
              86.2257801342727,
              26.131580035312442
            ],
            [
              86.22593146985535,
              26.130746732146378
            ],
            [
              86.22612852070279,
              26.130352673307915
            ],
            [
              86.22851158765819,
              26.13016789216566
            ],
            [
              86.2317214756792,
              26.12992165664888
            ],
            [
              86.23412836236264,
              26.129824672721373
            ],
            [
              86.2345850784295,
              26.12686380463314
            ],
            [
              86.2350012544259,
              26.126407241180335
            ],
            [
              86.23488070859962,
              26.124398143993098
            ],
            [
              86.23911325490971,
              26.12382787196231
            ],
            [
              86.24011560498522,
              26.12291118603064
            ],
            [
              86.24037687908728,
              26.122400963822084
            ],
            [
              86.24124782270471,
              26.1207001156243
            ],
            [
              86.2415674423845,
              26.119745305752122
            ],
            [
              86.2417062518588,
              26.119330628341363
            ],
            [
              86.24317059021355,
              26.118372467210087
            ],
            [
              86.2431112546924,
              26.116264913856128
            ],
            [
              86.24295698611036,
              26.114294912248603
            ],
            [
              86.24271832529892,
              26.11124711330716
            ],
            [
              86.24258083455145,
              26.11122912374755
            ],
            [
              86.23301830967449,
              26.109977618088056
            ],
            [
              86.23036023607126,
              26.10953538003224
            ],
            [
              86.22948807164339,
              26.109135603114495
            ],
            [
              86.2277975976872,
              26.107524235061536
            ],
            [
              86.22655978570104,
              26.107298100621033
            ],
            [
              86.22588365073614,
              26.1066578233618
            ],
            [
              86.22555269072423,
              26.10525127985271
            ],
            [
              86.22293827883709,
              26.105577436925635
            ],
            [
              86.22297715971919,
              26.107048324864966
            ],
            [
              86.22339630195266,
              26.109816411974077
            ],
            [
              86.2233813737493,
              26.110244406103632
            ],
            [
              86.22269686379099,
              26.11085533601608
            ],
            [
              86.22291317541647,
              26.11489535685164
            ],
            [
              86.22294268327691,
              26.115938208267004
            ],
            [
              86.221651537414,
              26.1164141250216
            ],
            [
              86.22024482239145,
              26.11676893512817
            ],
            [
              86.21977720796356,
              26.116886874757945
            ],
            [
              86.21930004534252,
              26.115545352136674
            ],
            [
              86.21865715343304,
              26.11354433925111
            ],
            [
              86.21841656573532,
              26.113191799672656
            ],
            [
              86.2176608597992,
              26.113538935713983
            ],
            [
              86.21617647194563,
              26.11383822789432
            ],
            [
              86.21583448062201,
              26.11409975119813
            ],
            [
              86.21582613257807,
              26.115350880402477
            ],
            [
              86.2148015608774,
              26.115937979998638
            ],
            [
              86.21429848814863,
              26.116670577133377
            ],
            [
              86.21315223604945,
              26.117278943177325
            ],
            [
              86.21015608238739,
              26.118316173200604
            ],
            [
              86.20893969072914,
              26.118507061993114
            ],
            [
              86.20791880661272,
              26.11852339774178
            ],
            [
              86.20778974206257,
              26.11964221727235
            ],
            [
              86.20781315665049,
              26.119773990805122
            ],
            [
              86.20771046573874,
              26.120585601312335
            ],
            [
              86.208346253771,
              26.12180731112166
            ],
            [
              86.20916288255138,
              26.12323858189036
            ],
            [
              86.21142175113052,
              26.12344851819549
            ],
            [
              86.21169277913997,
              26.12652308136554
            ],
            [
              86.21179266281639,
              26.128786768998353
            ],
            [
              86.21182986564556,
              26.1296298666636
            ],
            [
              86.20958847468859,
              26.12987041531711
            ],
            [
              86.20930036611234,
              26.12990133190454
            ],
            [
              86.20835077139856,
              26.130159499687856
            ],
            [
              86.20803834991915,
              26.129631022388722
            ],
            [
              86.2067747086736,
              26.129602130870357
            ],
            [
              86.20670564888952,
              26.12903101805018
            ],
            [
              86.20554882990766,
              26.128866175038446
            ],
            [
              86.20430184522408,
              26.12868847193042
            ],
            [
              86.20408415917625,
              26.12674464511937
            ],
            [
              86.20309227267717,
              26.126058727094588
            ],
            [
              86.20248847994041,
              26.12550659490425
            ],
            [
              86.20186804411641,
              26.123812991160484
            ],
            [
              86.20105755891423,
              26.12327072215826
            ],
            [
              86.19978860682873,
              26.124031975880662
            ],
            [
              86.19900937132036,
              26.12424714604111
            ],
            [
              86.19767557883765,
              26.123822671344097
            ],
            [
              86.19751012263706,
              26.12383053598857
            ],
            [
              86.1972623574002,
              26.123842312387335
            ],
            [
              86.19713318325562,
              26.124961027756935
            ],
            [
              86.19688863758077,
              26.125179164266708
            ],
            [
              86.19620840989141,
              26.125131489787368
            ],
            [
              86.1957485272632,
              26.12486554390851
            ],
            [
              86.1951895236282,
              26.124862424210566
            ],
            [
              86.19457749603522,
              26.125517501688474
            ],
            [
              86.19355334564443,
              26.126583354058557
            ],
            [
              86.19166807381553,
              26.128592253167852
            ],
            [
              86.1897830418368,
              26.13055724408127
            ],
            [
              86.1888168776976,
              26.131440818244272
            ],
            [
              86.18806107025182,
              26.13178779522699
            ],
            [
              86.18520031695762,
              26.13424544884331
            ],
            [
              86.18517039407548,
              26.134411969794293
            ],
            [
              86.1848969055805,
              26.13593389560409
            ],
            [
              86.18518401612845,
              26.136594103780258
            ],
            [
              86.184911762817,
              26.137294940633133
            ],
            [
              86.18444474487043,
              26.138038644134415
            ],
            [
              86.18428410723301,
              26.140166892941004
            ],
            [
              86.18637540587571,
              26.141284811644596
            ],
            [
              86.18679452385466,
              26.142419348005856
            ],
            [
              86.18765432836254,
              26.143641186679535
            ],
            [
              86.18820137542112,
              26.144517613861918
            ],
            [
              86.18871301089116,
              26.144712779737176
            ],
            [
              86.18937827713947,
              26.144740070838807
            ],
            [
              86.19000896543581,
              26.144826187395317
            ],
            [
              86.19025071465519,
              26.145041263602682
            ],
            [
              86.19023328823701,
              26.14536625161176
            ],
            [
              86.1901369906352,
              26.14582723820948
            ],
            [
              86.18908733707346,
              26.146506425296383
            ],
            [
              86.18854253670139,
              26.147159779073206
            ],
            [
              86.18816671123092,
              26.147690226055616
            ],
            [
              86.18761649401773,
              26.14766674660906
            ],
            [
              86.18686366987701,
              26.147951471975546
            ],
            [
              86.18645232412192,
              26.148418868741366
            ],
            [
              86.18607951699079,
              26.14932385317492
            ],
            [
              86.18525993904133,
              26.150010645723032
            ],
            [
              86.1851941401417,
              26.150539013845705
            ],
            [
              86.18546092181477,
              26.15389476772002
            ],
            [
              86.18550236738704,
              26.154702202955765
            ],
            [
              86.18657740015219,
              26.155318021347657
            ],
            [
              86.1858293218111,
              26.15619377383522
            ],
            [
              86.1857662448068,
              26.157065201110502
            ],
            [
              86.18553188872224,
              26.15778421674069
            ],
            [
              86.18515602103093,
              26.158314654129107
            ],
            [
              86.18503086055904,
              26.160174676205763
            ],
            [
              86.18316925933786,
              26.160028855799805
            ],
            [
              86.1822161046006,
              26.16027867468673
            ],
            [
              86.18073880086135,
              26.160658268395693
            ],
            [
              86.17932659803076,
              26.16041919016765
            ],
            [
              86.17774372068607,
              26.160740785203288
            ],
            [
              86.17774141740566,
              26.161715500043428
            ],
            [
              86.17723718135858,
              26.163086125338346
            ],
            [
              86.17717578959376,
              26.164174036084223
            ],
            [
              86.17711512905757,
              26.16535675699427
            ],
            [
              86.17654275579619,
              26.16697600399871
            ],
            [
              86.17634403587891,
              26.167785110329454
            ],
            [
              86.17638150371111,
              26.168096224069334
            ],
            [
              86.17700386192985,
              26.168371939029605
            ],
            [
              86.17804105226531,
              26.169236256248816
            ],
            [
              86.17904245371984,
              26.169383243854796
            ],
            [
              86.17946373035042,
              26.170156661150664
            ],
            [
              86.18025470414462,
              26.17024632408167
            ],
            [
              86.18294188406136,
              26.170413983652946
            ],
            [
              86.18494233338441,
              26.170401004226317
            ],
            [
              86.18683437761223,
              26.169955488702872
            ],
            [
              86.18768716987101,
              26.169015835766253
            ],
            [
              86.18899397875924,
              26.16857407121446
            ],
            [
              86.19078363211266,
              26.168467630776412
            ],
            [
              86.19150484094526,
              26.16858928493062
            ],
            [
              86.19199638110241,
              26.169393860326874
            ],
            [
              86.19301586833858,
              26.171778862392767
            ],
            [
              86.19558815013721,
              26.174433501239324
            ],
            [
              86.19721364266069,
              26.175045620631735
            ],
            [
              86.19894136436177,
              26.175313995712514
            ],
            [
              86.20262952172823,
              26.175537867680596
            ],
            [
              86.20287826163717,
              26.17353251689141
            ],
            [
              86.20294716780934,
              26.172778530673177
            ],
            [
              86.20317064709246,
              26.172573892818757
            ],
            [
              86.20358513695106,
              26.172494436699782
            ],
            [
              86.20424054868067,
              26.172521692279062
            ],
            [
              86.20472016999067,
              26.172455387853127
            ],
            [
              86.20517759303165,
              26.172118433695587
            ],
            [
              86.20495429430989,
              26.16804944592081
            ],
            [
              86.20519313658099,
              26.165435015037396
            ],
            [
              86.2052416950137,
              26.164645001700567
            ],
            [
              86.20539271528767,
              26.164152095090827
            ],
            [
              86.20586697724868,
              26.16343142634406
            ],
            [
              86.20584779282747,
              26.162921623901223
            ],
            [
              86.20577144501146,
              26.16214596794874
            ],
            [
              86.20588835984739,
              26.161757081804172
            ],
            [
              86.20616260202888,
              26.161660542788216
            ],
            [
              86.20692301603542,
              26.161687016383645
            ],
            [
              86.20874903319157,
              26.161765189004107
            ],
            [
              86.20967427817128,
              26.162377236223392
            ],
            [
              86.21301896558715,
              26.162246580706277
            ],
            [
              86.21631440107097,
              26.16159730333188
            ],
            [
              86.21803855376545,
              26.160832133267427
            ],
            [
              86.22053798309285,
              26.16009321685927
            ],
            [
              86.2219575763633,
              26.159397782857535
            ],
            [
              86.2236774261276,
              26.157531471233636
            ],
            [
              86.22463686907184,
              26.156243336136242
            ],
            [
              86.2252128859,
              26.154547210096396
            ],
            [
              86.22565289689585,
              26.15333033817451
            ],
            [
              86.22647276140788,
              26.151501637942584
            ],
            [
              86.22757269277773,
              26.150271220391293
            ],
            [
              86.22911693268377,
              26.148356405100355
            ],
            [
              86.22981939187974,
              26.148635992168437
            ],
            [
              86.2296540677315,
              26.14920114031998
            ],
            [
              86.22941422922871,
              26.149830034777843
            ],
            [
              86.22956079565553,
              26.150609702828987
            ],
            [
              86.2285277932659,
              26.15146510112507
            ],
            [
              86.22821743431841,
              26.152031341085166
            ],
            [
              86.22794997890888,
              26.152940147001527
            ],
            [
              86.22780208567036,
              26.15679048586529
            ],
            [
              86.22802235706962,
              26.158016456399054
            ],
            [
              86.22834255526443,
              26.158641495962446
            ],
            [
              86.22865861132749,
              26.15935684610366
            ],
            [
              86.22866364189305,
              26.15995699129684
            ],
            [
              86.22870906700206,
              26.16120218274193
            ],
            [
              86.22857426042063,
              26.16183037635386
            ],
            [
              86.22836686906592,
              26.16214766598023
            ],
            [
              86.22788327899903,
              26.162336023154374
            ],
            [
              86.2278161505928,
              26.16268390002362
            ],
            [
              86.22773893680085,
              26.164218779153263
            ],
            [
              86.22662972583412,
              26.16434812469506
            ],
            [
              86.22614047638093,
              26.164446189362156
            ],
            [
              86.2257640265813,
              26.164891025291855
            ],
            [
              86.22569818635921,
              26.165392342105218
            ],
            [
              86.22608869389468,
              26.1666442012729
            ],
            [
              86.22581673792557,
              26.16702059683667
            ],
            [
              86.22530498836944,
              26.168025868985104
            ],
            [
              86.2249272135548,
              26.168908395192588
            ],
            [
              86.22458495273662,
              26.169253708789327
            ],
            [
              86.2237187863599,
              26.169737868005296
            ],
            [
              86.2240607722936,
              26.17056590064369
            ],
            [
              86.22423439867173,
              26.17100241720894
            ],
            [
              86.22427436471872,
              26.171593334975924
            ],
            [
              86.22373431014633,
              26.172810857240922
            ],
            [
              86.22337067661087,
              26.17480343580093
            ],
            [
              86.22360616277608,
              26.17666107462352
            ],
            [
              86.22413990488698,
              26.17829098828537
            ],
            [
              86.22410904416373,
              26.178792100759644
            ],
            [
              86.22380684102068,
              26.179732830931336
            ],
            [
              86.22353115973806,
              26.180267184756673
            ],
            [
              86.22363906716664,
              26.18061387467235
            ],
            [
              86.22381585561455,
              26.180829279910217
            ],
            [
              86.22513318916464,
              26.181637187283638
            ],
            [
              86.22518475964844,
              26.183626912793724
            ],
            [
              86.2249416701427,
              26.183876742385593
            ],
            [
              86.22429270472357,
              26.184034570926983
            ],
            [
              86.22426085585347,
              26.184409299695613
            ],
            [
              86.22441380930196,
              26.185960657639374
            ],
            [
              86.22451953292605,
              26.18664590273511
            ],
            [
              86.22493777594595,
              26.187013084357616
            ],
            [
              86.2260885537575,
              26.188841927396208
            ],
            [
              86.22616970576362,
              26.190177094740097
            ],
            [
              86.2258538383468,
              26.193690114995196
            ],
            [
              86.22578180244417,
              26.19825732035583
            ],
            [
              86.22636117986981,
              26.197540426783387
            ],
            [
              86.22697965377326,
              26.197315122036596
            ],
            [
              86.22787504863439,
              26.19730904611077
            ],
            [
              86.22890998330017,
              26.197829956054726
            ],
            [
              86.2293604551775,
              26.19785847602048
            ],
            [
              86.23042180121094,
              26.197354912169313
            ],
            [
              86.23232057292195,
              26.197084736377075
            ],
            [
              86.2327824390303,
              26.19966280284825
            ],
            [
              86.23306663993506,
              26.200739316870983
            ],
            [
              86.23338573320211,
              26.202397818762595
            ],
            [
              86.23349115768721,
              26.203042367339847
            ],
            [
              86.23376862122733,
              26.20331579601866
            ],
            [
              86.23469145782376,
              26.20358922969725
            ],
            [
              86.2350334734019,
              26.20379903270071
            ],
            [
              86.23558548544902,
              26.204593959094762
            ],
            [
              86.23422107209322,
              26.20475673815247
            ],
            [
              86.23136745681224,
              26.2057283542167
            ],
            [
              86.23014518568048,
              26.20613834970901
            ],
            [
              86.2299438920899,
              26.206600033377303
            ],
            [
              86.22998278644677,
              26.20706004765835
            ],
            [
              86.23047836003956,
              26.209488976999598
            ],
            [
              86.23075831730293,
              26.210655796032615
            ],
            [
              86.23053731018345,
              26.212345054603468
            ],
            [
              86.23081292858397,
              26.21298842221669
            ],
            [
              86.23105358006207,
              26.213049988879725
            ],
            [
              86.23256911520149,
              26.212994552127554
            ],
            [
              86.23265084482438,
              26.21437929925849
            ],
            [
              86.23310561783526,
              26.215513441858015
            ],
            [
              86.23317875686907,
              26.21646504691641
            ],
            [
              86.23301528325031,
              26.217264879364826
            ],
            [
              86.23261500833274,
              26.219650275389533
            ],
            [
              86.2342497876396,
              26.219481232863266
            ],
            [
              86.23559200362473,
              26.219025267307526
            ],
            [
              86.23805993711996,
              26.218579646010003
            ],
            [
              86.23863905493249,
              26.218422168915883
            ],
            [
              86.23907938033865,
              26.218419212093156
            ],
            [
              86.23927084995327,
              26.21858484079135
            ],
            [
              86.23951499408119,
              26.219043461865816
            ],
            [
              86.2397398648547,
              26.21961048481889
            ],
            [
              86.23965918895564,
              26.220120941806012
            ],
            [
              86.23939257436923,
              26.220551451812504
            ],
            [
              86.23936167412008,
              26.22102999604358
            ],
            [
              86.23963001976006,
              26.22259409112968
            ],
            [
              86.23984928055461,
              26.22426225563768
            ],
            [
              86.23977011921515,
              26.22495320635645
            ],
            [
              86.23948381894759,
              26.22541543829665
            ],
            [
              86.23896613332407,
              26.22607115969425
            ],
            [
              86.23900913118516,
              26.226070783366797
            ],
            [
              86.23979706957196,
              26.226063883761437
            ],
            [
              86.24090927282693,
              26.225911752275245
            ],
            [
              86.24201573494891,
              26.225872445739743
            ],
            [
              86.242386536142,
              26.225811196916965
            ],
            [
              86.24237175077074,
              26.225003015011023
            ]
          ]
        ]
      }
    }
  ]
}