{
  "type": "FeatureCollection",
  "features": [
    {
      "type": "Feature",
      "properties": {
        "object_id": "10-214-01178",
        "stname": "BIHAR",
        "dtname": "Saharsa",
        "sdtname": "Simri Bakhtiarpur",
        "st_area_sh": 0.0,
        "st_length_": 0.0,
        "remarks": "",
        "dist_lgd": 216,
        "state_lgd": 10,
        "subdt_lgd": 1178,
        "ac_no": null,
        "st_length(shape)": 119116.35548129058,
        "st_area(shape)": 266466354.66217396
      },
      "geometry": {
        "type": "Polygon",
        "coordinates": [
          [
            [
              86.53688420287028,
              25.826662955134875
            ],
            [
              86.54338428380707,
              25.825082254336422
            ],
            [
              86.54522254140728,
              25.824472088092804
            ],
            [
              86.54577201661208,
              25.823026495127998
            ],
            [
              86.5460169970715,
              25.821210351946014
            ],
            [
              86.54601437399089,
              25.821076699851435
            ],
            [
              86.54598416724112,
              25.81953754986395
            ],
            [
              86.54568722822567,
              25.81716545813897
            ],
            [
              86.5468436950679,
              25.817015017867217
            ],
            [
              86.54932475474608,
              25.817207574394065
            ],
            [
              86.55200926576809,
              25.817554583721872
            ],
            [
              86.55258720858423,
              25.817556365178405
            ],
            [
              86.55425553188212,
              25.81688397622749
            ],
            [
              86.5546973790344,
              25.816916121871333
            ],
            [
              86.55585268166006,
              25.8170737067232
            ],
            [
              86.55804070640096,
              25.817814870172594
            ],
            [
              86.56021343283257,
              25.818652935157434
            ],
            [
              86.56072298600782,
              25.81877764398225
            ],
            [
              86.56167644886722,
              25.818349344389762
            ],
            [
              86.56259700194619,
              25.817643900729568
            ],
            [
              86.56303896408282,
              25.81764523095829
            ],
            [
              86.5638204804137,
              25.817770746258482
            ],
            [
              86.56422673272115,
              25.818233844779535
            ],
            [
              86.56473583763709,
              25.818481704923652
            ],
            [
              86.56528044127808,
              25.81829858412379
            ],
            [
              86.56562044462996,
              25.818299599782158
            ],
            [
              86.56636706231036,
              25.818640633274068
            ],
            [
              86.56691120242066,
              25.81861146309623
            ],
            [
              86.56762804005109,
              25.81781291405183
            ],
            [
              86.5680029681046,
              25.817536900156068
            ],
            [
              86.568140512751,
              25.817106128875004
            ],
            [
              86.56872347535297,
              25.81572212837346
            ],
            [
              86.56879503694513,
              25.814749365299964
            ],
            [
              86.56801822868465,
              25.813330533331897
            ],
            [
              86.56791917594984,
              25.812529554166282
            ],
            [
              86.56758210559737,
              25.812032697309455
            ],
            [
              86.56703998939138,
              25.811233580684732
            ],
            [
              86.56653190496164,
              25.810739394369968
            ],
            [
              86.56595625195118,
              25.810090951993107
            ],
            [
              86.56555237658594,
              25.80898114101103
            ],
            [
              86.56498127174574,
              25.80665386282388
            ],
            [
              86.56441126105356,
              25.804496528795074
            ],
            [
              86.56522818178641,
              25.804190963192138
            ],
            [
              86.56587409383191,
              25.80419289204062
            ],
            [
              86.56757427228808,
              25.804043997784614
            ],
            [
              86.56883252543857,
              25.803924565864712
            ],
            [
              86.57015915206024,
              25.803682156934588
            ],
            [
              86.57145175768551,
              25.803439635092776
            ],
            [
              86.57379881926597,
              25.803015353714652
            ],
            [
              86.57488718302994,
              25.80286457925158
            ],
            [
              86.57455082414317,
              25.801854950155995
            ],
            [
              86.57357740970127,
              25.798403107706005
            ],
            [
              86.57398627790286,
              25.79812717718537
            ],
            [
              86.57449675813947,
              25.797943918163288
            ],
            [
              86.57514263694726,
              25.79794580586545
            ],
            [
              86.57599262376745,
              25.797886703141653
            ],
            [
              86.57881448539976,
              25.79774085089314
            ],
            [
              86.57884935081258,
              25.797737465316892
            ],
            [
              86.58096953298659,
              25.797531531352103
            ],
            [
              86.58317865735688,
              25.797630256699648
            ],
            [
              86.58535420180354,
              25.797605683343466
            ],
            [
              86.5856948968582,
              25.797391108868773
            ],
            [
              86.58579083423558,
              25.797218625823792
            ],
            [
              86.5859342969831,
              25.796960700275548
            ],
            [
              86.58597064102287,
              25.796232447388928
            ],
            [
              86.5859935417744,
              25.79605870336112
            ],
            [
              86.58614511181733,
              25.794908697628607
            ],
            [
              86.58670034971468,
              25.791646032636407
            ],
            [
              86.586703766906,
              25.79066060212009
            ],
            [
              86.58657112706103,
              25.789705665596145
            ],
            [
              86.5873190050778,
              25.78967699786427
            ],
            [
              86.58830551426156,
              25.789433365136695
            ],
            [
              86.5886388916399,
              25.789134693306085
            ],
            [
              86.58908244828618,
              25.78864327088072
            ],
            [
              86.59118620656186,
              25.78969622481125
            ],
            [
              86.59335656503437,
              25.791149634179146
            ],
            [
              86.59362746638136,
              25.791150389626843
            ],
            [
              86.59521918674169,
              25.79115482767964
            ],
            [
              86.59579690138577,
              25.791187227805832
            ],
            [
              86.59644274785424,
              25.79115822800286
            ],
            [
              86.59719084416159,
              25.79106792528542
            ],
            [
              86.59787069994837,
              25.791069806626435
            ],
            [
              86.5991282730742,
              25.791073277320375
            ],
            [
              86.59977484088984,
              25.790859511986962
            ],
            [
              86.60243034980289,
              25.789573429831872
            ],
            [
              86.6028727269612,
              25.78938988419837
            ],
            [
              86.60312754756627,
              25.788931702346236
            ],
            [
              86.60314636637314,
              25.78889786428466
            ],
            [
              86.60331756011348,
              25.78849803169141
            ],
            [
              86.60355728363189,
              25.78797512691495
            ],
            [
              86.60420495278207,
              25.787391837929245
            ],
            [
              86.60498968328503,
              25.786500904631154
            ],
            [
              86.60676033367695,
              25.78552025787802
            ],
            [
              86.60804366240025,
              25.785226634061697
            ],
            [
              86.61008424306029,
              25.784831817857867
            ],
            [
              86.61069664614905,
              25.784648704104537
            ],
            [
              86.61195575808894,
              25.784159300653915
            ],
            [
              86.61379423667469,
              25.783209631812028
            ],
            [
              86.6154965486297,
              25.782290280691008
            ],
            [
              86.61390364698471,
              25.78090022827939
            ],
            [
              86.61227797479818,
              25.77914065220572
            ],
            [
              86.61114731296081,
              25.777757771189354
            ],
            [
              86.61089011092191,
              25.77744318916241
            ],
            [
              86.60987668372063,
              25.775562053097612
            ],
            [
              86.60849696217409,
              25.772409763294927
            ],
            [
              86.60816815722052,
              25.77159796278531
            ],
            [
              86.60815981726142,
              25.77157737303628
            ],
            [
              86.60778816177049,
              25.770929641912563
            ],
            [
              86.60758847257104,
              25.769635735239024
            ],
            [
              86.60742258967069,
              25.76843429608649
            ],
            [
              86.60748194495477,
              25.76776079523333
            ],
            [
              86.60749313706488,
              25.767633794255605
            ],
            [
              86.60766468743638,
              25.767141578935643
            ],
            [
              86.6088608598142,
              25.765081530140915
            ],
            [
              86.60950817592649,
              25.764559796344862
            ],
            [
              86.61015488298098,
              25.764253516219366
            ],
            [
              86.61086919634546,
              25.764039881349262
            ],
            [
              86.6125355487396,
              25.763674816661684
            ],
            [
              86.61508551997986,
              25.7632503978703
            ],
            [
              86.61653739959992,
              25.76299344290382
            ],
            [
              86.61847605201794,
              25.762474974868024
            ],
            [
              86.61848505403542,
              25.7624686037881
            ],
            [
              86.61895290022863,
              25.762137507799025
            ],
            [
              86.61922542393302,
              25.761922674184103
            ],
            [
              86.61970324861241,
              25.761277192075585
            ],
            [
              86.61997910326986,
              25.760015333165203
            ],
            [
              86.62032648628181,
              25.75764504236083
            ],
            [
              86.62077859488959,
              25.754381951280763
            ],
            [
              86.62122384396184,
              25.75327449202795
            ],
            [
              86.62190553321014,
              25.752598739232262
            ],
            [
              86.62292732282837,
              25.751831485721084
            ],
            [
              86.62386564278704,
              25.751284614773
            ],
            [
              86.62495279921527,
              25.75131821192983
            ],
            [
              86.62551557128288,
              25.751434520287624
            ],
            [
              86.6263110959423,
              25.751598927115108
            ],
            [
              86.6267517582167,
              25.751938773754453
            ],
            [
              86.62861825795113,
              25.752682655931654
            ],
            [
              86.63099365868386,
              25.75370493694879
            ],
            [
              86.63289573080522,
              25.753956084183983
            ],
            [
              86.63483209611252,
              25.754114916175965
            ],
            [
              86.63621202696655,
              25.754513344367858
            ],
            [
              86.63841677743972,
              25.755812208807416
            ],
            [
              86.64079000784274,
              25.757604138762318
            ],
            [
              86.64089403993917,
              25.7576597583325
            ],
            [
              86.64177383914864,
              25.75813012477753
            ],
            [
              86.64193079998162,
              25.758210908952556
            ],
            [
              86.64397313055986,
              25.75926201892302
            ],
            [
              86.64512636077214,
              25.759972610036307
            ],
            [
              86.64692491373508,
              25.760776954680225
            ],
            [
              86.6494370991395,
              25.761613881683314
            ],
            [
              86.65099977067854,
              25.761802301011258
            ],
            [
              86.65303775700407,
              25.762114915681533
            ],
            [
              86.65348725690424,
              25.76209455162449
            ],
            [
              86.65432921907394,
              25.762056404302058
            ],
            [
              86.65575819434922,
              25.761444391003508
            ],
            [
              86.65701724340704,
              25.76086266813502
            ],
            [
              86.65885543812517,
              25.759728476998482
            ],
            [
              86.65984304864347,
              25.758961425696263
            ],
            [
              86.66059378420114,
              25.757855460598527
            ],
            [
              86.66107232932941,
              25.756871847320753
            ],
            [
              86.66192625526206,
              25.75530449680942
            ],
            [
              86.6620639957412,
              25.754658625155866
            ],
            [
              86.66220182335694,
              25.753981960307144
            ],
            [
              86.66271920714651,
              25.751275221095558
            ],
            [
              86.66272264499912,
              25.750058294244074
            ],
            [
              86.66372960522862,
              25.74886255626572
            ],
            [
              86.66382552643636,
              25.74872278011164
            ],
            [
              86.66413739635018,
              25.748268325029272
            ],
            [
              86.66439915823746,
              25.7476210209884
            ],
            [
              86.66467733414159,
              25.746914696155596
            ],
            [
              86.66506888641773,
              25.74631184596791
            ],
            [
              86.66552527729446,
              25.745768020294797
            ],
            [
              86.66568830355224,
              25.745630430843818
            ],
            [
              86.66602999124527,
              25.745342055155966
            ],
            [
              86.66723486380661,
              25.744372814741077
            ],
            [
              86.66851907108229,
              25.74362290492179
            ],
            [
              86.67120381297134,
              25.742260391099602
            ],
            [
              86.67250591468745,
              25.741439237605707
            ],
            [
              86.67366203567833,
              25.740544152196573
            ],
            [
              86.67484068641653,
              25.739492426681956
            ],
            [
              86.67530704320302,
              25.739076283595786
            ],
            [
              86.67772671291299,
              25.736558915183267
            ],
            [
              86.677840602223,
              25.736440425216717
            ],
            [
              86.67982850297986,
              25.73432571371701
            ],
            [
              86.68080648894822,
              25.733150604001263
            ],
            [
              86.68155703226641,
              25.73194555396526
            ],
            [
              86.68201538775868,
              25.7306515478778
            ],
            [
              86.68234404718515,
              25.72923950397398
            ],
            [
              86.68251384674015,
              25.728790740328204
            ],
            [
              86.6828021619289,
              25.72802875108913
            ],
            [
              86.68361790856368,
              25.72676369039852
            ],
            [
              86.6846624075923,
              25.72493934165179
            ],
            [
              86.68583704465783,
              25.723085827900576
            ],
            [
              86.68687939401795,
              25.722056922373945
            ],
            [
              86.68798666911528,
              25.72108702268786
            ],
            [
              86.68831049830048,
              25.720495791902916
            ],
            [
              86.68896382234536,
              25.719201815796353
            ],
            [
              86.68925798107503,
              25.7185548026359
            ],
            [
              86.68958465612305,
              25.717937295723416
            ],
            [
              86.69024740888516,
              25.716279688009774
            ],
            [
              86.69063133805781,
              25.715319429101555
            ],
            [
              86.69115485015426,
              25.713936942151637
            ],
            [
              86.69164562764175,
              25.71264260899577
            ],
            [
              86.69192139516261,
              25.711866097363885
            ],
            [
              86.69191294201579,
              25.71186396710054
            ],
            [
              86.69125825612491,
              25.71169897679378
            ],
            [
              86.68946495561146,
              25.711725691722506
            ],
            [
              86.68732350941634,
              25.71180550463057
            ],
            [
              86.6832426166925,
              25.712193109331473
            ],
            [
              86.68069564672363,
              25.712529506618818
            ],
            [
              86.67781092817424,
              25.712535198080737
            ],
            [
              86.67537582001779,
              25.712644689873898
            ],
            [
              86.67233289107891,
              25.71275564408796
            ],
            [
              86.67059355955107,
              25.712713956952047
            ],
            [
              86.66727901600285,
              25.712610864066438
            ],
            [
              86.66699322418171,
              25.712460163352816
            ],
            [
              86.66643536140712,
              25.710786950604138
            ],
            [
              86.66565307611836,
              25.70783891694827
            ],
            [
              86.66373624108364,
              25.708362932171546
            ],
            [
              86.66114943262856,
              25.70912346180238
            ],
            [
              86.66035530664603,
              25.709379324028262
            ],
            [
              86.659883551883,
              25.710782825204888
            ],
            [
              86.6590862943734,
              25.71204043970243
            ],
            [
              86.65829838563097,
              25.71282875719939
            ],
            [
              86.65723572266731,
              25.7135609452938
            ],
            [
              86.65642167295009,
              25.713821506009353
            ],
            [
              86.65368429337865,
              25.714497705893358
            ],
            [
              86.65310460064434,
              25.714769495919192
            ],
            [
              86.65183376299505,
              25.714745682387825
            ],
            [
              86.65071168006861,
              25.714657179016385
            ],
            [
              86.64865766510347,
              25.713697654049827
            ],
            [
              86.64790653338876,
              25.712951276232875
            ],
            [
              86.64671802543695,
              25.71143744827566
            ],
            [
              86.64632884471314,
              25.71054320700809
            ],
            [
              86.64584644581231,
              25.708909722961977
            ],
            [
              86.64300630526058,
              25.708882741920885
            ],
            [
              86.64255063303608,
              25.709112712303693
            ],
            [
              86.64123981137351,
              25.709932963200753
            ],
            [
              86.6410764419593,
              25.71173048239242
            ],
            [
              86.64004726100289,
              25.712349560128622
            ],
            [
              86.63655317297547,
              25.713944160801834
            ],
            [
              86.63526079911556,
              25.71463782175313
            ],
            [
              86.63362023106501,
              25.715384378377045
            ],
            [
              86.6322878687002,
              25.715636162609986
            ],
            [
              86.63016091412729,
              25.716121091959916
            ],
            [
              86.62856447491674,
              25.716375357688488
            ],
            [
              86.62780806110815,
              25.716454780613283
            ],
            [
              86.62560193082271,
              25.71699000037652
            ],
            [
              86.62226093727926,
              25.717621630993705
            ],
            [
              86.61918688171575,
              25.718512466834433
            ],
            [
              86.61745591709648,
              25.718767832178397
            ],
            [
              86.61657952699348,
              25.718816657043224
            ],
            [
              86.61323280219855,
              25.71896084113538
            ],
            [
              86.61126325312462,
              25.71664622482611
            ],
            [
              86.60938789689982,
              25.714285665828434
            ],
            [
              86.60795338171418,
              25.712566186273232
            ],
            [
              86.60714492490796,
              25.711134208021505
            ],
            [
              86.60533031006773,
              25.711922775142828
            ],
            [
              86.60362209438468,
              25.71286367720472
            ],
            [
              86.60275025694357,
              25.713313961843728
            ],
            [
              86.60126501209722,
              25.71370683783589
            ],
            [
              86.60035432162174,
              25.713805483971928
            ],
            [
              86.59972142975799,
              25.713797815310574
            ],
            [
              86.59879498642569,
              25.71337775563817
            ],
            [
              86.59730511166235,
              25.71203776311785
            ],
            [
              86.59653827110824,
              25.71163412991548
            ],
            [
              86.59606325186749,
              25.71148967470671
            ],
            [
              86.59479649436621,
              25.71137043213269
            ],
            [
              86.59270368835051,
              25.711358166879442
            ],
            [
              86.59085561755414,
              25.71138873936032
            ],
            [
              86.5886685953331,
              25.711408786738552
            ],
            [
              86.58648639257356,
              25.710521785966673
            ],
            [
              86.58508317109917,
              25.70978552820049
            ],
            [
              86.58324267399897,
              25.7091526208548
            ],
            [
              86.58066557902706,
              25.70948293933994
            ],
            [
              86.58036492457957,
              25.709779023984723
            ],
            [
              86.58025734862932,
              25.710411826016923
            ],
            [
              86.57805042243656,
              25.71043192293196
            ],
            [
              86.57470922407721,
              25.710602134681885
            ],
            [
              86.5750762343798,
              25.706848912291235
            ],
            [
              86.57501034205539,
              25.70540092867962
            ],
            [
              86.57296865197597,
              25.70593839571512
            ],
            [
              86.57016526779071,
              25.70652342270142
            ],
            [
              86.56762508369552,
              25.707042740274005
            ],
            [
              86.56680752156552,
              25.70744272003685
            ],
            [
              86.5641610667722,
              25.708721099982103
            ],
            [
              86.56342026568326,
              25.70931891133157
            ],
            [
              86.56218131373497,
              25.709916748815736
            ],
            [
              86.55742079968465,
              25.712879084252595
            ],
            [
              86.55496525844875,
              25.715238618196988
            ],
            [
              86.552518635687,
              25.718414806313785
            ],
            [
              86.55174250385795,
              25.719892836856683
            ],
            [
              86.55076799886132,
              25.722383478209977
            ],
            [
              86.55046484260573,
              25.72428602461166
            ],
            [
              86.55012198710284,
              25.726667220614914
            ],
            [
              86.55037502634872,
              25.728853531247818
            ],
            [
              86.55060721929007,
              25.72958251803629
            ],
            [
              86.55136644123225,
              25.73112359036966
            ],
            [
              86.55140428366192,
              25.731854316850573
            ],
            [
              86.54927491890905,
              25.73308269214023
            ],
            [
              86.5488019280642,
              25.732667186133906
            ],
            [
              86.54814780092543,
              25.731621591285386
            ],
            [
              86.54677964878141,
              25.733208709631302
            ],
            [
              86.5456561626865,
              25.73391814969963
            ],
            [
              86.54472479299318,
              25.733958008658092
            ],
            [
              86.54314242499323,
              25.733710322271236
            ],
            [
              86.54244342431112,
              25.734970961143564
            ],
            [
              86.5400348532865,
              25.735281137066174
            ],
            [
              86.53632508694588,
              25.735079296957313
            ],
            [
              86.53433016585507,
              25.73539022839983
            ],
            [
              86.53375431431691,
              25.73559838709445
            ],
            [
              86.5319895820261,
              25.736462251856192
            ],
            [
              86.53084517865979,
              25.736630269022204
            ],
            [
              86.52907029899953,
              25.736555596643647
            ],
            [
              86.52712679657728,
              25.73701939584397
            ],
            [
              86.52194614855338,
              25.73814323982204
            ],
            [
              86.51622775732231,
              25.7397994843612
            ],
            [
              86.51362315234313,
              25.740435899854145
            ],
            [
              86.51205253610374,
              25.7403546836275
            ],
            [
              86.51106868593322,
              25.73968633660327
            ],
            [
              86.51043337310976,
              25.738987820179656
            ],
            [
              86.51025317286039,
              25.738434389890045
            ],
            [
              86.50861125374367,
              25.73868322438096
            ],
            [
              86.50686020728621,
              25.738978059777853
            ],
            [
              86.50498567301989,
              25.739382317115005
            ],
            [
              86.50413465942536,
              25.739488943960207
            ],
            [
              86.50233498266999,
              25.739901551104197
            ],
            [
              86.50090177363478,
              25.740103344992466
            ],
            [
              86.50000000792167,
              25.7403405448825
            ],
            [
              86.49806410524674,
              25.740849739318005
            ],
            [
              86.4976103302641,
              25.7409702146437
            ],
            [
              86.4972384115668,
              25.74052739983727
            ],
            [
              86.49696017098397,
              25.74013262187234
            ],
            [
              86.496435705775,
              25.740015354901395
            ],
            [
              86.49556000288321,
              25.74014461308338
            ],
            [
              86.49487312496585,
              25.740227197772853
            ],
            [
              86.49424052325791,
              25.740255191266908
            ],
            [
              86.49267099308173,
              25.739799293394604
            ],
            [
              86.4926405887026,
              25.73927606725391
            ],
            [
              86.49219529291796,
              25.73863006233174
            ],
            [
              86.49139051740774,
              25.737914875983492
            ],
            [
              86.49047691908571,
              25.737277365902266
            ],
            [
              86.48970106842931,
              25.73646267668788
            ],
            [
              86.48938759142946,
              25.735544675830596
            ],
            [
              86.48916585397966,
              25.73482457274236
            ],
            [
              86.48886223239677,
              25.734375941041655
            ],
            [
              86.48857989639457,
              25.733584030985394
            ],
            [
              86.48831939664026,
              25.732489718840462
            ],
            [
              86.48830575572268,
              25.731172133402012
            ],
            [
              86.48796350029437,
              25.72987987172755
            ],
            [
              86.48775989803353,
              25.728988136979925
            ],
            [
              86.48578985219129,
              25.726888435134175
            ],
            [
              86.48490835786085,
              25.725966208765577
            ],
            [
              86.4826908611921,
              25.724021963987465
            ],
            [
              86.48249529256486,
              25.72342345364428
            ],
            [
              86.48303876882018,
              25.72297208639785
            ],
            [
              86.48330941504562,
              25.722644938153756
            ],
            [
              86.48286617640298,
              25.722179363112936
            ],
            [
              86.4818669542613,
              25.721438703648992
            ],
            [
              86.48175734722021,
              25.720956725674178
            ],
            [
              86.48166044235725,
              25.71976622416367
            ],
            [
              86.48232123589374,
              25.719584652178185
            ],
            [
              86.48325290562434,
              25.719576744331217
            ],
            [
              86.48361161100213,
              25.719573757947337
            ],
            [
              86.48418761705052,
              25.719866695948387
            ],
            [
              86.48490734096796,
              25.72008620898912
            ],
            [
              86.48526330378918,
              25.720083239613658
            ],
            [
              86.48553509985818,
              25.720080927401636
            ],
            [
              86.48594273377454,
              25.71950432005031
            ],
            [
              86.48620691841813,
              25.71855446191004
            ],
            [
              86.48666935585503,
              25.717981921321222
            ],
            [
              86.48682736502194,
              25.717357880116094
            ],
            [
              86.48654505686747,
              25.71656153728149
            ],
            [
              86.48640072904234,
              25.716088930338334
            ],
            [
              86.48686106801475,
              25.715313362235772
            ],
            [
              86.48691123263517,
              25.71486616716913
            ],
            [
              86.48678448034858,
              25.713689435017976
            ],
            [
              86.48608363183192,
              25.712404753298408
            ],
            [
              86.48538313904808,
              25.71066877813396
            ],
            [
              86.48464695260473,
              25.70885635901361
            ],
            [
              86.48464883727021,
              25.707955390875778
            ],
            [
              86.48317180212723,
              25.706395962900153
            ],
            [
              86.48214685133752,
              25.705560762041735
            ],
            [
              86.48101355923298,
              25.704848255914293
            ],
            [
              86.47944399671738,
              25.704338071185717
            ],
            [
              86.47851038482914,
              25.70414734779235
            ],
            [
              86.47719184573994,
              25.70430731801127
            ],
            [
              86.47627837497866,
              25.704617403117748
            ],
            [
              86.47562201911968,
              25.704744790357097
            ],
            [
              86.47498886764282,
              25.704700423665344
            ],
            [
              86.47434981782779,
              25.70408306987097
            ],
            [
              86.47421301518982,
              25.701421654851394
            ],
            [
              86.47367375203319,
              25.696918016334504
            ],
            [
              86.47330053796524,
              25.692566435994415
            ],
            [
              86.47279161271237,
              25.685661688239954
            ],
            [
              86.4723916001029,
              25.68160817806063
            ],
            [
              86.47180477205025,
              25.674370122967403
            ],
            [
              86.47124221288337,
              25.670489441666497
            ],
            [
              86.47108198936931,
              25.66844650264409
            ],
            [
              86.47061347842275,
              25.667926943906586
            ],
            [
              86.47018218018684,
              25.667520287665443
            ],
            [
              86.47023108267429,
              25.668002447964845
            ],
            [
              86.47014411856826,
              25.66871972806122
            ],
            [
              86.47010740172766,
              25.669022572712105
            ],
            [
              86.46973929817537,
              25.66961405830996
            ],
            [
              86.4687141156203,
              25.67061663627709
            ],
            [
              86.46816183677352,
              25.671212772674064
            ],
            [
              86.4678582708862,
              25.671605645891688
            ],
            [
              86.46759987408797,
              25.672305343229603
            ],
            [
              86.46750090309986,
              25.673140439692887
            ],
            [
              86.46773581973318,
              25.67425054527795
            ],
            [
              86.46797058634786,
              25.67514853399594
            ],
            [
              86.46803110944181,
              25.67610539511555
            ],
            [
              86.46786223155827,
              25.676638000695938
            ],
            [
              86.46750900231045,
              25.677125687733216
            ],
            [
              86.46712560494048,
              25.67738317963448
            ],
            [
              86.4667372668364,
              25.677473686149586
            ],
            [
              86.46631889625577,
              25.67755071836012
            ],
            [
              86.46576594636747,
              25.677460742194416
            ],
            [
              86.46511339128044,
              25.677249035301482
            ],
            [
              86.46393731780879,
              25.67647346596379
            ],
            [
              86.46283105601114,
              25.675621118057805
            ],
            [
              86.46208863256477,
              25.675165707657385
            ],
            [
              86.46159539279512,
              25.674985456954648
            ],
            [
              86.46092292295657,
              25.674864049327013
            ],
            [
              86.46018597743682,
              25.67503144991035
            ],
            [
              86.45959848463089,
              25.675379277945055
            ],
            [
              86.45899640138812,
              25.67611082600381
            ],
            [
              86.45879278655089,
              25.677022644183566
            ],
            [
              86.45887776088857,
              25.677491976729854
            ],
            [
              86.45906270693759,
              25.678331370633195
            ],
            [
              86.45953143797136,
              25.67919764034128
            ],
            [
              86.4604288091261,
              25.680366104295278
            ],
            [
              86.46086757775193,
              25.681051839189106
            ],
            [
              86.46100250291097,
              25.681584386230906
            ],
            [
              86.4610176583881,
              25.681981490903404
            ],
            [
              86.4607838403944,
              25.682342730250262
            ],
            [
              86.4603456673516,
              25.682541575362094
            ],
            [
              86.45987740703504,
              25.682406470208527
            ],
            [
              86.45877142012186,
              25.682149801972766
            ],
            [
              86.45778011123954,
              25.681965340715955
            ],
            [
              86.45665440181429,
              25.681862183962945
            ],
            [
              86.45576782212102,
              25.68192136708552
            ],
            [
              86.45476186890292,
              25.68204376006021
            ],
            [
              86.45394006672481,
              25.682211173226076
            ],
            [
              86.45299402125471,
              25.682590861968947
            ],
            [
              86.45258495272886,
              25.682840881892812
            ],
            [
              86.45252104118963,
              25.68287994434672
            ],
            [
              86.45222234686611,
              25.683214106678438
            ],
            [
              86.4521030820374,
              25.683579734976302
            ],
            [
              86.45215313167344,
              25.68394527714823
            ],
            [
              86.45244230026172,
              25.684387386970034
            ],
            [
              86.45304522432761,
              25.68484295399195
            ],
            [
              86.4537328559315,
              25.685190114651075
            ],
            [
              86.45430084092271,
              25.685419977794194
            ],
            [
              86.45512284073018,
              25.68558649328305
            ],
            [
              86.4560493433513,
              25.68573948827549
            ],
            [
              86.45715034102139,
              25.685937463122016
            ],
            [
              86.45795245033183,
              25.686162673175787
            ],
            [
              86.45840575280063,
              25.686302335852332
            ],
            [
              86.45884438039091,
              25.686712750664004
            ],
            [
              86.45931305033926,
              25.687290242227075
            ],
            [
              86.46013597990306,
              25.688824325635583
            ],
            [
              86.46045522498535,
              25.689523707346996
            ],
            [
              86.4610193202714,
              25.69113457494441
            ],
            [
              86.46142352172505,
              25.692136320200195
            ],
            [
              86.4617928326131,
              25.693097481749795
            ],
            [
              86.4624914012056,
              25.69479859927616
            ],
            [
              86.46274122627935,
              25.695804918841677
            ],
            [
              86.4629611221828,
              25.696729948268594
            ],
            [
              86.46325634990767,
              25.698526106213524
            ],
            [
              86.46334146438252,
              25.699148946995717
            ],
            [
              86.4633766388158,
              25.699573124397364
            ],
            [
              86.46335716513705,
              25.70013733689552
            ],
            [
              86.4632328769293,
              25.70047134962863
            ],
            [
              86.46261069478037,
              25.70117132020527
            ],
            [
              86.46192377374385,
              25.70194807483765
            ],
            [
              86.46164010015016,
              25.70237242924541
            ],
            [
              86.4613362980059,
              25.702462872254678
            ],
            [
              86.46078318282761,
              25.702296211190397
            ],
            [
              86.4602301269381,
              25.702161152728824
            ],
            [
              86.46002570182048,
              25.701962729712005
            ],
            [
              86.4599249351001,
              25.700306348384842
            ],
            [
              86.4600090129191,
              25.699498386661624
            ],
            [
              86.45999317292572,
              25.698148977605246
            ],
            [
              86.45980775705782,
              25.696655092183807
            ],
            [
              86.45963296466645,
              25.696032368681806
            ],
            [
              86.4591789579185,
              25.694981039612358
            ],
            [
              86.4588245545726,
              25.694010898190662
            ],
            [
              86.45862456174258,
              25.692945882071054
            ],
            [
              86.45845001279466,
              25.692580331091918
            ],
            [
              86.45813105876653,
              25.692368387167946
            ],
            [
              86.45789187603393,
              25.692323432212
            ],
            [
              86.45708993111515,
              25.692382575328672
            ],
            [
              86.4559991850191,
              25.692613290758626
            ],
            [
              86.45504306494306,
              25.692934349944647
            ],
            [
              86.45408690444286,
              25.69337261124688
            ],
            [
              86.45313086970678,
              25.693847077139164
            ],
            [
              86.45255845242795,
              25.694578526373306
            ],
            [
              86.45206591424252,
              25.695580718634552
            ],
            [
              86.45177760444365,
              25.69644741740024
            ],
            [
              86.45147892000156,
              25.696858332314257
            ],
            [
              86.45094111121738,
              25.69705722523716
            ],
            [
              86.44992002318338,
              25.697256281340717
            ],
            [
              86.44892883018373,
              25.697455351681956
            ],
            [
              86.44850978676493,
              25.69655745177077
            ],
            [
              86.44820531807073,
              25.695582688912033
            ],
            [
              86.44820503689807,
              25.69508170474345
            ],
            [
              86.44838876842482,
              25.69418346637471
            ],
            [
              86.44855786639557,
              25.69360573462464
            ],
            [
              86.44901059843416,
              25.692833666808315
            ],
            [
              86.44949334138973,
              25.69205710528003
            ],
            [
              86.44961275084721,
              25.691858535093832
            ],
            [
              86.44979664407069,
              25.6912039233483
            ],
            [
              86.44989575519598,
              25.690368933242116
            ],
            [
              86.44982088690526,
              25.69004853661236
            ],
            [
              86.44965134426845,
              25.68983650561175
            ],
            [
              86.44940225760983,
              25.689714744784037
            ],
            [
              86.44913324002998,
              25.689701359350583
            ],
            [
              86.44854556127281,
              25.68985057021749
            ],
            [
              86.44820699881863,
              25.690157665378003
            ],
            [
              86.44805776439541,
              25.69038339121009
            ],
            [
              86.44772429179568,
              25.69094776625109
            ],
            [
              86.44737101134389,
              25.69157076081381
            ],
            [
              86.44666902017016,
              25.692148818142883
            ],
            [
              86.44539433413821,
              25.692970851881274
            ],
            [
              86.44344726989584,
              25.694036917688422
            ],
            [
              86.4429044323427,
              25.694267367638492
            ],
            [
              86.44104184117808,
              25.69516188417577
            ],
            [
              86.4400010414118,
              25.695591147991248
            ],
            [
              86.43783443071064,
              25.696273605903134
            ],
            [
              86.43725681218632,
              25.6965626842149
            ],
            [
              86.43654972487,
              25.697127127107958
            ],
            [
              86.43572812481284,
              25.697795509312655
            ],
            [
              86.43643593257804,
              25.69875199021714
            ],
            [
              86.43727349659612,
              25.699925145778877
            ],
            [
              86.43798622533242,
              25.70062437487577
            ],
            [
              86.43773861280918,
              25.70088243035175
            ],
            [
              86.43484938381877,
              25.703893375657316
            ],
            [
              86.43450594441093,
              25.704394470871375
            ],
            [
              86.43401824634823,
              25.70549143414087
            ],
            [
              86.43355039117183,
              25.706416811623637
            ],
            [
              86.43304760141237,
              25.707224933595437
            ],
            [
              86.43272910013512,
              25.707906539699984
            ],
            [
              86.43215183644534,
              25.709093807396496
            ],
            [
              86.43179835566924,
              25.709730304677926
            ],
            [
              86.4315991910859,
              25.710005755102664
            ],
            [
              86.43129541678942,
              25.710186342930342
            ],
            [
              86.4308769222413,
              25.710114276345607
            ],
            [
              86.43053797261324,
              25.70985271035044
            ],
            [
              86.43006944190374,
              25.709320279197094
            ],
            [
              86.42983505527644,
              25.70889161365371
            ],
            [
              86.42930163835568,
              25.70808839094324
            ],
            [
              86.4286585946309,
              25.707095739185437
            ],
            [
              86.42764656341161,
              25.70548028608245
            ],
            [
              86.42603747682016,
              25.70558015315813
            ],
            [
              86.4257325814262,
              25.705579855294026
            ],
            [
              86.42546454301007,
              25.70562548434227
            ],
            [
              86.42543471534937,
              25.705797026355086
            ],
            [
              86.4254699472748,
              25.70655522834135
            ],
            [
              86.4255799432864,
              25.707602321596884
            ],
            [
              86.42582497225489,
              25.709610641888364
            ],
            [
              86.42599503771122,
              25.711393369787825
            ],
            [
              86.42607008925825,
              25.712142518133927
            ],
            [
              86.4261054918636,
              25.71340630581866
            ],
            [
              86.42606100729073,
              25.714056195912637
            ],
            [
              86.4258722389102,
              25.71540127267741
            ],
            [
              86.42592707207511,
              25.715482488144488
            ],
            [
              86.42635067624062,
              25.715739613032397
            ],
            [
              86.42692869810851,
              25.716077890105836
            ],
            [
              86.42733737586722,
              25.716330528343594
            ],
            [
              86.42753678299567,
              25.716592186121847
            ],
            [
              86.42805530135746,
              25.71736826790732
            ],
            [
              86.42849400440625,
              25.717972916726897
            ],
            [
              86.42900267543587,
              25.71889343428068
            ],
            [
              86.42908737578736,
              25.71908745792295
            ],
            [
              86.42898780472466,
              25.71910558024718
            ],
            [
              86.42837998394215,
              25.719137421371382
            ],
            [
              86.42734356166628,
              25.718952754386688
            ],
            [
              86.42560438644529,
              25.718330520644873
            ],
            [
              86.42539517779876,
              25.718262874681514
            ],
            [
              86.42494665257065,
              25.718190851836457
            ],
            [
              86.42449825131008,
              25.718010471206153
            ],
            [
              86.42393516034052,
              25.71782105575131
            ],
            [
              86.4230282329078,
              25.717618268221646
            ],
            [
              86.42219115397994,
              25.717442481304545
            ],
            [
              86.4212844205833,
              25.717406737123603
            ],
            [
              86.42097052227356,
              25.71740684395554
            ],
            [
              86.42058508213462,
              25.71744179418115
            ],
            [
              86.42034271756927,
              25.717470176663866
            ],
            [
              86.42006878620487,
              25.71757410623449
            ],
            [
              86.41986450841094,
              25.71764182866666
            ],
            [
              86.41945108485255,
              25.71791731176359
            ],
            [
              86.41918708705852,
              25.718233300248883
            ],
            [
              86.41898296107992,
              25.71849516831315
            ],
            [
              86.41887347890466,
              25.71878856461956
            ],
            [
              86.41884865216515,
              25.719117967718567
            ],
            [
              86.41889856795223,
              25.719492638345063
            ],
            [
              86.4191180021216,
              25.719876199747382
            ],
            [
              86.41938211489997,
              25.720173975083025
            ],
            [
              86.41974098556778,
              25.720521341066107
            ],
            [
              86.42005497370903,
              25.720751499373712
            ],
            [
              86.42066293462872,
              25.721022104851723
            ],
            [
              86.42154004607887,
              25.721396448185914
            ],
            [
              86.42297512271156,
              25.72186988785631
            ],
            [
              86.42349843628033,
              25.722063753685436
            ],
            [
              86.42383727990719,
              25.722185462000564
            ],
            [
              86.42425582476099,
              25.722275609933238
            ],
            [
              86.42447009271918,
              25.7223703683746
            ],
            [
              86.42465455816951,
              25.722609486073996
            ],
            [
              86.42472942466361,
              25.72285765202912
            ],
            [
              86.42447578983469,
              25.724044807753685
            ],
            [
              86.42438649729547,
              25.725033231230874
            ],
            [
              86.42434191570455,
              25.725638060399085
            ],
            [
              86.42420747114419,
              25.72589984822745
            ],
            [
              86.42357495028463,
              25.72662217826461
            ],
            [
              86.42278798297663,
              25.727245287143752
            ],
            [
              86.42175683560808,
              25.72793614088943
            ],
            [
              86.42111420870157,
              25.72831094882449
            ],
            [
              86.41902681593375,
              25.729349659352998
            ],
            [
              86.41841900593104,
              25.729634204014364
            ],
            [
              86.41590304131421,
              25.73064135789279
            ],
            [
              86.41524037299375,
              25.73082661204015
            ],
            [
              86.41420405492241,
              25.73105253183481
            ],
            [
              86.41317263716095,
              25.731355217155368
            ],
            [
              86.4122708525832,
              25.73154951664697
            ],
            [
              86.41094550426418,
              25.73197868318858
            ],
            [
              86.41054690470462,
              25.732023847322406
            ],
            [
              86.41014324493506,
              25.73194274916042
            ],
            [
              86.40975949273053,
              25.731848005630134
            ],
            [
              86.40924619537718,
              25.73137880967625
            ],
            [
              86.40845871782606,
              25.730774134332634
            ],
            [
              86.40768116126897,
              25.73020118806434
            ],
            [
              86.40638099632059,
              25.731320750896817
            ],
            [
              86.40571339804583,
              25.731772232115347
            ],
            [
              86.40523008196512,
              25.73195284516277
            ],
            [
              86.40496678395868,
              25.73208918966449
            ],
            [
              86.40463716872478,
              25.732259877002814
            ],
            [
              86.40445281736046,
              25.732323145964433
            ],
            [
              86.40426862140473,
              25.732995660640743
            ],
            [
              86.40409448388522,
              25.734029232155535
            ],
            [
              86.40403985643448,
              25.734688190108
            ],
            [
              86.40402991837249,
              25.734841657683347
            ],
            [
              86.40406483139598,
              25.73515757530312
            ],
            [
              86.4042992108368,
              25.735699062370053
            ],
            [
              86.40469802958526,
              25.736493337392446
            ],
            [
              86.40483762867875,
              25.736809230392314
            ],
            [
              86.40554559005584,
              25.738230805664692
            ],
            [
              86.4053214280531,
              25.73847911622708
            ],
            [
              86.40500758364226,
              25.73881762801466
            ],
            [
              86.40494791484616,
              25.73918779009897
            ],
            [
              86.40487338701693,
              25.74005886930293
            ],
            [
              86.4047987181522,
              25.740717835903315
            ],
            [
              86.4046943985949,
              25.741764965023172
            ],
            [
              86.4047641527767,
              25.74197248625858
            ],
            [
              86.404918806736,
              25.74236971068427
            ],
            [
              86.40505336628073,
              25.74261785885794
            ],
            [
              86.40546216261707,
              25.743376051069323
            ],
            [
              86.40573150179378,
              25.743949194378228
            ],
            [
              86.40586108557014,
              25.744256014788455
            ],
            [
              86.40597077974778,
              25.7444726378325
            ],
            [
              86.40665385509655,
              25.745636934717012
            ],
            [
              86.40687319224793,
              25.74610178433716
            ],
            [
              86.40702777344369,
              25.74643570522328
            ],
            [
              86.4073070120548,
              25.746945676197917
            ],
            [
              86.40763610806253,
              25.747636083699376
            ],
            [
              86.4081795573684,
              25.748592841890627
            ],
            [
              86.4086233233221,
              25.749405164619173
            ],
            [
              86.40881177100408,
              25.749658655238083
            ],
            [
              86.40898227663493,
              25.74988800466006
            ],
            [
              86.40920654643548,
              25.749842772876885
            ],
            [
              86.41016827110056,
              25.74951310779936
            ],
            [
              86.41179784107709,
              25.748980072613726
            ],
            [
              86.41269476307421,
              25.748686521025242
            ],
            [
              86.4130589463786,
              25.749873430938198
            ],
            [
              86.41306812985576,
              25.749945992067353
            ],
            [
              86.41402787283734,
              25.749902886651714
            ],
            [
              86.41597207594549,
              25.74988685895783
            ],
            [
              86.41841494824091,
              25.74996806219596
            ],
            [
              86.42030683795849,
              25.74990417880301
            ],
            [
              86.42198887493753,
              25.749791851398097
            ],
            [
              86.42277776374196,
              25.749628379832
            ],
            [
              86.42367368232088,
              25.74908435492476
            ],
            [
              86.42501846479279,
              25.74806604415964
            ],
            [
              86.42544523641799,
              25.746734554105053
            ],
            [
              86.42581660804127,
              25.745974257718448
            ],
            [
              86.42655439528241,
              25.745524855729393
            ],
            [
              86.42674476176586,
              25.745552152113905
            ],
            [
              86.42689564998751,
              25.745573786931708
            ],
            [
              86.42710411393064,
              25.745931739914585
            ],
            [
              86.42723209870582,
              25.746646417616354
            ],
            [
              86.42759717134233,
              25.74721917537694
            ],
            [
              86.4276737706866,
              25.747671783190597
            ],
            [
              86.42791746565689,
              25.749771919721262
            ],
            [
              86.42774210193701,
              25.75000116131281
            ],
            [
              86.4277448103576,
              25.750030417144274
            ],
            [
              86.43340613790689,
              25.75362006624984
            ],
            [
              86.4357591032154,
              25.755676640726094
            ],
            [
              86.436799040599,
              25.757003998172525
            ],
            [
              86.43713643614164,
              25.757858717863908
            ],
            [
              86.43720459761043,
              25.758692981812224
            ],
            [
              86.43676085770787,
              25.759179419958397
            ],
            [
              86.4361271016648,
              25.759613291628025
            ],
            [
              86.43537401072449,
              25.76006168726127
            ],
            [
              86.43426597565241,
              25.760413613731945
            ],
            [
              86.43425347200198,
              25.76115835136959
            ],
            [
              86.4350133209682,
              25.761391291727083
            ],
            [
              86.4354812758576,
              25.761333330133986
            ],
            [
              86.4355962278746,
              25.761359601076034
            ],
            [
              86.4356009350467,
              25.761366807138128
            ],
            [
              86.4356010060136,
              25.76136691635767
            ],
            [
              86.43570760369848,
              25.761530065951924
            ],
            [
              86.43566912795656,
              25.76167475565272
            ],
            [
              86.43518575079037,
              25.762188669119762
            ],
            [
              86.43577203176896,
              25.76300516563883
            ],
            [
              86.43622390771307,
              25.7653390638814
            ],
            [
              86.43621568094171,
              25.768516103896676
            ],
            [
              86.43624266543453,
              25.768527403796252
            ],
            [
              86.43734685392052,
              25.768989745772217
            ],
            [
              86.43766081870557,
              25.76948814372914
            ],
            [
              86.43753998182514,
              25.769859100105283
            ],
            [
              86.4372311491153,
              25.770385124047458
            ],
            [
              86.43602953923507,
              25.77135614626393
            ],
            [
              86.43329441802825,
              25.77452377898241
            ],
            [
              86.43281979135125,
              25.776431939286585
            ],
            [
              86.43288170324064,
              25.77815081513874
            ],
            [
              86.43358871959008,
              25.779575517052148
            ],
            [
              86.43549603877095,
              25.782384967806745
            ],
            [
              86.4381053832616,
              25.78459296776182
            ],
            [
              86.43811268476821,
              25.78459899711755
            ],
            [
              86.43811960538918,
              25.784595521380876
            ],
            [
              86.43811319590962,
              25.784599419350396
            ],
            [
              86.43944753456805,
              25.785701111118364
            ],
            [
              86.44287378991004,
              25.787329272891174
            ],
            [
              86.44426300485252,
              25.787656272924348
            ],
            [
              86.44550013411909,
              25.787731934751513
            ],
            [
              86.44656174515555,
              25.787700645046634
            ],
            [
              86.447451815702,
              25.78747216216877
            ],
            [
              86.44796689082128,
              25.787129438239887
            ],
            [
              86.44820758811346,
              25.786771007679892
            ],
            [
              86.44845504163489,
              25.78658841216546
            ],
            [
              86.44894825265847,
              25.786561790100325
            ],
            [
              86.44959229171657,
              25.786646718940176
            ],
            [
              86.45011052171917,
              25.78661988496647
            ],
            [
              86.45373253074139,
              25.785403179709913
            ],
            [
              86.45667104040996,
              25.78462520709701
            ],
            [
              86.45869722287267,
              25.784351142944598
            ],
            [
              86.45952722936427,
              25.783608712179305
            ],
            [
              86.45989577578598,
              25.783077680811967
            ],
            [
              86.4602367502167,
              25.78278156928164
            ],
            [
              86.46060941271905,
              25.782661082181136
            ],
            [
              86.46131210188372,
              25.78265525980231
            ],
            [
              86.46131842781996,
              25.78265520722458
            ],
            [
              86.46284785989684,
              25.783648805214302
            ],
            [
              86.46409483290228,
              25.78419790597633
            ],
            [
              86.46685745243828,
              25.783786827846694
            ],
            [
              86.46883729710362,
              25.783364050218292
            ],
            [
              86.47065286415808,
              25.783457175332746
            ],
            [
              86.4713762433204,
              25.783992632806456
            ],
            [
              86.4720752718503,
              25.784591460827297
            ],
            [
              86.47301326841547,
              25.78514763970365
            ],
            [
              86.47415486724145,
              25.785629938831576
            ],
            [
              86.47508903878015,
              25.78581607380549
            ],
            [
              86.4758657042085,
              25.786202193060173
            ],
            [
              86.47586979872958,
              25.786209966245313
            ],
            [
              86.4762064369924,
              25.7868490796653
            ],
            [
              86.47542067881676,
              25.789046019678793
            ],
            [
              86.47686403342477,
              25.790191916767803
            ],
            [
              86.47925426264793,
              25.791850465938726
            ],
            [
              86.48060037193147,
              25.79330572292626
            ],
            [
              86.48303673144113,
              25.794584733637798
            ],
            [
              86.48388026566259,
              25.795159708331
            ],
            [
              86.48428505371614,
              25.795738416079008
            ],
            [
              86.48443568412127,
              25.796319244898207
            ],
            [
              86.48443210792813,
              25.798377035838516
            ],
            [
              86.48478730628304,
              25.798978719796686
            ],
            [
              86.48615255507208,
              25.799851549618364
            ],
            [
              86.48801412844546,
              25.800503603369556
            ],
            [
              86.48912940034543,
              25.800832610005635
            ],
            [
              86.48937556478441,
              25.80101098205795
            ],
            [
              86.48962056770176,
              25.801076566266364
            ],
            [
              86.48984662065816,
              25.801241590150166
            ],
            [
              86.49044418896833,
              25.801642664074105
            ],
            [
              86.4911160317828,
              25.80295464168023
            ],
            [
              86.49111934566784,
              25.80296242104574
            ],
            [
              86.4911193833971,
              25.802962509199467
            ],
            [
              86.49187247523574,
              25.80473063193958
            ],
            [
              86.4922184820287,
              25.80779172978216
            ],
            [
              86.49295846115915,
              25.809892807892655
            ],
            [
              86.49318694585503,
              25.810766323162163
            ],
            [
              86.49306698932358,
              25.811214099258134
            ],
            [
              86.4929252504431,
              25.811486027821353
            ],
            [
              86.49255681631078,
              25.81202624397914
            ],
            [
              86.49239152809514,
              25.812429211730638
            ],
            [
              86.49239480155603,
              25.812437009073825
            ],
            [
              86.49251428557366,
              25.812721509046902
            ],
            [
              86.49279129187128,
              25.812985353804713
            ],
            [
              86.49346309426157,
              25.813336156886432
            ],
            [
              86.49361495356206,
              25.814029754865913
            ],
            [
              86.49388027816774,
              25.815669194103556
            ],
            [
              86.4938861064373,
              25.81570521518984
            ],
            [
              86.49412018584077,
              25.817106652882355
            ],
            [
              86.49098981219714,
              25.818184815775115
            ],
            [
              86.49080238769628,
              25.82005884690688
            ],
            [
              86.4923170990806,
              25.820737597102426
            ],
            [
              86.4956406590193,
              25.821525556103005
            ],
            [
              86.49869781637402,
              25.822238467679693
            ],
            [
              86.49996117105698,
              25.822533054237937
            ],
            [
              86.50164131798064,
              25.822667223819717
            ],
            [
              86.50391735516149,
              25.823106187138848
            ],
            [
              86.50911572065775,
              25.823955308757863
            ],
            [
              86.50938541107573,
              25.824510474090413
            ],
            [
              86.50968747677655,
              25.825466131988986
            ],
            [
              86.51029770324735,
              25.825899275188178
            ],
            [
              86.51080751244243,
              25.825931783868693
            ],
            [
              86.51162405408624,
              25.82581136327488
            ],
            [
              86.5143355271432,
              25.82563280862677
            ],
            [
              86.51515121179425,
              25.82569711698771
            ],
            [
              86.51576346216939,
              25.825637575294923
            ],
            [
              86.51940023141003,
              25.82592677463448
            ],
            [
              86.52466678622287,
              25.826775568760784
            ],
            [
              86.52514427672898,
              25.826407537247178
            ],
            [
              86.5257039864398,
              25.82619965508874
            ],
            [
              86.52571991267146,
              25.82619374024362
            ],
            [
              86.526048768829,
              25.826071597615062
            ],
            [
              86.5266951641681,
              25.82598132878194
            ],
            [
              86.527170443022,
              25.82616762840229
            ],
            [
              86.52808737589037,
              25.82641694438084
            ],
            [
              86.53066787098565,
              25.827318356816853
            ],
            [
              86.53182130511551,
              25.82796879828003
            ],
            [
              86.53303837410344,
              25.827636079615488
            ],
            [
              86.53688420287028,
              25.826662955134875
            ]
          ]
        ]
      }
    }
  ]
}