{
  "type": "FeatureCollection",
  "features": [
    {
      "type": "Feature",
      "properties": {
        "object_id": "10-218-01242",
        "stname": "BIHAR",
        "dtname": "Siwan",
        "sdtname": "Darauli",
        "st_area_sh": 0.0,
        "st_length_": 0.0,
        "remarks": "",
        "dist_lgd": 222,
        "state_lgd": 10,
        "subdt_lgd": 1242,
        "ac_no": null,
        "st_length(shape)": 90305.00161970501,
        "st_area(shape)": 214758375.6239279
      },
      "geometry": {
        "type": "Polygon",
        "coordinates": [
          [
            [
              84.15583461028613,
              26.202416970229393
            ],
            [
              84.15670928281027,
              26.20196586816234
            ],
            [
              84.15875905593063,
              26.201189174370516
            ],
            [
              84.15904117004898,
              26.19984445132832
            ],
            [
              84.1589765308744,
              26.19877638589292
            ],
            [
              84.15921516473635,
              26.197914198869267
            ],
            [
              84.1596812134007,
              26.197661139767586
            ],
            [
              84.16032227544197,
              26.197323079258208
            ],
            [
              84.16181889385814,
              26.196855279628956
            ],
            [
              84.16296614578224,
              26.19658405240153
            ],
            [
              84.16423542126124,
              26.196416403074572
            ],
            [
              84.16604385120071,
              26.196421722170093
            ],
            [
              84.16717379887751,
              26.196525282066347
            ],
            [
              84.16794388234976,
              26.196504728724143
            ],
            [
              84.16926447498768,
              26.196095023339254
            ],
            [
              84.17117300779256,
              26.19553588830689
            ],
            [
              84.17326638783175,
              26.195185747742535
            ],
            [
              84.17490564973188,
              26.194553607670123
            ],
            [
              84.17557660770579,
              26.195123983820803
            ],
            [
              84.17661700682345,
              26.196112486366502
            ],
            [
              84.17784693968628,
              26.195651663888423
            ],
            [
              84.17878069799995,
              26.195198759875215
            ],
            [
              84.1789749730532,
              26.195247027999205
            ],
            [
              84.17916924720811,
              26.19529529529712
            ],
            [
              84.17963458889831,
              26.195924715764406
            ],
            [
              84.18049299023772,
              26.1967843510762
            ],
            [
              84.18098096677815,
              26.197199203021505
            ],
            [
              84.18240260730916,
              26.197161129702014
            ],
            [
              84.18437921264962,
              26.196867434751862
            ],
            [
              84.18535307355417,
              26.196734401376556
            ],
            [
              84.18729648883985,
              26.196334624872087
            ],
            [
              84.18727007477722,
              26.195532963144853
            ],
            [
              84.18703433169387,
              26.193774143167076
            ],
            [
              84.18678732194017,
              26.192577255306766
            ],
            [
              84.18635124197202,
              26.191037760730758
            ],
            [
              84.18650873281099,
              26.190418438310235
            ],
            [
              84.18806340395409,
              26.18992213579955
            ],
            [
              84.19056240658173,
              26.189293451103406
            ],
            [
              84.19300472012507,
              26.18874649339948
            ],
            [
              84.19513498229487,
              26.18772639912755
            ],
            [
              84.19650588508028,
              26.187047675372362
            ],
            [
              84.19728781014464,
              26.18649180036723
            ],
            [
              84.19756262994287,
              26.186088328936464
            ],
            [
              84.19672209699277,
              26.18587929369622
            ],
            [
              84.19637496011921,
              26.185078055779112
            ],
            [
              84.19577726424829,
              26.184457295788306
            ],
            [
              84.19485546161273,
              26.183729381274464
            ],
            [
              84.19386384909987,
              26.182829682025552
            ],
            [
              84.19306062498013,
              26.181809147387764
            ],
            [
              84.19250225106416,
              26.180434630794885
            ],
            [
              84.19201371307668,
              26.17923198369915
            ],
            [
              84.19169743962132,
              26.177416780296614
            ],
            [
              84.1912370997506,
              26.176097509038268
            ],
            [
              84.19117987706701,
              26.174362125301204
            ],
            [
              84.19147692388033,
              26.172675114136005
            ],
            [
              84.19188340705482,
              26.17139054128232
            ],
            [
              84.19277378931666,
              26.169224412674524
            ],
            [
              84.19316160819449,
              26.168345533063338
            ],
            [
              84.1934137113958,
              26.16723875392281
            ],
            [
              84.19400491065062,
              26.16620964613436
            ],
            [
              84.19442566266505,
              26.165358862946846
            ],
            [
              84.19592490865345,
              26.164160584295725
            ],
            [
              84.19781247927115,
              26.163067709180744
            ],
            [
              84.19852812304056,
              26.16241162814142
            ],
            [
              84.19906649417014,
              26.16123915513135
            ],
            [
              84.19949721029772,
              26.15972225919852
            ],
            [
              84.20002686327746,
              26.158289574683565
            ],
            [
              84.20049443009462,
              26.156916442623082
            ],
            [
              84.20131580287801,
              26.15460733124617
            ],
            [
              84.2017039658106,
              26.152773146093477
            ],
            [
              84.2017015430543,
              26.151731075122502
            ],
            [
              84.20165878234842,
              26.15092163406735
            ],
            [
              84.2016160216426,
              26.150112193041988
            ],
            [
              84.20177448984862,
              26.147647249883363
            ],
            [
              84.20115088476825,
              26.1457534150936
            ],
            [
              84.20118247043197,
              26.14476830865106
            ],
            [
              84.20092056930584,
              26.142662082316928
            ],
            [
              84.20034508517864,
              26.140766943288103
            ],
            [
              84.19980687664415,
              26.139999817304965
            ],
            [
              84.1992825120465,
              26.13868225506527
            ],
            [
              84.19867747873631,
              26.13783004695448
            ],
            [
              84.19791985579536,
              26.1372135790252
            ],
            [
              84.19721304965174,
              26.13619044196659
            ],
            [
              84.19557887670767,
              26.13426576799281
            ],
            [
              84.19486183965127,
              26.13341664631188
            ],
            [
              84.19390355822866,
              26.132544923104913
            ],
            [
              84.19271260506265,
              26.131418999328957
            ],
            [
              84.19150102478109,
              26.130640941919612
            ],
            [
              84.1909494978242,
              26.13043860127042
            ],
            [
              84.19094944662024,
              26.130438582720863
            ],
            [
              84.19039801039318,
              26.13023627236823
            ],
            [
              84.18951243232146,
              26.129623200073123
            ],
            [
              84.18886048359728,
              26.12929328563322
            ],
            [
              84.18770921081399,
              26.128397807180303
            ],
            [
              84.18684621998177,
              26.12749458408911
            ],
            [
              84.18612270517384,
              26.12693502977425
            ],
            [
              84.18597457028855,
              26.126331049911187
            ],
            [
              84.1858594754394,
              26.125755172224864
            ],
            [
              84.18571334739046,
              26.125209026337632
            ],
            [
              84.18623292756092,
              26.124442461132297
            ],
            [
              84.18730605589762,
              26.122966208311357
            ],
            [
              84.1880354151448,
              26.121267621884765
            ],
            [
              84.18838596741305,
              26.11926068021837
            ],
            [
              84.18864512328769,
              26.117400950741697
            ],
            [
              84.18911837913555,
              26.116201318294003
            ],
            [
              84.18928579905338,
              26.115444099012194
            ],
            [
              84.18996161331972,
              26.114557450861017
            ],
            [
              84.19059771216901,
              26.113440315269568
            ],
            [
              84.19111254923476,
              26.112529086948882
            ],
            [
              84.19151618834307,
              26.11164946503163
            ],
            [
              84.19120241669579,
              26.108936604281496
            ],
            [
              84.19140136658176,
              26.10719433969972
            ],
            [
              84.19136154785849,
              26.1064716689081
            ],
            [
              84.19132172823689,
              26.105748997683133
            ],
            [
              84.19079377666631,
              26.10431560573684
            ],
            [
              84.19052207492041,
              26.102875419199634
            ],
            [
              84.19023259371842,
              26.101870008746207
            ],
            [
              84.19015138422012,
              26.10135110330482
            ],
            [
              84.18935876561063,
              26.099664264756996
            ],
            [
              84.18913219791958,
              26.098136072645687
            ],
            [
              84.18813136240364,
              26.095962716608366
            ],
            [
              84.18739153508847,
              26.093927113817372
            ],
            [
              84.18660090624736,
              26.092298181884544
            ],
            [
              84.18569466872074,
              26.091048669660474
            ],
            [
              84.18437537504673,
              26.089173637690944
            ],
            [
              84.18384889940815,
              26.088753546402966
            ],
            [
              84.1828495434175,
              26.087593391937702
            ],
            [
              84.1815684353296,
              26.08565914521399
            ],
            [
              84.1807764805751,
              26.084956620678753
            ],
            [
              84.17922911992179,
              26.083695257685307
            ],
            [
              84.17763851976058,
              26.082087703229313
            ],
            [
              84.17662787913335,
              26.080580473342803
            ],
            [
              84.17612678629145,
              26.079956924304874
            ],
            [
              84.17752380669543,
              26.079572181238145
            ],
            [
              84.17838712720935,
              26.079520065800647
            ],
            [
              84.17950273058766,
              26.079345410212344
            ],
            [
              84.18046302064323,
              26.079319677204943
            ],
            [
              84.18183565268555,
              26.079167105762732
            ],
            [
              84.1836233782544,
              26.078974398647343
            ],
            [
              84.1850863152373,
              26.078645708096307
            ],
            [
              84.18726581496615,
              26.07867400464273
            ],
            [
              84.18832888307,
              26.07884812305867
            ],
            [
              84.18904927713064,
              26.07932097704752
            ],
            [
              84.18999177874696,
              26.079729878887953
            ],
            [
              84.19067735231056,
              26.08011677975744
            ],
            [
              84.19205188967959,
              26.08002195721144
            ],
            [
              84.19370208497509,
              26.079543383046282
            ],
            [
              84.19443158615606,
              26.079321109371637
            ],
            [
              84.19526005742681,
              26.0791827748963
            ],
            [
              84.19531541610621,
              26.078920737005262
            ],
            [
              84.19601829571373,
              26.077888533705565
            ],
            [
              84.19683425704588,
              26.07737438408719
            ],
            [
              84.19815865225239,
              26.076730856758836
            ],
            [
              84.19921684340261,
              26.07676026321726
            ],
            [
              84.20100259716935,
              26.076509517752157
            ],
            [
              84.20213769488764,
              26.07595784388617
            ],
            [
              84.2023708382466,
              26.075256700603443
            ],
            [
              84.20209142356568,
              26.073585149288952
            ],
            [
              84.20164281479425,
              26.072612922693942
            ],
            [
              84.20158505222318,
              26.071832827854543
            ],
            [
              84.20193581918879,
              26.071302277025413
            ],
            [
              84.2027585080041,
              26.070990660979216
            ],
            [
              84.20435597309068,
              26.070860730340993
            ],
            [
              84.20592337695463,
              26.07078948072741
            ],
            [
              84.20669157306646,
              26.070768764034177
            ],
            [
              84.20781798497428,
              26.069956726321738
            ],
            [
              84.20848155161003,
              26.069678271150075
            ],
            [
              84.20945172043878,
              26.068986218209997
            ],
            [
              84.2091607417452,
              26.066967546260248
            ],
            [
              84.20869583843285,
              26.065503662321223
            ],
            [
              84.20772890713236,
              26.06338734904307
            ],
            [
              84.20718046139692,
              26.062302044047833
            ],
            [
              84.20670371110258,
              26.061446364394925
            ],
            [
              84.20606638335795,
              26.059610691340886
            ],
            [
              84.20499171261389,
              26.058597457394054
            ],
            [
              84.20349423540833,
              26.056900740622943
            ],
            [
              84.20275480874176,
              26.05584955510131
            ],
            [
              84.20231294541979,
              26.055079800355777
            ],
            [
              84.2014360190226,
              26.05374267513503
            ],
            [
              84.20077679214799,
              26.05318143397589
            ],
            [
              84.19992663015634,
              26.05265423261911
            ],
            [
              84.19908878406727,
              26.052503122690222
            ],
            [
              84.19834894776893,
              26.052407260109607
            ],
            [
              84.19776712962067,
              26.052249157659425
            ],
            [
              84.19743763116772,
              26.05196857419186
            ],
            [
              84.1973592837019,
              26.05153636398267
            ],
            [
              84.19740232378376,
              26.050898314992253
            ],
            [
              84.19773812841001,
              26.050397158291272
            ],
            [
              84.19793249958302,
              26.049494387734214
            ],
            [
              84.19825493458286,
              26.048588261706655
            ],
            [
              84.19852764962839,
              26.04811770081993
            ],
            [
              84.19895953356587,
              26.047613860012138
            ],
            [
              84.19974810077342,
              26.047245281345873
            ],
            [
              84.20070336834823,
              26.047074777658093
            ],
            [
              84.20152388773211,
              26.046705235258532
            ],
            [
              84.20211472227089,
              26.046168202752018
            ],
            [
              84.20230262916708,
              26.04555514585751
            ],
            [
              84.20227970416103,
              26.04486097789676
            ],
            [
              84.20248168136952,
              26.04418964907958
            ],
            [
              84.20283170183512,
              26.04362965192592
            ],
            [
              84.20175891216326,
              26.044121784353063
            ],
            [
              84.20075778020332,
              26.04484354067602
            ],
            [
              84.20013880503991,
              26.045497198605585
            ],
            [
              84.19938412318321,
              26.045922762143263
            ],
            [
              84.19881580132378,
              26.046169721681938
            ],
            [
              84.19759975012703,
              26.04620245937865
            ],
            [
              84.1961955270311,
              26.046356034186523
            ],
            [
              84.19541603101128,
              26.046029569241547
            ],
            [
              84.19468722422802,
              26.045296500799463
            ],
            [
              84.19388486069435,
              26.044275859864673
            ],
            [
              84.19334042773326,
              26.043306168896923
            ],
            [
              84.19278657234315,
              26.042047182234295
            ],
            [
              84.19279411639491,
              26.04188279212707
            ],
            [
              84.19282381469819,
              26.04123561295159
            ],
            [
              84.19319643497971,
              26.04087815409415
            ],
            [
              84.19363679362357,
              26.040634655643938
            ],
            [
              84.19426722320513,
              26.040328243884442
            ],
            [
              84.19496930421039,
              26.040251466278995
            ],
            [
              84.19648052743645,
              26.039458032865923
            ],
            [
              84.19678137592005,
              26.038870932188573
            ],
            [
              84.1967451271017,
              26.037771787734705
            ],
            [
              84.19649401294552,
              26.035983545119446
            ],
            [
              84.19501934306665,
              26.033996658336637
            ],
            [
              84.1929839681437,
              26.03248805824563
            ],
            [
              84.19096589028149,
              26.03150008314945
            ],
            [
              84.18947494472633,
              26.03096114223502
            ],
            [
              84.18748346418306,
              26.030782981285927
            ],
            [
              84.18531604679481,
              26.0308307749215
            ],
            [
              84.18310379808393,
              26.030546750805744
            ],
            [
              84.18187373855866,
              26.03009903616479
            ],
            [
              84.18107191581079,
              26.028815815967413
            ],
            [
              84.18050465755663,
              26.027732375999335
            ],
            [
              84.17880723692836,
              26.024619056731567
            ],
            [
              84.17719032780745,
              26.02164087766058
            ],
            [
              84.17555999066968,
              26.018251074965896
            ],
            [
              84.17253227919169,
              26.013937222722355
            ],
            [
              84.17153250189116,
              26.01279544786902
            ],
            [
              84.17145207841872,
              26.012703599893896
            ],
            [
              84.17145782404326,
              26.012742062705474
            ],
            [
              84.17150182083094,
              26.013036511123723
            ],
            [
              84.17186277828515,
              26.01589034436248
            ],
            [
              84.17200909318369,
              26.01811738531472
            ],
            [
              84.17203420289249,
              26.018735953974588
            ],
            [
              84.17224140021112,
              26.021131113292203
            ],
            [
              84.17244665357542,
              26.023607440791658
            ],
            [
              84.17245768758207,
              26.024604700124723
            ],
            [
              84.16958156141835,
              26.02677979361767
            ],
            [
              84.16929435295401,
              26.026996987872934
            ],
            [
              84.16679636721929,
              26.029086020967394
            ],
            [
              84.16607371569236,
              26.029690343724813
            ],
            [
              84.16240523143063,
              26.032311656035304
            ],
            [
              84.16136044673773,
              26.03300394008054
            ],
            [
              84.16109595756525,
              26.03317919102936
            ],
            [
              84.15859410727816,
              26.035042843322593
            ],
            [
              84.15562031897173,
              26.037683137829656
            ],
            [
              84.1555219938723,
              26.03777043335271
            ],
            [
              84.15545741218989,
              26.037818615604273
            ],
            [
              84.15228754411483,
              26.040183455605018
            ],
            [
              84.15184012471282,
              26.040580307335546
            ],
            [
              84.1493898709607,
              26.04275355335409
            ],
            [
              84.14930707683425,
              26.04282698628885
            ],
            [
              84.14927412393466,
              26.042851855638858
            ],
            [
              84.14831672375938,
              26.043574419616217
            ],
            [
              84.1479437423551,
              26.043855911791997
            ],
            [
              84.14699932193734,
              26.044557788608408
            ],
            [
              84.14627054120521,
              26.045099398236715
            ],
            [
              84.14584814527377,
              26.045431086016748
            ],
            [
              84.14332275822792,
              26.04741409800042
            ],
            [
              84.1429256130408,
              26.047741162779662
            ],
            [
              84.14058151769737,
              26.049671559857373
            ],
            [
              84.14041792909424,
              26.049806274023467
            ],
            [
              84.13935696933639,
              26.050511586349334
            ],
            [
              84.13800246260153,
              26.051581004103582
            ],
            [
              84.13729289234176,
              26.052212062014732
            ],
            [
              84.13656494614452,
              26.053803681797838
            ],
            [
              84.13572354632018,
              26.0551473407719
            ],
            [
              84.13569714124073,
              26.055189506805895
            ],
            [
              84.13448950995314,
              26.056992647608272
            ],
            [
              84.13342678500571,
              26.05858662103429
            ],
            [
              84.13228529936742,
              26.060336915788543
            ],
            [
              84.13144844501842,
              26.0616782096491
            ],
            [
              84.13059945173497,
              26.062901959027858
            ],
            [
              84.12948856361359,
              26.064447169161564
            ],
            [
              84.1293172063799,
              26.064685517378777
            ],
            [
              84.12859885508823,
              26.065875759144845
            ],
            [
              84.12685993768372,
              26.068561497746327
            ],
            [
              84.12578660902268,
              26.069762697642858
            ],
            [
              84.12577165027659,
              26.069779182217516
            ],
            [
              84.12472911676181,
              26.070928112380546
            ],
            [
              84.12443919179206,
              26.0715494130457
            ],
            [
              84.12320331298038,
              26.0734654440806
            ],
            [
              84.12318826440274,
              26.073488774635567
            ],
            [
              84.12314635529978,
              26.07355374739054
            ],
            [
              84.12250098044686,
              26.074614577721622
            ],
            [
              84.12124509974703,
              26.076359677953445
            ],
            [
              84.12111508118606,
              26.07654034032942
            ],
            [
              84.11972318836571,
              26.077893020678147
            ],
            [
              84.11777365914624,
              26.079983427713827
            ],
            [
              84.11683855605462,
              26.080632413222727
            ],
            [
              84.1153927813852,
              26.08194585825105
            ],
            [
              84.11505533643525,
              26.08225241130078
            ],
            [
              84.11347767830235,
              26.08384040690554
            ],
            [
              84.11208627416552,
              26.08516594638694
            ],
            [
              84.11207191729063,
              26.085177298262046
            ],
            [
              84.10970240231961,
              26.08705095009388
            ],
            [
              84.10918729306435,
              26.087458249252133
            ],
            [
              84.10720885336409,
              26.089380761400427
            ],
            [
              84.10640804211923,
              26.09015891033228
            ],
            [
              84.10515175717754,
              26.0912660279896
            ],
            [
              84.1038154655817,
              26.092732561110378
            ],
            [
              84.1038115453338,
              26.092736864378896
            ],
            [
              84.10379536038732,
              26.09274312485177
            ],
            [
              84.10276077965773,
              26.093143387811665
            ],
            [
              84.10201579870777,
              26.09343160298236
            ],
            [
              84.10010671164238,
              26.094466898618723
            ],
            [
              84.09879909696537,
              26.095018031043033
            ],
            [
              84.09663026293389,
              26.09625105633134
            ],
            [
              84.09317170327594,
              26.097798393311106
            ],
            [
              84.09309880858389,
              26.097831003635406
            ],
            [
              84.09104930405982,
              26.09888138229561
            ],
            [
              84.08867233576687,
              26.100240901847933
            ],
            [
              84.08727496412162,
              26.100218890757116
            ],
            [
              84.08462185281202,
              26.100177062816048
            ],
            [
              84.08047751118137,
              26.10007060922687
            ],
            [
              84.07640074801287,
              26.10006014214586
            ],
            [
              84.07424816360657,
              26.1000334359592
            ],
            [
              84.07365847711472,
              26.100026114243885
            ],
            [
              84.0733082257821,
              26.100021765260916
            ],
            [
              84.07223368259879,
              26.100008414180767
            ],
            [
              84.07182551418482,
              26.100003342383303
            ],
            [
              84.06747299607191,
              26.100032130699713
            ],
            [
              84.06302459268385,
              26.100099433828703
            ],
            [
              84.06217711755322,
              26.1000235150187
            ],
            [
              84.06169127720655,
              26.10001169669119
            ],
            [
              84.05988520983625,
              26.099967751863463
            ],
            [
              84.0572460296001,
              26.10001313021807
            ],
            [
              84.05597251407295,
              26.09999163134646
            ],
            [
              84.05595176209157,
              26.100055087291597
            ],
            [
              84.05590217239293,
              26.100206731210815
            ],
            [
              84.05587361315342,
              26.100282439350572
            ],
            [
              84.05552219041763,
              26.101213986373967
            ],
            [
              84.05513820375283,
              26.10198206321683
            ],
            [
              84.05423954531226,
              26.10315013785877
            ],
            [
              84.0538601050211,
              26.103657199611206
            ],
            [
              84.053438239994,
              26.104220949617712
            ],
            [
              84.05292014114545,
              26.10474163718589
            ],
            [
              84.0528795381929,
              26.104782443852187
            ],
            [
              84.05281682141305,
              26.104815466861915
            ],
            [
              84.05179090673101,
              26.10535564992464
            ],
            [
              84.05144373302655,
              26.105573989203375
            ],
            [
              84.05099894658665,
              26.10585371659956
            ],
            [
              84.05043636406354,
              26.106370008623394
            ],
            [
              84.04960593266883,
              26.10720561925765
            ],
            [
              84.04916490298348,
              26.10785521767379
            ],
            [
              84.04884009912618,
              26.108651553903382
            ],
            [
              84.04872979409411,
              26.109064321951823
            ],
            [
              84.04870848336064,
              26.109713493811743
            ],
            [
              84.04875142372953,
              26.110589539947238
            ],
            [
              84.04901773378708,
              26.11132580529673
            ],
            [
              84.04903101627687,
              26.111366724206945
            ],
            [
              84.04904659486054,
              26.111397494850173
            ],
            [
              84.04949402773727,
              26.11228127521334
            ],
            [
              84.05012262565393,
              26.113672451162973
            ],
            [
              84.05075964258147,
              26.115327434784003
            ],
            [
              84.05187483812466,
              26.11670606013113
            ],
            [
              84.05396588973062,
              26.11814730714119
            ],
            [
              84.05596802339484,
              26.119854682198984
            ],
            [
              84.0567081318827,
              26.12168291508762
            ],
            [
              84.05723667723969,
              26.122988769221426
            ],
            [
              84.05727874444612,
              26.12430726827807
            ],
            [
              84.05787191909623,
              26.12763476804066
            ],
            [
              84.05757345743632,
              26.128962025805887
            ],
            [
              84.05840240571253,
              26.130523993652893
            ],
            [
              84.05940930575491,
              26.13155345730139
            ],
            [
              84.06077728991397,
              26.131693824294555
            ],
            [
              84.06233994258838,
              26.131829111831113
            ],
            [
              84.06377722368676,
              26.131087864085536
            ],
            [
              84.06543163477585,
              26.131044772117885
            ],
            [
              84.0671748973314,
              26.130735505670014
            ],
            [
              84.07008030857335,
              26.130219864865456
            ],
            [
              84.07204063015266,
              26.130608620603805
            ],
            [
              84.07371756020929,
              26.131268594355475
            ],
            [
              84.07517730457967,
              26.131230483376157
            ],
            [
              84.07787957529487,
              26.130456156394416
            ],
            [
              84.07952259305118,
              26.130061298136177
            ],
            [
              84.08059027490235,
              26.129945405004445
            ],
            [
              84.08092735513628,
              26.13134416220892
            ],
            [
              84.0803054047527,
              26.133207798123877
            ],
            [
              84.0797581618614,
              26.134365736221262
            ],
            [
              84.0797891869764,
              26.13533268975011
            ],
            [
              84.07876093397967,
              26.136679153755658
            ],
            [
              84.07772430329463,
              26.13776189216592
            ],
            [
              84.07641249258688,
              26.139379588305292
            ],
            [
              84.07605986970192,
              26.140532516126203
            ],
            [
              84.0760075608029,
              26.14194134937323
            ],
            [
              84.0758608820867,
              26.143440715240782
            ],
            [
              84.07559989724214,
              26.14441519640226
            ],
            [
              84.07456870855108,
              26.145673718138347
            ],
            [
              84.07137660717272,
              26.146372861897447
            ],
            [
              84.0695386639829,
              26.146772704927297
            ],
            [
              84.06798425694447,
              26.146901203751394
            ],
            [
              84.06800675525078,
              26.147604346269773
            ],
            [
              84.06718984170443,
              26.149472979370998
            ],
            [
              84.06650846057828,
              26.149490731612904
            ],
            [
              84.06524319787364,
              26.14952369199134
            ],
            [
              84.06408927955184,
              26.1499936281603
            ],
            [
              84.0638113372097,
              26.15044075121741
            ],
            [
              84.06395930770329,
              26.152020306148312
            ],
            [
              84.06537248790093,
              26.153567002228133
            ],
            [
              84.06618773686905,
              26.15468937740302
            ],
            [
              84.06661640304115,
              26.155909795885794
            ],
            [
              84.06550178601302,
              26.15761029894717
            ],
            [
              84.065976347113,
              26.15874154571584
            ],
            [
              84.06645091539949,
              26.159872788770947
            ],
            [
              84.06697138490208,
              26.160914857168905
            ],
            [
              84.06805329966059,
              26.16123857218439
            ],
            [
              84.06904364015907,
              26.161740527956376
            ],
            [
              84.07075464241609,
              26.16345535816284
            ],
            [
              84.07155873969826,
              26.16422608313879
            ],
            [
              84.07383332879489,
              26.166805848976008
            ],
            [
              84.07676490706277,
              26.167081131613084
            ],
            [
              84.07799197429983,
              26.167149112866472
            ],
            [
              84.0818126322724,
              26.166509437035394
            ],
            [
              84.08442677376661,
              26.166001179128084
            ],
            [
              84.08593279395058,
              26.165873792205446
            ],
            [
              84.08743870992991,
              26.165746390631007
            ],
            [
              84.08906812090466,
              26.164912018786428
            ],
            [
              84.091398665162,
              26.164675001222943
            ],
            [
              84.09412136177012,
              26.164515641168947
            ],
            [
              84.09572410176408,
              26.165881134787647
            ],
            [
              84.09685155661593,
              26.167610992987147
            ],
            [
              84.09731086701731,
              26.168258759042867
            ],
            [
              84.09777015316422,
              26.16890644087647
            ],
            [
              84.0979184650176,
              26.17048594168418
            ],
            [
              84.09834465633114,
              26.171618355931628
            ],
            [
              84.0987623531753,
              26.172487154999878
            ],
            [
              84.10148814717449,
              26.172415565836356
            ],
            [
              84.10411652337275,
              26.172346490398677
            ],
            [
              84.10610030804897,
              26.173437927352342
            ],
            [
              84.10778366195818,
              26.174273315269225
            ],
            [
              84.10875396283929,
              26.17565522069291
            ],
            [
              84.10977858125233,
              26.17721173298402
            ],
            [
              84.11144210934324,
              26.177431860645775
            ],
            [
              84.11194869807807,
              26.178034261196146
            ],
            [
              84.11339759259646,
              26.17764428004716
            ],
            [
              84.11378920865299,
              26.18071285192954
            ],
            [
              84.11445299717262,
              26.18315850434399
            ],
            [
              84.1150024139869,
              26.185079402006465
            ],
            [
              84.11504225426975,
              26.186309919859692
            ],
            [
              84.11528243772558,
              26.187711108104683
            ],
            [
              84.11565168932479,
              26.188581039086944
            ],
            [
              84.1160209454156,
              26.189450967603715
            ],
            [
              84.11669673722407,
              26.189257201005375
            ],
            [
              84.11696604136645,
              26.188546388069977
            ],
            [
              84.11698364475278,
              26.18608278929903
            ],
            [
              84.118023284794,
              26.185087730074905
            ],
            [
              84.11938346438988,
              26.184963873070906
            ],
            [
              84.12042198962187,
              26.18529131734595
            ],
            [
              84.12198293998878,
              26.18750858992969
            ],
            [
              84.12316327237322,
              26.18717502464663
            ],
            [
              84.12345311918953,
              26.187093113396568
            ],
            [
              84.1235356186686,
              26.185800559257004
            ],
            [
              84.12190800971433,
              26.18519825769856
            ],
            [
              84.12168242388185,
              26.183752334311436
            ],
            [
              84.12225480792303,
              26.183635714972834
            ],
            [
              84.12410834317123,
              26.183258055021597
            ],
            [
              84.12680563721977,
              26.182480672981757
            ],
            [
              84.1264966922205,
              26.18128984098118
            ],
            [
              84.1260294946109,
              26.179591066600782
            ],
            [
              84.1256178506151,
              26.17833714560387
            ],
            [
              84.12505627330681,
              26.176268709021663
            ],
            [
              84.12493774958823,
              26.175155843364454
            ],
            [
              84.12490398012008,
              26.174115187307642
            ],
            [
              84.12554818177323,
              26.1736517471512
            ],
            [
              84.12618514210692,
              26.172965330818737
            ],
            [
              84.12722410481847,
              26.171970582856893
            ],
            [
              84.12753171492116,
              26.171292867828136
            ],
            [
              84.12766982909947,
              26.1704708273812
            ],
            [
              84.1291420528658,
              26.17013428108269
            ],
            [
              84.13070636472852,
              26.170092896609827
            ],
            [
              84.13226584365502,
              26.1699028193779
            ],
            [
              84.13364614910653,
              26.169271049260797
            ],
            [
              84.13443065413233,
              26.170589534307698
            ],
            [
              84.13472359474648,
              26.171995390084767
            ],
            [
              84.13489209982919,
              26.173469695843767
            ],
            [
              84.13781252191956,
              26.173392317925614
            ],
            [
              84.14141719974498,
              26.17338471218737
            ],
            [
              84.14279728241425,
              26.173875865784524
            ],
            [
              84.14423458776717,
              26.17612493629897
            ],
            [
              84.14556316193642,
              26.178025062763012
            ],
            [
              84.1456978481436,
              26.17916509378342
            ],
            [
              84.14578098901977,
              26.181714026058824
            ],
            [
              84.14575810713282,
              26.18400183876335
            ],
            [
              84.14534879785849,
              26.186387884114744
            ],
            [
              84.14450411199681,
              26.18737795532278
            ],
            [
              84.14324422301421,
              26.187587344979526
            ],
            [
              84.14168928956306,
              26.187716575115132
            ],
            [
              84.13965621881877,
              26.188122397146646
            ],
            [
              84.13783791639429,
              26.189138239018835
            ],
            [
              84.13659230074325,
              26.189786984143563
            ],
            [
              84.13416119458142,
              26.18993934905814
            ],
            [
              84.13249746796284,
              26.189719556174673
            ],
            [
              84.13122325085145,
              26.1894893489531
            ],
            [
              84.12975428527466,
              26.189264283358064
            ],
            [
              84.12847722230045,
              26.188946151807315
            ],
            [
              84.12862308714301,
              26.19043779004454
            ],
            [
              84.12897228026027,
              26.19218797736303
            ],
            [
              84.12911529924001,
              26.19359170978355
            ],
            [
              84.12916669904394,
              26.195173723830962
            ],
            [
              84.13030629822012,
              26.197254897974368
            ],
            [
              84.13118544525271,
              26.197319523818187
            ],
            [
              84.1319615501323,
              26.19721110581792
            ],
            [
              84.13308302040775,
              26.197271333126945
            ],
            [
              84.13330941472394,
              26.19724445089066
            ],
            [
              84.13380905409173,
              26.197273094323883
            ],
            [
              84.13515272085604,
              26.198205613329325
            ],
            [
              84.13586979294674,
              26.198373800122084
            ],
            [
              84.13642032367198,
              26.198894062092386
            ],
            [
              84.13722182661961,
              26.19892638705738
            ],
            [
              84.13784209805196,
              26.198856393147448
            ],
            [
              84.1383778478975,
              26.198922439936535
            ],
            [
              84.13850498286641,
              26.199186584804895
            ],
            [
              84.13883684029531,
              26.20027425933998
            ],
            [
              84.13894137993985,
              26.200752865995625
            ],
            [
              84.13896534160173,
              26.201032989965597
            ],
            [
              84.140168193852,
              26.20079221406321
            ],
            [
              84.14112549880589,
              26.201363605860987
            ],
            [
              84.14218744311734,
              26.20120172962929
            ],
            [
              84.1427537329876,
              26.20129363840246
            ],
            [
              84.14298282224969,
              26.201956208164464
            ],
            [
              84.1434288393815,
              26.20199784004949
            ],
            [
              84.14386711573052,
              26.20179894070708
            ],
            [
              84.14418763013234,
              26.201630036676942
            ],
            [
              84.14460583362634,
              26.20172587037572
            ],
            [
              84.14506841209874,
              26.202275214964665
            ],
            [
              84.14541779116723,
              26.202988054221528
            ],
            [
              84.14600501627521,
              26.20372126467301
            ],
            [
              84.14758879373183,
              26.203197826874412
            ],
            [
              84.1488398370038,
              26.20246925893255
            ],
            [
              84.14936600991012,
              26.202241321636865
            ],
            [
              84.15004289227335,
              26.202089623263223
            ],
            [
              84.15043929635033,
              26.202426755119657
            ],
            [
              84.15088456608386,
              26.203350989913954
            ],
            [
              84.15142744675616,
              26.204540051307013
            ],
            [
              84.15335103532519,
              26.204435433825797
            ],
            [
              84.15373348137929,
              26.204345016197827
            ],
            [
              84.15424829688548,
              26.20376969771728
            ],
            [
              84.15450531836298,
              26.203468658266143
            ],
            [
              84.15493998797615,
              26.203162890852482
            ],
            [
              84.15583461028613,
              26.202416970229393
            ]
          ]
        ]
      }
    }
  ]
}