{
  "type": "FeatureCollection",
  "features": [
    {
      "type": "Feature",
      "properties": {
        "object_id": "10-207-01084",
        "stname": "BIHAR",
        "dtname": "Madhubani",
        "sdtname": "Ladania",
        "st_area_sh": 0.0,
        "st_length_": 0.0,
        "remarks": "",
        "dist_lgd": 206,
        "state_lgd": 10,
        "subdt_lgd": 1084,
        "ac_no": null,
        "st_length(shape)": 97928.14946240213,
        "st_area(shape)": 232665607.5684243
      },
      "geometry": {
        "type": "Polygon",
        "coordinates": [
          [
            [
              86.31686359978035,
              26.619816322688255
            ],
            [
              86.31811505178582,
              26.619815414389784
            ],
            [
              86.32168792835185,
              26.619816187768606
            ],
            [
              86.32579169757274,
              26.619659125106555
            ],
            [
              86.32947606674364,
              26.619494182255814
            ],
            [
              86.32963294044002,
              26.619487169625547
            ],
            [
              86.33289028555915,
              26.619137374391546
            ],
            [
              86.33487986257232,
              26.61870094439315
            ],
            [
              86.33777897842076,
              26.618089338712934
            ],
            [
              86.33944429236246,
              26.617727001081647
            ],
            [
              86.3410750265556,
              26.617381338086776
            ],
            [
              86.34150291388838,
              26.6172906371761
            ],
            [
              86.34213897411014,
              26.617155806003822
            ],
            [
              86.34317233043595,
              26.61693574589141
            ],
            [
              86.34323439773388,
              26.61692253868932
            ],
            [
              86.34334336337785,
              26.616941941911833
            ],
            [
              86.34483645680486,
              26.616913159928508
            ],
            [
              86.34496650231527,
              26.616422674884262
            ],
            [
              86.34436730895276,
              26.616444458630237
            ],
            [
              86.34389352220057,
              26.616388328773485
            ],
            [
              86.34392636730229,
              26.616043389357863
            ],
            [
              86.34395442438357,
              26.615748716307827
            ],
            [
              86.3437710045722,
              26.615307619265028
            ],
            [
              86.34322978668155,
              26.614006034674045
            ],
            [
              86.34296952857406,
              26.613675232107436
            ],
            [
              86.34263574425889,
              26.613394759669752
            ],
            [
              86.34245997719545,
              26.613247065642316
            ],
            [
              86.34228242068795,
              26.613097866338883
            ],
            [
              86.34237816223262,
              26.61239280483646
            ],
            [
              86.34217016810837,
              26.61143690923543
            ],
            [
              86.34081948999325,
              26.611896675950174
            ],
            [
              86.34067377067775,
              26.611525417367055
            ],
            [
              86.34066757409892,
              26.611509640258085
            ],
            [
              86.34065507404173,
              26.611367231752766
            ],
            [
              86.34064732697072,
              26.611278986932977
            ],
            [
              86.34061311642976,
              26.610889231270672
            ],
            [
              86.34047145839767,
              26.610712430003485
            ],
            [
              86.34028166593772,
              26.61047556665267
            ],
            [
              86.34012792107345,
              26.61014743884105
            ],
            [
              86.33945310124213,
              26.609703019186618
            ],
            [
              86.33942629910733,
              26.609510736675325
            ],
            [
              86.33936014357654,
              26.60926587932075
            ],
            [
              86.33925719664498,
              26.60914607399583
            ],
            [
              86.33912442923923,
              26.608991581275625
            ],
            [
              86.3390753318174,
              26.608934448617454
            ],
            [
              86.33925677264014,
              26.608718895340402
            ],
            [
              86.34024167024631,
              26.607548869711096
            ],
            [
              86.34109427655382,
              26.606454160646656
            ],
            [
              86.34124734498668,
              26.606257624609757
            ],
            [
              86.3414554729599,
              26.60599038581927
            ],
            [
              86.34149700566873,
              26.60593706762122
            ],
            [
              86.3416549411738,
              26.605867346628344
            ],
            [
              86.34498587089112,
              26.605523695928216
            ],
            [
              86.34571710941385,
              26.605440312350513
            ],
            [
              86.34789831863668,
              26.60519156684562
            ],
            [
              86.35088401770548,
              26.60487595698014
            ],
            [
              86.35357411714688,
              26.604574981357437
            ],
            [
              86.35632927797106,
              26.60429032360507
            ],
            [
              86.35673866360224,
              26.604169183767432
            ],
            [
              86.35724767958492,
              26.604018559785416
            ],
            [
              86.35898412123251,
              26.603538825791663
            ],
            [
              86.36200186590243,
              26.60271529811954
            ],
            [
              86.36309280423797,
              26.602404488667343
            ],
            [
              86.36504550900199,
              26.60184813926999
            ],
            [
              86.36662442657291,
              26.601423333388983
            ],
            [
              86.37057701741628,
              26.60032084184428
            ],
            [
              86.37332269292938,
              26.599541877020684
            ],
            [
              86.37557382701394,
              26.59892082639524
            ],
            [
              86.37662988017375,
              26.598629465978313
            ],
            [
              86.37710951585676,
              26.598494031258028
            ],
            [
              86.37813582130593,
              26.598238920197016
            ],
            [
              86.37937298111521,
              26.597931387880777
            ],
            [
              86.38246099919317,
              26.597132036307286
            ],
            [
              86.38378919876494,
              26.5968054526325
            ],
            [
              86.38672351509778,
              26.59607072431497
            ],
            [
              86.38938731905421,
              26.59538817378267
            ],
            [
              86.38976655902108,
              26.595292961160887
            ],
            [
              86.39130044764006,
              26.594907846937538
            ],
            [
              86.39130082403419,
              26.59490775215191
            ],
            [
              86.39144732218904,
              26.594870968890284
            ],
            [
              86.39195153308327,
              26.594744372913855
            ],
            [
              86.39417208222736,
              26.59418633233126
            ],
            [
              86.39616818819601,
              26.59367575386091
            ],
            [
              86.39689789868444,
              26.59339952912435
            ],
            [
              86.3971036892413,
              26.593321627124798
            ],
            [
              86.39728141732701,
              26.592872075000592
            ],
            [
              86.39756954836113,
              26.592328653132615
            ],
            [
              86.39758070543695,
              26.592307622292992
            ],
            [
              86.39742840955527,
              26.59188875505647
            ],
            [
              86.39723874824932,
              26.591367104992173
            ],
            [
              86.39717764933526,
              26.59119905918368
            ],
            [
              86.39698804102996,
              26.590677551373023
            ],
            [
              86.39680988983774,
              26.590030082636577
            ],
            [
              86.39669894161196,
              26.589626872321727
            ],
            [
              86.39681278061633,
              26.589321480169986
            ],
            [
              86.39692759069953,
              26.58901350376006
            ],
            [
              86.3970212643224,
              26.58873873461873
            ],
            [
              86.39622953863834,
              26.588370566745596
            ],
            [
              86.39608380315316,
              26.588302807186118
            ],
            [
              86.39556462003806,
              26.587912617380482
            ],
            [
              86.39556415560905,
              26.58788066302223
            ],
            [
              86.39555446727873,
              26.587213388626274
            ],
            [
              86.39555408729136,
              26.587187201124117
            ],
            [
              86.39557356366504,
              26.587036364401133
            ],
            [
              86.39559356555317,
              26.58688146506756
            ],
            [
              86.39560569011452,
              26.58678758129912
            ],
            [
              86.39550548034966,
              26.5865848098018
            ],
            [
              86.39534020291377,
              26.58625039731432
            ],
            [
              86.39501624526952,
              26.585481834694175
            ],
            [
              86.39521927440518,
              26.58506238817809
            ],
            [
              86.39528255622537,
              26.585046339105276
            ],
            [
              86.39537362024237,
              26.58459999194356
            ],
            [
              86.39544839241334,
              26.584233499387626
            ],
            [
              86.39565418476683,
              26.583637713712328
            ],
            [
              86.39538320436814,
              26.583051103226637
            ],
            [
              86.3950719695632,
              26.58244190018057
            ],
            [
              86.39526766575122,
              26.58187770373044
            ],
            [
              86.39477581926856,
              26.5816206010557
            ],
            [
              86.3943542677535,
              26.58108365793902
            ],
            [
              86.39417355276947,
              26.58046538000788
            ],
            [
              86.39406305190467,
              26.579959820067327
            ],
            [
              86.39351600394777,
              26.580072782296824
            ],
            [
              86.39312955679739,
              26.579603440012296
            ],
            [
              86.3929338839656,
              26.580158603309936
            ],
            [
              86.39231657158379,
              26.5806190548512
            ],
            [
              86.39168426811658,
              26.580280571933795
            ],
            [
              86.39117230296478,
              26.57994220530837
            ],
            [
              86.38993270422952,
              26.579427744053838
            ],
            [
              86.38932047092233,
              26.5791615633237
            ],
            [
              86.38858280315712,
              26.57880966365127
            ],
            [
              86.38803564291081,
              26.578565996290624
            ],
            [
              86.38744345820416,
              26.57826824214127
            ],
            [
              86.38682120419001,
              26.578029034834547
            ],
            [
              86.38622401317227,
              26.57768154068132
            ],
            [
              86.38558664500347,
              26.57747403876276
            ],
            [
              86.38500454837745,
              26.577243867155385
            ],
            [
              86.38442231700417,
              26.57700926597579
            ],
            [
              86.38405591486101,
              26.576566958298024
            ],
            [
              86.38361442433991,
              26.576002925719866
            ],
            [
              86.38312759315144,
              26.575623810693667
            ],
            [
              86.38244515560653,
              26.575303409727802
            ],
            [
              86.38195329564911,
              26.574757490224343
            ],
            [
              86.38167729276965,
              26.574057972250134
            ],
            [
              86.38125080321548,
              26.573520932616734
            ],
            [
              86.38081214328584,
              26.57308649062103
            ],
            [
              86.38080416894104,
              26.57307859298971
            ],
            [
              86.38021202465858,
              26.57262734489104
            ],
            [
              86.37978559169825,
              26.5721986038417
            ],
            [
              86.37930388360186,
              26.571611962079025
            ],
            [
              86.37912931668765,
              26.570972403826726
            ],
            [
              86.37894359629087,
              26.57039481216254
            ],
            [
              86.37899874117122,
              26.56946571985294
            ],
            [
              86.37905903788972,
              26.56844980123611
            ],
            [
              86.37909411799988,
              26.567872142219205
            ],
            [
              86.37913920174904,
              26.567023726169694
            ],
            [
              86.37966114359035,
              26.566572405210554
            ],
            [
              86.38016797756526,
              26.56617076182359
            ],
            [
              86.3805593780261,
              26.56563371976663
            ],
            [
              86.38092567686299,
              26.56505158323446
            ],
            [
              86.38117658710165,
              26.564424346718955
            ],
            [
              86.38119660965101,
              26.56376546627457
            ],
            [
              86.38105102238785,
              26.56308848098962
            ],
            [
              86.38084534322209,
              26.562470278680816
            ],
            [
              86.38056928464707,
              26.561820424773092
            ],
            [
              86.38029828897699,
              26.56126084975047
            ],
            [
              86.37994195604986,
              26.560705855205978
            ],
            [
              86.37963080658493,
              26.56015978900923
            ],
            [
              86.37875253181647,
              26.559130918727522
            ],
            [
              86.37693095323615,
              26.55634198723801
            ],
            [
              86.37728217025773,
              26.555755311705735
            ],
            [
              86.37759332241764,
              26.555159681658296
            ],
            [
              86.3780349036686,
              26.554694788621923
            ],
            [
              86.3785567502885,
              26.554090113077127
            ],
            [
              86.37902339902745,
              26.553480870933186
            ],
            [
              86.37934444972348,
              26.552821962133528
            ],
            [
              86.37884267506028,
              26.552384269986778
            ],
            [
              86.3782506179144,
              26.552803933384904
            ],
            [
              86.37719678898324,
              26.552167711044728
            ],
            [
              86.37673015282068,
              26.55169387739621
            ],
            [
              86.37618818932833,
              26.551179384926872
            ],
            [
              86.37576167641792,
              26.55078676079382
            ],
            [
              86.37466785269372,
              26.55000606481063
            ],
            [
              86.37411593137641,
              26.549523177863918
            ],
            [
              86.3736943717765,
              26.54905385106872
            ],
            [
              86.37320266543102,
              26.548494224174203
            ],
            [
              86.37288159856531,
              26.547876005840127
            ],
            [
              86.37297694125799,
              26.547144922990835
            ],
            [
              86.37354385815233,
              26.54665302762066
            ],
            [
              86.3735531943431,
              26.546647796141727
            ],
            [
              86.37427647019915,
              26.54624238472853
            ],
            [
              86.37428341597291,
              26.54623602014148
            ],
            [
              86.3748033033672,
              26.54575948193328
            ],
            [
              86.37540038568876,
              26.545141252071332
            ],
            [
              86.37612797615314,
              26.545470712939913
            ],
            [
              86.37691071059956,
              26.5457143421877
            ],
            [
              86.37761318955847,
              26.545461673076
            ],
            [
              86.3782704140883,
              26.545145765185264
            ],
            [
              86.37898291914414,
              26.544649296675548
            ],
            [
              86.3797154512409,
              26.544310799118097
            ],
            [
              86.38041789067394,
              26.54421607925189
            ],
            [
              86.38105514026512,
              26.54414380372873
            ],
            [
              86.38134102281607,
              26.543417276971255
            ],
            [
              86.3817073180597,
              26.542929845865643
            ],
            [
              86.38171792536659,
              26.542926322739987
            ],
            [
              86.38235959466896,
              26.542713168614938
            ],
            [
              86.3831372230913,
              26.542613898052416
            ],
            [
              86.38389491071096,
              26.54243783598111
            ],
            [
              86.38556565137527,
              26.542148864144394
            ],
            [
              86.38556835260935,
              26.54213918673356
            ],
            [
              86.38557570621825,
              26.54211282980839
            ],
            [
              86.3855254400882,
              26.54154415860642
            ],
            [
              86.38507879593232,
              26.540185831816363
            ],
            [
              86.38492823469743,
              26.539373536991043
            ],
            [
              86.38494764100251,
              26.53937132612902
            ],
            [
              86.38572092696876,
              26.539283212272917
            ],
            [
              86.38572038258971,
              26.539272824186423
            ],
            [
              86.3856304046359,
              26.53755485029721
            ],
            [
              86.38567558091154,
              26.536936625238884
            ],
            [
              86.38569291570155,
              26.53692990169656
            ],
            [
              86.38629260134084,
              26.53669733970294
            ],
            [
              86.38693978899403,
              26.536453599684393
            ],
            [
              86.38751675983305,
              26.536227912204634
            ],
            [
              86.38751885560261,
              26.536221342927274
            ],
            [
              86.38766222312867,
              26.535772115657966
            ],
            [
              86.38759699286263,
              26.53528027117421
            ],
            [
              86.38713531629878,
              26.535194537911345
            ],
            [
              86.38664367912355,
              26.535072743926406
            ],
            [
              86.38622221833833,
              26.534865146382288
            ],
            [
              86.38584591316751,
              26.53454027065365
            ],
            [
              86.38588100315914,
              26.534052895058863
            ],
            [
              86.38596121822242,
              26.5334842353415
            ],
            [
              86.38611659981714,
              26.532198087379605
            ],
            [
              86.38613415110116,
              26.53219182488794
            ],
            [
              86.38672368577771,
              26.531981482286632
            ],
            [
              86.38750628907007,
              26.53190913797354
            ],
            [
              86.38810828966785,
              26.531940723766823
            ],
            [
              86.3888859549211,
              26.531782690231193
            ],
            [
              86.38951807603031,
              26.531660785731283
            ],
            [
              86.39028059658621,
              26.53172392127882
            ],
            [
              86.39087765914488,
              26.531610991768197
            ],
            [
              86.39087438927724,
              26.53160197331602
            ],
            [
              86.39065677868786,
              26.5310017813148
            ],
            [
              86.39068182731121,
              26.530275197050265
            ],
            [
              86.39081726361168,
              26.529986323978736
            ],
            [
              86.3908260464402,
              26.529993731092713
            ],
            [
              86.39097117107099,
              26.529684277120833
            ],
            [
              86.39134238908238,
              26.52912912010969
            ],
            [
              86.39167354043543,
              26.527942087728782
            ],
            [
              86.3917287697574,
              26.527387005076054
            ],
            [
              86.391477931384,
              26.52677773201377
            ],
            [
              86.39114168568497,
              26.52617298886772
            ],
            [
              86.39068527863857,
              26.525798472891818
            ],
            [
              86.39014850830684,
              26.525469010990935
            ],
            [
              86.38963172189692,
              26.525013223152637
            ],
            [
              86.38913514578427,
              26.52473796619813
            ],
            [
              86.38857832325878,
              26.524386048149022
            ],
            [
              86.3880515350065,
              26.52392119515929
            ],
            [
              86.38716862762612,
              26.5230004962313
            ],
            [
              86.38684761465935,
              26.522477034344462
            ],
            [
              86.3865767088208,
              26.522030205605027
            ],
            [
              86.38624562304474,
              26.521362276945478
            ],
            [
              86.38606010297228,
              26.52065374664894
            ],
            [
              86.38560365909495,
              26.519647343355842
            ],
            [
              86.38507694091125,
              26.519263687802365
            ],
            [
              86.38449509132195,
              26.51905608497374
            ],
            [
              86.38385302855747,
              26.51883956520146
            ],
            [
              86.38331619175041,
              26.518482975851278
            ],
            [
              86.38280463173884,
              26.51799560602325
            ],
            [
              86.38219262840038,
              26.517769940925792
            ],
            [
              86.38161067819975,
              26.517688699935317
            ],
            [
              86.38085829872513,
              26.517639091217912
            ],
            [
              86.38018107679873,
              26.517494686700363
            ],
            [
              86.37950899503241,
              26.517390896996687
            ],
            [
              86.37886692777631,
              26.517196850302255
            ],
            [
              86.37821982276814,
              26.517115656331285
            ],
            [
              86.3778436631244,
              26.51672305709843
            ],
            [
              86.37751256297527,
              26.516352929691042
            ],
            [
              86.37706619909375,
              26.515725556260165
            ],
            [
              86.3770913689897,
              26.51517039524757
            ],
            [
              86.37746068436931,
              26.51472745031544
            ],
            [
              86.37746763463468,
              26.514719112988725
            ],
            [
              86.37788895079113,
              26.514520468685888
            ],
            [
              86.37839056735082,
              26.514448315130423
            ],
            [
              86.3790979088904,
              26.51424972260833
            ],
            [
              86.37930966605735,
              26.514112421333255
            ],
            [
              86.37956438605113,
              26.513947262974018
            ],
            [
              86.37998582976837,
              26.51359974582145
            ],
            [
              86.38045234196338,
              26.513085273846563
            ],
            [
              86.38129003713551,
              26.513518427123778
            ],
            [
              86.38172632461449,
              26.513744054757144
            ],
            [
              86.38229321455937,
              26.513279243889034
            ],
            [
              86.38288013873174,
              26.512363001361734
            ],
            [
              86.38307579988542,
              26.51183943310345
            ],
            [
              86.38314604185244,
              26.5112617542267
            ],
            [
              86.38324640882252,
              26.51069752019196
            ],
            [
              86.38364772398916,
              26.51000252304799
            ],
            [
              86.38396377466233,
              26.509316388363693
            ],
            [
              86.38495193315296,
              26.50840015200685
            ],
            [
              86.38530306213963,
              26.507899238261185
            ],
            [
              86.38541848487385,
              26.506662556222043
            ],
            [
              86.38553392198114,
              26.506012586342653
            ],
            [
              86.38579473884073,
              26.505403314017975
            ],
            [
              86.38593008800457,
              26.504897743081273
            ],
            [
              86.38607066356676,
              26.504279407266655
            ],
            [
              86.3861658634273,
              26.503724321968757
            ],
            [
              86.38587503924397,
              26.50324139382563
            ],
            [
              86.38553393276092,
              26.50284876164018
            ],
            [
              86.38523812562266,
              26.502293597882158
            ],
            [
              86.38482684364796,
              26.501810724019872
            ],
            [
              86.38439043399809,
              26.501323313997368
            ],
            [
              86.38402430494278,
              26.50070943361189
            ],
            [
              86.38368774213845,
              26.498576014131185
            ],
            [
              86.38368662822748,
              26.498568945058622
            ],
            [
              86.38279838395601,
              26.498217159062943
            ],
            [
              86.3827954311937,
              26.49821599012589
            ],
            [
              86.38240282070213,
              26.495919596798565
            ],
            [
              86.38240173913053,
              26.495913268011428
            ],
            [
              86.380100983008,
              26.494523674344165
            ],
            [
              86.37810205093945,
              26.493722780850337
            ],
            [
              86.37704654575195,
              26.4935009416403
            ],
            [
              86.37553790697899,
              26.493594030273613
            ],
            [
              86.37480397620533,
              26.493951882747346
            ],
            [
              86.37314908361925,
              26.49447922596597
            ],
            [
              86.37244642409898,
              26.494435145789836
            ],
            [
              86.37150677822693,
              26.494257568305866
            ],
            [
              86.37073991611328,
              26.493270849948793
            ],
            [
              86.36941982383696,
              26.492130541367047
            ],
            [
              86.36886009526154,
              26.491309144630286
            ],
            [
              86.36776249861312,
              26.489819663727648
            ],
            [
              86.36773708257877,
              26.48978831237496
            ],
            [
              86.36634301314048,
              26.490331630091273
            ],
            [
              86.36527133288799,
              26.490506994601
            ],
            [
              86.36389221500929,
              26.490499682224275
            ],
            [
              86.36239908475137,
              26.49066023602147
            ],
            [
              86.36186305373316,
              26.490718604692905
            ],
            [
              86.36103637729629,
              26.49080627904808
            ],
            [
              86.35987684630062,
              26.491063098885636
            ],
            [
              86.35987523112973,
              26.491063456663742
            ],
            [
              86.35857038955197,
              26.491502272672
            ],
            [
              86.35719045690132,
              26.491946156159507
            ],
            [
              86.35676694975388,
              26.492247257891542
            ],
            [
              86.35676702431407,
              26.492251772280934
            ],
            [
              86.35688399843878,
              26.492941203087604
            ],
            [
              86.35695568579509,
              26.494664420728625
            ],
            [
              86.35633272840006,
              26.495084345029245
            ],
            [
              86.3562608263464,
              26.49543687061422
            ],
            [
              86.35653177889733,
              26.496495194994292
            ],
            [
              86.35674844356075,
              26.498167600624317
            ],
            [
              86.35548425164791,
              26.498660200618016
            ],
            [
              86.35570591633414,
              26.4992902438735
            ],
            [
              86.35580475437159,
              26.499668459183912
            ],
            [
              86.35599146201689,
              26.50005348095306
            ],
            [
              86.35612244716509,
              26.500309223764244
            ],
            [
              86.35613572875658,
              26.500336682026045
            ],
            [
              86.35614071889795,
              26.50034699726246
            ],
            [
              86.35690557237864,
              26.501135382147982
            ],
            [
              86.35729688121134,
              26.501678310190186
            ],
            [
              86.35772964819273,
              26.50235645132495
            ],
            [
              86.35810637826671,
              26.503468188823256
            ],
            [
              86.35863085605207,
              26.504289902223437
            ],
            [
              86.35936037879262,
              26.505579431289753
            ],
            [
              86.36053533655671,
              26.50676163279114
            ],
            [
              86.36174228332804,
              26.507614218962242
            ],
            [
              86.36124463462691,
              26.508033284026702
            ],
            [
              86.35832515576762,
              26.509066905238154
            ],
            [
              86.35605982470834,
              26.509802085204264
            ],
            [
              86.3554916690372,
              26.510203556203592
            ],
            [
              86.35542777366769,
              26.51086747582087
            ],
            [
              86.3545978570076,
              26.51115377402003
            ],
            [
              86.35220898334222,
              26.512101808761543
            ],
            [
              86.35067235037003,
              26.512993692934337
            ],
            [
              86.34837722668432,
              26.514302113248778
            ],
            [
              86.34512528133838,
              26.515753247965147
            ],
            [
              86.34326919487475,
              26.516281953274497
            ],
            [
              86.3417432267016,
              26.5167133598595
            ],
            [
              86.34158153983192,
              26.516758798779797
            ],
            [
              86.3415781936075,
              26.516759740048265
            ],
            [
              86.34032431076086,
              26.516850343733157
            ],
            [
              86.34031986589686,
              26.516850666063103
            ],
            [
              86.33951202982645,
              26.516825225306118
            ],
            [
              86.33759637877128,
              26.516903123841278
            ],
            [
              86.33605084259631,
              26.517379680610222
            ],
            [
              86.33373166382393,
              26.518295465134855
            ],
            [
              86.33295906417058,
              26.518283326872137
            ],
            [
              86.33249413480705,
              26.51792136233952
            ],
            [
              86.33264383276097,
              26.51621440912448
            ],
            [
              86.33224970501489,
              26.51536892026389
            ],
            [
              86.33164937079196,
              26.51446199635217
            ],
            [
              86.33109729226949,
              26.514434577638767
            ],
            [
              86.33024419727846,
              26.51385887799823
            ],
            [
              86.32924012603087,
              26.513234769004548
            ],
            [
              86.32850663094014,
              26.51364194570377
            ],
            [
              86.32688438672479,
              26.51398371932509
            ],
            [
              86.32618370259979,
              26.51578059080435
            ],
            [
              86.32539931435493,
              26.516666543179575
            ],
            [
              86.32380450019673,
              26.517788721114545
            ],
            [
              86.322993546074,
              26.51797986586795
            ],
            [
              86.32201487199613,
              26.51793766677584
            ],
            [
              86.3207398697572,
              26.51729744583178
            ],
            [
              86.320279237934,
              26.5172694241323
            ],
            [
              86.32027805036121,
              26.51726935178919
            ],
            [
              86.31895151536767,
              26.51757717373395
            ],
            [
              86.31856310360175,
              26.51733188837432
            ],
            [
              86.31811666875332,
              26.516789255361758
            ],
            [
              86.31812527012217,
              26.516103191766003
            ],
            [
              86.31838027398356,
              26.515455934359633
            ],
            [
              86.31991901620003,
              26.514230430602648
            ],
            [
              86.32031284121383,
              26.51341509121096
            ],
            [
              86.32027242690752,
              26.512837831826957
            ],
            [
              86.3195075222229,
              26.51202681368786
            ],
            [
              86.31858048959576,
              26.511587021397563
            ],
            [
              86.31773229401628,
              26.511543823179338
            ],
            [
              86.31718162764543,
              26.511665241007172
            ],
            [
              86.31595066441496,
              26.511990351892504
            ],
            [
              86.31548826470733,
              26.51189457481423
            ],
            [
              86.31437778981099,
              26.510921922662142
            ],
            [
              86.31349594962917,
              26.51014951336451
            ],
            [
              86.31243595915348,
              26.508880274660115
            ],
            [
              86.31203321027563,
              26.508472425119617
            ],
            [
              86.3120157407383,
              26.50845473587233
            ],
            [
              86.3115373519169,
              26.50797545711952
            ],
            [
              86.31105897567191,
              26.50749616511283
            ],
            [
              86.31000611512461,
              26.507007660201797
            ],
            [
              86.30869322643855,
              26.50660228078894
            ],
            [
              86.30762484030822,
              26.504949522200913
            ],
            [
              86.30652773144497,
              26.503996391162143
            ],
            [
              86.30593063744529,
              26.502872646705335
            ],
            [
              86.30593334406923,
              26.502064868749343
            ],
            [
              86.30554384803678,
              26.50036309436748
            ],
            [
              86.30552590239236,
              26.500268731357874
            ],
            [
              86.30549418287967,
              26.500037779339674
            ],
            [
              86.30535677028561,
              26.499022286945856
            ],
            [
              86.30535544706719,
              26.499012511838313
            ],
            [
              86.30527502808633,
              26.498435540250096
            ],
            [
              86.3050068800757,
              26.49763888429897
            ],
            [
              86.30386368763841,
              26.49768333225924
            ],
            [
              86.30281303604839,
              26.49742494503655
            ],
            [
              86.30137314085252,
              26.4973677937374
            ],
            [
              86.29993532615484,
              26.497563444043152
            ],
            [
              86.2990305906114,
              26.49735341666952
            ],
            [
              86.29705796031607,
              26.497182912048434
            ],
            [
              86.29495322736831,
              26.495163256030107
            ],
            [
              86.29424641583479,
              26.49465396830719
            ],
            [
              86.29278531500832,
              26.49392018600801
            ],
            [
              86.29124036812816,
              26.494459397606935
            ],
            [
              86.28932793304169,
              26.49483885004425
            ],
            [
              86.28787234787107,
              26.495282583973477
            ],
            [
              86.28752366589524,
              26.49723449767611
            ],
            [
              86.28768075428896,
              26.49852838933145
            ],
            [
              86.28665596519599,
              26.499465425889202
            ],
            [
              86.28661707263576,
              26.50002736599566
            ],
            [
              86.28659252078076,
              26.500340532854818
            ],
            [
              86.28652540584923,
              26.501310239781304
            ],
            [
              86.28664145560754,
              26.501954702884063
            ],
            [
              86.28705291095712,
              26.502533881237564
            ],
            [
              86.28728718709161,
              26.50265524025557
            ],
            [
              86.28743088519775,
              26.50272967629572
            ],
            [
              86.28780885674341,
              26.50292547102024
            ],
            [
              86.28781389090229,
              26.50296344302873
            ],
            [
              86.28781578185594,
              26.50297770765093
            ],
            [
              86.28786802697456,
              26.503371801707395
            ],
            [
              86.28827451284401,
              26.50564327735162
            ],
            [
              86.2867158810288,
              26.506531779875466
            ],
            [
              86.28671298665698,
              26.50653343025652
            ],
            [
              86.28647795414096,
              26.50666740687368
            ],
            [
              86.2850244350955,
              26.507359460283734
            ],
            [
              86.2831963787637,
              26.507106574892717
            ],
            [
              86.28218658434943,
              26.50749303480107
            ],
            [
              86.28130589490951,
              26.50604180376273
            ],
            [
              86.28075445419087,
              26.506077417733806
            ],
            [
              86.28028695474734,
              26.505399379753737
            ],
            [
              86.27965514894676,
              26.504857925959417
            ],
            [
              86.27850922832594,
              26.50460001309244
            ],
            [
              86.27825046860836,
              26.50426794199758
            ],
            [
              86.2785683985571,
              26.502789908741345
            ],
            [
              86.27808991361594,
              26.50087089123292
            ],
            [
              86.27770275410153,
              26.500344036385314
            ],
            [
              86.27745660044233,
              26.50002136704729
            ],
            [
              86.27712198608384,
              26.499565975044124
            ],
            [
              86.27603827289813,
              26.49840949004454
            ],
            [
              86.27584118432141,
              26.496538266217783
            ],
            [
              86.27545013959337,
              26.495995095214603
            ],
            [
              86.27482681119415,
              26.494140483190407
            ],
            [
              86.27383555082083,
              26.492653996831887
            ],
            [
              86.27217793903442,
              26.49066228782575
            ],
            [
              86.27187168718439,
              26.489486802199252
            ],
            [
              86.27166229617985,
              26.48905506021626
            ],
            [
              86.27165749558296,
              26.489055028055898
            ],
            [
              86.2703531570618,
              26.489046478215695
            ],
            [
              86.26895420438163,
              26.489087985215583
            ],
            [
              86.26751043026034,
              26.48857036672969
            ],
            [
              86.26500679861407,
              26.489034849820953
            ],
            [
              86.26400880716434,
              26.489041987016694
            ],
            [
              86.26365626961929,
              26.48887747040143
            ],
            [
              86.26367317321798,
              26.486223993601566
            ],
            [
              86.26391701371534,
              26.484864160106167
            ],
            [
              86.26371949035402,
              26.484646676175515
            ],
            [
              86.26267034523877,
              26.485671582957707
            ],
            [
              86.26165849817409,
              26.48639172691105
            ],
            [
              86.26034063371968,
              26.487077954252065
            ],
            [
              86.26011876062427,
              26.487521833916997
            ],
            [
              86.26055635694863,
              26.48881828874375
            ],
            [
              86.26168970924031,
              26.489956365302152
            ],
            [
              86.26253210439802,
              26.491078574998316
            ],
            [
              86.26285969123606,
              26.49240289367561
            ],
            [
              86.26298176329999,
              26.493746736954208
            ],
            [
              86.26315758426237,
              26.494923192826505
            ],
            [
              86.26337228790347,
              26.49595051314384
            ],
            [
              86.2632726611452,
              26.497742572864972
            ],
            [
              86.26373158077945,
              26.49860123061009
            ],
            [
              86.26407277889064,
              26.499763010003246
            ],
            [
              86.26406417123358,
              26.50001160086799
            ],
            [
              86.26402699086232,
              26.501026824851497
            ],
            [
              86.2636124237486,
              26.502370158104355
            ],
            [
              86.26359036921002,
              26.50385040589451
            ],
            [
              86.2634550101647,
              26.50557532499821
            ],
            [
              86.26367094898933,
              26.506751728916363
            ],
            [
              86.26368029595986,
              26.50677267094801
            ],
            [
              86.26410064822402,
              26.507714461139397
            ],
            [
              86.26474898931404,
              26.509564518040413
            ],
            [
              86.26484652838758,
              26.51039416615276
            ],
            [
              86.2667702867382,
              26.51069620668737
            ],
            [
              86.26755885394574,
              26.51227552190656
            ],
            [
              86.26862417682098,
              26.512158545984903
            ],
            [
              86.26914564884339,
              26.514415803332156
            ],
            [
              86.26927974036586,
              26.515394031775042
            ],
            [
              86.26962599329718,
              26.517115477884705
            ],
            [
              86.26997458184822,
              26.519103125743275
            ],
            [
              86.26809440706026,
              26.51921599280644
            ],
            [
              86.26706386605454,
              26.519552827389585
            ],
            [
              86.26481571617333,
              26.520033917807435
            ],
            [
              86.26269694435433,
              26.520401138900425
            ],
            [
              86.26192751844886,
              26.520754076311277
            ],
            [
              86.2622626762881,
              26.521216472094668
            ],
            [
              86.26243658204226,
              26.522176481240127
            ],
            [
              86.26254717812847,
              26.523917678683862
            ],
            [
              86.26217852211228,
              26.52421811389904
            ],
            [
              86.26214066530959,
              26.524252720744535
            ],
            [
              86.26177540492516,
              26.52458663575802
            ],
            [
              86.2616692590929,
              26.52562982375969
            ],
            [
              86.26158471055663,
              26.526293789218958
            ],
            [
              86.26121697261867,
              26.528421898006023
            ],
            [
              86.26117218980514,
              26.530177822957903
            ],
            [
              86.25854153368272,
              26.530548602619785
            ],
            [
              86.25502238265888,
              26.530858074354022
            ],
            [
              86.25314556487511,
              26.53138586379286
            ],
            [
              86.25099166982679,
              26.53178036911455
            ],
            [
              86.24999892184339,
              26.531870253680108
            ],
            [
              86.24761837556068,
              26.53208521620261
            ],
            [
              86.24682515328332,
              26.532156840282187
            ],
            [
              86.24472583268516,
              26.532536844911476
            ],
            [
              86.24459943702973,
              26.533006992357304
            ],
            [
              86.24469728602209,
              26.5333042420249
            ],
            [
              86.24616168366562,
              26.534354638678074
            ],
            [
              86.24580121130168,
              26.535602638117346
            ],
            [
              86.24613950336295,
              26.53584853461581
            ],
            [
              86.24651333726842,
              26.5367259361104
            ],
            [
              86.2460533019266,
              26.536909570332305
            ],
            [
              86.24572386905065,
              26.53711047279261
            ],
            [
              86.24560262792833,
              26.538189853372458
            ],
            [
              86.24400837072564,
              26.53953205271329
            ],
            [
              86.24281719298078,
              26.538159444259232
            ],
            [
              86.24203873002354,
              26.53750131378641
            ],
            [
              86.24147952786088,
              26.53723898090601
            ],
            [
              86.23925517704652,
              26.537687389922265
            ],
            [
              86.23809520677466,
              26.538191773330194
            ],
            [
              86.2361255732591,
              26.538489433900523
            ],
            [
              86.23549565122569,
              26.53819601266754
            ],
            [
              86.23469820327323,
              26.538251135289727
            ],
            [
              86.23423902312754,
              26.537951832208346
            ],
            [
              86.23394224940208,
              26.537872736025683
            ],
            [
              86.2332805090413,
              26.538540481808297
            ],
            [
              86.23296549322735,
              26.53807787614108
            ],
            [
              86.23294038531517,
              26.535140243225822
            ],
            [
              86.23201339311221,
              26.53471774969585
            ],
            [
              86.23156870638535,
              26.534359726052983
            ],
            [
              86.23113212515725,
              26.532584674217514
            ],
            [
              86.23050063466536,
              26.532110635896323
            ],
            [
              86.22946616442856,
              26.532000398388462
            ],
            [
              86.22890589506733,
              26.531042897017947
            ],
            [
              86.2275012794076,
              26.531084036817862
            ],
            [
              86.22702250431061,
              26.53085266212211
            ],
            [
              86.22477320189094,
              26.53130100125755
            ],
            [
              86.22387345109898,
              26.531722328323305
            ],
            [
              86.22299208612597,
              26.53250900615814
            ],
            [
              86.2227422610522,
              26.533237333169083
            ],
            [
              86.22279218941569,
              26.53440569003292
            ],
            [
              86.2228332217629,
              26.535095898166855
            ],
            [
              86.22305486309295,
              26.535784881354942
            ],
            [
              86.22371863184965,
              26.536538483323138
            ],
            [
              86.2239381621388,
              26.537575036082806
            ],
            [
              86.22373869033164,
              26.538307523657874
            ],
            [
              86.2233072905861,
              26.53952873280837
            ],
            [
              86.22316537383922,
              26.54054965891485
            ],
            [
              86.22273551380611,
              26.5413377452884
            ],
            [
              86.2225849876055,
              26.541938968940507
            ],
            [
              86.2229553252679,
              26.542401305892238
            ],
            [
              86.22337642942198,
              26.543535629800516
            ],
            [
              86.22331339643512,
              26.54498464063958
            ],
            [
              86.22134508434135,
              26.545458277802872
            ],
            [
              86.21980789980356,
              26.545301641088322
            ],
            [
              86.21810817140336,
              26.545480029246615
            ],
            [
              86.21753823527133,
              26.545736607091566
            ],
            [
              86.21678571925277,
              26.545773242998692
            ],
            [
              86.21608513663742,
              26.54600809295655
            ],
            [
              86.21473695763541,
              26.54622472139135
            ],
            [
              86.2133959417995,
              26.546707545081453
            ],
            [
              86.21290891657496,
              26.546503759209163
            ],
            [
              86.2128652189263,
              26.54649324078849
            ],
            [
              86.21206676486071,
              26.548274448325994
            ],
            [
              86.21168337288061,
              26.54923819521342
            ],
            [
              86.21136006561659,
              26.550183450013233
            ],
            [
              86.21099547896864,
              26.551589281300163
            ],
            [
              86.21046553044319,
              26.553632458169027
            ],
            [
              86.21009875010932,
              26.554781101936175
            ],
            [
              86.20937128900233,
              26.556013357127632
            ],
            [
              86.2091997062915,
              26.55710206400189
            ],
            [
              86.208745096774,
              26.558553607264887
            ],
            [
              86.20897750620935,
              26.560546467214497
            ],
            [
              86.2089560032364,
              26.562189127151438
            ],
            [
              86.20891169024173,
              26.56349810578625
            ],
            [
              86.20975068617439,
              26.564205337400445
            ],
            [
              86.21150629517517,
              26.5647079490031
            ],
            [
              86.21062104409025,
              26.565061352718313
            ],
            [
              86.20908999863912,
              26.56502201766489
            ],
            [
              86.20867129119023,
              26.565358843910552
            ],
            [
              86.20696071922622,
              26.566065171385258
            ],
            [
              86.20407040417261,
              26.56671633176176
            ],
            [
              86.20169558464983,
              26.567196991396983
            ],
            [
              86.20201698568881,
              26.56844029798436
            ],
            [
              86.20367907198369,
              26.568541980648323
            ],
            [
              86.20436384604669,
              26.568821635027067
            ],
            [
              86.2055156775821,
              26.569725431281228
            ],
            [
              86.20475024019646,
              26.570624014927485
            ],
            [
              86.20397728301364,
              26.571229363290826
            ],
            [
              86.20313014564957,
              26.57195251614606
            ],
            [
              86.20352052292931,
              26.572428199086747
            ],
            [
              86.20451996066666,
              26.573120998362683
            ],
            [
              86.20563953190357,
              26.574372429842487
            ],
            [
              86.20634817779691,
              26.575098646332787
            ],
            [
              86.20707416207355,
              26.576086497048582
            ],
            [
              86.20736070758119,
              26.57734810321687
            ],
            [
              86.20653794510405,
              26.577998878107817
            ],
            [
              86.20613192456194,
              26.578069274855466
            ],
            [
              86.20357588699859,
              26.576692051940437
            ],
            [
              86.20317144569475,
              26.576942966690567
            ],
            [
              86.2025090136312,
              26.577561136703086
            ],
            [
              86.2016490680878,
              26.57857766462231
            ],
            [
              86.20074964967252,
              26.579066501094808
            ],
            [
              86.20016555519331,
              26.579449424781142
            ],
            [
              86.2000724663737,
              26.579716261199376
            ],
            [
              86.20047997632253,
              26.579830829613663
            ],
            [
              86.20211917444229,
              26.579589748885276
            ],
            [
              86.20374232056623,
              26.57921343265141
            ],
            [
              86.20429495604417,
              26.579272906730825
            ],
            [
              86.20490346673282,
              26.579417698630056
            ],
            [
              86.2051862941135,
              26.579632458737013
            ],
            [
              86.20546574472701,
              26.580045706238284
            ],
            [
              86.20556372487339,
              26.580956550234593
            ],
            [
              86.20552283984986,
              26.582685086118552
            ],
            [
              86.20556671177171,
              26.583745155733347
            ],
            [
              86.20620293189359,
              26.584801360309516
            ],
            [
              86.20631807165849,
              26.58536460968134
            ],
            [
              86.20588147336241,
              26.585981202280276
            ],
            [
              86.20519963409546,
              26.586085075316667
            ],
            [
              86.20370168527435,
              26.58581536335144
            ],
            [
              86.20233482580602,
              26.585625954385755
            ],
            [
              86.20108275396302,
              26.585963719390563
            ],
            [
              86.20053319701152,
              26.586283235789175
            ],
            [
              86.20005519985563,
              26.58675123484693
            ],
            [
              86.19993017143602,
              26.587415394248893
            ],
            [
              86.20002992485679,
              26.587947225085934
            ],
            [
              86.20021839589495,
              26.588275350695934
            ],
            [
              86.20145666332698,
              26.58870025278018
            ],
            [
              86.2029578101505,
              26.5893355436712
            ],
            [
              86.20391961566398,
              26.59031277082714
            ],
            [
              86.20482253391559,
              26.59144382426896
            ],
            [
              86.20625455358139,
              26.593428770073626
            ],
            [
              86.20603800300405,
              26.59455824000134
            ],
            [
              86.2038498533973,
              26.59537438734824
            ],
            [
              86.20385205696469,
              26.595644414964028
            ],
            [
              86.2038302683275,
              26.595644526617587
            ],
            [
              86.20401170915028,
              26.595910723647002
            ],
            [
              86.20448010960402,
              26.596516465272902
            ],
            [
              86.2046142020248,
              26.596689885086924
            ],
            [
              86.20471360061099,
              26.596692478799408
            ],
            [
              86.2054750422902,
              26.596645624085326
            ],
            [
              86.20555060228368,
              26.596553346806182
            ],
            [
              86.20568067115032,
              26.596394502700907
            ],
            [
              86.20595314814229,
              26.5961328918025
            ],
            [
              86.20595317868502,
              26.596132873327523
            ],
            [
              86.20608079784587,
              26.5960103480644
            ],
            [
              86.20638283569889,
              26.59549209772431
            ],
            [
              86.20659683236588,
              26.595208310605706
            ],
            [
              86.20684609958587,
              26.594964902257626
            ],
            [
              86.20699096729845,
              26.5947405533682
            ],
            [
              86.20709251106156,
              26.594583310074512
            ],
            [
              86.20725503066951,
              26.594081146867026
            ],
            [
              86.20731457729474,
              26.593817908866406
            ],
            [
              86.20736595913235,
              26.593590793650993
            ],
            [
              86.2076162827711,
              26.59331452934872
            ],
            [
              86.20788959339967,
              26.593005978893647
            ],
            [
              86.20845557784274,
              26.592922093781286
            ],
            [
              86.20890758404256,
              26.592743160143876
            ],
            [
              86.2091375590435,
              26.592643932114523
            ],
            [
              86.20959019855562,
              26.592445282205958
            ],
            [
              86.20981286396508,
              26.592345862736252
            ],
            [
              86.2098915456042,
              26.592356371325113
            ],
            [
              86.21011878613344,
              26.59238672187867
            ],
            [
              86.21109894512644,
              26.592616148925668
            ],
            [
              86.21144035524007,
              26.592690815778617
            ],
            [
              86.21176681109915,
              26.592725617237345
            ],
            [
              86.21184860719733,
              26.592734337682458
            ],
            [
              86.21238969483232,
              26.592741859628127
            ],
            [
              86.21272030000969,
              26.592697862183215
            ],
            [
              86.21292103484815,
              26.592597865371452
            ],
            [
              86.21298850820746,
              26.592093223342182
            ],
            [
              86.21297695856785,
              26.591770665034485
            ],
            [
              86.21325650170785,
              26.59149515063011
            ],
            [
              86.21337683014183,
              26.590939271137163
            ],
            [
              86.21365817440397,
              26.590834797622904
            ],
            [
              86.21400424497732,
              26.59121867964264
            ],
            [
              86.21446121706403,
              26.591112202162865
            ],
            [
              86.2146516751756,
              26.591104009358908
            ],
            [
              86.21490812622292,
              26.59109095661998
            ],
            [
              86.21502585762741,
              26.59068808421398
            ],
            [
              86.21514654808249,
              26.590275083982085
            ],
            [
              86.21530934976141,
              26.589989951248445
            ],
            [
              86.2153723719685,
              26.589806005230376
            ],
            [
              86.21541431520744,
              26.589683580836784
            ],
            [
              86.215940656997,
              26.589467102030568
            ],
            [
              86.21627315672134,
              26.589363955039214
            ],
            [
              86.21684673462352,
              26.589043475234696
            ],
            [
              86.21687322683955,
              26.589012832996588
            ],
            [
              86.21715824790616,
              26.588683290048458
            ],
            [
              86.21767685070955,
              26.588479756351344
            ],
            [
              86.21790773300896,
              26.5885710062766
            ],
            [
              86.21924426804824,
              26.589099278709607
            ],
            [
              86.22058077523971,
              26.589620706953937
            ],
            [
              86.22091879960306,
              26.589800488941883
            ],
            [
              86.22130131392912,
              26.58996169426996
            ],
            [
              86.22146456027411,
              26.590117200748313
            ],
            [
              86.22172726000255,
              26.59013718287844
            ],
            [
              86.22183946137817,
              26.59013851475257
            ],
            [
              86.22219524633296,
              26.59014276903794
            ],
            [
              86.22240010982847,
              26.590141516690743
            ],
            [
              86.22246314371363,
              26.590228652390255
            ],
            [
              86.22221037755561,
              26.59034420316466
            ],
            [
              86.22213647764876,
              26.590378002015232
            ],
            [
              86.22201509638926,
              26.590512956328038
            ],
            [
              86.22220005860795,
              26.590675601769124
            ],
            [
              86.22262474165008,
              26.59089051507512
            ],
            [
              86.22313819081873,
              26.591074848948494
            ],
            [
              86.22372591628832,
              26.591451833094663
            ],
            [
              86.22390048859243,
              26.591482674699627
            ],
            [
              86.22410029816612,
              26.59125545604515
            ],
            [
              86.22416623271134,
              26.591180475774323
            ],
            [
              86.22430320333429,
              26.59124322428985
            ],
            [
              86.22435969299262,
              26.591206262322462
            ],
            [
              86.22446759323465,
              26.591135691303762
            ],
            [
              86.2248444463778,
              26.590790340762275
            ],
            [
              86.22521952894154,
              26.590727738198645
            ],
            [
              86.22564155297043,
              26.590797887737917
            ],
            [
              86.22644744508655,
              26.590759621071985
            ],
            [
              86.22676524388125,
              26.590886250374666
            ],
            [
              86.22697857669324,
              26.590907558612674
            ],
            [
              86.2271882003614,
              26.590928490100847
            ],
            [
              86.22768301757272,
              26.591008720073123
            ],
            [
              86.2279151449371,
              26.591297538992833
            ],
            [
              86.22860717559095,
              26.59207180688103
            ],
            [
              86.2289667262834,
              26.592265280255095
            ],
            [
              86.22951301336727,
              26.592338641193592
            ],
            [
              86.22989273662773,
              26.592131462250528
            ],
            [
              86.23011229206969,
              26.591900397128445
            ],
            [
              86.23051506520207,
              26.5914307498799
            ],
            [
              86.23081993813815,
              26.59150442062076
            ],
            [
              86.23099767790193,
              26.59212065562128
            ],
            [
              86.23106936795318,
              26.5926223382306
            ],
            [
              86.23124064613513,
              26.59321209833388
            ],
            [
              86.23164286231203,
              26.593215947651895
            ],
            [
              86.23248228584276,
              26.592816804334927
            ],
            [
              86.23317010968614,
              26.592354536619723
            ],
            [
              86.2337307868825,
              26.591750862323238
            ],
            [
              86.23407795789207,
              26.591417873902643
            ],
            [
              86.23393689544298,
              26.591026198175886
            ],
            [
              86.23392276135031,
              26.590782497369513
            ],
            [
              86.2343644620772,
              26.590695291401413
            ],
            [
              86.23466364957584,
              26.59094637709349
            ],
            [
              86.23475108709403,
              26.5911853999684
            ],
            [
              86.23480155714161,
              26.591436618735237
            ],
            [
              86.23472657476485,
              26.591950282987835
            ],
            [
              86.23464963136583,
              26.592296850221715
            ],
            [
              86.23458701699387,
              26.592491609274838
            ],
            [
              86.23458462837357,
              26.59249904126854
            ],
            [
              86.23449911235177,
              26.59288484638754
            ],
            [
              86.23445730026687,
              26.593048177673477
            ],
            [
              86.23436588590691,
              26.59361797575193
            ],
            [
              86.2343989996049,
              26.59395424075606
            ],
            [
              86.23442302235225,
              26.59413007829011
            ],
            [
              86.23447183410984,
              26.59448735938022
            ],
            [
              86.23448195363152,
              26.59456143701833
            ],
            [
              86.2345217903211,
              26.594972278665235
            ],
            [
              86.23452599892819,
              26.595015675195036
            ],
            [
              86.23453693412016,
              26.59512844986682
            ],
            [
              86.23454917456421,
              26.595431290618713
            ],
            [
              86.23476339221675,
              26.59579586287162
            ],
            [
              86.23493765011054,
              26.596092437233963
            ],
            [
              86.23516327457055,
              26.596584950129966
            ],
            [
              86.23519319835097,
              26.596742982683086
            ],
            [
              86.23523835486367,
              26.59698148981207
            ],
            [
              86.2351925407842,
              26.59737450425866
            ],
            [
              86.2351879090706,
              26.597414238661454
            ],
            [
              86.23523820394672,
              26.597482370354445
            ],
            [
              86.23527204258515,
              26.59752821986045
            ],
            [
              86.23514441444117,
              26.59763014096525
            ],
            [
              86.2350494310746,
              26.597644387389586
            ],
            [
              86.23469600868899,
              26.597697445183655
            ],
            [
              86.2346678914206,
              26.59781871075442
            ],
            [
              86.23465356419011,
              26.597880491733658
            ],
            [
              86.23471420496338,
              26.59800126632687
            ],
            [
              86.23477734395145,
              26.59812703216068
            ],
            [
              86.2348802612386,
              26.598233385037094
            ],
            [
              86.23519512613558,
              26.598558754953334
            ],
            [
              86.23523574256285,
              26.59857539331798
            ],
            [
              86.23636472634729,
              26.59903788169634
            ],
            [
              86.23648043474579,
              26.599085280830007
            ],
            [
              86.23663903500413,
              26.599131790759035
            ],
            [
              86.23729216141969,
              26.599323322018744
            ],
            [
              86.23752685257583,
              26.599533270350545
            ],
            [
              86.23754532642968,
              26.59964235131223
            ],
            [
              86.23755569298805,
              26.599703576271796
            ],
            [
              86.23758837369809,
              26.59989657408131
            ],
            [
              86.23744649018886,
              26.600215155983285
            ],
            [
              86.23739689330368,
              26.600621619819723
            ],
            [
              86.23736730908644,
              26.6006392587064
            ],
            [
              86.23727010418618,
              26.600697258174044
            ],
            [
              86.2372364452108,
              26.600834495136503
            ],
            [
              86.23721216644361,
              26.600940277615734
            ],
            [
              86.23718543078414,
              26.601056779035265
            ],
            [
              86.23717364488759,
              26.601424763124882
            ],
            [
              86.23740644688675,
              26.601693852759322
            ],
            [
              86.23746273801738,
              26.60171345937067
            ],
            [
              86.23763073285699,
              26.601771999664038
            ],
            [
              86.23815293610807,
              26.601456683982434
            ],
            [
              86.23854145657012,
              26.601203674335128
            ],
            [
              86.23855117723981,
              26.601200313645997
            ],
            [
              86.2388077612378,
              26.601111914795553
            ],
            [
              86.2388251759779,
              26.60111466021724
            ],
            [
              86.23897427655213,
              26.601138156943804
            ],
            [
              86.23948083025265,
              26.601218003849787
            ],
            [
              86.23950654632425,
              26.601222065752808
            ],
            [
              86.24001817370949,
              26.60146548006831
            ],
            [
              86.24009210415905,
              26.601669951323654
            ],
            [
              86.2400502462601,
              26.602063462922636
            ],
            [
              86.23980497833975,
              26.60230438065837
            ],
            [
              86.23976322105207,
              26.602345409739748
            ],
            [
              86.23965915122639,
              26.60262551087948
            ],
            [
              86.23972729562725,
              26.602761837095027
            ],
            [
              86.23987229269724,
              26.60305192514432
            ],
            [
              86.24012420635405,
              26.603329913720938
            ],
            [
              86.24014081261039,
              26.60334823893371
            ],
            [
              86.24031092028753,
              26.603450035176095
            ],
            [
              86.24054280420846,
              26.603588815813637
            ],
            [
              86.24118649022867,
              26.603592307355388
            ],
            [
              86.24167835377935,
              26.603539257917323
            ],
            [
              86.24190185192707,
              26.603413503655126
            ],
            [
              86.24206089056331,
              26.603284672962857
            ],
            [
              86.24239754319917,
              26.603011994306147
            ],
            [
              86.24245640440985,
              26.60299401522366
            ],
            [
              86.24251834774029,
              26.602975100396872
            ],
            [
              86.24264284435719,
              26.602937081175988
            ],
            [
              86.24271522790784,
              26.602914979194836
            ],
            [
              86.24296334169098,
              26.602934544633104
            ],
            [
              86.24304905264718,
              26.602939091615113
            ],
            [
              86.24320435519013,
              26.602947348631922
            ],
            [
              86.24325295584366,
              26.603257705205507
            ],
            [
              86.2432714791048,
              26.603593589274045
            ],
            [
              86.24306234591677,
              26.60395647208358
            ],
            [
              86.24258353937874,
              26.60451626097502
            ],
            [
              86.24269687891983,
              26.604861171706997
            ],
            [
              86.24278728357339,
              26.605008192239936
            ],
            [
              86.2428033301793,
              26.605192750756466
            ],
            [
              86.24248811493936,
              26.605441090645694
            ],
            [
              86.24238404780866,
              26.605721193844076
            ],
            [
              86.24257847467717,
              26.605818290107514
            ],
            [
              86.24266198565923,
              26.605856678642045
            ],
            [
              86.24316969818646,
              26.606090056880248
            ],
            [
              86.24336538808627,
              26.606147725883243
            ],
            [
              86.24357048783871,
              26.606139872298467
            ],
            [
              86.24392536010515,
              26.606024086878588
            ],
            [
              86.24406466994112,
              26.606014532931678
            ],
            [
              86.24424741960924,
              26.606019254083513
            ],
            [
              86.2443188401659,
              26.606073711969515
            ],
            [
              86.24438647791693,
              26.606246449847855
            ],
            [
              86.24428552344865,
              26.60665816597287
            ],
            [
              86.24380318293831,
              26.60709948833892
            ],
            [
              86.24370852655852,
              26.60731406960607
            ],
            [
              86.24364416406502,
              26.60749654978881
            ],
            [
              86.24362613757224,
              26.607831488922
            ],
            [
              86.24392874316052,
              26.608405213988778
            ],
            [
              86.24398483306855,
              26.608511566145406
            ],
            [
              86.24421325308575,
              26.608918638221105
            ],
            [
              86.24458603057245,
              26.609158447604432
            ],
            [
              86.24499267185043,
              26.609254446232825
            ],
            [
              86.24519714727371,
              26.6092663041963
            ],
            [
              86.245330451872,
              26.608986954217258
            ],
            [
              86.24548778730241,
              26.608642459921327
            ],
            [
              86.2453936348775,
              26.608383541958812
            ],
            [
              86.24537021400141,
              26.608058860194934
            ],
            [
              86.24536321612533,
              26.60796185739558
            ],
            [
              86.24554783967915,
              26.607831842320067
            ],
            [
              86.24560611518827,
              26.607767418637206
            ],
            [
              86.24568548314024,
              26.607734918039622
            ],
            [
              86.24584971493714,
              26.60761928523196
            ],
            [
              86.24645817082852,
              26.607352203833486
            ],
            [
              86.24662538682875,
              26.607843187200665
            ],
            [
              86.246726774285,
              26.608562650324405
            ],
            [
              86.24699704142137,
              26.60857620305292
            ],
            [
              86.24740956037624,
              26.608488202653643
            ],
            [
              86.24764407815759,
              26.60870470732029
            ],
            [
              86.2478355181278,
              26.608721142613383
            ],
            [
              86.24797240610573,
              26.608732909873808
            ],
            [
              86.24799974363647,
              26.608619294036586
            ],
            [
              86.24806520117626,
              26.608347288305172
            ],
            [
              86.2481836332667,
              26.608304308057047
            ],
            [
              86.24922220521107,
              26.609001915654336
            ],
            [
              86.24910979093474,
              26.609314690200215
            ],
            [
              86.24922882040484,
              26.609482175298485
            ],
            [
              86.24925239489284,
              26.609660350272684
            ],
            [
              86.24907523813563,
              26.60993857096659
            ],
            [
              86.24891290986884,
              26.610210597811502
            ],
            [
              86.24859496734372,
              26.61054437566125
            ],
            [
              86.2483601270672,
              26.61102498061012
            ],
            [
              86.24812412886226,
              26.611648917101846
            ],
            [
              86.24803848168644,
              26.611875366802032
            ],
            [
              86.24799089163764,
              26.612055663176736
            ],
            [
              86.24790688298891,
              26.612387784374476
            ],
            [
              86.2482619447999,
              26.612495595354076
            ],
            [
              86.24839429179407,
              26.61246624282182
            ],
            [
              86.24913880921333,
              26.612301194019892
            ],
            [
              86.24923569970328,
              26.61247468387422
            ],
            [
              86.24953434461945,
              26.612745450177375
            ],
            [
              86.24962850872251,
              26.61300436388675
            ],
            [
              86.24962595930371,
              26.613313396102846
            ],
            [
              86.24976027360836,
              26.61323136587226
            ],
            [
              86.24969582038504,
              26.614104383217168
            ],
            [
              86.25009076739465,
              26.614338172694833
            ],
            [
              86.25085543582237,
              26.614449965365207
            ],
            [
              86.25109078364704,
              26.61487035465368
            ],
            [
              86.25144687492735,
              26.615175481044613
            ],
            [
              86.25133404203608,
              26.615501400295408
            ],
            [
              86.25166041794513,
              26.61627926859988
            ],
            [
              86.25205366983378,
              26.61679580006774
            ],
            [
              86.25230430339131,
              26.616966675393932
            ],
            [
              86.2526875776921,
              26.61710808427905
            ],
            [
              86.25301614010056,
              26.617129704059547
            ],
            [
              86.25324279762314,
              26.61690536731651
            ],
            [
              86.25327716536928,
              26.616894175123413
            ],
            [
              86.25352374842318,
              26.616813959287654
            ],
            [
              86.2535659899028,
              26.616678685036693
            ],
            [
              86.2536252814065,
              26.616488810754685
            ],
            [
              86.25379266359506,
              26.615952786169625
            ],
            [
              86.25355811976259,
              26.615736292815598
            ],
            [
              86.25286633434882,
              26.615632971134563
            ],
            [
              86.25268503725648,
              26.6155822619598
            ],
            [
              86.25285760901245,
              26.615218424175954
            ],
            [
              86.25304097133161,
              26.6148161603667
            ],
            [
              86.25308575594183,
              26.614717909614388
            ],
            [
              86.25310460888467,
              26.61468236873824
            ],
            [
              86.25456826721475,
              26.614850494099713
            ],
            [
              86.25782099589165,
              26.615219530882964
            ],
            [
              86.2601612141063,
              26.61548351714159
            ],
            [
              86.26138983273388,
              26.61562922617363
            ],
            [
              86.26428147370083,
              26.61594807667152
            ],
            [
              86.26737091201528,
              26.61632085324445
            ],
            [
              86.26882580727977,
              26.61648045914455
            ],
            [
              86.27183450411812,
              26.616826616369043
            ],
            [
              86.27497835428763,
              26.617200625263276
            ],
            [
              86.2758645045862,
              26.617280379842008
            ],
            [
              86.27710735881607,
              26.6169780273995
            ],
            [
              86.28283667266268,
              26.61560042217555
            ],
            [
              86.28284756922706,
              26.61559774777639
            ],
            [
              86.28365127933537,
              26.61540059699988
            ],
            [
              86.28530418035643,
              26.614995122126217
            ],
            [
              86.28825501041919,
              26.614279155347184
            ],
            [
              86.2908966223948,
              26.613638159325603
            ],
            [
              86.29160427385314,
              26.613465923328384
            ],
            [
              86.29213939757294,
              26.613335675977826
            ],
            [
              86.29304435859352,
              26.61310608005594
            ],
            [
              86.29356216009971,
              26.613363804303706
            ],
            [
              86.29611026104752,
              26.614512790266485
            ],
            [
              86.29745036239848,
              26.61515008138354
            ],
            [
              86.29828800187504,
              26.615539951826264
            ],
            [
              86.29922880657377,
              26.61597782987012
            ],
            [
              86.29967483897697,
              26.616186164686752
            ],
            [
              86.3017757388134,
              26.617167438276613
            ],
            [
              86.30249291421038,
              26.61749388511407
            ],
            [
              86.3038051318549,
              26.6180911722025
            ],
            [
              86.30468374259327,
              26.6185068210422
            ],
            [
              86.30573514158158,
              26.619004199781074
            ],
            [
              86.30723574312773,
              26.619682997083878
            ],
            [
              86.30785418559013,
              26.6199627570123
            ],
            [
              86.30986830457688,
              26.619932380044833
            ],
            [
              86.31277600113292,
              26.61987203566302
            ],
            [
              86.31357965464734,
              26.619855358635405
            ],
            [
              86.31686359978035,
              26.619816322688255
            ]
          ]
        ]
      }
    }
  ]
}