{
  "type": "FeatureCollection",
  "features": [
    {
      "type": "Feature",
      "properties": {
        "object_id": "10-227-01366",
        "stname": "BIHAR",
        "dtname": "Lakhisarai",
        "sdtname": "Pipariya",
        "st_area_sh": 0.0,
        "st_length_": 0.0,
        "remarks": "",
        "dist_lgd": 204,
        "state_lgd": 10,
        "subdt_lgd": 1366,
        "ac_no": null,
        "st_length(shape)": 87968.2901826016,
        "st_area(shape)": 106258171.87143916
      },
      "geometry": {
        "type": "Polygon",
        "coordinates": [
          [
            [
              86.11858032662927,
              25.305695117657255
            ],
            [
              86.12241359066022,
              25.304964064315115
            ],
            [
              86.12298466226275,
              25.304815125859783
            ],
            [
              86.12491612905681,
              25.304047849730285
            ],
            [
              86.12608791936123,
              25.303506224313196
            ],
            [
              86.12916136496864,
              25.30266212672603
            ],
            [
              86.13577485371849,
              25.30088346289537
            ],
            [
              86.13672813871148,
              25.300635121616946
            ],
            [
              86.13744372409037,
              25.3004447688488
            ],
            [
              86.14110726222818,
              25.29947016598394
            ],
            [
              86.14396211179437,
              25.29873410792414
            ],
            [
              86.14544760906732,
              25.298360552891282
            ],
            [
              86.14565007226436,
              25.29830963924713
            ],
            [
              86.14701044140477,
              25.297939333190477
            ],
            [
              86.14730839731315,
              25.297817435287474
            ],
            [
              86.1474472615847,
              25.29742019135122
            ],
            [
              86.14818142592034,
              25.293610574128678
            ],
            [
              86.14954046285915,
              25.287128841973797
            ],
            [
              86.15011087599659,
              25.2844070242343
            ],
            [
              86.15016535612364,
              25.284185919117945
            ],
            [
              86.15048800222759,
              25.283964643024262
            ],
            [
              86.15195738821592,
              25.283346045616383
            ],
            [
              86.15288565961983,
              25.282971210969553
            ],
            [
              86.15375430534674,
              25.282528753043497
            ],
            [
              86.15430033641071,
              25.28220363820013
            ],
            [
              86.15437775501854,
              25.282109738083882
            ],
            [
              86.15446410018532,
              25.28200501193814
            ],
            [
              86.1544887472618,
              25.28138667989846
            ],
            [
              86.15476144074775,
              25.279743675983216
            ],
            [
              86.15487048813841,
              25.278998865143627
            ],
            [
              86.15508368440648,
              25.278258622150318
            ],
            [
              86.15513801900642,
              25.277067046767343
            ],
            [
              86.15527700634718,
              25.276773641118666
            ],
            [
              86.15581799876074,
              25.27642591566596
            ],
            [
              86.15737165031601,
              25.27595619866837
            ],
            [
              86.15758997865926,
              25.275807183964787
            ],
            [
              86.15758989421764,
              25.275531854966978
            ],
            [
              86.15761450536148,
              25.274642707908914
            ],
            [
              86.15815916739295,
              25.26952861708014
            ],
            [
              86.15856483399887,
              25.264532024315645
            ],
            [
              86.15868639492143,
              25.26440787501642
            ],
            [
              86.15880795584398,
              25.264283726402606
            ],
            [
              86.16022229756327,
              25.2631956083605
            ],
            [
              86.16454451639999,
              25.259800230387796
            ],
            [
              86.16549725431895,
              25.259010062121607
            ],
            [
              86.16626143226655,
              25.258463720104796
            ],
            [
              86.16647979115255,
              25.258391447188142
            ],
            [
              86.16650471221516,
              25.258711886932357
            ],
            [
              86.16637131868366,
              25.260418106157587
            ],
            [
              86.16599045186783,
              25.264552671171824
            ],
            [
              86.1658568912497,
              25.26588874236256
            ],
            [
              86.16577322396077,
              25.267843207115938
            ],
            [
              86.16553085759881,
              25.27066872629076
            ],
            [
              86.16544665401564,
              25.271160753671815
            ],
            [
              86.16564033977406,
              25.27128709589078
            ],
            [
              86.16611386421819,
              25.271024105910328
            ],
            [
              86.1680461628522,
              25.269711732370723
            ],
            [
              86.16955581672146,
              25.26853719277891
            ],
            [
              86.17123795700677,
              25.267438024021985
            ],
            [
              86.17437941496266,
              25.265385181332686
            ],
            [
              86.17736662499776,
              25.263163459345726
            ],
            [
              86.1791869369535,
              25.261574256634756
            ],
            [
              86.18025922985703,
              25.26068442076759
            ],
            [
              86.18170284767146,
              25.25993524807142
            ],
            [
              86.18340040484364,
              25.259135000117627
            ],
            [
              86.18539040137003,
              25.258421048874904
            ],
            [
              86.18726972635174,
              25.25794982582141
            ],
            [
              86.1888504378583,
              25.258070931854622
            ],
            [
              86.1888645728493,
              25.258072014826322
            ],
            [
              86.18921581592203,
              25.25815170299429
            ],
            [
              86.18930143255513,
              25.25817112822641
            ],
            [
              86.19144567700232,
              25.258269485172754
            ],
            [
              86.193594908896,
              25.2584400808481
            ],
            [
              86.19419555213936,
              25.258489414802483
            ],
            [
              86.19432953855893,
              25.25843975831364
            ],
            [
              86.194329518796,
              25.258367514630173
            ],
            [
              86.19373322968681,
              25.257252913360524
            ],
            [
              86.19231650922865,
              25.253245511308524
            ],
            [
              86.19247431986787,
              25.251739321761587
            ],
            [
              86.1931120249049,
              25.250742982130255
            ],
            [
              86.19351420155591,
              25.25042216874373
            ],
            [
              86.1939259847906,
              25.250255191173412
            ],
            [
              86.19447819267046,
              25.250001318853112
            ],
            [
              86.19534192730771,
              25.249822315083833
            ],
            [
              86.2002670747019,
              25.249515534203876
            ],
            [
              86.20035095309491,
              25.24951030908625
            ],
            [
              86.20049794801812,
              25.249165760383733
            ],
            [
              86.20061289105196,
              25.248618867900927
            ],
            [
              86.20061562013382,
              25.247066334185487
            ],
            [
              86.20072876743542,
              25.246298302808945
            ],
            [
              86.20080857735852,
              25.24506569517165
            ],
            [
              86.20092509334243,
              25.244103682824246
            ],
            [
              86.2010387302259,
              25.24338980492678
            ],
            [
              86.2008579047491,
              25.24311567565529
            ],
            [
              86.1993449513678,
              25.242579339216277
            ],
            [
              86.19696510217774,
              25.24223800069726
            ],
            [
              86.19635863874964,
              25.242106479197435
            ],
            [
              86.19469851796863,
              25.241787707673012
            ],
            [
              86.19453086628546,
              25.241278752991104
            ],
            [
              86.19455639281259,
              25.2407279775957
            ],
            [
              86.19437135872869,
              25.239907758119607
            ],
            [
              86.19403279896945,
              25.239115607013204
            ],
            [
              86.19342806839154,
              25.238573370783186
            ],
            [
              86.19272609698076,
              25.23764355301554
            ],
            [
              86.19098056797577,
              25.23588555322488
            ],
            [
              86.18949354356684,
              25.234166398342396
            ],
            [
              86.18924826576502,
              25.233897135205897
            ],
            [
              86.18927617103101,
              25.233648735669266
            ],
            [
              86.18948884717453,
              25.233566158903923
            ],
            [
              86.19024402310465,
              25.233669647805062
            ],
            [
              86.19108306485136,
              25.233718553829224
            ],
            [
              86.19165953263379,
              25.233827708818808
            ],
            [
              86.19202133899597,
              25.23376671062166
            ],
            [
              86.19213954021934,
              25.233657597019658
            ],
            [
              86.19177311112675,
              25.23311383882339
            ],
            [
              86.19152776684962,
              25.23218113599123
            ],
            [
              86.1914283844331,
              25.231522862389948
            ],
            [
              86.19157817491347,
              25.231002864388202
            ],
            [
              86.19193464168956,
              25.230892327044536
            ],
            [
              86.1926893127665,
              25.23094165024388
            ],
            [
              86.19326536283234,
              25.230992128146255
            ],
            [
              86.19345724028206,
              25.230783326254148
            ],
            [
              86.19345516966534,
              25.230508025200475
            ],
            [
              86.19294155430839,
              25.230181785363854
            ],
            [
              86.1917617061159,
              25.22969737527131
            ],
            [
              86.19109856797654,
              25.22929096627079
            ],
            [
              86.19037435787259,
              25.229322599293933
            ],
            [
              86.18964897906044,
              25.229218932790996
            ],
            [
              86.1889873060733,
              25.229001973149654
            ],
            [
              86.18747084297418,
              25.22796907202776
            ],
            [
              86.18671247982145,
              25.227427698672436
            ],
            [
              86.18475937081556,
              25.22575218367598
            ],
            [
              86.1840916036575,
              25.2253727406779
            ],
            [
              86.18272668814349,
              25.224036428712015
            ],
            [
              86.18148320868616,
              25.223001686985548
            ],
            [
              86.1812419544385,
              25.22259248603285
            ],
            [
              86.18114351704966,
              25.222047030256668
            ],
            [
              86.18204569868277,
              25.221928450682345
            ],
            [
              86.18331145186755,
              25.221979150122348
            ],
            [
              86.18487875422187,
              25.22188355127444
            ],
            [
              86.18677155483115,
              25.221542109138145
            ],
            [
              86.18797610040575,
              25.221371977714266
            ],
            [
              86.18845529411765,
              25.22109365088092
            ],
            [
              86.18921915136666,
              25.22041624520476
            ],
            [
              86.18999309220473,
              25.21975695138669
            ],
            [
              86.19161047204288,
              25.2184287510177
            ],
            [
              86.19289680203755,
              25.217296754047382
            ],
            [
              86.19457140366097,
              25.215697476866307
            ],
            [
              86.19539610560082,
              25.215182150978123
            ],
            [
              86.19638715576833,
              25.215013401223512
            ],
            [
              86.1966673376105,
              25.21467308411781
            ],
            [
              86.19735447603934,
              25.214343744339143
            ],
            [
              86.1989575052908,
              25.21375577435097
            ],
            [
              86.20025714202978,
              25.213070390670616
            ],
            [
              86.20118958790479,
              25.213028339060884
            ],
            [
              86.20080955921715,
              25.21201074516699
            ],
            [
              86.19990466197692,
              25.21113201425285
            ],
            [
              86.19802577896631,
              25.209410931910877
            ],
            [
              86.19697317174396,
              25.208668467874876
            ],
            [
              86.19577067612484,
              25.207791586258683
            ],
            [
              86.19391948368288,
              25.207717618663395
            ],
            [
              86.1932789022403,
              25.207654069095
            ],
            [
              86.19294392226746,
              25.20731321692484
            ],
            [
              86.19166177662538,
              25.205759728264454
            ],
            [
              86.19033920230395,
              25.204098298848894
            ],
            [
              86.18939607096861,
              25.202576431083823
            ],
            [
              86.18913238039842,
              25.202643676676878
            ],
            [
              86.18887000316518,
              25.202713042020054
            ],
            [
              86.18823753530626,
              25.20306006321499
            ],
            [
              86.18738945021957,
              25.2043923180926
            ],
            [
              86.18679381777885,
              25.205005324067884
            ],
            [
              86.18484518777296,
              25.203862341674363
            ],
            [
              86.18229528660132,
              25.20258755835324
            ],
            [
              86.18193411175481,
              25.202061803921904
            ],
            [
              86.18208553627068,
              25.20175392717214
            ],
            [
              86.18248792133083,
              25.20117371805531
            ],
            [
              86.18342504024197,
              25.20110016503736
            ],
            [
              86.1834224737552,
              25.200761675251112
            ],
            [
              86.18385370371915,
              25.19875048475853
            ],
            [
              86.18428590386357,
              25.196879297340907
            ],
            [
              86.18480891380177,
              25.196501377803344
            ],
            [
              86.1851943988565,
              25.19566395203016
            ],
            [
              86.18533155093915,
              25.193487698691236
            ],
            [
              86.18561232207614,
              25.191274470098833
            ],
            [
              86.18600459030955,
              25.188721962695563
            ],
            [
              86.18768433029642,
              25.188472106080166
            ],
            [
              86.18947372044344,
              25.18828924966044
            ],
            [
              86.19156653634064,
              25.188208293921658
            ],
            [
              86.19178866096433,
              25.18807143259886
            ],
            [
              86.19158895559521,
              25.18661042868139
            ],
            [
              86.19181506873875,
              25.186338245197355
            ],
            [
              86.19259798284821,
              25.18622943211415
            ],
            [
              86.1928951464425,
              25.18615986309608
            ],
            [
              86.19303551718879,
              25.185071201964327
            ],
            [
              86.19314862226959,
              25.184935106953155
            ],
            [
              86.19449253876554,
              25.18489043696294
            ],
            [
              86.1948554437673,
              25.183701098751214
            ],
            [
              86.19638834693443,
              25.18371840762878
            ],
            [
              86.19642697538995,
              25.184228211176023
            ],
            [
              86.1966504968939,
              25.184262840159906
            ],
            [
              86.19796132304805,
              25.184425938818343
            ],
            [
              86.19945359271993,
              25.184312631805682
            ],
            [
              86.19968472744593,
              25.18533113760728
            ],
            [
              86.20012772893334,
              25.186808646705845
            ],
            [
              86.20104825326622,
              25.189727263655477
            ],
            [
              86.20150654677471,
              25.191254366806177
            ],
            [
              86.20236917378924,
              25.19118109962038
            ],
            [
              86.20281613415209,
              25.19124592262564
            ],
            [
              86.20311810732643,
              25.19179003701209
            ],
            [
              86.20367882494699,
              25.191818051112026
            ],
            [
              86.20420897469508,
              25.19236075423736
            ],
            [
              86.20451555443019,
              25.193514151703248
            ],
            [
              86.2047608501983,
              25.193801451381614
            ],
            [
              86.20528335887658,
              25.193360274964736
            ],
            [
              86.20606651822611,
              25.19328298780359
            ],
            [
              86.20688817218219,
              25.193043008742155
            ],
            [
              86.2086452930476,
              25.19316702201667
            ],
            [
              86.21006424042936,
              25.19318941727419
            ],
            [
              86.21136976742167,
              25.193284715954157
            ],
            [
              86.21170552533552,
              25.193079507251223
            ],
            [
              86.2123761464412,
              25.19256510088373
            ],
            [
              86.21281771331911,
              25.191948405235962
            ],
            [
              86.21363823000804,
              25.191568482102227
            ],
            [
              86.21318167384132,
              25.19028070617645
            ],
            [
              86.21205893334809,
              25.190084844668043
            ],
            [
              86.20947890268181,
              25.190029457844858
            ],
            [
              86.20899226103786,
              25.189964865052136
            ],
            [
              86.20919415739799,
              25.187242096614522
            ],
            [
              86.2089267981082,
              25.184134140245472
            ],
            [
              86.20898019935859,
              25.183980342706136
            ],
            [
              86.20898019127374,
              25.18398022239295
            ],
            [
              86.20889537324292,
              25.182654050161165
            ],
            [
              86.20918782337694,
              25.181361357621117
            ],
            [
              86.20930605065145,
              25.179979557380324
            ],
            [
              86.20676404567116,
              25.17968904401117
            ],
            [
              86.20457568226541,
              25.179585900237498
            ],
            [
              86.20462033122999,
              25.178308311742903
            ],
            [
              86.20453741493263,
              25.177221121860455
            ],
            [
              86.20475196226687,
              25.176100443791555
            ],
            [
              86.20503906562831,
              25.17412183738543
            ],
            [
              86.20488416463229,
              25.173342039992576
            ],
            [
              86.20450068641391,
              25.172496041259997
            ],
            [
              86.20350329683544,
              25.171807422926367
            ],
            [
              86.20382258324022,
              25.17076730880419
            ],
            [
              86.19989002482768,
              25.170860255083824
            ],
            [
              86.1986237883493,
              25.17067429090829
            ],
            [
              86.19738919233181,
              25.170736367887994
            ],
            [
              86.19452297099244,
              25.170813366908874
            ],
            [
              86.19217221104792,
              25.170855403826877
            ],
            [
              86.1902732444025,
              25.170948710204478
            ],
            [
              86.19029838734899,
              25.17034375732938
            ],
            [
              86.19026275387664,
              25.169576774216704
            ],
            [
              86.19037879644839,
              25.168533488948107
            ],
            [
              86.19017163685903,
              25.167392939244632
            ],
            [
              86.18770094284096,
              25.167300217159497
            ],
            [
              86.18456580812634,
              25.167238806748063
            ],
            [
              86.18188332819517,
              25.16733697623386
            ],
            [
              86.18115968762308,
              25.1674046762536
            ],
            [
              86.18082624466774,
              25.16922117372045
            ],
            [
              86.18038523025375,
              25.171227802075716
            ],
            [
              86.1801504726222,
              25.171667081391696
            ],
            [
              86.17940177534192,
              25.1723577753053
            ],
            [
              86.17910128887938,
              25.17263502981714
            ],
            [
              86.17919531015029,
              25.17326627100924
            ],
            [
              86.17907084677104,
              25.174512759391693
            ],
            [
              86.17880640700591,
              25.175611152757078
            ],
            [
              86.17851461893028,
              25.177039099739538
            ],
            [
              86.17840140066176,
              25.1778071407271
            ],
            [
              86.17806744117509,
              25.179551316263055
            ],
            [
              86.17789342582644,
              25.180816175595613
            ],
            [
              86.17781247594127,
              25.18191341224706
            ],
            [
              86.17788302962367,
              25.183366229366964
            ],
            [
              86.1775540171593,
              25.18381055061507
            ],
            [
              86.17739782528422,
              25.184808980644924
            ],
            [
              86.17742445763743,
              25.18832468307187
            ],
            [
              86.17684943344766,
              25.190341232753802
            ],
            [
              86.17670525025129,
              25.191605815063898
            ],
            [
              86.17665935891671,
              25.19341595859445
            ],
            [
              86.17666894034751,
              25.194679562005554
            ],
            [
              86.17680059024904,
              25.19569422902273
            ],
            [
              86.17644447471422,
              25.196490840914855
            ],
            [
              86.17632500956122,
              25.197096320764643
            ],
            [
              86.17611813204287,
              25.19729170117763
            ],
            [
              86.17584530560622,
              25.197293373185477
            ],
            [
              86.17428703221883,
              25.196572044755783
            ],
            [
              86.17329137099895,
              25.196108807171363
            ],
            [
              86.17162358669022,
              25.195324930158858
            ],
            [
              86.17053674557069,
              25.19461857588188
            ],
            [
              86.16971117675662,
              25.193689430908144
            ],
            [
              86.16831651712516,
              25.192271899280286
            ],
            [
              86.16707470134777,
              25.191399501270684
            ],
            [
              86.16671174873534,
              25.191293453242164
            ],
            [
              86.16642496068253,
              25.191417099251716
            ],
            [
              86.16619174994997,
              25.192077500893248
            ],
            [
              86.16610974364598,
              25.193039327270146
            ],
            [
              86.16584179056979,
              25.193695398128643
            ],
            [
              86.16551108478106,
              25.1939186382939
            ],
            [
              86.165090795399,
              25.19411522602381
            ],
            [
              86.16409415411715,
              25.194175563738185
            ],
            [
              86.16364389783547,
              25.19434081782992
            ],
            [
              86.16286303008823,
              25.194729302248213
            ],
            [
              86.16196387487932,
              25.195231300234354
            ],
            [
              86.16103035102597,
              25.195783122938277
            ],
            [
              86.16066920133227,
              25.19592528917842
            ],
            [
              86.15995088687153,
              25.19606508661868
            ],
            [
              86.1594959647403,
              25.196262023658537
            ],
            [
              86.15897427981714,
              25.1968248052942
            ],
            [
              86.15955606472777,
              25.19767424410941
            ],
            [
              86.16019365388212,
              25.19868582668764
            ],
            [
              86.16035294404665,
              25.199425028785363
            ],
            [
              86.16075015301412,
              25.200135686695912
            ],
            [
              86.16111128024991,
              25.20199741827405
            ],
            [
              86.16023811599713,
              25.202002877083284
            ],
            [
              86.16030772914344,
              25.20334736719401
            ],
            [
              86.1605003854325,
              25.205237268745815
            ],
            [
              86.16054193161611,
              25.206825644292316
            ],
            [
              86.1607573458246,
              25.20709964080012
            ],
            [
              86.16090740040967,
              25.20726116461134
            ],
            [
              86.16076095256045,
              25.207591579344538
            ],
            [
              86.16019653477925,
              25.208416427650214
            ],
            [
              86.16001707923326,
              25.208968166213243
            ],
            [
              86.1598098495753,
              25.209131934010717
            ],
            [
              86.1594946828444,
              25.209449803640204
            ],
            [
              86.1594751867078,
              25.210821974152218
            ],
            [
              86.159572841664,
              25.211945145671184
            ],
            [
              86.15945700570474,
              25.212383700312067
            ],
            [
              86.15897740595435,
              25.21260777990208
            ],
            [
              86.15774504314867,
              25.213026078037714
            ],
            [
              86.15635957238429,
              25.212867534858617
            ],
            [
              86.1549133647269,
              25.212551451609887
            ],
            [
              86.15443165483389,
              25.212495702772774
            ],
            [
              86.15388329803164,
              25.2121425259735
            ],
            [
              86.15300780624395,
              25.21184998432077
            ],
            [
              86.15246601073652,
              25.211713422650508
            ],
            [
              86.15183229332102,
              25.21122534098645
            ],
            [
              86.15131333837802,
              25.210817735672826
            ],
            [
              86.15091868601584,
              25.21046359983526
            ],
            [
              86.15068781719117,
              25.210099453920115
            ],
            [
              86.15065239302626,
              25.20932787135426
            ],
            [
              86.15103828591613,
              25.20850416628113
            ],
            [
              86.15136463936729,
              25.207680705966197
            ],
            [
              86.15150979543908,
              25.20718792493742
            ],
            [
              86.15171529224686,
              25.206117007800994
            ],
            [
              86.1516531234393,
              25.205760806825523
            ],
            [
              86.15155892609859,
              25.205102483720975
            ],
            [
              86.15072291616596,
              25.20408300290383
            ],
            [
              86.14996455301322,
              25.203509946117318
            ],
            [
              86.14938966896062,
              25.2029131959388
            ],
            [
              86.14914254871415,
              25.202364046347398
            ],
            [
              86.14880904287675,
              25.201544693076812
            ],
            [
              86.14861949475853,
              25.200724410934168
            ],
            [
              86.14813324567838,
              25.200041306986424
            ],
            [
              86.14760381458252,
              25.19956610971935
            ],
            [
              86.14733605464411,
              25.200253737228408
            ],
            [
              86.14743604162682,
              25.201706476229393
            ],
            [
              86.14772349982279,
              25.203704102735543
            ],
            [
              86.14775889164835,
              25.204471175015623
            ],
            [
              86.14776488700456,
              25.205292482844285
            ],
            [
              86.14751027211368,
              25.205749899297174
            ],
            [
              86.14733271470789,
              25.20588639694682
            ],
            [
              86.14715402722146,
              25.20588750639244
            ],
            [
              86.14663566516656,
              25.20556112087487
            ],
            [
              86.1461530776195,
              25.20537455374531
            ],
            [
              86.14515885999229,
              25.205105204115373
            ],
            [
              86.14434399011321,
              25.204947669852793
            ],
            [
              86.14380260244093,
              25.20486523616075
            ],
            [
              86.1434107034151,
              25.20486752497029
            ],
            [
              86.14302058215519,
              25.205118132287023
            ],
            [
              86.14218219887354,
              25.20580922989989
            ],
            [
              86.14197476889132,
              25.20594589410297
            ],
            [
              86.14136992422735,
              25.2060037079629
            ],
            [
              86.14079841155201,
              25.205871692930828
            ],
            [
              86.14025685319983,
              25.205766680797353
            ],
            [
              86.13977639286338,
              25.205877874128408
            ],
            [
              86.13853929593617,
              25.205637094914614
            ],
            [
              86.1373169556341,
              25.205387152710838
            ],
            [
              86.13692347557337,
              25.205168371379788
            ],
            [
              86.136441815986,
              25.205117078916597
            ],
            [
              86.13629021540034,
              25.20473438380694
            ],
            [
              86.13631423814769,
              25.203939896845238
            ],
            [
              86.13591335596897,
              25.202710160637434
            ],
            [
              86.13560575305277,
              25.20202602012341
            ],
            [
              86.13527658967139,
              25.20177971594994
            ],
            [
              86.13452006986162,
              25.201454810113155
            ],
            [
              86.13388493131136,
              25.20143152065856
            ],
            [
              86.13256275494358,
              25.201768881217617
            ],
            [
              86.13163078697228,
              25.20188273689329
            ],
            [
              86.13094163901219,
              25.20194550917997
            ],
            [
              86.12994426021346,
              25.201919877309056
            ],
            [
              86.12877878596386,
              25.202666974027576
            ],
            [
              86.1294920806388,
              25.203199811011192
            ],
            [
              86.1304604366673,
              25.204015431362933
            ],
            [
              86.13112656619658,
              25.20488705462616
            ],
            [
              86.13143332828969,
              25.205462982996472
            ],
            [
              86.13149820282288,
              25.2062027202069
            ],
            [
              86.13156843221347,
              25.20768271025376
            ],
            [
              86.1316037297159,
              25.2084497850966
            ],
            [
              86.13142588574755,
              25.20924511064874
            ],
            [
              86.13158214679291,
              25.209596299727995
            ],
            [
              86.13176176403566,
              25.209735121607267
            ],
            [
              86.13254605436413,
              25.20978457286067
            ],
            [
              86.13296819697065,
              25.209836207964823
            ],
            [
              86.13336112277086,
              25.209969247642828
            ],
            [
              86.13363573326164,
              25.21021587416347
            ],
            [
              86.13393543190168,
              25.210489421716144
            ],
            [
              86.13409181242297,
              25.21084502692618
            ],
            [
              86.13448594016903,
              25.211140535890625
            ],
            [
              86.13499655515295,
              25.211083354348784
            ],
            [
              86.13538913420345,
              25.211166742056452
            ],
            [
              86.13620754613969,
              25.21181625963465
            ],
            [
              86.13738733863661,
              25.213041272080066
            ],
            [
              86.13832672220059,
              25.213942843901993
            ],
            [
              86.1389452167653,
              25.21439942812443
            ],
            [
              86.13949558579375,
              25.215023536650705
            ],
            [
              86.1399822103697,
              25.21576072884456
            ],
            [
              86.14022085411315,
              25.217185477688126
            ],
            [
              86.13882962694441,
              25.21760457929095
            ],
            [
              86.13823626095316,
              25.217892529166885
            ],
            [
              86.13716136473197,
              25.218824219254248
            ],
            [
              86.13594653165075,
              25.219625832228818
            ],
            [
              86.13407299002282,
              25.22128889281528
            ],
            [
              86.13179962532992,
              25.223252174878255
            ],
            [
              86.12954221830977,
              25.22535980328105
            ],
            [
              86.1290579625912,
              25.225651591629816
            ],
            [
              86.12756157414375,
              25.226644302102642
            ],
            [
              86.1248864460249,
              25.227960030670864
            ],
            [
              86.12271293536404,
              25.22935399095958
            ],
            [
              86.1220906777566,
              25.229768313867005
            ],
            [
              86.12163410003032,
              25.229770983327413
            ],
            [
              86.12003391215009,
              25.230132478108654
            ],
            [
              86.11909488072574,
              25.23067963336764
            ],
            [
              86.11853488175738,
              25.230777681834695
            ],
            [
              86.11714208343523,
              25.231007034717504
            ],
            [
              86.11567281871946,
              25.23095240924348
            ],
            [
              86.1146612007252,
              25.231053175679587
            ],
            [
              86.11396799597324,
              25.23127835772291
            ],
            [
              86.11281976937708,
              25.231700237830736
            ],
            [
              86.11178900469085,
              25.23190935018927
            ],
            [
              86.11129577120937,
              25.231627922990427
            ],
            [
              86.11077111825252,
              25.23112100361783
            ],
            [
              86.10999531071529,
              25.23017320167565
            ],
            [
              86.10851933558435,
              25.229166238936333
            ],
            [
              86.10771617793992,
              25.228566099145198
            ],
            [
              86.10757057181216,
              25.22831424722561
            ],
            [
              86.10773824595323,
              25.226756157348863
            ],
            [
              86.10783331555805,
              25.225451246755345
            ],
            [
              86.10706667981987,
              25.225807728152542
            ],
            [
              86.10565372779428,
              25.22598747104252
            ],
            [
              86.10476288200175,
              25.22596101939914
            ],
            [
              86.10387194997095,
              25.22593455881092
            ],
            [
              86.10261408758764,
              25.225589834380028
            ],
            [
              86.10145794503718,
              25.225596434715516
            ],
            [
              86.10044435793581,
              25.225412689757885
            ],
            [
              86.09978181717611,
              25.225037386979103
            ],
            [
              86.09820196984887,
              25.22405809827411
            ],
            [
              86.0971494919839,
              25.223269738998745
            ],
            [
              86.09578608833445,
              25.22270892520417
            ],
            [
              86.09403747002321,
              25.222430074006954
            ],
            [
              86.09339649242361,
              25.223020432758933
            ],
            [
              86.09305371956567,
              25.223690352320553
            ],
            [
              86.09327153676759,
              25.225052121997948
            ],
            [
              86.09356280831193,
              25.22699123311198
            ],
            [
              86.09361245729937,
              25.22914825228965
            ],
            [
              86.09368114518094,
              25.23119239563286
            ],
            [
              86.09375797269729,
              25.232270698032465
            ],
            [
              86.09361951536256,
              25.232334650795725
            ],
            [
              86.09250414105465,
              25.232498964086684
            ],
            [
              86.09110621155561,
              25.232728095945376
            ],
            [
              86.09065714464339,
              25.233082682969595
            ],
            [
              86.09069683131432,
              25.233800100121616
            ],
            [
              86.09066359993699,
              25.234021414011654
            ],
            [
              86.09090855524362,
              25.234286322198134
            ],
            [
              86.0911213885923,
              25.234921473311193
            ],
            [
              86.09189576601165,
              25.23567981585638
            ],
            [
              86.09270102122223,
              25.235864816987625
            ],
            [
              86.09329064303536,
              25.235735017764224
            ],
            [
              86.09496570729115,
              25.235409551718814
            ],
            [
              86.09573424566109,
              25.235310379933026
            ],
            [
              86.09636020792074,
              25.235401538833298
            ],
            [
              86.09793808344594,
              25.236092097135977
            ],
            [
              86.09877911765598,
              25.236434763601416
            ],
            [
              86.09938920129466,
              25.236381617018434
            ],
            [
              86.1000128926133,
              25.23615693766243
            ],
            [
              86.10147934021232,
              25.2357964123258
            ],
            [
              86.10259473338483,
              25.235632035234666
            ],
            [
              86.10417006937273,
              25.23594333335523
            ],
            [
              86.10553089036573,
              25.23609346226849
            ],
            [
              86.10568026582443,
              25.23758652369445
            ],
            [
              86.10600225525992,
              25.23891606438135
            ],
            [
              86.10670008633556,
              25.2407624588727
            ],
            [
              86.10772426726909,
              25.242439999860505
            ],
            [
              86.1089592827998,
              25.24446382275936
            ],
            [
              86.11037138142584,
              25.244126090645192
            ],
            [
              86.11148712583962,
              25.243993240271138
            ],
            [
              86.1125691861252,
              25.24401851470379
            ],
            [
              86.11364950367916,
              25.243786534280837
            ],
            [
              86.11359056700998,
              25.245280809354302
            ],
            [
              86.11346775563257,
              25.24756973636289
            ],
            [
              86.11347471038951,
              25.248553588775643
            ],
            [
              86.11351572566875,
              25.24944249303493
            ],
            [
              86.11359654260329,
              25.250000364182206
            ],
            [
              86.11366334671769,
              25.250461513229396
            ],
            [
              86.1141690434254,
              25.25199318801234
            ],
            [
              86.11534662606675,
              25.25217590076434
            ],
            [
              86.11722369897204,
              25.2523093206702
            ],
            [
              86.11963580486731,
              25.25229507968758
            ],
            [
              86.12351319594164,
              25.25244820672449
            ],
            [
              86.12342890162863,
              25.258704182681115
            ],
            [
              86.123378764856,
              25.260712833333404
            ],
            [
              86.1211884260549,
              25.26052267788747
            ],
            [
              86.11982735712694,
              25.261081343051778
            ],
            [
              86.11779421811066,
              25.261350548386595
            ],
            [
              86.1176330890948,
              25.265223932957465
            ],
            [
              86.11283904632475,
              25.26535124890427
            ],
            [
              86.11263706462472,
              25.264170025011662
            ],
            [
              86.11231063841004,
              25.262930695772887
            ],
            [
              86.11173147029186,
              25.26174712890703
            ],
            [
              86.11144470739191,
              25.261202726243656
            ],
            [
              86.11131094195788,
              25.260535465306646
            ],
            [
              86.11048581241997,
              25.260368846104242
            ],
            [
              86.10953605870438,
              25.26083471977757
            ],
            [
              86.10708228535297,
              25.264116586726576
            ],
            [
              86.1023860233033,
              25.26901363070285
            ],
            [
              86.10092669395458,
              25.26974412660691
            ],
            [
              86.09976375025913,
              25.27096042615202
            ],
            [
              86.0988583823017,
              25.27355171285434
            ],
            [
              86.09772170983672,
              25.2742804308874
            ],
            [
              86.09677145755613,
              25.274692066959563
            ],
            [
              86.0957564861509,
              25.275072433078023
            ],
            [
              86.0950595030849,
              25.27478755277923
            ],
            [
              86.09439426737933,
              25.274777895106077
            ],
            [
              86.09407433778078,
              25.274463798951633
            ],
            [
              86.09350127191831,
              25.274151096745044
            ],
            [
              86.09188344292257,
              25.274214469395382
            ],
            [
              86.09067642518433,
              25.274108551253068
            ],
            [
              86.09056010143988,
              25.27595512479161
            ],
            [
              86.09183881282263,
              25.27710322681624
            ],
            [
              86.09213430285554,
              25.278198331030776
            ],
            [
              86.0924888211858,
              25.27920727630477
            ],
            [
              86.09214570786638,
              25.27984558219901
            ],
            [
              86.09109512993825,
              25.28011335284976
            ],
            [
              86.09103826029256,
              25.280515329787416
            ],
            [
              86.09170331902999,
              25.280484473639316
            ],
            [
              86.09170964496622,
              25.281409645371276
            ],
            [
              86.09078774980422,
              25.28161799715639
            ],
            [
              86.0907917284426,
              25.282195755115886
            ],
            [
              86.08746279657848,
              25.283252697911255
            ],
            [
              86.08309172555998,
              25.28509626828114
            ],
            [
              86.08043482425822,
              25.286429108812236
            ],
            [
              86.07894567533366,
              25.287191226662973
            ],
            [
              86.07815641193174,
              25.287944843778963
            ],
            [
              86.07651246621573,
              25.289312571279513
            ],
            [
              86.07401651606344,
              25.290973950199387
            ],
            [
              86.07224841329365,
              25.2923557977873
            ],
            [
              86.0747417798912,
              25.294711351875048
            ],
            [
              86.07739668333977,
              25.297440640126908
            ],
            [
              86.08107546678625,
              25.3010170493458
            ],
            [
              86.08268511931631,
              25.299708118962517
            ],
            [
              86.08306927755935,
              25.29996775429369
            ],
            [
              86.08358353521173,
              25.30112023061826
            ],
            [
              86.08448080036527,
              25.30235632890304
            ],
            [
              86.08602292024723,
              25.30422505263171
            ],
            [
              86.08717356600644,
              25.305473289597888
            ],
            [
              86.08717851482535,
              25.3061953636203
            ],
            [
              86.08717970060152,
              25.306202817162514
            ],
            [
              86.0871911711894,
              25.306198769608148
            ],
            [
              86.08728864378762,
              25.3061643783845
            ],
            [
              86.0875319740419,
              25.306038019708527
            ],
            [
              86.08761139499448,
              25.306137390346496
            ],
            [
              86.08788438312786,
              25.306534591906445
            ],
            [
              86.08807800061429,
              25.306706186014473
            ],
            [
              86.08913572374222,
              25.306458169329172
            ],
            [
              86.09137025696032,
              25.30601639319834
            ],
            [
              86.09370901002274,
              25.305597166231312
            ],
            [
              86.09632090033885,
              25.305101196843303
            ],
            [
              86.0966237376925,
              25.30520057637065
            ],
            [
              86.09686694397926,
              25.30569257574353
            ],
            [
              86.09703064577013,
              25.306216234836683
            ],
            [
              86.09778996023874,
              25.30804431124132
            ],
            [
              86.09847003162122,
              25.309186432954654
            ],
            [
              86.09936849422904,
              25.310472920618132
            ],
            [
              86.1002074443476,
              25.311587919735533
            ],
            [
              86.10040105105428,
              25.311831738065766
            ],
            [
              86.10066915325083,
              25.311633178208105
            ],
            [
              86.10080832025464,
              25.311163745386796
            ],
            [
              86.1013547438824,
              25.310148311922962
            ],
            [
              86.10192595113053,
              25.309381081744764
            ],
            [
              86.10257649219467,
              25.30861839524339
            ],
            [
              86.10334129357305,
              25.30797306836363
            ],
            [
              86.10407627896888,
              25.307801631972673
            ],
            [
              86.10524315728529,
              25.307553529822723
            ],
            [
              86.10717474355526,
              25.307454532288414
            ],
            [
              86.10913609640053,
              25.307278661084823
            ],
            [
              86.11123154256487,
              25.30688622089942
            ],
            [
              86.11392774695696,
              25.30653890013605
            ],
            [
              86.1157202937839,
              25.306268195216653
            ],
            [
              86.11858032662927,
              25.305695117657255
            ]
          ]
        ]
      }
    }
  ]
}