{
  "type": "FeatureCollection",
  "features": [
    {
      "type": "Feature",
      "properties": {
        "object_id": "10-229-01395",
        "stname": "BIHAR",
        "dtname": "Nalanda",
        "sdtname": "Silao",
        "st_area_sh": 0.0,
        "st_length_": 0.0,
        "remarks": "",
        "dist_lgd": 209,
        "state_lgd": 10,
        "subdt_lgd": 1395,
        "ac_no": null,
        "st_length(shape)": 79220.42929786978,
        "st_area(shape)": 154752836.13944647
      },
      "geometry": {
        "type": "Polygon",
        "coordinates": [
          [
            [
              85.42318552156539,
              25.162742202014222
            ],
            [
              85.42409158032729,
              25.16247338988324
            ],
            [
              85.42590861702548,
              25.16274333787093
            ],
            [
              85.42670699293761,
              25.163712518188177
            ],
            [
              85.42828395307954,
              25.163617885859637
            ],
            [
              85.42925101463572,
              25.16336361325056
            ],
            [
              85.42934229873994,
              25.162208966122922
            ],
            [
              85.42977504955168,
              25.161865480090178
            ],
            [
              85.43000788119521,
              25.161603411306515
            ],
            [
              85.42984497082013,
              25.16118399015321
            ],
            [
              85.42968336839208,
              25.160762495012392
            ],
            [
              85.42891235157025,
              25.15875147936606
            ],
            [
              85.42876104114042,
              25.157427180905362
            ],
            [
              85.42888947237827,
              25.15695515770276
            ],
            [
              85.42965214564776,
              25.155932941203993
            ],
            [
              85.43123115844011,
              25.154473832101807
            ],
            [
              85.43164695894072,
              25.15431277415896
            ],
            [
              85.43224580914678,
              25.154080809789043
            ],
            [
              85.433654928061,
              25.153942567677923
            ],
            [
              85.43439016588341,
              25.15386680615666
            ],
            [
              85.43503380878448,
              25.153776148079213
            ],
            [
              85.43529649234321,
              25.15357007761873
            ],
            [
              85.43533170001416,
              25.153208449054077
            ],
            [
              85.4349994688861,
              25.1528707833013
            ],
            [
              85.43448352060435,
              25.152545097367614
            ],
            [
              85.43438730205428,
              25.15229346389241
            ],
            [
              85.43505689728391,
              25.151966386761003
            ],
            [
              85.43658593859362,
              25.151418651760256
            ],
            [
              85.43742474498175,
              25.151016774197668
            ],
            [
              85.43819634031863,
              25.151087569165355
            ],
            [
              85.43859321062125,
              25.15115440813795
            ],
            [
              85.43947609015385,
              25.150293518752
            ],
            [
              85.44004205303737,
              25.149693825376207
            ],
            [
              85.44090806400557,
              25.149556751679725
            ],
            [
              85.44188480670554,
              25.149734109905282
            ],
            [
              85.44304318426441,
              25.149460869932042
            ],
            [
              85.44418767566565,
              25.14907608829603
            ],
            [
              85.4449996188335,
              25.14898019316017
            ],
            [
              85.44576204596459,
              25.148733573608627
            ],
            [
              85.44602103834583,
              25.148649796764055
            ],
            [
              85.44628677707486,
              25.148200082141326
            ],
            [
              85.44641918156121,
              25.147407849893018
            ],
            [
              85.44662382676609,
              25.146950532398648
            ],
            [
              85.44764596493066,
              25.146863787057015
            ],
            [
              85.44862454738036,
              25.14689492593793
            ],
            [
              85.45041567307256,
              25.146781408402948
            ],
            [
              85.45137834725689,
              25.14686109382358
            ],
            [
              85.45268928300553,
              25.147222876997663
            ],
            [
              85.45419905994397,
              25.147586722923627
            ],
            [
              85.45528112112787,
              25.147904325382854
            ],
            [
              85.45624993889047,
              25.147496731045887
            ],
            [
              85.45746626407335,
              25.146868936889977
            ],
            [
              85.45947194698125,
              25.14672273538126
            ],
            [
              85.46249272166862,
              25.146440854351287
            ],
            [
              85.4637879854088,
              25.14622456123401
            ],
            [
              85.4650832428608,
              25.146008257975268
            ],
            [
              85.46651833206987,
              25.145006725881945
            ],
            [
              85.46760701922732,
              25.143569972642315
            ],
            [
              85.4680806173333,
              25.142391395077276
            ],
            [
              85.46834269902082,
              25.142227026081393
            ],
            [
              85.47383551789417,
              25.142102721906713
            ],
            [
              85.47700484698008,
              25.141856878083857
            ],
            [
              85.47804380699667,
              25.141951097103988
            ],
            [
              85.47885352863082,
              25.142029032404587
            ],
            [
              85.4807350490951,
              25.142020496988405
            ],
            [
              85.4824971412373,
              25.1417740170711
            ],
            [
              85.48358543044105,
              25.141590235122294
            ],
            [
              85.48459861958878,
              25.141294290760484
            ],
            [
              85.4846493151135,
              25.14090495621738
            ],
            [
              85.48420098392151,
              25.14005104434095
            ],
            [
              85.4835335581233,
              25.139598665636303
            ],
            [
              85.48205969942319,
              25.138803862249446
            ],
            [
              85.48182283434399,
              25.13816792278102
            ],
            [
              85.48175223664413,
              25.13707421726246
            ],
            [
              85.48235180640071,
              25.135590563294187
            ],
            [
              85.4828428821289,
              25.13453045715857
            ],
            [
              85.48333395156884,
              25.133470346699948
            ],
            [
              85.48374996676682,
              25.131984806069813
            ],
            [
              85.48439467596815,
              25.12931811678306
            ],
            [
              85.48481083669317,
              25.129057829164633
            ],
            [
              85.48664696977772,
              25.128993052805484
            ],
            [
              85.48942701483358,
              25.1289579616318
            ],
            [
              85.49152665792693,
              25.128931423045653
            ],
            [
              85.49148717876682,
              25.12965503927566
            ],
            [
              85.49186734759168,
              25.13107909505171
            ],
            [
              85.49252117918472,
              25.131392064110024
            ],
            [
              85.49277346743902,
              25.132021182972142
            ],
            [
              85.49331547135559,
              25.132722865752516
            ],
            [
              85.49393667973074,
              25.133202576943283
            ],
            [
              85.49558935707134,
              25.133135828172964
            ],
            [
              85.4960892551539,
              25.133530759154425
            ],
            [
              85.49606253386746,
              25.134463356160495
            ],
            [
              85.49652980783384,
              25.13502503402449
            ],
            [
              85.49762956403221,
              25.13514757902071
            ],
            [
              85.49838616019882,
              25.135190057624857
            ],
            [
              85.49914275816202,
              25.13523253377444
            ],
            [
              85.50000007882815,
              25.135266403268027
            ],
            [
              85.50216543009128,
              25.135218559667734
            ],
            [
              85.502976800134,
              25.13452793768995
            ],
            [
              85.503316798096,
              25.133677339176117
            ],
            [
              85.5036567915664,
              25.132826739617567
            ],
            [
              85.50431163196748,
              25.132494816098994
            ],
            [
              85.5056301539887,
              25.13249273168786
            ],
            [
              85.50563218238462,
              25.132492073752367
            ],
            [
              85.50673325820813,
              25.13213454100427
            ],
            [
              85.50765484075643,
              25.13183528484298
            ],
            [
              85.50821884710923,
              25.130903076848902
            ],
            [
              85.50827777479523,
              25.130226596269228
            ],
            [
              85.50806506721068,
              25.129647404118728
            ],
            [
              85.50747638413702,
              25.12871049891257
            ],
            [
              85.50746181975134,
              25.12851800234996
            ],
            [
              85.50784121782168,
              25.12789860797325
            ],
            [
              85.5084742201782,
              25.127274071996318
            ],
            [
              85.50874996074963,
              25.12683828705149
            ],
            [
              85.50907495684636,
              25.12582594574164
            ],
            [
              85.50951610331275,
              25.12445177331154
            ],
            [
              85.51023702737936,
              25.12269077677456
            ],
            [
              85.51052875706453,
              25.121631933231615
            ],
            [
              85.5107565177183,
              25.12027237835891
            ],
            [
              85.51107172217844,
              25.119367650071496
            ],
            [
              85.51149127134875,
              25.118917914637034
            ],
            [
              85.5088484143081,
              25.118591695667686
            ],
            [
              85.50915245720088,
              25.117011433350232
            ],
            [
              85.50945498643239,
              25.114717942027564
            ],
            [
              85.51006622710113,
              25.11304677374788
            ],
            [
              85.51271433569289,
              25.111119330351386
            ],
            [
              85.51594300658817,
              25.109443534115158
            ],
            [
              85.51889909269363,
              25.107858364029816
            ],
            [
              85.52035392597435,
              25.10667770114716
            ],
            [
              85.52153847864398,
              25.10431933714586
            ],
            [
              85.5218356143905,
              25.101904025195246
            ],
            [
              85.52111463193337,
              25.098655442633873
            ],
            [
              85.52057407520273,
              25.09630485078593
            ],
            [
              85.52019029425209,
              25.095335072840104
            ],
            [
              85.51976143134893,
              25.094180357658463
            ],
            [
              85.51938123467627,
              25.092569658682383
            ],
            [
              85.51892261418102,
              25.089117502204072
            ],
            [
              85.5190074169405,
              25.08711785062266
            ],
            [
              85.5188641383476,
              25.085055312824323
            ],
            [
              85.51785869986418,
              25.08310727710748
            ],
            [
              85.51703376436237,
              25.082093166175767
            ],
            [
              85.51678882073384,
              25.081123119388057
            ],
            [
              85.51711406207065,
              25.080246867738488
            ],
            [
              85.51828284301882,
              25.07987011989286
            ],
            [
              85.51989358700195,
              25.079849203344956
            ],
            [
              85.52111286943877,
              25.07984694392147
            ],
            [
              85.52208818291915,
              25.079393795642137
            ],
            [
              85.52249824677837,
              25.078801736002102
            ],
            [
              85.52284279380898,
              25.077735931772505
            ],
            [
              85.52386757481709,
              25.077205925983765
            ],
            [
              85.52448603794075,
              25.076748834789612
            ],
            [
              85.52503371022677,
              25.075651077817383
            ],
            [
              85.52554590265231,
              25.074183154168306
            ],
            [
              85.52547176828514,
              25.072088932131365
            ],
            [
              85.52526450628787,
              25.0702477351689
            ],
            [
              85.52460451943851,
              25.06762650528792
            ],
            [
              85.52474150084124,
              25.066845393322414
            ],
            [
              85.52487098580295,
              25.06490869512827
            ],
            [
              85.52473036173171,
              25.064069422747192
            ],
            [
              85.52342780007818,
              25.064414897389096
            ],
            [
              85.52157404025114,
              25.06426029321318
            ],
            [
              85.51996295760314,
              25.06401501381993
            ],
            [
              85.51858886040856,
              25.06335850568111
            ],
            [
              85.5180423550341,
              25.06273656795753
            ],
            [
              85.51858370677377,
              25.060984250965813
            ],
            [
              85.51933979629054,
              25.06004857097591
            ],
            [
              85.52087796628018,
              25.058669122887004
            ],
            [
              85.52207655512613,
              25.058418674673565
            ],
            [
              85.52382593071715,
              25.058478612345365
            ],
            [
              85.5243750986981,
              25.05810303120464
            ],
            [
              85.52519420772701,
              25.056539741763192
            ],
            [
              85.525813267332,
              25.05638063235121
            ],
            [
              85.52563825305678,
              25.055663266220126
            ],
            [
              85.52505072880982,
              25.054382483907837
            ],
            [
              85.524467114031,
              25.05266379415475
            ],
            [
              85.5237449197465,
              25.050981557804143
            ],
            [
              85.5230369987936,
              25.04906905536791
            ],
            [
              85.52067391755665,
              25.04925838828401
            ],
            [
              85.51834139970063,
              25.049826874383523
            ],
            [
              85.51680080785297,
              25.050014698937535
            ],
            [
              85.51671457587392,
              25.05140053029704
            ],
            [
              85.51630577774093,
              25.05255678824932
            ],
            [
              85.51572285286825,
              25.053370297387467
            ],
            [
              85.51542045479076,
              25.055618636838464
            ],
            [
              85.51590630142567,
              25.05799196122073
            ],
            [
              85.51563565789519,
              25.058899713232456
            ],
            [
              85.51477942329223,
              25.059397775309954
            ],
            [
              85.51254525299349,
              25.05740213120107
            ],
            [
              85.51099627896595,
              25.056001089816437
            ],
            [
              85.50962026656319,
              25.054378581787468
            ],
            [
              85.50814401834438,
              25.05219658287752
            ],
            [
              85.50759086274189,
              25.05069894905113
            ],
            [
              85.50743385789148,
              25.04906523201939
            ],
            [
              85.50774421863561,
              25.048189056231838
            ],
            [
              85.50849504582145,
              25.047095437259696
            ],
            [
              85.50979574706406,
              25.04593763113572
            ],
            [
              85.51264114096357,
              25.04424450098423
            ],
            [
              85.51410903395188,
              25.04252675887307
            ],
            [
              85.5154086715892,
              25.040899479793545
            ],
            [
              85.51489049009562,
              25.039555288709124
            ],
            [
              85.51540492112288,
              25.03917977574506
            ],
            [
              85.51807518935607,
              25.036800755279643
            ],
            [
              85.52005864884215,
              25.03526702587146
            ],
            [
              85.52084377999374,
              25.034110018858005
            ],
            [
              85.52125338301721,
              25.03336006294242
            ],
            [
              85.52162776758998,
              25.032393399667768
            ],
            [
              85.52162015616456,
              25.028922376104873
            ],
            [
              85.52151280928474,
              25.027424048627775
            ],
            [
              85.52182296431467,
              25.026520663364565
            ],
            [
              85.52178678017502,
              25.025830201191063
            ],
            [
              85.52032253794,
              25.027442796758912
            ],
            [
              85.51855836440129,
              25.029062398845376
            ],
            [
              85.51547321284738,
              25.03084436588832
            ],
            [
              85.51336859757895,
              25.03189954501783
            ],
            [
              85.51223952665792,
              25.0321128203612
            ],
            [
              85.51155482086688,
              25.032367820118342
            ],
            [
              85.50972135308379,
              25.03237551506466
            ],
            [
              85.50761057716913,
              25.03181656394509
            ],
            [
              85.50522005419688,
              25.03063337634522
            ],
            [
              85.50316255107349,
              25.029841885990503
            ],
            [
              85.50129950625966,
              25.0291587868364
            ],
            [
              85.5000000231326,
              25.02855981408247
            ],
            [
              85.49839660491062,
              25.02782072487116
            ],
            [
              85.49774879741989,
              25.02758938908949
            ],
            [
              85.49765417068448,
              25.027537876348312
            ],
            [
              85.49498591557585,
              25.02603922021348
            ],
            [
              85.49348293529081,
              25.025080218274343
            ],
            [
              85.4922629351001,
              25.024436798962665
            ],
            [
              85.49026923661641,
              25.023289031241806
            ],
            [
              85.48891996705967,
              25.02234331674751
            ],
            [
              85.48771946929376,
              25.02147862865217
            ],
            [
              85.4871736870631,
              25.02105968581863
            ],
            [
              85.48582452889744,
              25.020131999271644
            ],
            [
              85.48529834880462,
              25.01957766893359
            ],
            [
              85.48411805055618,
              25.018893443835236
            ],
            [
              85.48293348710679,
              25.01856578209356
            ],
            [
              85.48214566639922,
              25.018463190218213
            ],
            [
              85.4812742332,
              25.01870376937383
            ],
            [
              85.48002153523123,
              25.019008160241235
            ],
            [
              85.47862543919366,
              25.019475244778167
            ],
            [
              85.47822924981402,
              25.019520978914084
            ],
            [
              85.47813946859128,
              25.01923673800794
            ],
            [
              85.47616384780434,
              25.01971816795454
            ],
            [
              85.47356403623552,
              25.020205097134774
            ],
            [
              85.47080035219594,
              25.020538686221116
            ],
            [
              85.4674022311903,
              25.02066104711579
            ],
            [
              85.46536059500981,
              25.020244270030442
            ],
            [
              85.46479056724962,
              25.020082576238284
            ],
            [
              85.46474105929768,
              25.020069126234336
            ],
            [
              85.46348211085117,
              25.019705348775805
            ],
            [
              85.46052349239494,
              25.018960262237286
            ],
            [
              85.46087202884371,
              25.020016010792506
            ],
            [
              85.46144459434457,
              25.021662727765513
            ],
            [
              85.46169416789006,
              25.022808842810242
            ],
            [
              85.46153231303543,
              25.023756969647938
            ],
            [
              85.4613014738552,
              25.02489924022175
            ],
            [
              85.4611533210036,
              25.025188302261814
            ],
            [
              85.46034647577495,
              25.02553250920992
            ],
            [
              85.45977702293655,
              25.02569126875142
            ],
            [
              85.46012716287812,
              25.02765878221849
            ],
            [
              85.45989509031101,
              25.028128601313178
            ],
            [
              85.45987171435065,
              25.02894553321895
            ],
            [
              85.45947593370447,
              25.029289216022587
            ],
            [
              85.45903032710274,
              25.029443321393586
            ],
            [
              85.45825293134405,
              25.02971517308789
            ],
            [
              85.4582396389728,
              25.030586375778192
            ],
            [
              85.45774504813694,
              25.031115114840446
            ],
            [
              85.45758819779674,
              25.032112893615547
            ],
            [
              85.45266855527866,
              25.032088083992377
            ],
            [
              85.452403544185,
              25.03362765888671
            ],
            [
              85.45192817100799,
              25.033745666875863
            ],
            [
              85.45151255556036,
              25.03408026260766
            ],
            [
              85.4512263747687,
              25.034798306855976
            ],
            [
              85.45058340201084,
              25.035507835795748
            ],
            [
              85.44980605476118,
              25.035779732654454
            ],
            [
              85.44831981278486,
              25.035885463150308
            ],
            [
              85.44618951108919,
              25.035946990827558
            ],
            [
              85.4462314489382,
              25.03737329702154
            ],
            [
              85.44739024870526,
              25.03703777021182
            ],
            [
              85.44806416842466,
              25.037113603303425
            ],
            [
              85.4489911839838,
              25.037441859320495
            ],
            [
              85.45023096687372,
              25.03814884581899
            ],
            [
              85.4521856614061,
              25.039757625944592
            ],
            [
              85.45316854229442,
              25.040866638960505
            ],
            [
              85.45411153978077,
              25.041826804241023
            ],
            [
              85.45480606236124,
              25.042367460360776
            ],
            [
              85.45666085974243,
              25.043448172144064
            ],
            [
              85.45691883972236,
              25.04361031776584
            ],
            [
              85.45784104031158,
              25.0439971900215
            ],
            [
              85.4582730931323,
              25.044583393713076
            ],
            [
              85.45863644280013,
              25.045548796303713
            ],
            [
              85.45877130507706,
              25.046189617786872
            ],
            [
              85.45892167497081,
              25.04721394419451
            ],
            [
              85.45876444374494,
              25.04801763165952
            ],
            [
              85.45681450130043,
              25.049388045753357
            ],
            [
              85.45572557788606,
              25.050084680791763
            ],
            [
              85.4543729639015,
              25.05010007415756
            ],
            [
              85.45267889309093,
              25.050454435170266
            ],
            [
              85.45155947456762,
              25.05068165387723
            ],
            [
              85.45056887355774,
              25.050953792162872
            ],
            [
              85.45043366003947,
              25.05004675035829
            ],
            [
              85.45005593283555,
              25.049370175021853
            ],
            [
              85.4498220663328,
              25.048752092208897
            ],
            [
              85.44954791128788,
              25.047763998311243
            ],
            [
              85.44916572844015,
              25.047313180998955
            ],
            [
              85.44797648207316,
              25.047269607378635
            ],
            [
              85.44647539723339,
              25.047438571144376
            ],
            [
              85.44584664121322,
              25.047741872621486
            ],
            [
              85.44448433440674,
              25.047973820650636
            ],
            [
              85.44339446776134,
              25.048065537038447
            ],
            [
              85.4423345626256,
              25.04835581569419
            ],
            [
              85.44132906844662,
              25.048596268690762
            ],
            [
              85.44010582533771,
              25.0490221709177
            ],
            [
              85.43866491863882,
              25.049633328380526
            ],
            [
              85.43824940739572,
              25.050098781000973
            ],
            [
              85.4380227426866,
              25.050956655967948
            ],
            [
              85.437519528024,
              25.052392729815818
            ],
            [
              85.43682737609761,
              25.053463280886515
            ],
            [
              85.4358087269896,
              25.054850315909906
            ],
            [
              85.43550266378575,
              25.055622539733122
            ],
            [
              85.4355361368099,
              25.05810952179193
            ],
            [
              85.43511147802225,
              25.059116672698387
            ],
            [
              85.43495355509361,
              25.059514009738802
            ],
            [
              85.43473798906983,
              25.061152752335886
            ],
            [
              85.43473991326118,
              25.062434713789226
            ],
            [
              85.4352110571698,
              25.062732005351137
            ],
            [
              85.43547468036634,
              25.063363614276852
            ],
            [
              85.43621006102087,
              25.064667138179974
            ],
            [
              85.43521909619328,
              25.06474057404888
            ],
            [
              85.43436171264507,
              25.064696554195322
            ],
            [
              85.43290080944799,
              25.06537992570974
            ],
            [
              85.4316821351706,
              25.065638670976377
            ],
            [
              85.43032496493096,
              25.066118750303822
            ],
            [
              85.4285272357231,
              25.0668882471763
            ],
            [
              85.42690706302277,
              25.067179105362083
            ],
            [
              85.42688330707507,
              25.067860698926356
            ],
            [
              85.42706338695017,
              25.069006973793826
            ],
            [
              85.42737438909143,
              25.071629099280393
            ],
            [
              85.42772311957631,
              25.07287898214554
            ],
            [
              85.42779993631288,
              25.07459863404505
            ],
            [
              85.42798599537454,
              25.076435494782185
            ],
            [
              85.4270349462883,
              25.07684730075394
            ],
            [
              85.4231100954209,
              25.077077668931178
            ],
            [
              85.42275701798836,
              25.076197880706058
            ],
            [
              85.42099292080643,
              25.076398558641355
            ],
            [
              85.4208343609723,
              25.076425765239406
            ],
            [
              85.4199847307833,
              25.074865025266153
            ],
            [
              85.41806706660356,
              25.07512448196851
            ],
            [
              85.4170472380076,
              25.072241337652017
            ],
            [
              85.41677343240731,
              25.07135249425978
            ],
            [
              85.41627263061956,
              25.07118607691532
            ],
            [
              85.41459777836619,
              25.07131428399501
            ],
            [
              85.41250199892686,
              25.07170924378917
            ],
            [
              85.41117862959639,
              25.07162945078795
            ],
            [
              85.40972664038185,
              25.071694258347733
            ],
            [
              85.4089143630407,
              25.07205623635192
            ],
            [
              85.40803273216633,
              25.072481432146326
            ],
            [
              85.40721506673013,
              25.07254549312096
            ],
            [
              85.40631761832024,
              25.072149260186894
            ],
            [
              85.4055146753732,
              25.072077842597515
            ],
            [
              85.40448532733019,
              25.073275068700145
            ],
            [
              85.40431747442442,
              25.073789797940957
            ],
            [
              85.4040224209727,
              25.07560913017931
            ],
            [
              85.40407292964785,
              25.076385396334686
            ],
            [
              85.40446455917913,
              25.076457285765667
            ],
            [
              85.40598074290219,
              25.07619840387949
            ],
            [
              85.40669441217459,
              25.076152541170057
            ],
            [
              85.40737838583867,
              25.076242023354627
            ],
            [
              85.40819720111845,
              25.077013066816544
            ],
            [
              85.40870974568361,
              25.078669022752884
            ],
            [
              85.40863725164017,
              25.08007286165543
            ],
            [
              85.40686846076089,
              25.080526127022758
            ],
            [
              85.4044552652092,
              25.080903235721077
            ],
            [
              85.40216066344469,
              25.080995939594143
            ],
            [
              85.40259874935084,
              25.082597859991633
            ],
            [
              85.4028290711015,
              25.08450688001096
            ],
            [
              85.40249356291929,
              25.085671823704367
            ],
            [
              85.40244490118035,
              25.08642566734565
            ],
            [
              85.4027429846495,
              25.087025624885282
            ],
            [
              85.40292707101077,
              25.087553569694553
            ],
            [
              85.40245777134342,
              25.088853994339484
            ],
            [
              85.40178066619802,
              25.09038929767268
            ],
            [
              85.4011519011947,
              25.090990308848166
            ],
            [
              85.39993305713574,
              25.091384207761482
            ],
            [
              85.39953697285895,
              25.091745689049088
            ],
            [
              85.39918062016889,
              25.092188411664935
            ],
            [
              85.39914739867308,
              25.093393638223944
            ],
            [
              85.39947221870003,
              25.095582429851618
            ],
            [
              85.39957381815867,
              25.097613476891567
            ],
            [
              85.39789961628556,
              25.098630766880436
            ],
            [
              85.39748382566641,
              25.099159292072518
            ],
            [
              85.39732217472934,
              25.100784351713006
            ],
            [
              85.39734818634672,
              25.10174127667187
            ],
            [
              85.39748306658997,
              25.102652857917324
            ],
            [
              85.39988214421868,
              25.102528586689168
            ],
            [
              85.40084470970686,
              25.103195711999525
            ],
            [
              85.4017629433358,
              25.104210279282068
            ],
            [
              85.40910461184481,
              25.104288362304846
            ],
            [
              85.41253552584989,
              25.10468189139063
            ],
            [
              85.41503395265745,
              25.104679096358687
            ],
            [
              85.41580084621211,
              25.107223975766026
            ],
            [
              85.41671987125682,
              25.108694411098142
            ],
            [
              85.41831843318637,
              25.110331074328567
            ],
            [
              85.41945003735651,
              25.111300297378072
            ],
            [
              85.42071977007801,
              25.111786307116386
            ],
            [
              85.42296053490924,
              25.11175207240045
            ],
            [
              85.42296104694896,
              25.112108639088433
            ],
            [
              85.4226988107512,
              25.112470089223542
            ],
            [
              85.42201049463105,
              25.113012561346707
            ],
            [
              85.42156483143546,
              25.11341479823781
            ],
            [
              85.42110523896305,
              25.114435351056517
            ],
            [
              85.42070991825427,
              25.115365678080373
            ],
            [
              85.42051803631296,
              25.11641756216685
            ],
            [
              85.42088118116487,
              25.11731541165368
            ],
            [
              85.42114556613278,
              25.11845705480221
            ],
            [
              85.42104775756465,
              25.11947726864398
            ],
            [
              85.42090011585442,
              25.120240197292606
            ],
            [
              85.4218172409623,
              25.12021210737755
            ],
            [
              85.42297331883404,
              25.120869736337884
            ],
            [
              85.42335156167091,
              25.121848757913508
            ],
            [
              85.42316099216823,
              25.123825999722303
            ],
            [
              85.42325787906489,
              25.12571707460803
            ],
            [
              85.42342894524445,
              25.127486257342643
            ],
            [
              85.4235843951111,
              25.128749897367644
            ],
            [
              85.4227267699161,
              25.128872814642552
            ],
            [
              85.42180429174748,
              25.12863460217702
            ],
            [
              85.4213068263027,
              25.127466128082002
            ],
            [
              85.41998741764431,
              25.127074991083827
            ],
            [
              85.4198381239323,
              25.126700518341448
            ],
            [
              85.41855334802307,
              25.126223501329218
            ],
            [
              85.41700713272175,
              25.126766975397643
            ],
            [
              85.41624881897633,
              25.12694828198946
            ],
            [
              85.41404243536594,
              25.126887618220472
            ],
            [
              85.41308644195239,
              25.127637921251882
            ],
            [
              85.41256234774765,
              25.12874884821711
            ],
            [
              85.41226621721593,
              25.12974218234261
            ],
            [
              85.41154365013061,
              25.130790133260607
            ],
            [
              85.41062262363951,
              25.13169385714993
            ],
            [
              85.4100926077404,
              25.13208260785482
            ],
            [
              85.40936853687532,
              25.131966069061583
            ],
            [
              85.40790069329431,
              25.131836747110405
            ],
            [
              85.40767395761827,
              25.132857027334488
            ],
            [
              85.40688286255151,
              25.134654315245744
            ],
            [
              85.40675623872401,
              25.136455459131582
            ],
            [
              85.40698816486578,
              25.13945677282468
            ],
            [
              85.40664139270824,
              25.139682874821393
            ],
            [
              85.40641530112426,
              25.141213262345687
            ],
            [
              85.4062523700879,
              25.14178666327184
            ],
            [
              85.40559387174697,
              25.142595231841636
            ],
            [
              85.40460179211016,
              25.142325449083568
            ],
            [
              85.40130806791694,
              25.141430702024095
            ],
            [
              85.4006483352908,
              25.141192125338083
            ],
            [
              85.40022195443278,
              25.14125122307502
            ],
            [
              85.39986248369037,
              25.143350458240846
            ],
            [
              85.39963199575139,
              25.145422435978272
            ],
            [
              85.39990102231437,
              25.146446762083187
            ],
            [
              85.39931153974008,
              25.147011643204547
            ],
            [
              85.40046208578633,
              25.147069131294337
            ],
            [
              85.40107421039735,
              25.148792698594594
            ],
            [
              85.40133798630747,
              25.14963196293098
            ],
            [
              85.40211186606012,
              25.149852367010645
            ],
            [
              85.40365878114905,
              25.149552863978922
            ],
            [
              85.4066235719296,
              25.149066832099965
            ],
            [
              85.40965331539677,
              25.14888300502315
            ],
            [
              85.41130508633726,
              25.149183665197576
            ],
            [
              85.41211419711702,
              25.14982826917687
            ],
            [
              85.41336624740049,
              25.151600704805723
            ],
            [
              85.4143604308917,
              25.153350927596986
            ],
            [
              85.41508613399564,
              25.15464102890719
            ],
            [
              85.41567709609522,
              25.15520905464555
            ],
            [
              85.41663440015078,
              25.155357012892253
            ],
            [
              85.41726343824196,
              25.15838943603071
            ],
            [
              85.4173503439575,
              25.16032117703893
            ],
            [
              85.41732112086298,
              25.16431132472103
            ],
            [
              85.41705504257077,
              25.16924499617306
            ],
            [
              85.41893009067344,
              25.16941894034331
            ],
            [
              85.41922121938565,
              25.168339847022512
            ],
            [
              85.41963226420515,
              25.167937650395302
            ],
            [
              85.42032649213819,
              25.16781495620392
            ],
            [
              85.42309745073496,
              25.167210562598985
            ],
            [
              85.42291936691639,
              25.165593591840896
            ],
            [
              85.42318552156539,
              25.162742202014222
            ]
          ]
        ]
      }
    }
  ]
}