{
  "type": "FeatureCollection",
  "features": [
    {
      "type": "Feature",
      "properties": {
        "object_id": "10-236-01499",
        "stname": "BIHAR",
        "dtname": "Gaya",
        "sdtname": "Amas",
        "st_area_sh": 0.0,
        "st_length_": 0.0,
        "remarks": "",
        "dist_lgd": 196,
        "state_lgd": 10,
        "subdt_lgd": 1499,
        "ac_no": null,
        "st_length(shape)": 100546.69423332924,
        "st_area(shape)": 128484051.44985774
      },
      "geometry": {
        "type": "Polygon",
        "coordinates": [
          [
            [
              84.62205678512863,
              24.653823920076423
            ],
            [
              84.62297546611856,
              24.653164820069765
            ],
            [
              84.62447210070442,
              24.65179716424857
            ],
            [
              84.62552410336059,
              24.651711346336405
            ],
            [
              84.62655147331338,
              24.65141346272231
            ],
            [
              84.62763110006287,
              24.651074778097144
            ],
            [
              84.62870985993808,
              24.650736357082806
            ],
            [
              84.6293617799162,
              24.650659540616623
            ],
            [
              84.63076945972935,
              24.65084909887364
            ],
            [
              84.63169309941964,
              24.650645945911332
            ],
            [
              84.63349576486998,
              24.650284682670314
            ],
            [
              84.63477506105598,
              24.650117620928516
            ],
            [
              84.6349380208384,
              24.650736062344635
            ],
            [
              84.63547647730789,
              24.65154401217843
            ],
            [
              84.63551753031639,
              24.651561008907453
            ],
            [
              84.635792630389,
              24.65167490766994
            ],
            [
              84.63678546820394,
              24.651551373236885
            ],
            [
              84.63713604023515,
              24.651507753080818
            ],
            [
              84.63688967996342,
              24.65010357384905
            ],
            [
              84.63711767328086,
              24.648917352908594
            ],
            [
              84.63790803532233,
              24.64788692572579
            ],
            [
              84.63954287301969,
              24.646864418824364
            ],
            [
              84.64189377130477,
              24.645858371975827
            ],
            [
              84.64362515992885,
              24.645301138691714
            ],
            [
              84.64455589810655,
              24.644830933207526
            ],
            [
              84.64597561534448,
              24.644362653688088
            ],
            [
              84.64744638294172,
              24.643547108879904
            ],
            [
              84.64949820332262,
              24.64310394822768
            ],
            [
              84.65062408791934,
              24.64312644277686
            ],
            [
              84.65245394088173,
              24.642610167765667
            ],
            [
              84.65354678903557,
              24.642321087218406
            ],
            [
              84.65419946270022,
              24.64217020285657
            ],
            [
              84.65450018991123,
              24.64124151940721
            ],
            [
              84.65486257568672,
              24.64085031679401
            ],
            [
              84.65543596584102,
              24.640739682381813
            ],
            [
              84.65647053938407,
              24.641280929135966
            ],
            [
              84.65700989955874,
              24.64107090925211
            ],
            [
              84.65740406233913,
              24.640223867003026
            ],
            [
              84.65649460884379,
              24.639335525776733
            ],
            [
              84.65637339377261,
              24.638843048291992
            ],
            [
              84.65660844335659,
              24.638239120607846
            ],
            [
              84.65697047968744,
              24.637911114800605
            ],
            [
              84.65818680576868,
              24.637604449911517
            ],
            [
              84.65960921435922,
              24.63760096493972
            ],
            [
              84.66026864065982,
              24.63599210034563
            ],
            [
              84.66079121671176,
              24.63514107073519
            ],
            [
              84.66235269438977,
              24.634935025305367
            ],
            [
              84.66412489168059,
              24.635104410031236
            ],
            [
              84.66559068261114,
              24.635308754307886
            ],
            [
              84.6674624698293,
              24.635275376185408
            ],
            [
              84.66946956219388,
              24.634840759179312
            ],
            [
              84.67022167666552,
              24.63453221929206
            ],
            [
              84.671744691178,
              24.634113806743095
            ],
            [
              84.67303896407641,
              24.634023991057852
            ],
            [
              84.67500958394214,
              24.6339819039933
            ],
            [
              84.67883326833889,
              24.63369405363358
            ],
            [
              84.67864066235546,
              24.631522154111735
            ],
            [
              84.67813217458215,
              24.62932649574403
            ],
            [
              84.67797220169803,
              24.62758351481082
            ],
            [
              84.6785871398325,
              24.625933809901856
            ],
            [
              84.67930362981492,
              24.624735804281844
            ],
            [
              84.67885991506516,
              24.6224004606825
            ],
            [
              84.67901024094145,
              24.62083026207089
            ],
            [
              84.67887402759827,
              24.6193085603828
            ],
            [
              84.67838643014692,
              24.61793901899071
            ],
            [
              84.67762377574203,
              24.61627052171649
            ],
            [
              84.67709756959806,
              24.61471118888216
            ],
            [
              84.67612367994742,
              24.613881473724827
            ],
            [
              84.67485971710498,
              24.613854058252876
            ],
            [
              84.67341043631102,
              24.61440375328404
            ],
            [
              84.67251438567975,
              24.614910311958674
            ],
            [
              84.67116352969819,
              24.614462771948215
            ],
            [
              84.67076052120723,
              24.61406405200685
            ],
            [
              84.67006263263941,
              24.61442245132369
            ],
            [
              84.66922504526514,
              24.615082712061895
            ],
            [
              84.66831479586246,
              24.61545389521577
            ],
            [
              84.66781543497243,
              24.615596422910148
            ],
            [
              84.66719034228197,
              24.6151696944054
            ],
            [
              84.66685372018884,
              24.614283676603602
            ],
            [
              84.66676970435357,
              24.613236080281947
            ],
            [
              84.66681010608345,
              24.611990438073
            ],
            [
              84.6671536973066,
              24.609215758020365
            ],
            [
              84.66739319085627,
              24.607614217603732
            ],
            [
              84.66728005882602,
              24.606458248788304
            ],
            [
              84.66580927326248,
              24.60422721038901
            ],
            [
              84.66820351256504,
              24.604290645952844
            ],
            [
              84.67192663326071,
              24.60422375225633
            ],
            [
              84.67235301411873,
              24.60489802179805
            ],
            [
              84.67318416955558,
              24.606697672194503
            ],
            [
              84.67401122957303,
              24.608303255706954
            ],
            [
              84.6749858603338,
              24.61004032370504
            ],
            [
              84.67704308857272,
              24.612575982934764
            ],
            [
              84.6785091400147,
              24.61375065215759
            ],
            [
              84.67974090184745,
              24.614342041158103
            ],
            [
              84.68170553803509,
              24.61446235380485
            ],
            [
              84.68239953510111,
              24.61605388229268
            ],
            [
              84.68386546167724,
              24.61837500632809
            ],
            [
              84.6849149041349,
              24.619999381322614
            ],
            [
              84.68547590831803,
              24.62043489680344
            ],
            [
              84.68687247507279,
              24.620620689635736
            ],
            [
              84.68747878758393,
              24.620866623986927
            ],
            [
              84.68874414461166,
              24.622789775025012
            ],
            [
              84.69008256611305,
              24.622745079937175
            ],
            [
              84.69193570340762,
              24.622431559751032
            ],
            [
              84.69150012559767,
              24.620452862225417
            ],
            [
              84.69109541839254,
              24.61818986838829
            ],
            [
              84.69100374801273,
              24.61657810462649
            ],
            [
              84.6905129866949,
              24.614806874069366
            ],
            [
              84.6898437157571,
              24.614289738057643
            ],
            [
              84.68787725958273,
              24.613460920099723
            ],
            [
              84.68603855192657,
              24.61278598863503
            ],
            [
              84.68543620008754,
              24.611686822863728
            ],
            [
              84.68572989887976,
              24.611146276904496
            ],
            [
              84.68586071694133,
              24.610596036693995
            ],
            [
              84.68559449132542,
              24.6094215199725
            ],
            [
              84.68552458173507,
              24.608477776152263
            ],
            [
              84.68581433692323,
              24.607743163026097
            ],
            [
              84.68613675395682,
              24.607396756254577
            ],
            [
              84.68678469170322,
              24.607146474074113
            ],
            [
              84.68794555579882,
              24.60701986471522
            ],
            [
              84.689527645321,
              24.60766674891329
            ],
            [
              84.69027561227097,
              24.608229207994317
            ],
            [
              84.69096894278705,
              24.60886831073813
            ],
            [
              84.69162600023024,
              24.609899927024916
            ],
            [
              84.69215812088207,
              24.61126052285782
            ],
            [
              84.6931536689142,
              24.612789947983135
            ],
            [
              84.69445864523924,
              24.614699599309755
            ],
            [
              84.69516792893644,
              24.61622787578519
            ],
            [
              84.69581124305412,
              24.61590529374423
            ],
            [
              84.69711524919865,
              24.614673257141085
            ],
            [
              84.69880575998573,
              24.61314026077166
            ],
            [
              84.69898608689755,
              24.612567588089636
            ],
            [
              84.69882518515544,
              24.61209311059205
            ],
            [
              84.69762863189194,
              24.611352948758977
            ],
            [
              84.69717666970955,
              24.610818623871072
            ],
            [
              84.69701942770392,
              24.60952712661966
            ],
            [
              84.6966828199838,
              24.60859151490665
            ],
            [
              84.69584497389474,
              24.608245357135793
            ],
            [
              84.69482566901658,
              24.607636751209736
            ],
            [
              84.69449758810514,
              24.60700357738737
            ],
            [
              84.69410886013223,
              24.60559384812077
            ],
            [
              84.69350855465541,
              24.604007248784345
            ],
            [
              84.69291731407813,
              24.603725138181996
            ],
            [
              84.69235666472952,
              24.603240077062836
            ],
            [
              84.69171506729235,
              24.60205958932121
            ],
            [
              84.69114967933064,
              24.600423460688813
            ],
            [
              84.69088885708115,
              24.59912700278484
            ],
            [
              84.69218774013359,
              24.599032543853397
            ],
            [
              84.69343651605784,
              24.599100347774908
            ],
            [
              84.69386427493151,
              24.599494663936706
            ],
            [
              84.69463912306803,
              24.60068471663827
            ],
            [
              84.695791987666,
              24.6023409718569
            ],
            [
              84.69699516061483,
              24.60382600102013
            ],
            [
              84.69844029388713,
              24.60528927322748
            ],
            [
              84.6988158318967,
              24.607457347167237
            ],
            [
              84.69926277339495,
              24.60800057078563
            ],
            [
              84.6993799720985,
              24.609422900227923
            ],
            [
              84.6998591298778,
              24.610503481193025
            ],
            [
              84.7005389380539,
              24.61086706130247
            ],
            [
              84.7014177994222,
              24.610870275055312
            ],
            [
              84.7020165454237,
              24.610570026062724
            ],
            [
              84.70276214261793,
              24.611705753253577
            ],
            [
              84.70293925086611,
              24.6122752839512
            ],
            [
              84.70487327426545,
              24.61220091925977
            ],
            [
              84.70660682333781,
              24.61210789860971
            ],
            [
              84.7063801945613,
              24.61084763830963
            ],
            [
              84.70641768844466,
              24.61017522374067
            ],
            [
              84.70674434911963,
              24.609995838039577
            ],
            [
              84.70837111096259,
              24.610593081014976
            ],
            [
              84.71019245957416,
              24.610744031268048
            ],
            [
              84.7138082935771,
              24.610377812818207
            ],
            [
              84.71370072661003,
              24.612462804792344
            ],
            [
              84.71372771739105,
              24.614232316753117
            ],
            [
              84.71334828069315,
              24.615196986270046
            ],
            [
              84.7137707125572,
              24.616882178363625
            ],
            [
              84.71248919214256,
              24.617491502069413
            ],
            [
              84.71275120465977,
              24.618571225246253
            ],
            [
              84.71366105341383,
              24.61942763918715
            ],
            [
              84.71406843310697,
              24.620015880103793
            ],
            [
              84.71356632157554,
              24.620817565695273
            ],
            [
              84.71340023924921,
              24.62153011562585
            ],
            [
              84.7137198319795,
              24.62185629596207
            ],
            [
              84.7141236103267,
              24.622128495805676
            ],
            [
              84.71533572061426,
              24.622737710648185
            ],
            [
              84.71646592610753,
              24.62290421368215
            ],
            [
              84.71768088135963,
              24.62285891187811
            ],
            [
              84.71956272342076,
              24.622752642767562
            ],
            [
              84.72042280011817,
              24.622543533319586
            ],
            [
              84.72041698442503,
              24.62156854262058
            ],
            [
              84.71945680935382,
              24.619764149935847
            ],
            [
              84.71867164406623,
              24.617427655883287
            ],
            [
              84.71786025785387,
              24.615474806300327
            ],
            [
              84.71717722292925,
              24.61351792932876
            ],
            [
              84.71903153791514,
              24.61289249407457
            ],
            [
              84.72112769285026,
              24.61228145739056
            ],
            [
              84.72295583272542,
              24.611989970102535
            ],
            [
              84.72355261411137,
              24.61214550281489
            ],
            [
              84.72453617143111,
              24.613101386904606
            ],
            [
              84.72615386927285,
              24.614727507873795
            ],
            [
              84.72683446167818,
              24.61492854359648
            ],
            [
              84.72763981031355,
              24.61480038388124
            ],
            [
              84.72817899172351,
              24.614558516126873
            ],
            [
              84.72807511323897,
              24.6134116882137
            ],
            [
              84.7279820558604,
              24.612043628256774
            ],
            [
              84.72784414739628,
              24.61076574596645
            ],
            [
              84.72755764141452,
              24.608440054052693
            ],
            [
              84.72725854015414,
              24.606750830325932
            ],
            [
              84.72745484001004,
              24.604643565924956
            ],
            [
              84.72729357624688,
              24.603072166706077
            ],
            [
              84.72712537569308,
              24.599568777260586
            ],
            [
              84.72676669367148,
              24.5979876818646
            ],
            [
              84.7262804023705,
              24.597376559315293
            ],
            [
              84.72449524328846,
              24.595700207795854
            ],
            [
              84.72520865025281,
              24.59510690918269
            ],
            [
              84.72671726926283,
              24.594439555968595
            ],
            [
              84.72731071969575,
              24.59417980789912
            ],
            [
              84.72824567276872,
              24.593740719715235
            ],
            [
              84.72916225439585,
              24.59293592328433
            ],
            [
              84.72980976813747,
              24.59274405460788
            ],
            [
              84.73115722040238,
              24.594039702180517
            ],
            [
              84.73177765622641,
              24.595630712870875
            ],
            [
              84.73328724901023,
              24.59588418566456
            ],
            [
              84.73408425409325,
              24.596568464322576
            ],
            [
              84.73495426615771,
              24.598706536780032
            ],
            [
              84.73559231884276,
              24.599643125774115
            ],
            [
              84.73590739035227,
              24.59985176383875
            ],
            [
              84.73676738979455,
              24.59964255810992
            ],
            [
              84.73653994624608,
              24.597285576173608
            ],
            [
              84.73693225220876,
              24.59673166474051
            ],
            [
              84.73741893427689,
              24.596029208128158
            ],
            [
              84.73713981604001,
              24.594258773819714
            ],
            [
              84.73648591437836,
              24.59239226587877
            ],
            [
              84.73578981705123,
              24.58997498018107
            ],
            [
              84.73584709183713,
              24.589239390943288
            ],
            [
              84.74115433494242,
              24.589167145360534
            ],
            [
              84.74334652157805,
              24.589111355215586
            ],
            [
              84.74785038156182,
              24.589103685794303
            ],
            [
              84.74982452462011,
              24.5888531489294
            ],
            [
              84.75000002757886,
              24.58881028698887
            ],
            [
              84.750644761933,
              24.588652826084513
            ],
            [
              84.75120458483153,
              24.588171642173684
            ],
            [
              84.7517690529184,
              24.588976956892036
            ],
            [
              84.75188441726215,
              24.589771804249274
            ],
            [
              84.7517623990971,
              24.590656146300283
            ],
            [
              84.75151533274958,
              24.591982375659132
            ],
            [
              84.7516199586324,
              24.592966769927514
            ],
            [
              84.75266957715982,
              24.59346675338645
            ],
            [
              84.75331386235631,
              24.592841458863784
            ],
            [
              84.75415850959043,
              24.592731471371224
            ],
            [
              84.7556599959771,
              24.592560300836173
            ],
            [
              84.75735432729911,
              24.592299514759336
            ],
            [
              84.75929068721655,
              24.59199889773942
            ],
            [
              84.76037695790586,
              24.591979888402587
            ],
            [
              84.76198733896963,
              24.59171878826898
            ],
            [
              84.76244766806056,
              24.592686285247943
            ],
            [
              84.76269272308016,
              24.593133967684455
            ],
            [
              84.76301009068352,
              24.594060375882634
            ],
            [
              84.76345757386588,
              24.595799589694373
            ],
            [
              84.76418463612087,
              24.599286704842118
            ],
            [
              84.76469070113787,
              24.601197749885635
            ],
            [
              84.76483776612969,
              24.6014690088483
            ],
            [
              84.7653068412182,
              24.601470528042555
            ],
            [
              84.76606780589202,
              24.601292409742335
            ],
            [
              84.7665814643681,
              24.6012489737861
            ],
            [
              84.76689835406773,
              24.602283628377577
            ],
            [
              84.76734105192457,
              24.602732004222055
            ],
            [
              84.7687880096752,
              24.602628263044174
            ],
            [
              84.76932050402621,
              24.602837565060078
            ],
            [
              84.76872569803554,
              24.603440574218656
            ],
            [
              84.76826942124485,
              24.60396725312499
            ],
            [
              84.76836014120705,
              24.60477095931799
            ],
            [
              84.76890157469343,
              24.605210563374456
            ],
            [
              84.77026111558716,
              24.604745456310603
            ],
            [
              84.77217774131441,
              24.604503328988706
            ],
            [
              84.77338408441787,
              24.60407831375972
            ],
            [
              84.77402188916791,
              24.603836541252267
            ],
            [
              84.7748557090079,
              24.603992729338096
            ],
            [
              84.77571404297366,
              24.604198543168607
            ],
            [
              84.77678432634588,
              24.60448179370534
            ],
            [
              84.77889833709389,
              24.60426717901243
            ],
            [
              84.78025131579444,
              24.604226308693594
            ],
            [
              84.78091928327677,
              24.603844743929
            ],
            [
              84.78209730070272,
              24.60304035632535
            ],
            [
              84.7832800064361,
              24.602321853827387
            ],
            [
              84.78392302500805,
              24.6020123532119
            ],
            [
              84.7848330489336,
              24.601586312642752
            ],
            [
              84.78533594469427,
              24.601754933132288
            ],
            [
              84.78669466901938,
              24.602828948218857
            ],
            [
              84.78772052620921,
              24.604475139631184
            ],
            [
              84.7879165502823,
              24.60487750915219
            ],
            [
              84.78799738428485,
              24.605726377045027
            ],
            [
              84.78875308213614,
              24.606983550227376
            ],
            [
              84.7886672822467,
              24.607502368694735
            ],
            [
              84.78885810507431,
              24.607981451987445
            ],
            [
              84.78916152094301,
              24.608700049393043
            ],
            [
              84.78933330487646,
              24.60897595312383
            ],
            [
              84.78940088693192,
              24.60941400370556
            ],
            [
              84.78972366239327,
              24.610254609975968
            ],
            [
              84.79023334223098,
              24.61130340079435
            ],
            [
              84.79053203835116,
              24.61198133184072
            ],
            [
              84.79081431416627,
              24.613119730693313
            ],
            [
              84.79137255782653,
              24.61437630525911
            ],
            [
              84.79168648398404,
              24.614945978965583
            ],
            [
              84.79144092680619,
              24.615942805339817
            ],
            [
              84.7922230512965,
              24.616762211046836
            ],
            [
              84.79250812895698,
              24.617119706745267
            ],
            [
              84.79250695665553,
              24.61744013781973
            ],
            [
              84.79265370005045,
              24.61781980728571
            ],
            [
              84.79302350141863,
              24.617978908916466
            ],
            [
              84.79357708731415,
              24.617831613801666
            ],
            [
              84.79423284130186,
              24.61809540180016
            ],
            [
              84.79558121883156,
              24.618000192793875
            ],
            [
              84.7968250297672,
              24.618143872346447
            ],
            [
              84.79797452119128,
              24.618436213401047
            ],
            [
              84.79879627486035,
              24.619219623395743
            ],
            [
              84.79926241335625,
              24.620051598736687
            ],
            [
              84.79961675292174,
              24.620382143828643
            ],
            [
              84.8000300588008,
              24.620807669593574
            ],
            [
              84.80043849940432,
              24.62121068398659
            ],
            [
              84.80103004990036,
              24.62147874731871
            ],
            [
              84.80168659171062,
              24.621530326319007
            ],
            [
              84.80229604563027,
              24.620954370768967
            ],
            [
              84.8029833969598,
              24.620681087946803
            ],
            [
              84.80391791973976,
              24.620331742777676
            ],
            [
              84.80471751017417,
              24.620433475837167
            ],
            [
              84.80622844593935,
              24.620437938814472
            ],
            [
              84.8069438229091,
              24.62061607640208
            ],
            [
              84.80771093834767,
              24.62154816827094
            ],
            [
              84.8086747929183,
              24.621266601098945
            ],
            [
              84.80967805478379,
              24.62101226100667
            ],
            [
              84.81077130178963,
              24.62045580705503
            ],
            [
              84.81180617357332,
              24.619650782302276
            ],
            [
              84.8126826562028,
              24.618935632041573
            ],
            [
              84.81349027937245,
              24.618138983806222
            ],
            [
              84.81414433374765,
              24.617504470732662
            ],
            [
              84.81503945821589,
              24.617091801981736
            ],
            [
              84.81576269724103,
              24.616434852028323
            ],
            [
              84.81658063576512,
              24.615489272146416
            ],
            [
              84.81723452934189,
              24.614872714301587
            ],
            [
              84.81754389834596,
              24.613957305824858
            ],
            [
              84.81815361996358,
              24.613245856928827
            ],
            [
              84.81913865860523,
              24.612530958333146
            ],
            [
              84.81952156819004,
              24.611742121906442
            ],
            [
              84.81991957126826,
              24.610885564677265
            ],
            [
              84.82040248490374,
              24.60971332114843
            ],
            [
              84.82059840028069,
              24.608734390994965
            ],
            [
              84.82089646758017,
              24.608207157180775
            ],
            [
              84.81980809393475,
              24.607368914660338
            ],
            [
              84.81891608572225,
              24.606887942362327
            ],
            [
              84.81802414398507,
              24.60638429880905
            ],
            [
              84.8172025789622,
              24.605528850785273
            ],
            [
              84.81648509364643,
              24.60455176804864
            ],
            [
              84.81599800733645,
              24.604058303283324
            ],
            [
              84.81543182167076,
              24.60357817830365
            ],
            [
              84.81410518337096,
              24.603159126364606
            ],
            [
              84.81264949489406,
              24.602915624630096
            ],
            [
              84.8113426536665,
              24.602492061932576
            ],
            [
              84.81032403510123,
              24.601514039881575
            ],
            [
              84.80956638071926,
              24.600748953621526
            ],
            [
              84.80885766475731,
              24.600114991054983
            ],
            [
              84.80809786070687,
              24.599977311284928
            ],
            [
              84.80677089003039,
              24.599639366938582
            ],
            [
              84.8060565703777,
              24.59920841839229
            ],
            [
              84.80596003023076,
              24.598589704024327
            ],
            [
              84.8057707848448,
              24.597654772593895
            ],
            [
              84.8056401410564,
              24.596905111713276
            ],
            [
              84.80537128068174,
              24.596136917101955
            ],
            [
              84.80500302711081,
              24.595553576652733
            ],
            [
              84.80449129911429,
              24.595078070792784
            ],
            [
              84.80380016587736,
              24.595076042646543
            ],
            [
              84.8030911759293,
              24.594514192597973
            ],
            [
              84.8020869753243,
              24.593703237402732
            ],
            [
              84.80167018757521,
              24.592912009860868
            ],
            [
              84.80190630795099,
              24.591757186030275
            ],
            [
              84.80176399325042,
              24.590118178123557
            ],
            [
              84.80130308384784,
              24.58925914321359
            ],
            [
              84.80120664341388,
              24.588617943114976
            ],
            [
              84.80042400778214,
              24.587965610843234
            ],
            [
              84.79984856857071,
              24.58734993191612
            ],
            [
              84.79909004012794,
              24.58687371608084
            ],
            [
              84.79835490291687,
              24.585386473006256
            ],
            [
              84.79769777630337,
              24.58417021137112
            ],
            [
              84.79802373808906,
              24.58274930878348
            ],
            [
              84.79826132541372,
              24.58120624185062
            ],
            [
              84.79824097138602,
              24.57999197617978
            ],
            [
              84.79792722039998,
              24.578013858215737
            ],
            [
              84.79831167778204,
              24.57678725696792
            ],
            [
              84.79812265068671,
              24.57582070897748
            ],
            [
              84.79827375899558,
              24.574990591395974
            ],
            [
              84.79903821901414,
              24.573778678751694
            ],
            [
              84.79972921121553,
              24.5724310532294
            ],
            [
              84.79987964399135,
              24.57175894208131
            ],
            [
              84.79996613109192,
              24.571041473269467
            ],
            [
              84.7993907098468,
              24.570448453246453
            ],
            [
              84.7985781773841,
              24.569917814790077
            ],
            [
              84.79698438191546,
              24.568418988960346
            ],
            [
              84.79597137602404,
              24.56735962970631
            ],
            [
              84.79456322010381,
              24.56640293881089
            ],
            [
              84.7936461381151,
              24.566120299034836
            ],
            [
              84.79204796066446,
              24.565835634086707
            ],
            [
              84.79051862470735,
              24.565641392981306
            ],
            [
              84.78960169273726,
              24.565327125974125
            ],
            [
              84.78904591944404,
              24.56478375560434
            ],
            [
              84.78819979178635,
              24.564000223039447
            ],
            [
              84.7870761978936,
              24.563531799404426
            ],
            [
              84.78492149885308,
              24.562947366702726
            ],
            [
              84.78359544894982,
              24.562478391726454
            ],
            [
              84.78305465416561,
              24.56191694122867
            ],
            [
              84.78240952634938,
              24.561540300066323
            ],
            [
              84.78178247263665,
              24.56158805228167
            ],
            [
              84.78118773671461,
              24.56091357731176
            ],
            [
              84.77959722907985,
              24.559942609252065
            ],
            [
              84.77816349632687,
              24.559252059847015
            ],
            [
              84.77810436831656,
              24.5592247851999
            ],
            [
              84.77752726722181,
              24.559128181656316
            ],
            [
              84.77647258489114,
              24.558723136367657
            ],
            [
              84.77593183861597,
              24.55816165761407
            ],
            [
              84.77528706204102,
              24.557690184152115
            ],
            [
              84.77454298030464,
              24.557376366204057
            ],
            [
              84.77348748769359,
              24.557187994822954
            ],
            [
              84.77274142696866,
              24.55740227104614
            ],
            [
              84.77216231724098,
              24.557838358915546
            ],
            [
              84.77147925985851,
              24.558364258948842
            ],
            [
              84.7708660437944,
              24.558673807788338
            ],
            [
              84.77005138861271,
              24.558766015955197
            ],
            [
              84.76896067395768,
              24.558730890987846
            ],
            [
              84.76819939756844,
              24.5590625171863
            ],
            [
              84.76703731356072,
              24.55965463105243
            ],
            [
              84.7662366514362,
              24.559918376602948
            ],
            [
              84.76548552331474,
              24.5601597657379
            ],
            [
              84.76476644708262,
              24.55977824726921
            ],
            [
              84.76413658882959,
              24.55927070566234
            ],
            [
              84.76314639475653,
              24.558802498848767
            ],
            [
              84.76217985871477,
              24.558600796977867
            ],
            [
              84.76146005664393,
              24.558395329806856
            ],
            [
              84.76061181435205,
              24.558216491699344
            ],
            [
              84.75999424056053,
              24.558381502017717
            ],
            [
              84.7589789286938,
              24.558026157381523
            ],
            [
              84.75835385217302,
              24.557581732912645
            ],
            [
              84.75671341527651,
              24.556777433814013
            ],
            [
              84.75556939728745,
              24.555284105008063
            ],
            [
              84.75403232234414,
              24.553310975109362
            ],
            [
              84.75262190805928,
              24.55179415930258
            ],
            [
              84.7509152060375,
              24.550325991093818
            ],
            [
              84.75065497937105,
              24.551227874400023
            ],
            [
              84.7501483241609,
              24.552043208803006
            ],
            [
              84.75000003656201,
              24.552235749362538
            ],
            [
              84.74975646016937,
              24.552552014286288
            ],
            [
              84.74965921574321,
              24.55341385916052
            ],
            [
              84.74935458714889,
              24.554311120109983
            ],
            [
              84.74951970019306,
              24.554997765782016
            ],
            [
              84.74910790438197,
              24.55552901565165
            ],
            [
              84.74843270456333,
              24.55530562423914
            ],
            [
              84.74785108673935,
              24.555186388026367
            ],
            [
              84.74602379756877,
              24.55541498112819
            ],
            [
              84.74390661936106,
              24.555394268365507
            ],
            [
              84.74234573007958,
              24.555705073019137
            ],
            [
              84.74008375692281,
              24.557322438686867
            ],
            [
              84.73829956891957,
              24.559126444613863
            ],
            [
              84.73779238729668,
              24.560059112841657
            ],
            [
              84.73755601629092,
              24.56114161827893
            ],
            [
              84.7374961067463,
              24.562536234661046
            ],
            [
              84.7375605123589,
              24.564892728402064
            ],
            [
              84.73606968268642,
              24.56493729218683
            ],
            [
              84.73463506599117,
              24.56452162898651
            ],
            [
              84.73354523976995,
              24.56429221668288
            ],
            [
              84.73164572335557,
              24.564105086933928
            ],
            [
              84.73062474491607,
              24.563948157899418
            ],
            [
              84.7290915812375,
              24.56350046510528
            ],
            [
              84.72801807471004,
              24.562891898225853
            ],
            [
              84.72691230788408,
              24.56174153967134
            ],
            [
              84.72648193670956,
              24.560778548215197
            ],
            [
              84.72559231532075,
              24.5598907229932
            ],
            [
              84.72462648086326,
              24.55953077940496
            ],
            [
              84.72323076481305,
              24.55926406716086
            ],
            [
              84.72176462264122,
              24.55935379761088
            ],
            [
              84.72195414201336,
              24.56123221915998
            ],
            [
              84.72212456859242,
              24.562966132887766
            ],
            [
              84.72176400010872,
              24.564206167148207
            ],
            [
              84.72068285340977,
              24.565416700938346
            ],
            [
              84.71921091800264,
              24.56685144477142
            ],
            [
              84.7174508551547,
              24.568709447816282
            ],
            [
              84.71572896890967,
              24.569682829132812
            ],
            [
              84.71418718230272,
              24.570106246289622
            ],
            [
              84.71207334133628,
              24.570392113927088
            ],
            [
              84.71014087920886,
              24.570971979365773
            ],
            [
              84.70622713511163,
              24.571996052035104
            ],
            [
              84.70588888167792,
              24.572106430273347
            ],
            [
              84.70285154115838,
              24.57312491386196
            ],
            [
              84.70103157685062,
              24.573791873338656
            ],
            [
              84.69790013061859,
              24.5753421708555
            ],
            [
              84.69566889242094,
              24.576503116214223
            ],
            [
              84.69374974332604,
              24.57738073796431
            ],
            [
              84.69285460268813,
              24.57775659383839
            ],
            [
              84.69222710520768,
              24.577880634974687
            ],
            [
              84.69056384122145,
              24.577824806307834
            ],
            [
              84.68916741460386,
              24.57770224783724
            ],
            [
              84.68834789863814,
              24.577726273633363
            ],
            [
              84.6872548681263,
              24.57818715793005
            ],
            [
              84.68670192183126,
              24.57822572404201
            ],
            [
              84.68545365615013,
              24.578072094272656
            ],
            [
              84.6832095253315,
              24.577666389675134
            ],
            [
              84.68210393816864,
              24.577621609846737
            ],
            [
              84.68162381919198,
              24.577917719279537
            ],
            [
              84.68070939531822,
              24.579277460284008
            ],
            [
              84.67880661981602,
              24.5808591963364
            ],
            [
              84.67827063191687,
              24.581498107992985
            ],
            [
              84.67826012072973,
              24.582725819015998
            ],
            [
              84.67810917681254,
              24.583357179629097
            ],
            [
              84.67745130190245,
              24.58471794803546
            ],
            [
              84.67698646416707,
              24.585993537052012
            ],
            [
              84.67676498183884,
              24.58692706887784
            ],
            [
              84.6764693911946,
              24.587878417625998
            ],
            [
              84.67561032420356,
              24.588976479033256
            ],
            [
              84.6748615388884,
              24.589704927298047
            ],
            [
              84.67338380755106,
              24.590073839759505
            ],
            [
              84.6726514110999,
              24.59045476689476
            ],
            [
              84.67124515870975,
              24.592430985264556
            ],
            [
              84.67011998108714,
              24.593410604121416
            ],
            [
              84.66904685275043,
              24.593817225647843
            ],
            [
              84.66798682185053,
              24.59457146775745
            ],
            [
              84.66579194206571,
              24.59519490927684
            ],
            [
              84.66492248156683,
              24.594243682286482
            ],
            [
              84.66437020361835,
              24.593045365774262
            ],
            [
              84.66431162268208,
              24.591853470357997
            ],
            [
              84.6640787613941,
              24.590967802865226
            ],
            [
              84.66340409697135,
              24.59060409468791
            ],
            [
              84.66224067986369,
              24.590247439721853
            ],
            [
              84.66055824942259,
              24.590033235181643
            ],
            [
              84.66008529540865,
              24.589828302306337
            ],
            [
              84.65963424501629,
              24.589153915634846
            ],
            [
              84.6595191932863,
              24.588413172928142
            ],
            [
              84.65934873077461,
              24.587934062919302
            ],
            [
              84.6587581181197,
              24.587548079908387
            ],
            [
              84.65742164686081,
              24.587249407052152
            ],
            [
              84.65625234488975,
              24.5871048498331
            ],
            [
              84.65414662289687,
              24.587678821861747
            ],
            [
              84.65292196224644,
              24.587764272854486
            ],
            [
              84.65179167680314,
              24.587723704286358
            ],
            [
              84.65055682566413,
              24.586829490929198
            ],
            [
              84.64992169609701,
              24.586456887280036
            ],
            [
              84.64886555580064,
              24.586407517337907
            ],
            [
              84.64808417960694,
              24.5866887512644
            ],
            [
              84.64697546990013,
              24.58730724426982
            ],
            [
              84.64630699936122,
              24.587710803603095
            ],
            [
              84.64591780606102,
              24.588575924905378
            ],
            [
              84.64455507704635,
              24.58964920110691
            ],
            [
              84.64270309588356,
              24.590819931932675
            ],
            [
              84.64126876305593,
              24.59135580109004
            ],
            [
              84.63973161265416,
              24.591742206101785
            ],
            [
              84.6387387038723,
              24.59186910864116
            ],
            [
              84.63749454439032,
              24.591873129913665
            ],
            [
              84.63591595021288,
              24.59263400495074
            ],
            [
              84.63309722998912,
              24.594604085671314
            ],
            [
              84.63220927587349,
              24.59547615123624
            ],
            [
              84.63019978590542,
              24.596496980963046
            ],
            [
              84.62809651541492,
              24.597521981097024
            ],
            [
              84.62662683028759,
              24.59820201164844
            ],
            [
              84.62418074561671,
              24.59864327971265
            ],
            [
              84.62171600563234,
              24.598876698344917
            ],
            [
              84.62061133924261,
              24.599616926639122
            ],
            [
              84.61926608425688,
              24.600085244742704
            ],
            [
              84.61734606289782,
              24.600961908945752
            ],
            [
              84.61529033574378,
              24.600343869738133
            ],
            [
              84.61421279398405,
              24.599612591153853
            ],
            [
              84.61332373673726,
              24.598706072027
            ],
            [
              84.61225743918995,
              24.59673804804817
            ],
            [
              84.61198298590436,
              24.594394146653915
            ],
            [
              84.611486097178,
              24.59405354237087
            ],
            [
              84.6093349491778,
              24.594748556634315
            ],
            [
              84.60734997782711,
              24.59480333060024
            ],
            [
              84.60565148820368,
              24.594845644856992
            ],
            [
              84.60474795370776,
              24.59486436624006
            ],
            [
              84.60399973702611,
              24.594436830250284
            ],
            [
              84.60318058936969,
              24.593386119828743
            ],
            [
              84.60266676290863,
              24.59251724330884
            ],
            [
              84.60198608516336,
              24.59238346698205
            ],
            [
              84.6005720578544,
              24.59280163198666
            ],
            [
              84.59924012218937,
              24.59354969196613
            ],
            [
              84.59743386976612,
              24.595333839128052
            ],
            [
              84.59689724136823,
              24.59641776324517
            ],
            [
              84.5964132740089,
              24.597045118659008
            ],
            [
              84.59586509507305,
              24.59778531122885
            ],
            [
              84.59468452643172,
              24.600344522344113
            ],
            [
              84.59334092075285,
              24.603133900727176
            ],
            [
              84.59310863259007,
              24.604068251349123
            ],
            [
              84.59555716696671,
              24.605562890245537
            ],
            [
              84.59726521556308,
              24.606763942215057
            ],
            [
              84.59619353081905,
              24.607950922668888
            ],
            [
              84.5950328086573,
              24.609733726828164
            ],
            [
              84.5939608337574,
              24.61190474472576
            ],
            [
              84.59263185444794,
              24.61487918978565
            ],
            [
              84.59338719207481,
              24.61538943384575
            ],
            [
              84.59669982221146,
              24.61793599406881
            ],
            [
              84.59939544539357,
              24.620003891681133
            ],
            [
              84.60183936871788,
              24.621805377756715
            ],
            [
              84.60431297776907,
              24.623683563997748
            ],
            [
              84.60597197385934,
              24.6248980508908
            ],
            [
              84.60606577863629,
              24.625019940884414
            ],
            [
              84.60606576605987,
              24.625101191831362
            ],
            [
              84.60595712021615,
              24.625164375089486
            ],
            [
              84.60417447012865,
              24.625132537662836
            ],
            [
              84.6030831661788,
              24.625046614869678
            ],
            [
              84.60174011026886,
              24.624482162925442
            ],
            [
              84.60012046128634,
              24.62428779966679
            ],
            [
              84.59900941506147,
              24.624197330154548
            ],
            [
              84.59924618222426,
              24.625456775673182
            ],
            [
              84.59945832027692,
              24.62643634988208
            ],
            [
              84.59954209805866,
              24.627271452146573
            ],
            [
              84.59953208363984,
              24.627944036093176
            ],
            [
              84.59934420189651,
              24.629063473724937
            ],
            [
              84.59930178794036,
              24.629780150224057
            ],
            [
              84.5993805531228,
              24.63080490293163
            ],
            [
              84.59958242702501,
              24.631867457818508
            ],
            [
              84.59969546203723,
              24.632473665948655
            ],
            [
              84.59966169256904,
              24.63350158687579
            ],
            [
              84.59952282200928,
              24.634753125031622
            ],
            [
              84.59937352111075,
              24.635325897775843
            ],
            [
              84.59901392909575,
              24.636618862046607
            ],
            [
              84.59895952622384,
              24.637088263126316
            ],
            [
              84.59886501357448,
              24.638565264684743
            ],
            [
              84.5989727763743,
              24.639279830677932
            ],
            [
              84.59915028437275,
              24.640456865085834
            ],
            [
              84.59942761136895,
              24.642392296167156
            ],
            [
              84.59989178884258,
              24.64275805666893
            ],
            [
              84.60039548679877,
              24.643092131851613
            ],
            [
              84.60052875097284,
              24.643214040023743
            ],
            [
              84.60065219117101,
              24.643390129214232
            ],
            [
              84.6006768696885,
              24.643493964761355
            ],
            [
              84.60067191188641,
              24.643629370032436
            ],
            [
              84.60060277215229,
              24.643733152308496
            ],
            [
              84.60055340793079,
              24.64384600493363
            ],
            [
              84.60051874823218,
              24.643990414111958
            ],
            [
              84.60051872128273,
              24.64441022815474
            ],
            [
              84.60049891163408,
              24.644568233682094
            ],
            [
              84.6004297718999,
              24.64467201517797
            ],
            [
              84.60011361522557,
              24.64501953359277
            ],
            [
              84.59995048476323,
              24.64542130722969
            ],
            [
              84.59993950196058,
              24.645507416867154
            ],
            [
              84.59992573797379,
              24.64561533796647
            ],
            [
              84.59997169129214,
              24.646031736110068
            ],
            [
              84.59997506356771,
              24.646062297769056
            ],
            [
              84.60006881983561,
              24.64643243037333
            ],
            [
              84.60014286077794,
              24.646816148023106
            ],
            [
              84.60018236778582,
              24.64688835785591
            ],
            [
              84.60044405421462,
              24.647199884089126
            ],
            [
              84.60029083396648,
              24.647542873857933
            ],
            [
              84.60034511915912,
              24.647709916183544
            ],
            [
              84.60043400835481,
              24.647890508386727
            ],
            [
              84.60051798286754,
              24.647971732214206
            ],
            [
              84.60071246004173,
              24.648110413192292
            ],
            [
              84.60080163939325,
              24.648219070127045
            ],
            [
              84.6008511365654,
              24.648409233007005
            ],
            [
              84.60106895107234,
              24.64888740511082
            ],
            [
              84.60119770300874,
              24.649095893234566
            ],
            [
              84.60121754859,
              24.649240812344058
            ],
            [
              84.60113820129929,
              24.649594278178334
            ],
            [
              84.60109843916986,
              24.6498298632715
            ],
            [
              84.60113800726317,
              24.650074566073847
            ],
            [
              84.60118757809718,
              24.65021959916725
            ],
            [
              84.6012667529114,
              24.650428015668158
            ],
            [
              84.6014351555861,
              24.65076332521453
            ],
            [
              84.60172241794936,
              24.651116869199736
            ],
            [
              84.60195002139795,
              24.651439854297838
            ],
            [
              84.60213825258596,
              24.65176618189245
            ],
            [
              84.60222735468236,
              24.65199271998708
            ],
            [
              84.60228239356148,
              24.6521125350982
            ],
            [
              84.60228606677269,
              24.652120532946487
            ],
            [
              84.60241870212606,
              24.65240926994856
            ],
            [
              84.6025370740294,
              24.653140576895453
            ],
            [
              84.60249734513764,
              24.65420134812038
            ],
            [
              84.6025761669139,
              24.655451758753724
            ],
            [
              84.60259098821778,
              24.655632341391506
            ],
            [
              84.60271939070955,
              24.655776825927912
            ],
            [
              84.60303552312939,
              24.65576778983231
            ],
            [
              84.604117318412,
              24.655018625183946
            ],
            [
              84.60453720804375,
              24.65488776014029
            ],
            [
              84.60555968127994,
              24.65461711674251
            ],
            [
              84.60633516542369,
              24.654075531007056
            ],
            [
              84.60920500068545,
              24.6532949651933
            ],
            [
              84.60979768844865,
              24.653186693133808
            ],
            [
              84.61044943505189,
              24.654960722127754
            ],
            [
              84.61104782801549,
              24.65837028813574
            ],
            [
              84.61130241595689,
              24.658590339394163
            ],
            [
              84.61163946474983,
              24.658603641780285
            ],
            [
              84.61241004588872,
              24.658177123012198
            ],
            [
              84.61318062073946,
              24.65775060033735
            ],
            [
              84.6137635015947,
              24.657329718387686
            ],
            [
              84.61449953712106,
              24.65679824095932
            ],
            [
              84.61549238930907,
              24.656324325723396
            ],
            [
              84.61841643879653,
              24.655638408187663
            ],
            [
              84.61970068829302,
              24.65511483630647
            ],
            [
              84.62205678512863,
              24.653823920076423
            ]
          ]
        ]
      }
    }
  ]
}