{
  "type": "FeatureCollection",
  "features": [
    {
      "type": "Feature",
      "properties": {
        "object_id": "10-229-01396",
        "stname": "BIHAR",
        "dtname": "Nalanda",
        "sdtname": "Giriak",
        "st_area_sh": 0.0,
        "st_length_": 0.0,
        "remarks": "",
        "dist_lgd": 209,
        "state_lgd": 10,
        "subdt_lgd": 1396,
        "ac_no": null,
        "st_length(shape)": 88347.46773236175,
        "st_area(shape)": 99576022.5731765
      },
      "geometry": {
        "type": "Polygon",
        "coordinates": [
          [
            [
              85.53725738274181,
              25.119713024737887
            ],
            [
              85.5393956542907,
              25.118802140858765
            ],
            [
              85.5409998253009,
              25.118407290773284
            ],
            [
              85.54122053777296,
              25.118287675803607
            ],
            [
              85.54185039782261,
              25.1179463208351
            ],
            [
              85.54237068406886,
              25.117543649876485
            ],
            [
              85.54253981168405,
              25.11682206774132
            ],
            [
              85.5427608592277,
              25.11528541982114
            ],
            [
              85.54295630927732,
              25.11305604894201
            ],
            [
              85.54284659623502,
              25.11019276235364
            ],
            [
              85.54235247431976,
              25.107679623974633
            ],
            [
              85.54113950973431,
              25.10592882392764
            ],
            [
              85.54104731922997,
              25.105464719077148
            ],
            [
              85.54090827260042,
              25.104764739329386
            ],
            [
              85.54098344362336,
              25.104126865613754
            ],
            [
              85.54135350819793,
              25.103561141911968
            ],
            [
              85.54180249156684,
              25.103465534800954
            ],
            [
              85.54223983187131,
              25.10363910577027
            ],
            [
              85.54274221469397,
              25.104028750235944
            ],
            [
              85.54323981219108,
              25.104822286348117
            ],
            [
              85.54362299216878,
              25.105433346749127
            ],
            [
              85.54424068902951,
              25.105574599032806
            ],
            [
              85.54522406129631,
              25.105665038282915
            ],
            [
              85.54585979273469,
              25.10567704397037
            ],
            [
              85.54649552417305,
              25.10568904802978
            ],
            [
              85.54865347062326,
              25.105421655842953
            ],
            [
              85.55051809916696,
              25.105305247805735
            ],
            [
              85.55130254759891,
              25.105066702252344
            ],
            [
              85.55203257429434,
              25.104785302646533
            ],
            [
              85.55222135435298,
              25.104540934173773
            ],
            [
              85.55218544958939,
              25.104001993109815
            ],
            [
              85.55204824899774,
              25.10345437001744
            ],
            [
              85.5519756318851,
              25.10316453025373
            ],
            [
              85.55193978281707,
              25.102260719032426
            ],
            [
              85.5520535373798,
              25.10121157983937
            ],
            [
              85.55218302144317,
              25.100620395305643
            ],
            [
              85.55259817875005,
              25.1001666463136
            ],
            [
              85.55296760372414,
              25.100008673896617
            ],
            [
              85.55356430066846,
              25.100283788937578
            ],
            [
              85.55397054489107,
              25.100471091951558
            ],
            [
              85.55483415286587,
              25.10080013731226
            ],
            [
              85.55532773399534,
              25.10086265168196
            ],
            [
              85.55572096791771,
              25.100835705949084
            ],
            [
              85.55610324508856,
              25.10066246290171
            ],
            [
              85.55635951108292,
              25.1004264390393
            ],
            [
              85.556354314329,
              25.10014939879949
            ],
            [
              85.55605232408669,
              25.099961799183774
            ],
            [
              85.55542083269647,
              25.099770990070937
            ],
            [
              85.55509521586384,
              25.099436969077118
            ],
            [
              85.55486398501814,
              25.098980761386304
            ],
            [
              85.55473201890963,
              25.09798692994672
            ],
            [
              85.55470058506123,
              25.09775018422694
            ],
            [
              85.55456630309592,
              25.097708326326185
            ],
            [
              85.55437988919972,
              25.097752672727253
            ],
            [
              85.55371560121682,
              25.098196304247956
            ],
            [
              85.55316372661191,
              25.098564856651905
            ],
            [
              85.55296781662486,
              25.09855448213905
            ],
            [
              85.55284253488038,
              25.09843015386947
            ],
            [
              85.55278701540257,
              25.09812184635392
            ],
            [
              85.55284168956568,
              25.097783837142266
            ],
            [
              85.55331451242562,
              25.097095976970444
            ],
            [
              85.55361318878282,
              25.09673571466877
            ],
            [
              85.55425733474046,
              25.095958742097903
            ],
            [
              85.555121072971,
              25.095797886846817
            ],
            [
              85.55597464676408,
              25.095783118308464
            ],
            [
              85.556689069723,
              25.09610553232599
            ],
            [
              85.55777892109705,
              25.096597365352213
            ],
            [
              85.55907871863448,
              25.097183926656914
            ],
            [
              85.55972593593206,
              25.09725070726587
            ],
            [
              85.56141827479077,
              25.097044001272717
            ],
            [
              85.56304859396224,
              25.09635963503598
            ],
            [
              85.56375717787184,
              25.096062181880622
            ],
            [
              85.56459468260111,
              25.09601298063588
            ],
            [
              85.56542250888153,
              25.096032530160603
            ],
            [
              85.5662198589176,
              25.09576709776957
            ],
            [
              85.56676715660612,
              25.095206865698014
            ],
            [
              85.56711164704288,
              25.094854230282817
            ],
            [
              85.56737845207213,
              25.09458111568475
            ],
            [
              85.56814441766713,
              25.0944815258677
            ],
            [
              85.56892006710089,
              25.09462750597326
            ],
            [
              85.56946358288208,
              25.09511748361066
            ],
            [
              85.56973343679341,
              25.095889503972522
            ],
            [
              85.56989408880389,
              25.096606613321274
            ],
            [
              85.57014570062678,
              25.098948070349373
            ],
            [
              85.5703852606518,
              25.099419724714075
            ],
            [
              85.57155142570586,
              25.100138826744075
            ],
            [
              85.5721411238758,
              25.100502450909854
            ],
            [
              85.57247008603451,
              25.101070974926525
            ],
            [
              85.57246329836426,
              25.10165566900366
            ],
            [
              85.5720256086151,
              25.10223621239488
            ],
            [
              85.5712869670761,
              25.102536865367746
            ],
            [
              85.57073178667093,
              25.10304702514264
            ],
            [
              85.57041903191659,
              25.103782650833054
            ],
            [
              85.57043617356882,
              25.10385620559353
            ],
            [
              85.57060414864549,
              25.104576936108074
            ],
            [
              85.57067142617208,
              25.105331614190305
            ],
            [
              85.57071988399343,
              25.105875200685638
            ],
            [
              85.56989336206685,
              25.106839864744682
            ],
            [
              85.56894610117614,
              25.10794542340172
            ],
            [
              85.56853005633376,
              25.109258066914908
            ],
            [
              85.56864254606859,
              25.112659974831512
            ],
            [
              85.56897354830133,
              25.113263315957553
            ],
            [
              85.57066733883752,
              25.114403004961762
            ],
            [
              85.57127662297562,
              25.11433193820191
            ],
            [
              85.57263521435009,
              25.113775655613104
            ],
            [
              85.5735488656727,
              25.113692119954024
            ],
            [
              85.575506551595,
              25.11394177102259
            ],
            [
              85.57598544976116,
              25.113453943778037
            ],
            [
              85.57662125126812,
              25.11255213637722
            ],
            [
              85.57715902861128,
              25.111357005948
            ],
            [
              85.57789229103832,
              25.11079467184568
            ],
            [
              85.5794712157958,
              25.110178884619987
            ],
            [
              85.58111257077056,
              25.110009942344306
            ],
            [
              85.58141874626376,
              25.109978423953468
            ],
            [
              85.58156220362137,
              25.109963657940828
            ],
            [
              85.58238125605641,
              25.10987934367364
            ],
            [
              85.5834895067241,
              25.11054048768905
            ],
            [
              85.58441560061176,
              25.110841711596294
            ],
            [
              85.58490846129239,
              25.11100201996963
            ],
            [
              85.58617454865046,
              25.110735390183653
            ],
            [
              85.58676953340587,
              25.110610085997514
            ],
            [
              85.58806550771341,
              25.110907296349996
            ],
            [
              85.58923103586197,
              25.11096455578309
            ],
            [
              85.59007182932348,
              25.11100585683917
            ],
            [
              85.59056961726344,
              25.110669519015566
            ],
            [
              85.59153005823599,
              25.110020572112564
            ],
            [
              85.59448252233422,
              25.1099064671797
            ],
            [
              85.5958096484192,
              25.10994289783349
            ],
            [
              85.59705068805222,
              25.109976957357343
            ],
            [
              85.60204164782073,
              25.109917010734396
            ],
            [
              85.6027288024192,
              25.109907290361132
            ],
            [
              85.6026443203583,
              25.108653357356935
            ],
            [
              85.60257044470596,
              25.106864873165968
            ],
            [
              85.6022126394401,
              25.104319772345654
            ],
            [
              85.60217601243102,
              25.104060644351726
            ],
            [
              85.60211167958195,
              25.1036055105949
            ],
            [
              85.602191144552,
              25.102721395072166
            ],
            [
              85.60175992985943,
              25.102735955338456
            ],
            [
              85.60043232317575,
              25.10265095277373
            ],
            [
              85.59961056142181,
              25.103027549137472
            ],
            [
              85.59926981156994,
              25.103497825220124
            ],
            [
              85.59834502113776,
              25.10424920894921
            ],
            [
              85.59759032041642,
              25.10384474962673
            ],
            [
              85.59751785781404,
              25.10275259401376
            ],
            [
              85.59703219174051,
              25.101034035645323
            ],
            [
              85.59696071279335,
              25.100316595945753
            ],
            [
              85.59658106588965,
              25.099288341103005
            ],
            [
              85.59599396115594,
              25.098508858839633
            ],
            [
              85.59475610874557,
              25.09722984575273
            ],
            [
              85.59344930704388,
              25.096109006023013
            ],
            [
              85.59417029938248,
              25.095136830712363
            ],
            [
              85.59557078458853,
              25.09429409816207
            ],
            [
              85.5969419676483,
              25.09366346230978
            ],
            [
              85.59889445861332,
              25.09347385715904
            ],
            [
              85.59967881092552,
              25.092158505995588
            ],
            [
              85.60029419911598,
              25.090690080642585
            ],
            [
              85.60042578793207,
              25.089908904285252
            ],
            [
              85.60028786689153,
              25.08846941478125
            ],
            [
              85.60014448858567,
              25.0868493756527
            ],
            [
              85.59945600088732,
              25.085257643274886
            ],
            [
              85.59869361418039,
              25.08381957166704
            ],
            [
              85.59911344991326,
              25.083317592980652
            ],
            [
              85.59784079227721,
              25.081975466715047
            ],
            [
              85.59629162780682,
              25.080981614315515
            ],
            [
              85.59399174305011,
              25.079113759203814
            ],
            [
              85.5925814742923,
              25.078146534891165
            ],
            [
              85.59083333029153,
              25.078651572869646
            ],
            [
              85.59014410058472,
              25.07852679234114
            ],
            [
              85.58959776768678,
              25.078090255982012
            ],
            [
              85.58859782958787,
              25.07675192499757
            ],
            [
              85.58557870959723,
              25.076415782652873
            ],
            [
              85.5852004532856,
              25.07585238803876
            ],
            [
              85.5839946734258,
              25.07529547888182
            ],
            [
              85.58334523369622,
              25.075233717095983
            ],
            [
              85.58266526741663,
              25.074847032133924
            ],
            [
              85.58166714840611,
              25.074131617878844
            ],
            [
              85.58122003802461,
              25.073726386918622
            ],
            [
              85.58132130330995,
              25.07269703477195
            ],
            [
              85.58035697532719,
              25.07160232123704
            ],
            [
              85.57987422338844,
              25.07085410893094
            ],
            [
              85.57959881160043,
              25.069794038742646
            ],
            [
              85.57938782518798,
              25.068733760838057
            ],
            [
              85.57886954757468,
              25.067638141218442
            ],
            [
              85.57869907607983,
              25.0669208491317
            ],
            [
              85.57842104390615,
              25.066704809955343
            ],
            [
              85.5779357712947,
              25.0649861636439
            ],
            [
              85.57680168867272,
              25.063395295214615
            ],
            [
              85.57456340319168,
              25.060245158606907
            ],
            [
              85.5737033426639,
              25.059186348265545
            ],
            [
              85.57239632087496,
              25.057753778348392
            ],
            [
              85.57177570898116,
              25.057317277810945
            ],
            [
              85.57126043174094,
              25.057350033674325
            ],
            [
              85.57078189200254,
              25.058163499605172
            ],
            [
              85.5703706693166,
              25.058196003789245
            ],
            [
              85.56999302116444,
              25.057790541896633
            ],
            [
              85.57022910021773,
              25.05709949406398
            ],
            [
              85.56981577727069,
              25.056319546228337
            ],
            [
              85.57005668656525,
              25.05556973427372
            ],
            [
              85.56988214929544,
              25.055132263250407
            ],
            [
              85.56940062715034,
              25.054821835012845
            ],
            [
              85.56933482375914,
              25.054293850813828
            ],
            [
              85.56974510680726,
              25.053913893293
            ],
            [
              85.5693603592694,
              25.05266437195333
            ],
            [
              85.56901228275807,
              25.0502909118559
            ],
            [
              85.56842996334987,
              25.049263059630523
            ],
            [
              85.56846312106534,
              25.048694291773824
            ],
            [
              85.56873375112106,
              25.047944421780844
            ],
            [
              85.56887050075844,
              25.047194858901086
            ],
            [
              85.56969082969951,
              25.046348997601257
            ],
            [
              85.56985463299998,
              25.044538666704295
            ],
            [
              85.5701279400353,
              25.042944748623615
            ],
            [
              85.57064032559863,
              25.04181969262053
            ],
            [
              85.57108484883213,
              25.04128611969373
            ],
            [
              85.5714964667768,
              25.041443280746304
            ],
            [
              85.57166446970122,
              25.041437224699898
            ],
            [
              85.57194972612643,
              25.04136010510209
            ],
            [
              85.572181794202,
              25.04108287913403
            ],
            [
              85.5719396856565,
              25.04038151312791
            ],
            [
              85.57165639923669,
              25.03816139774066
            ],
            [
              85.57171757001598,
              25.0369155168036
            ],
            [
              85.57154183619019,
              25.03604022194598
            ],
            [
              85.57157310834188,
              25.034699607692698
            ],
            [
              85.57140116181336,
              25.03335489367953
            ],
            [
              85.5718761567996,
              25.03122793880096
            ],
            [
              85.57235552478468,
              25.030761919678547
            ],
            [
              85.57303568869361,
              25.03054749106506
            ],
            [
              85.57321613418306,
              25.030274531801723
            ],
            [
              85.5721504924059,
              25.03044084760252
            ],
            [
              85.5707379302492,
              25.030537490904294
            ],
            [
              85.57041481432631,
              25.030559599349136
            ],
            [
              85.5695012815813,
              25.03071333440691
            ],
            [
              85.56932469705096,
              25.030558136685425
            ],
            [
              85.56923262063263,
              25.029952292057768
            ],
            [
              85.56916994517528,
              25.028520554305043
            ],
            [
              85.56837670044003,
              25.02855806081091
            ],
            [
              85.56562209387641,
              25.028522470369378
            ],
            [
              85.56518989642692,
              25.02861761912281
            ],
            [
              85.56414960690368,
              25.02859402729189
            ],
            [
              85.56353498587453,
              25.02861066138899
            ],
            [
              85.5625088762581,
              25.028645884708908
            ],
            [
              85.56130930735016,
              25.028683937343573
            ],
            [
              85.56047131124244,
              25.028734511922202
            ],
            [
              85.55940039994782,
              25.02878734033326
            ],
            [
              85.55871762463634,
              25.02912382901374
            ],
            [
              85.55841913602698,
              25.02964914275006
            ],
            [
              85.5581209564381,
              25.030571744259664
            ],
            [
              85.55810946429071,
              25.030707070274392
            ],
            [
              85.55802279662869,
              25.03176264615924
            ],
            [
              85.55785774377166,
              25.03316508610659
            ],
            [
              85.55768725610717,
              25.034608102695074
            ],
            [
              85.55762911175206,
              25.034919046043886
            ],
            [
              85.55762666114799,
              25.03491676381607
            ],
            [
              85.55738788714883,
              25.03605438318565
            ],
            [
              85.55584873889383,
              25.037578908110646
            ],
            [
              85.55457172892025,
              25.03702925270037
            ],
            [
              85.55315867358844,
              25.036672390007823
            ],
            [
              85.55294953770544,
              25.03633627282453
            ],
            [
              85.55256200179691,
              25.0355785608936
            ],
            [
              85.55214257030595,
              25.03500563637258
            ],
            [
              85.55116400133096,
              25.034364054035727
            ],
            [
              85.54785188233569,
              25.033270791996202
            ],
            [
              85.54647005693474,
              25.032792278627124
            ],
            [
              85.54618108507749,
              25.032505033294377
            ],
            [
              85.54616660243849,
              25.03245577314697
            ],
            [
              85.54600004669999,
              25.03188927799536
            ],
            [
              85.54586759100965,
              25.030935404046858
            ],
            [
              85.54595910867586,
              25.030317801345422
            ],
            [
              85.54635215125707,
              25.029341980706278
            ],
            [
              85.54627297913781,
              25.02891231964852
            ],
            [
              85.54585823325932,
              25.028366512078154
            ],
            [
              85.54460293915942,
              25.027248149945397
            ],
            [
              85.54379680898974,
              25.026698501973698
            ],
            [
              85.54337520806733,
              25.02631514607158
            ],
            [
              85.54328549960813,
              25.02593955595196
            ],
            [
              85.54302687194287,
              25.02434337099593
            ],
            [
              85.54289471179831,
              25.023366924098937
            ],
            [
              85.54164651528743,
              25.022912253192054
            ],
            [
              85.54072743005561,
              25.022700076223654
            ],
            [
              85.54056134593262,
              25.022079947736973
            ],
            [
              85.540534948938,
              25.021933444878307
            ],
            [
              85.54040326220556,
              25.021202565749483
            ],
            [
              85.54009189175503,
              25.01946139176719
            ],
            [
              85.53967010038978,
              25.017841027227053
            ],
            [
              85.5396449816978,
              25.01703266974194
            ],
            [
              85.53981863502538,
              25.015336890652318
            ],
            [
              85.53987336488407,
              25.01447965634486
            ],
            [
              85.54005506801491,
              25.01419702129666
            ],
            [
              85.54080731094564,
              25.014267611331995
            ],
            [
              85.54106886083048,
              25.0139360981487
            ],
            [
              85.54136056536281,
              25.013148906644414
            ],
            [
              85.54231254779863,
              25.012938275805595
            ],
            [
              85.54253287040184,
              25.012889527992325
            ],
            [
              85.54326342620497,
              25.01269804517007
            ],
            [
              85.54384025511015,
              25.01293845489976
            ],
            [
              85.54470324414572,
              25.01370084336784
            ],
            [
              85.54518253936727,
              25.013389510866194
            ],
            [
              85.54713980487799,
              25.012103931054547
            ],
            [
              85.54742721725985,
              25.011677851818884
            ],
            [
              85.54766795856949,
              25.011007528654208
            ],
            [
              85.54753143800251,
              25.009557008755692
            ],
            [
              85.54766903205625,
              25.00838907031756
            ],
            [
              85.54871131763599,
              25.008227692250465
            ],
            [
              85.5502820515547,
              25.00820689699039
            ],
            [
              85.55205625837682,
              25.008156465376537
            ],
            [
              85.55294418015309,
              25.008061272270456
            ],
            [
              85.55351892766176,
              25.007633462073624
            ],
            [
              85.5541493383787,
              25.00668249568204
            ],
            [
              85.5551925016125,
              25.0043269766711
            ],
            [
              85.55576482277158,
              25.00429295208801
            ],
            [
              85.55636743602037,
              25.004257124215464
            ],
            [
              85.55709486388967,
              25.00432738780242
            ],
            [
              85.55887444443381,
              25.0046606683236
            ],
            [
              85.56254197109146,
              25.00495801118076
            ],
            [
              85.56248721428331,
              25.003278041002016
            ],
            [
              85.56302608218121,
              25.000393888850443
            ],
            [
              85.56324462432354,
              25.00000144713359
            ],
            [
              85.56327493078629,
              24.9995071910659
            ],
            [
              85.56331517620931,
              24.998482547055406
            ],
            [
              85.5631675973812,
              24.996464915341953
            ],
            [
              85.56301494666495,
              24.994541917608203
            ],
            [
              85.56294580962576,
              24.99417625215618
            ],
            [
              85.56281225709247,
              24.99405434524683
            ],
            [
              85.56251992912935,
              24.99400007461762
            ],
            [
              85.56206931262327,
              24.993999905266108
            ],
            [
              85.55993460738605,
              24.994102799284537
            ],
            [
              85.55813177035749,
              24.994138100895142
            ],
            [
              85.5572720413081,
              24.994107707216987
            ],
            [
              85.55709675304671,
              24.99410150879463
            ],
            [
              85.55667084200758,
              24.994011097119824
            ],
            [
              85.55638357874601,
              24.993825879381696
            ],
            [
              85.55627481162972,
              24.993573015809513
            ],
            [
              85.55634442567435,
              24.992945580201802
            ],
            [
              85.55654849595746,
              24.991343388265747
            ],
            [
              85.55664300142028,
              24.990472222249533
            ],
            [
              85.55660355459955,
              24.990169835287013
            ],
            [
              85.556435357639,
              24.98979510435551
            ],
            [
              85.55618799035584,
              24.989406785388027
            ],
            [
              85.55607911095014,
              24.989271308823714
            ],
            [
              85.55605446477202,
              24.989018487992173
            ],
            [
              85.55609424576605,
              24.988666481021568
            ],
            [
              85.55625793318386,
              24.98840479364342
            ],
            [
              85.55673820756904,
              24.98848162895985
            ],
            [
              85.5570452319702,
              24.98846826506053
            ],
            [
              85.5571938654205,
              24.988355485677847
            ],
            [
              85.5573177808274,
              24.988179602689375
            ],
            [
              85.55747161372656,
              24.98785462089006
            ],
            [
              85.55748178714715,
              24.987249795888836
            ],
            [
              85.55752685742159,
              24.986256757873537
            ],
            [
              85.55752719698476,
              24.98575569400236
            ],
            [
              85.55731926933584,
              24.985656397660296
            ],
            [
              85.55649228387854,
              24.98561985921788
            ],
            [
              85.55595737934767,
              24.98560608137078
            ],
            [
              85.5558186381453,
              24.985691762764944
            ],
            [
              85.555739303431,
              24.98586779994764
            ],
            [
              85.55560010857938,
              24.98673438104941
            ],
            [
              85.55533656802788,
              24.988598470398767
            ],
            [
              85.55519751061853,
              24.98923930666902
            ],
            [
              85.55512811576281,
              24.989464913376757
            ],
            [
              85.55504879901478,
              24.989528075657326
            ],
            [
              85.5548160239651,
              24.989464818927253
            ],
            [
              85.55081970582864,
              24.989034054304298
            ],
            [
              85.54544154971481,
              24.988503185603022
            ],
            [
              85.54469378308916,
              24.988425991226023
            ],
            [
              85.54428264484486,
              24.988466376869198
            ],
            [
              85.54416875822976,
              24.98855212710767
            ],
            [
              85.54415873662448,
              24.98869200372258
            ],
            [
              85.54418338639587,
              24.988827528964567
            ],
            [
              85.54448469122362,
              24.99001922898384
            ],
            [
              85.54501841985979,
              24.991847690250335
            ],
            [
              85.54524061634868,
              24.992940102285107
            ],
            [
              85.54533419744507,
              24.9936804126672
            ],
            [
              85.54536359660938,
              24.994131800700693
            ],
            [
              85.54527677084393,
              24.99429224224087
            ],
            [
              85.54503145082128,
              24.99474554706128
            ],
            [
              85.54462020298254,
              24.994970956400543
            ],
            [
              85.54408519065385,
              24.995182879215577
            ],
            [
              85.54345115613305,
              24.995322340380277
            ],
            [
              85.54277736756765,
              24.995434904940705
            ],
            [
              85.54208900743008,
              24.99535775888265
            ],
            [
              85.54138583407344,
              24.995194830593356
            ],
            [
              85.54083796775132,
              24.994997370137394
            ],
            [
              85.54082135430846,
              24.99499138263341
            ],
            [
              85.54004883280852,
              24.994842116686076
            ],
            [
              85.53965269373451,
              24.994814759276014
            ],
            [
              85.53901881372396,
              24.994701451610634
            ],
            [
              85.53846918311062,
              24.99446647264002
            ],
            [
              85.537919651312,
              24.99403734659667
            ],
            [
              85.53750870620549,
              24.993924206752013
            ],
            [
              85.53696903611203,
              24.993775002201325
            ],
            [
              85.53637956341923,
              24.993873954910782
            ],
            [
              85.53589899887818,
              24.994013583655487
            ],
            [
              85.53531963762224,
              24.99393644810393
            ],
            [
              85.53452238101094,
              24.993823190922832
            ],
            [
              85.5341360425567,
              24.99377332659544
            ],
            [
              85.53355160671768,
              24.99374815098086
            ],
            [
              85.53296717177699,
              24.99372297210439
            ],
            [
              85.53255609641478,
              24.993736233658456
            ],
            [
              85.53236292718765,
              24.993808282269438
            ],
            [
              85.53228361942281,
              24.993921097358857
            ],
            [
              85.53228341999677,
              24.994124268637886
            ],
            [
              85.53214401763437,
              24.995148764168654
            ],
            [
              85.53197981458361,
              24.996114574331685
            ],
            [
              85.53181088639442,
              24.996741945724988
            ],
            [
              85.53177425669038,
              24.996864639714193
            ],
            [
              85.53170177612171,
              24.997107430939224
            ],
            [
              85.5315927206462,
              24.997179532937338
            ],
            [
              85.53148375320559,
              24.99722915081799
            ],
            [
              85.53036939668893,
              24.997079514698996
            ],
            [
              85.5294382973885,
              24.99703824769744
            ],
            [
              85.52915098382131,
              24.997101387360342
            ],
            [
              85.52897258289744,
              24.99720051162364
            ],
            [
              85.5288883092457,
              24.9972997831714
            ],
            [
              85.52890275325716,
              24.99790008488975
            ],
            [
              85.5289419413631,
              24.998441772277914
            ],
            [
              85.5292878816807,
              24.999380836835297
            ],
            [
              85.52948065475077,
              24.999922647145784
            ],
            [
              85.52948248372068,
              25.000001212658358
            ],
            [
              85.52950721883204,
              25.000454523286717
            ],
            [
              85.52959595711074,
              25.000906857712124
            ],
            [
              85.52784685370925,
              25.00218523971103
            ],
            [
              85.5280081749646,
              25.00361344435463
            ],
            [
              85.52588336826354,
              25.003989679986603
            ],
            [
              85.5248413144491,
              25.004132842741598
            ],
            [
              85.52283214787454,
              25.004365715820715
            ],
            [
              85.52204784496963,
              25.00408253483004
            ],
            [
              85.52092912713225,
              25.004008207812333
            ],
            [
              85.51876450619946,
              25.00522365492037
            ],
            [
              85.51855599823884,
              25.00567303528285
            ],
            [
              85.51958286872835,
              25.00762452488842
            ],
            [
              85.52000898188841,
              25.00837804910516
            ],
            [
              85.52114259558984,
              25.010382644672912
            ],
            [
              85.52270239341824,
              25.01314074973298
            ],
            [
              85.52275643696406,
              25.013592744381633
            ],
            [
              85.52259728783508,
              25.014471502778033
            ],
            [
              85.52155864941537,
              25.01556273110179
            ],
            [
              85.52038509392145,
              25.015921250710612
            ],
            [
              85.51910712814038,
              25.01383182788661
            ],
            [
              85.51741542259394,
              25.01154414274039
            ],
            [
              85.51597742463997,
              25.00999936074623
            ],
            [
              85.5128900461625,
              25.00637041187731
            ],
            [
              85.5126682215761,
              25.00638984870242
            ],
            [
              85.51117907444815,
              25.006520331387808
            ],
            [
              85.50688279356696,
              25.00701900017677
            ],
            [
              85.50317091708375,
              25.007121634177636
            ],
            [
              85.50043214063204,
              25.007459717638795
            ],
            [
              85.50000004469216,
              25.007453728299787
            ],
            [
              85.49774235290606,
              25.00739419391223
            ],
            [
              85.49664236584063,
              25.007034013060778
            ],
            [
              85.49602802778078,
              25.00693064792112
            ],
            [
              85.49516620386011,
              25.00697204022854
            ],
            [
              85.49457688118595,
              25.00703569011403
            ],
            [
              85.4946014869399,
              25.006846058394235
            ],
            [
              85.4944851901449,
              25.006559560752084
            ],
            [
              85.4939748805882,
              25.006408303710586
            ],
            [
              85.49248843020273,
              25.006045623092632
            ],
            [
              85.49167335460947,
              25.005748336599463
            ],
            [
              85.49073641985296,
              25.005296406704176
            ],
            [
              85.49043913588442,
              25.005170232648233
            ],
            [
              85.4901665690609,
              25.00500792307297
            ],
            [
              85.48953229468994,
              25.00469702118522
            ],
            [
              85.48857626624206,
              25.004616521070957
            ],
            [
              85.48751628025796,
              25.004594727088786
            ],
            [
              85.48719914801322,
              25.00453624478696
            ],
            [
              85.48660979210138,
              25.00455480672333
            ],
            [
              85.48610934604649,
              25.004392696608694
            ],
            [
              85.48590605999263,
              25.00414007296552
            ],
            [
              85.48579189220486,
              25.003891875197027
            ],
            [
              85.48536078620843,
              25.003707084299496
            ],
            [
              85.48474659457396,
              25.00362633767045
            ],
            [
              85.48417696566578,
              25.003604190181843
            ],
            [
              85.48285896197248,
              25.003108599594565
            ],
            [
              85.48226934015935,
              25.002883358239384
            ],
            [
              85.48122367332087,
              25.002198033852213
            ],
            [
              85.48058947440836,
              25.00197278187209
            ],
            [
              85.47951905628885,
              25.00128746380358
            ],
            [
              85.47888474239198,
              25.000895166601914
            ],
            [
              85.47827022736402,
              25.00048031790741
            ],
            [
              85.4775134407546,
              25.00000143817794
            ],
            [
              85.4769720575739,
              24.999851339740417
            ],
            [
              85.47588188370466,
              24.999260779964153
            ],
            [
              85.47380104774008,
              24.99843161562574
            ],
            [
              85.4727853972085,
              24.99809822295009
            ],
            [
              85.47176992544165,
              24.99788680668754
            ],
            [
              85.4706800219653,
              24.997557962909408
            ],
            [
              85.46954051172237,
              24.99710734300894
            ],
            [
              85.4686586320147,
              24.99677385392489
            ],
            [
              85.46785093428483,
              24.996323025163004
            ],
            [
              85.46694436168663,
              24.99594439679968
            ],
            [
              85.46592882344447,
              24.995732850634027
            ],
            [
              85.46544424792567,
              24.995461829883027
            ],
            [
              85.4649130624201,
              24.99516474086646
            ],
            [
              85.46477435715033,
              25.000000311394164
            ],
            [
              85.46470707603049,
              25.000470697132453
            ],
            [
              85.46463443556166,
              25.00145455892734
            ],
            [
              85.46452532079736,
              25.004262268651825
            ],
            [
              85.46423552877832,
              25.005625891644627
            ],
            [
              85.46338764760917,
              25.00802839659842
            ],
            [
              85.46289540137619,
              25.009825605004668
            ],
            [
              85.4628489045771,
              25.011549939758556
            ],
            [
              85.46308318071159,
              25.01238909208906
            ],
            [
              85.46358005955649,
              25.013291186863352
            ],
            [
              85.46407103467337,
              25.01361993398423
            ],
            [
              85.46571617964028,
              25.01394710909364
            ],
            [
              85.46644507895003,
              25.014392905817694
            ],
            [
              85.46756501580127,
              25.01460340309879
            ],
            [
              85.4717466294314,
              25.015048590972615
            ],
            [
              85.47500203418952,
              25.015553749721064
            ],
            [
              85.47694489072308,
              25.016146630150896
            ],
            [
              85.47763929203097,
              25.016628510982596
            ],
            [
              85.47800243957784,
              25.017435991971393
            ],
            [
              85.47813946859128,
              25.01923673800794
            ],
            [
              85.47822924981402,
              25.019520978914084
            ],
            [
              85.47862543919366,
              25.019475244778167
            ],
            [
              85.48002153523123,
              25.019008160241235
            ],
            [
              85.4812742332,
              25.01870376937383
            ],
            [
              85.48214566639922,
              25.018463190218213
            ],
            [
              85.48293348710679,
              25.01856578209356
            ],
            [
              85.48411805055618,
              25.018893443835236
            ],
            [
              85.48529834880462,
              25.01957766893359
            ],
            [
              85.48582452889744,
              25.020131999271644
            ],
            [
              85.4871736870631,
              25.02105968581863
            ],
            [
              85.48771946929376,
              25.02147862865217
            ],
            [
              85.48891996705967,
              25.02234331674751
            ],
            [
              85.49026923661641,
              25.023289031241806
            ],
            [
              85.4922629351001,
              25.024436798962665
            ],
            [
              85.49348293529081,
              25.025080218274343
            ],
            [
              85.49498591557585,
              25.02603922021348
            ],
            [
              85.49765417068448,
              25.027537876348312
            ],
            [
              85.49774879741989,
              25.02758938908949
            ],
            [
              85.49839660491062,
              25.02782072487116
            ],
            [
              85.5000000231326,
              25.02855981408247
            ],
            [
              85.50129950625966,
              25.0291587868364
            ],
            [
              85.50316255107349,
              25.029841885990503
            ],
            [
              85.50522005419688,
              25.03063337634522
            ],
            [
              85.50761057716913,
              25.03181656394509
            ],
            [
              85.50972135308379,
              25.03237551506466
            ],
            [
              85.51155482086688,
              25.032367820118342
            ],
            [
              85.51223952665792,
              25.0321128203612
            ],
            [
              85.51336859757895,
              25.03189954501783
            ],
            [
              85.51547321284738,
              25.03084436588832
            ],
            [
              85.51855836440129,
              25.029062398845376
            ],
            [
              85.52032253794,
              25.027442796758912
            ],
            [
              85.52178678017502,
              25.025830201191063
            ],
            [
              85.52182296431467,
              25.026520663364565
            ],
            [
              85.52151280928474,
              25.027424048627775
            ],
            [
              85.52162015616456,
              25.028922376104873
            ],
            [
              85.52162776758998,
              25.032393399667768
            ],
            [
              85.52125338301721,
              25.03336006294242
            ],
            [
              85.52084377999374,
              25.034110018858005
            ],
            [
              85.52005864884215,
              25.03526702587146
            ],
            [
              85.51807518935607,
              25.036800755279643
            ],
            [
              85.51540492112288,
              25.03917977574506
            ],
            [
              85.51489049009562,
              25.039555288709124
            ],
            [
              85.5154086715892,
              25.040899479793545
            ],
            [
              85.51410903395188,
              25.04252675887307
            ],
            [
              85.51264114096357,
              25.04424450098423
            ],
            [
              85.50979574706406,
              25.04593763113572
            ],
            [
              85.50849504582145,
              25.047095437259696
            ],
            [
              85.50774421863561,
              25.048189056231838
            ],
            [
              85.50743385789148,
              25.04906523201939
            ],
            [
              85.50759086274189,
              25.05069894905113
            ],
            [
              85.50814401834438,
              25.05219658287752
            ],
            [
              85.50962026656319,
              25.054378581787468
            ],
            [
              85.51099627896595,
              25.056001089816437
            ],
            [
              85.51254525299349,
              25.05740213120107
            ],
            [
              85.51477942329223,
              25.059397775309954
            ],
            [
              85.51563565789519,
              25.058899713232456
            ],
            [
              85.51590630142567,
              25.05799196122073
            ],
            [
              85.51542045479076,
              25.055618636838464
            ],
            [
              85.51572285286825,
              25.053370297387467
            ],
            [
              85.51630577774093,
              25.05255678824932
            ],
            [
              85.51671457587392,
              25.05140053029704
            ],
            [
              85.51680080785297,
              25.050014698937535
            ],
            [
              85.51834139970063,
              25.049826874383523
            ],
            [
              85.52067391755665,
              25.04925838828401
            ],
            [
              85.5230369987936,
              25.04906905536791
            ],
            [
              85.5237449197465,
              25.050981557804143
            ],
            [
              85.524467114031,
              25.05266379415475
            ],
            [
              85.52505072880982,
              25.054382483907837
            ],
            [
              85.52563825305678,
              25.055663266220126
            ],
            [
              85.525813267332,
              25.05638063235121
            ],
            [
              85.52519420772701,
              25.056539741763192
            ],
            [
              85.5243750986981,
              25.05810303120464
            ],
            [
              85.52382593071715,
              25.058478612345365
            ],
            [
              85.52207655512613,
              25.058418674673565
            ],
            [
              85.52087796628018,
              25.058669122887004
            ],
            [
              85.51933979629054,
              25.06004857097591
            ],
            [
              85.51858370677377,
              25.060984250965813
            ],
            [
              85.5180423550341,
              25.06273656795753
            ],
            [
              85.51858886040856,
              25.06335850568111
            ],
            [
              85.51996295760314,
              25.06401501381993
            ],
            [
              85.52157404025114,
              25.06426029321318
            ],
            [
              85.52342780007818,
              25.064414897389096
            ],
            [
              85.52473036173171,
              25.064069422747192
            ],
            [
              85.52487098580295,
              25.06490869512827
            ],
            [
              85.52474150084124,
              25.066845393322414
            ],
            [
              85.52460451943851,
              25.06762650528792
            ],
            [
              85.52526450628787,
              25.0702477351689
            ],
            [
              85.52547176828514,
              25.072088932131365
            ],
            [
              85.52554590265231,
              25.074183154168306
            ],
            [
              85.52503371022677,
              25.075651077817383
            ],
            [
              85.52448603794075,
              25.076748834789612
            ],
            [
              85.52386757481709,
              25.077205925983765
            ],
            [
              85.52284279380898,
              25.077735931772505
            ],
            [
              85.52249824677837,
              25.078801736002102
            ],
            [
              85.52208818291915,
              25.079393795642137
            ],
            [
              85.52111286943877,
              25.07984694392147
            ],
            [
              85.51989358700195,
              25.079849203344956
            ],
            [
              85.51828284301882,
              25.07987011989286
            ],
            [
              85.51711406207065,
              25.080246867738488
            ],
            [
              85.51678882073384,
              25.081123119388057
            ],
            [
              85.51703376436237,
              25.082093166175767
            ],
            [
              85.51785869986418,
              25.08310727710748
            ],
            [
              85.5188641383476,
              25.085055312824323
            ],
            [
              85.5190074169405,
              25.08711785062266
            ],
            [
              85.51892261418102,
              25.089117502204072
            ],
            [
              85.51938123467627,
              25.092569658682383
            ],
            [
              85.51976143134893,
              25.094180357658463
            ],
            [
              85.52019029425209,
              25.095335072840104
            ],
            [
              85.52057407520273,
              25.09630485078593
            ],
            [
              85.52111463193337,
              25.098655442633873
            ],
            [
              85.5218356143905,
              25.101904025195246
            ],
            [
              85.52153847864398,
              25.10431933714586
            ],
            [
              85.52035392597435,
              25.10667770114716
            ],
            [
              85.51889909269363,
              25.107858364029816
            ],
            [
              85.51594300658817,
              25.109443534115158
            ],
            [
              85.51271433569289,
              25.111119330351386
            ],
            [
              85.51006622710113,
              25.11304677374788
            ],
            [
              85.50945498643239,
              25.114717942027564
            ],
            [
              85.50915245720088,
              25.117011433350232
            ],
            [
              85.5088484143081,
              25.118591695667686
            ],
            [
              85.51149127134875,
              25.118917914637034
            ],
            [
              85.51197940958592,
              25.11908439232283
            ],
            [
              85.51295171909999,
              25.11941598382753
            ],
            [
              85.51371647286767,
              25.119401888347944
            ],
            [
              85.51477151362616,
              25.11951248698425
            ],
            [
              85.5162020744279,
              25.119319076355808
            ],
            [
              85.51708514530164,
              25.118973987692137
            ],
            [
              85.5182686990447,
              25.118939659826143
            ],
            [
              85.52005935401965,
              25.11901910313935
            ],
            [
              85.52153808967346,
              25.118920501123167
            ],
            [
              85.5215648406043,
              25.118918716610416
            ],
            [
              85.52267105029968,
              25.11899129924631
            ],
            [
              85.52448512076084,
              25.119232496831778
            ],
            [
              85.52585033182064,
              25.11955384534049
            ],
            [
              85.52809528010611,
              25.119806976980342
            ],
            [
              85.5300680891662,
              25.120203566369852
            ],
            [
              85.53146565844082,
              25.12064828765704
            ],
            [
              85.53247710306027,
              25.120873741260613
            ],
            [
              85.53361897677074,
              25.120792713937945
            ],
            [
              85.53520891487355,
              25.120580246121524
            ],
            [
              85.53522726116661,
              25.120577794686525
            ],
            [
              85.53725738274181,
              25.119713024737887
            ]
          ]
        ]
      }
    }
  ]
}