{
  "type": "FeatureCollection",
  "features": [
    {
      "type": "Feature",
      "properties": {
        "object_id": "10-213-01170",
        "stname": "BIHAR",
        "dtname": "Madhepura",
        "sdtname": "Chausa",
        "st_area_sh": 0.0,
        "st_length_": 0.0,
        "remarks": "",
        "dist_lgd": 205,
        "state_lgd": 10,
        "subdt_lgd": 1170,
        "ac_no": null,
        "st_length(shape)": 87285.75133964,
        "st_area(shape)": 172516848.53860697
      },
      "geometry": {
        "type": "Polygon",
        "coordinates": [
          [
            [
              87.02568644776241,
              25.58023483624427
            ],
            [
              87.02634834532836,
              25.580131440867792
            ],
            [
              87.02769704804817,
              25.580159487359673
            ],
            [
              87.028637533845,
              25.580299987917563
            ],
            [
              87.02915978919833,
              25.580647848863958
            ],
            [
              87.0297716685693,
              25.580986766784616
            ],
            [
              87.03089650932364,
              25.580797888849983
            ],
            [
              87.03186705185156,
              25.580581901703248
            ],
            [
              87.03237964043413,
              25.58069504817823
            ],
            [
              87.03274282571024,
              25.58085329279414
            ],
            [
              87.03339479060412,
              25.580813065828732
            ],
            [
              87.03380795365108,
              25.580637338157832
            ],
            [
              87.03466388911502,
              25.58067392224974
            ],
            [
              87.03563934902078,
              25.580633951266538
            ],
            [
              87.03737141587294,
              25.580332550776724
            ],
            [
              87.0383670752962,
              25.579818598148616
            ],
            [
              87.03911870288094,
              25.579647596119912
            ],
            [
              87.0395469836758,
              25.579250582891312
            ],
            [
              87.03972655510445,
              25.578632374917234
            ],
            [
              87.0402591006594,
              25.578619187696724
            ],
            [
              87.04088103666993,
              25.578795531707637
            ],
            [
              87.04237394773892,
              25.578818935646158
            ],
            [
              87.04307570085912,
              25.57881031676795
            ],
            [
              87.04330445415127,
              25.578945889211646
            ],
            [
              87.04424013755458,
              25.578932821946026
            ],
            [
              87.04505136925674,
              25.578779818071915
            ],
            [
              87.04700713458092,
              25.578880206882737
            ],
            [
              87.04710199487829,
              25.578297994362966
            ],
            [
              87.04713228337472,
              25.577769940601602
            ],
            [
              87.04802805822321,
              25.57763952588758
            ],
            [
              87.04885918760893,
              25.577676053365778
            ],
            [
              87.05042194179295,
              25.57745571909165
            ],
            [
              87.0525518248737,
              25.577556052293204
            ],
            [
              87.05351733503942,
              25.577380512688038
            ],
            [
              87.05465208690627,
              25.57712383984099
            ],
            [
              87.05585174205248,
              25.57662795663892
            ],
            [
              87.05608095797699,
              25.576163189815954
            ],
            [
              87.056892080983,
              25.576131936064034
            ],
            [
              87.05721560743595,
              25.576086913015036
            ],
            [
              87.05777357711007,
              25.57584925012205
            ],
            [
              87.05786849669624,
              25.575294205094867
            ],
            [
              87.05818254771957,
              25.57429685469082
            ],
            [
              87.05844172425546,
              25.573489072886836
            ],
            [
              87.05865603802775,
              25.572974616843727
            ],
            [
              87.05885528076452,
              25.57259562235012
            ],
            [
              87.05887030957922,
              25.57237897701233
            ],
            [
              87.05873127642435,
              25.571886966935622
            ],
            [
              87.05864686712701,
              25.571521269637977
            ],
            [
              87.0588811881773,
              25.570803802035
            ],
            [
              87.05914022727094,
              25.570144930122456
            ],
            [
              87.0593842689909,
              25.56977043132252
            ],
            [
              87.0599965148745,
              25.569441204069232
            ],
            [
              87.05996702857361,
              25.5688093600733
            ],
            [
              87.05976358441626,
              25.567726066040386
            ],
            [
              87.05959497512902,
              25.566615667959628
            ],
            [
              87.05942135773405,
              25.565636121058674
            ],
            [
              87.05919825933661,
              25.564245892200837
            ],
            [
              87.05906898008912,
              25.563934395333817
            ],
            [
              87.05882551329091,
              25.563428789705448
            ],
            [
              87.05850229675677,
              25.562909672081343
            ],
            [
              87.05842822617001,
              25.56188050724025
            ],
            [
              87.0581301112598,
              25.56117182893952
            ],
            [
              87.05778715155235,
              25.560566838394056
            ],
            [
              87.05759342177646,
              25.559952936865347
            ],
            [
              87.05742451963843,
              25.559411269256888
            ],
            [
              87.05706169458676,
              25.55867534334504
            ],
            [
              87.05666399334248,
              25.558070370177674
            ],
            [
              87.05634570496596,
              25.557817460841765
            ],
            [
              87.05591810329746,
              25.557338833361353
            ],
            [
              87.05571432676348,
              25.556923510874228
            ],
            [
              87.05550063372705,
              25.556372828176343
            ],
            [
              87.0554065926932,
              25.55558288381203
            ],
            [
              87.0553174492743,
              25.55483357435392
            ],
            [
              87.05516838103941,
              25.55452659632735
            ],
            [
              87.05515287881256,
              25.554524307651125
            ],
            [
              87.05508351899118,
              25.55451407101134
            ],
            [
              87.05473750141847,
              25.55446300288144
            ],
            [
              87.05456842231231,
              25.554367794998022
            ],
            [
              87.0544520850931,
              25.554228408354785
            ],
            [
              87.05439768940774,
              25.553695815335185
            ],
            [
              87.05446281457087,
              25.55286083937248
            ],
            [
              87.05451802233328,
              25.55210713968306
            ],
            [
              87.05459287714929,
              25.551655771815973
            ],
            [
              87.05457318967152,
              25.551267652168196
            ],
            [
              87.05451850293197,
              25.551190913758838
            ],
            [
              87.05422007720468,
              25.551005721004813
            ],
            [
              87.05397154211165,
              25.550635474848534
            ],
            [
              87.05397256259783,
              25.5489158133843
            ],
            [
              87.05391846066154,
              25.547913818101804
            ],
            [
              87.05397347528614,
              25.547394818858823
            ],
            [
              87.0539292018174,
              25.546559793324498
            ],
            [
              87.05382505293998,
              25.546054217312008
            ],
            [
              87.05393987290465,
              25.545268980401275
            ],
            [
              87.0532480955757,
              25.54378679790742
            ],
            [
              87.05320455782713,
              25.543697955401576
            ],
            [
              87.05262336131302,
              25.542154053369153
            ],
            [
              87.05276279242155,
              25.54186981533311
            ],
            [
              87.052559059905,
              25.541472458855676
            ],
            [
              87.05218645130157,
              25.540705005791303
            ],
            [
              87.05217493400131,
              25.54068465091951
            ],
            [
              87.05163976985732,
              25.539738854380793
            ],
            [
              87.0514809010027,
              25.539255871805377
            ],
            [
              87.05138676834069,
              25.538623955357863
            ],
            [
              87.05139693906635,
              25.538199702245265
            ],
            [
              87.05162134091925,
              25.5373783053517
            ],
            [
              87.05190038998586,
              25.53657052508976
            ],
            [
              87.05208478626592,
              25.53601102398524
            ],
            [
              87.05228388796718,
              25.535857615936635
            ],
            [
              87.05291583480326,
              25.53563677595967
            ],
            [
              87.05362236336745,
              25.535488148963964
            ],
            [
              87.05407510169425,
              25.53539361499185
            ],
            [
              87.05426417101042,
              25.535294391000154
            ],
            [
              87.05392122567596,
              25.534734628612128
            ],
            [
              87.05337444901029,
              25.53397157762898
            ],
            [
              87.05356890821818,
              25.533235977817263
            ],
            [
              87.05389263409712,
              25.532671908098248
            ],
            [
              87.05416149626839,
              25.532288377336613
            ],
            [
              87.0540124972038,
              25.531841516313968
            ],
            [
              87.05355032297327,
              25.531055946392406
            ],
            [
              87.05324247841023,
              25.530162134871585
            ],
            [
              87.05301911141653,
              25.529205170272633
            ],
            [
              87.05278583600523,
              25.52834302703303
            ],
            [
              87.052602094597,
              25.52785996533089
            ],
            [
              87.05243866769062,
              25.526708913036686
            ],
            [
              87.05324967481398,
              25.52639788200354
            ],
            [
              87.05431922066934,
              25.526249480263967
            ],
            [
              87.05562254139932,
              25.526290712084858
            ],
            [
              87.05613490360646,
              25.52629096905413
            ],
            [
              87.05730513174053,
              25.526629080961257
            ],
            [
              87.05741807781952,
              25.526661712719644
            ],
            [
              87.05787072631476,
              25.526661896731774
            ],
            [
              87.05857716325083,
              25.526445607711054
            ],
            [
              87.05900476222442,
              25.526919715277156
            ],
            [
              87.05934766533802,
              25.52738924906634
            ],
            [
              87.06007401702561,
              25.52738958628476
            ],
            [
              87.0604367477542,
              25.528089296242655
            ],
            [
              87.06133734925073,
              25.527642818402725
            ],
            [
              87.06201903221081,
              25.52729106577679
            ],
            [
              87.06301887329172,
              25.52726896660175
            ],
            [
              87.06395903838995,
              25.52732355468572
            ],
            [
              87.06465548516177,
              25.527238091626863
            ],
            [
              87.06519774240324,
              25.52711187687129
            ],
            [
              87.06542186488012,
              25.526538795798757
            ],
            [
              87.06611851916271,
              25.526114773932143
            ],
            [
              87.06697429023498,
              25.52565473577346
            ],
            [
              87.06751159416599,
              25.525587301634562
            ],
            [
              87.06841727743206,
              25.524878985942344
            ],
            [
              87.06873081461903,
              25.524585801273183
            ],
            [
              87.06930838912594,
              25.523426019315956
            ],
            [
              87.06974638430225,
              25.522717554675896
            ],
            [
              87.07036859789221,
              25.521851236134562
            ],
            [
              87.07098581774753,
              25.520799794346143
            ],
            [
              87.07131943228111,
              25.52015449703275
            ],
            [
              87.07148880064477,
              25.519621979654854
            ],
            [
              87.07227952919891,
              25.519843469277006
            ],
            [
              87.07288136630328,
              25.520060353880897
            ],
            [
              87.07343801814888,
              25.520272472168312
            ],
            [
              87.07356525642403,
              25.52035214714976
            ],
            [
              87.07470639441426,
              25.52103138267029
            ],
            [
              87.07610881099818,
              25.521898397000353
            ],
            [
              87.07729734140788,
              25.52256223512912
            ],
            [
              87.07806329442644,
              25.522901013360336
            ],
            [
              87.07862031188637,
              25.52302759328492
            ],
            [
              87.07903815964752,
              25.523099972207195
            ],
            [
              87.07897319797776,
              25.523749837884225
            ],
            [
              87.07910227061271,
              25.524341173340428
            ],
            [
              87.07931574805345,
              25.525546350861813
            ],
            [
              87.07949970505733,
              25.525898439340448
            ],
            [
              87.08016111663474,
              25.526286748921514
            ],
            [
              87.08110119729133,
              25.52651271468483
            ],
            [
              87.08151902888282,
              25.526539936350865
            ],
            [
              87.08170293378444,
              25.526950717601974
            ],
            [
              87.08224502843085,
              25.527199112851424
            ],
            [
              87.08297122201493,
              25.52755134320221
            ],
            [
              87.08330442871338,
              25.527677850939636
            ],
            [
              87.08372252620617,
              25.526933231627062
            ],
            [
              87.08421524585131,
              25.52616608516641
            ],
            [
              87.08460833873819,
              25.525972155693065
            ],
            [
              87.08524007177522,
              25.525886543326042
            ],
            [
              87.08543405128272,
              25.525891125014322
            ],
            [
              87.08567764923492,
              25.52653205462496
            ],
            [
              87.08590130458785,
              25.52697901973037
            ],
            [
              87.08652341038,
              25.52622994086356
            ],
            [
              87.08694137043057,
              25.52588247233536
            ],
            [
              87.08739898032114,
              25.52572913482829
            ],
            [
              87.088020866026,
              25.525657060668635
            ],
            [
              87.08866247693791,
              25.52574751996992
            ],
            [
              87.08941356104192,
              25.525828969842248
            ],
            [
              87.09007525109703,
              25.52574783287396
            ],
            [
              87.09085625718484,
              25.52551788707932
            ],
            [
              87.09165721934667,
              25.525093770002847
            ],
            [
              87.09232751885547,
              25.524827041048958
            ],
            [
              87.09351785487891,
              25.52433141807678
            ],
            [
              87.09418943358867,
              25.52405628186392
            ],
            [
              87.09499278886246,
              25.52404546868698
            ],
            [
              87.09527982934179,
              25.524060001907827
            ],
            [
              87.09685571330202,
              25.523948437018873
            ],
            [
              87.09764661343434,
              25.523876395026026
            ],
            [
              87.09813908873774,
              25.523777189880366
            ],
            [
              87.09880077340297,
              25.523294370013815
            ],
            [
              87.09943269867945,
              25.522373737705557
            ],
            [
              87.09987059144788,
              25.521602011857937
            ],
            [
              87.1001841196517,
              25.520852832138402
            ],
            [
              87.10047278877668,
              25.520022404757956
            ],
            [
              87.10050270986214,
              25.5196568191612
            ],
            [
              87.10037846567185,
              25.519124210400626
            ],
            [
              87.10027901498334,
              25.51897073617054
            ],
            [
              87.0996473753711,
              25.51865017336932
            ],
            [
              87.09921966320982,
              25.518379289940103
            ],
            [
              87.09875217544439,
              25.518045210641766
            ],
            [
              87.098384176995,
              25.517675040263395
            ],
            [
              87.09807587878274,
              25.51726877279619
            ],
            [
              87.09789193884687,
              25.516830933159397
            ],
            [
              87.09774283108612,
              25.516338938266397
            ],
            [
              87.09766831673161,
              25.51593725807363
            ],
            [
              87.09715602279643,
              25.515720506270387
            ],
            [
              87.0964399181913,
              25.515129122662675
            ],
            [
              87.09581832084561,
              25.51448800730225
            ],
            [
              87.0956045110282,
              25.514176595989674
            ],
            [
              87.09523174521958,
              25.513323459659972
            ],
            [
              87.0951870189999,
              25.512890118095576
            ],
            [
              87.09526176601806,
              25.51252460725157
            ],
            [
              87.0954458496844,
              25.512249328849446
            ],
            [
              87.09556526004016,
              25.51198754839191
            ],
            [
              87.0956051039163,
              25.511784428311515
            ],
            [
              87.09547594414472,
              25.511418867889674
            ],
            [
              87.09521748715939,
              25.510637902202316
            ],
            [
              87.09495399332026,
              25.510028607046717
            ],
            [
              87.09429766980065,
              25.50909410735412
            ],
            [
              87.09401939687845,
              25.508408061283628
            ],
            [
              87.09385045701116,
              25.50780773390764
            ],
            [
              87.0937313242348,
              25.506886973090953
            ],
            [
              87.09368684415352,
              25.50586240524596
            ],
            [
              87.09378659937087,
              25.504512828852178
            ],
            [
              87.09384155740166,
              25.50378168613302
            ],
            [
              87.09387150723322,
              25.50314077530841
            ],
            [
              87.09385168860142,
              25.502734597304098
            ],
            [
              87.09374244268308,
              25.50223808124305
            ],
            [
              87.09348401713878,
              25.501330774254807
            ],
            [
              87.0933350306506,
              25.5006537640042
            ],
            [
              87.09309130513759,
              25.500476562341703
            ],
            [
              87.0928960086999,
              25.50038809560042
            ],
            [
              87.09248481386173,
              25.50033778523042
            ],
            [
              87.09166918400796,
              25.50022442263299
            ],
            [
              87.09150879610218,
              25.500110648039424
            ],
            [
              87.09152556944515,
              25.500049468701693
            ],
            [
              87.09156837596507,
              25.499977435069212
            ],
            [
              87.09160008918954,
              25.49987639883102
            ],
            [
              87.0916079269904,
              25.499811632361972
            ],
            [
              87.09152065566056,
              25.49973956210053
            ],
            [
              87.0910681733536,
              25.499559625041062
            ],
            [
              87.09038552200965,
              25.499394278243294
            ],
            [
              87.08996504398137,
              25.499336795837262
            ],
            [
              87.0898934293886,
              25.49918548712657
            ],
            [
              87.0899250267304,
              25.499034084171026
            ],
            [
              87.08997259971122,
              25.49888263561912
            ],
            [
              87.09004387294415,
              25.498752954006275
            ],
            [
              87.0900198178575,
              25.498518496203012
            ],
            [
              87.08971540126558,
              25.497537488974015
            ],
            [
              87.0890935856293,
              25.49781272812609
            ],
            [
              87.08872566533333,
              25.497790098922927
            ],
            [
              87.08870583592173,
              25.497523768230195
            ],
            [
              87.08865119409793,
              25.497252884166482
            ],
            [
              87.08852193012181,
              25.49709950279297
            ],
            [
              87.08837273342785,
              25.497027208738057
            ],
            [
              87.08808439218797,
              25.49700452587239
            ],
            [
              87.0871244794248,
              25.497072049852168
            ],
            [
              87.0859109632738,
              25.497225167742624
            ],
            [
              87.08471243910657,
              25.497319590695827
            ],
            [
              87.08463316817262,
              25.496267969747347
            ],
            [
              87.0845737221587,
              25.49559991340416
            ],
            [
              87.08450947375125,
              25.49462053402941
            ],
            [
              87.0844100527072,
              25.49410139669698
            ],
            [
              87.08370405684394,
              25.494069681263657
            ],
            [
              87.08343506890853,
              25.495003808920195
            ],
            [
              87.08265440058729,
              25.49483207696587
            ],
            [
              87.08180897181889,
              25.494746162651555
            ],
            [
              87.08175900213288,
              25.495418546314415
            ],
            [
              87.08153525515179,
              25.49543660527646
            ],
            [
              87.08125175223802,
              25.495445504211716
            ],
            [
              87.08102792800186,
              25.495373320246234
            ],
            [
              87.08072482744184,
              25.49509780468525
            ],
            [
              87.08049110826278,
              25.494655469982696
            ],
            [
              87.08036700959954,
              25.494095711855778
            ],
            [
              87.08022312374551,
              25.493287765963537
            ],
            [
              87.08002948829278,
              25.492673902002473
            ],
            [
              87.0799698805821,
              25.492190879216395
            ],
            [
              87.08000972266157,
              25.491915657187427
            ],
            [
              87.08018397965704,
              25.49171251694577
            ],
            [
              87.0804276027621,
              25.49157724480208
            ],
            [
              87.08071115957476,
              25.49149156006754
            ],
            [
              87.08102443175875,
              25.491455632318765
            ],
            [
              87.08105461605062,
              25.4905979996786
            ],
            [
              87.08096055076226,
              25.489379297023678
            ],
            [
              87.08056804178037,
              25.48848101618087
            ],
            [
              87.08018039627734,
              25.487880627328963
            ],
            [
              87.07961865278072,
              25.487167338987295
            ],
            [
              87.07907197582806,
              25.48653069485871
            ],
            [
              87.07854515343982,
              25.48579495679472
            ],
            [
              87.07818726463061,
              25.485203489898943
            ],
            [
              87.07881413868026,
              25.484616912312692
            ],
            [
              87.07855071760467,
              25.484111386737236
            ],
            [
              87.07817309460532,
              25.483524489185868
            ],
            [
              87.07768101366237,
              25.48282019001511
            ],
            [
              87.07737790232255,
              25.482368862375132
            ],
            [
              87.07699023256505,
              25.48183148866568
            ],
            [
              87.0765330763237,
              25.481186017653027
            ],
            [
              87.07616520363847,
              25.480693819987735
            ],
            [
              87.07544456972765,
              25.4799083281839
            ],
            [
              87.07486302556553,
              25.479371004297445
            ],
            [
              87.07434104240173,
              25.479113524008994
            ],
            [
              87.07368967578583,
              25.4789598997176
            ],
            [
              87.0735605007429,
              25.47886952681445
            ],
            [
              87.07349083639261,
              25.47875669459937
            ],
            [
              87.07336677276368,
              25.478187911123825
            ],
            [
              87.07316330974173,
              25.477443113064847
            ],
            [
              87.07289999197236,
              25.476729953368164
            ],
            [
              87.0725772749015,
              25.47584960260256
            ],
            [
              87.073477164034,
              25.475859069044436
            ],
            [
              87.07324887606916,
              25.47502841735966
            ],
            [
              87.0730948590154,
              25.474586129634357
            ],
            [
              87.07280679176164,
              25.473954089325506
            ],
            [
              87.0725433096006,
              25.4735883959557
            ],
            [
              87.07197684186393,
              25.47309624991124
            ],
            [
              87.07166861821183,
              25.472825285652505
            ],
            [
              87.07123117460108,
              25.472450577107427
            ],
            [
              87.0708137733026,
              25.472220183787083
            ],
            [
              87.07014244881607,
              25.47200775275504
            ],
            [
              87.06948143609065,
              25.47176384495012
            ],
            [
              87.06969521806032,
              25.47156081095744
            ],
            [
              87.07004337003013,
              25.47128556764822
            ],
            [
              87.07030207764542,
              25.471127814282877
            ],
            [
              87.07044629318115,
              25.470965297695844
            ],
            [
              87.07053094682026,
              25.470766683134624
            ],
            [
              87.07051607700737,
              25.470559138272282
            ],
            [
              87.07043170903249,
              25.470337908943968
            ],
            [
              87.0702626730455,
              25.470197941347077
            ],
            [
              87.06985993315081,
              25.470103043734657
            ],
            [
              87.0693330146428,
              25.470053138356633
            ],
            [
              87.06855739036187,
              25.46998967938278
            ],
            [
              87.06830880855644,
              25.469899304604546
            ],
            [
              87.06801551220944,
              25.469682532999457
            ],
            [
              87.06763286493272,
              25.469348415599818
            ],
            [
              87.06693202539917,
              25.468802014671212
            ],
            [
              87.06667854597882,
              25.46871162278035
            ],
            [
              87.06648465899778,
              25.46872056018983
            ],
            [
              87.06618135002863,
              25.468783653253638
            ],
            [
              87.06543540608469,
              25.46896386184924
            ],
            [
              87.06448059575236,
              25.4693109816701
            ],
            [
              87.06358538324923,
              25.469671734391767
            ],
            [
              87.06216330074713,
              25.47006833016091
            ],
            [
              87.06146705519797,
              25.470203435920745
            ],
            [
              87.06116373724565,
              25.470329703993347
            ],
            [
              87.06051219725492,
              25.470667859089463
            ],
            [
              87.06016906956246,
              25.470821192280745
            ],
            [
              87.05973146784822,
              25.470897776891846
            ],
            [
              87.05913479695502,
              25.470947102863903
            ],
            [
              87.05835910799541,
              25.47090615779123
            ],
            [
              87.05787193005727,
              25.470811207211387
            ],
            [
              87.05706158499228,
              25.470643842824547
            ],
            [
              87.05666391518906,
              25.470544218216634
            ],
            [
              87.05611701186093,
              25.47046284682655
            ],
            [
              87.0551225454004,
              25.470399080697625
            ],
            [
              87.05461544193092,
              25.470439450939956
            ],
            [
              87.05461521375884,
              25.470665164123023
            ],
            [
              87.05458023156503,
              25.470976651723717
            ],
            [
              87.05444094239034,
              25.471152601712895
            ],
            [
              87.05418234616613,
              25.471283359295537
            ],
            [
              87.05377959010178,
              25.471337337002836
            ],
            [
              87.0532723824277,
              25.47144530288771
            ],
            [
              87.05271550959657,
              25.471562492967323
            ],
            [
              87.05211872192241,
              25.47178779286769
            ],
            [
              87.05157154640474,
              25.472062893914547
            ],
            [
              87.05101926935458,
              25.472513852309778
            ],
            [
              87.05044726530082,
              25.47296497688881
            ],
            [
              87.04953208594385,
              25.473451917756165
            ],
            [
              87.04851748105125,
              25.473848677854953
            ],
            [
              87.04836336158957,
              25.473857670029563
            ],
            [
              87.04827891635958,
              25.47377173910128
            ],
            [
              87.04820941460437,
              25.47355051973698
            ],
            [
              87.04817966419877,
              25.47330683321603
            ],
            [
              87.04825940135834,
              25.473121825215415
            ],
            [
              87.04834899393488,
              25.473013547794064
            ],
            [
              87.04839377585012,
              25.472851115664938
            ],
            [
              87.04840881185133,
              25.47273376383188
            ],
            [
              87.04773266341171,
              25.472616042883494
            ],
            [
              87.04683272756682,
              25.47247116981489
            ],
            [
              87.04621137725783,
              25.472403124333237
            ],
            [
              87.04447113483829,
              25.472221646819467
            ],
            [
              87.04448044138466,
              25.473277790984245
            ],
            [
              87.0438242112898,
              25.4730652490929
            ],
            [
              87.04337192661225,
              25.47288907239184
            ],
            [
              87.04265612294273,
              25.47259522474529
            ],
            [
              87.04148806693499,
              25.471953635046425
            ],
            [
              87.04105075717318,
              25.471727795332797
            ],
            [
              87.04047414835526,
              25.471411515051212
            ],
            [
              87.03977338068695,
              25.47105448761105
            ],
            [
              87.03912216858132,
              25.470823953745942
            ],
            [
              87.03841119066149,
              25.470669979864972
            ],
            [
              87.03771525413276,
              25.470561285001878
            ],
            [
              87.03675069438465,
              25.470416281319434
            ],
            [
              87.0360000594383,
              25.47035717277414
            ],
            [
              87.03508518191529,
              25.470297944170827
            ],
            [
              87.03481176977708,
              25.470279711931664
            ],
            [
              87.03466270333887,
              25.470207404178765
            ],
            [
              87.0345782715836,
              25.47002229003451
            ],
            [
              87.03453859928572,
              25.469819250669023
            ],
            [
              87.03453884811906,
              25.469534825155772
            ],
            [
              87.03454412212808,
              25.469178187109
            ],
            [
              87.0344797946689,
              25.468699810313876
            ],
            [
              87.03442037201117,
              25.46832063236262
            ],
            [
              87.03421673741099,
              25.468085803765593
            ],
            [
              87.03400309018865,
              25.46794123018499
            ],
            [
              87.03363524355453,
              25.467755952781634
            ],
            [
              87.0332773646268,
              25.467760263372362
            ],
            [
              87.032934156086,
              25.467841295960973
            ],
            [
              87.03258121968895,
              25.467845627635228
            ],
            [
              87.03206423025979,
              25.467619531224038
            ],
            [
              87.03140825528651,
              25.46716328361066
            ],
            [
              87.03117478044922,
              25.466959971779925
            ],
            [
              87.03072251733124,
              25.466643734112033
            ],
            [
              87.02965423540546,
              25.46588486121036
            ],
            [
              87.02880444441803,
              25.46532913299983
            ],
            [
              87.02810374412338,
              25.464899820360174
            ],
            [
              87.02794491389632,
              25.4648213632864
            ],
            [
              87.02747263541546,
              25.46458807127754
            ],
            [
              87.02664107843167,
              25.464310253972013
            ],
            [
              87.02663713482758,
              25.46430893683184
            ],
            [
              87.02657897969272,
              25.46428950820163
            ],
            [
              87.02644370239408,
              25.464244311785954
            ],
            [
              87.02552901082234,
              25.46417146268063
            ],
            [
              87.02491247009337,
              25.46408529368381
            ],
            [
              87.02402761965705,
              25.46407565031779
            ],
            [
              87.02352047666172,
              25.464016660314325
            ],
            [
              87.02304328170135,
              25.46388993629379
            ],
            [
              87.02268551685965,
              25.463700110765654
            ],
            [
              87.02243206259213,
              25.463487830953298
            ],
            [
              87.02216384990282,
              25.46320780585058
            ],
            [
              87.02184103311893,
              25.46287358368545
            ],
            [
              87.0213938571604,
              25.462458085980828
            ],
            [
              87.02110559676888,
              25.46230439986248
            ],
            [
              87.02085707874383,
              25.462254444207776
            ],
            [
              87.0206284323512,
              25.46222273416124
            ],
            [
              87.0202356260269,
              25.462240605888347
            ],
            [
              87.02007267073606,
              25.46227636393373
            ],
            [
              87.01939524668872,
              25.46242501097469
            ],
            [
              87.01861455321465,
              25.462654700402474
            ],
            [
              87.0178237231509,
              25.4629112807784
            ],
            [
              87.01746551364316,
              25.46310063632806
            ],
            [
              87.01709739122626,
              25.463339502347242
            ],
            [
              87.01684864323249,
              25.463601213597975
            ],
            [
              87.01664448491451,
              25.463966546404876
            ],
            [
              87.01643525111517,
              25.46444934437927
            ],
            [
              87.01616610777118,
              25.46522094264446
            ],
            [
              87.01611613988185,
              25.465532328363963
            ],
            [
              87.01612583809364,
              25.465812245054895
            ],
            [
              87.01622489442171,
              25.466128299992587
            ],
            [
              87.01646812765793,
              25.466643009861176
            ],
            [
              87.01667155295065,
              25.467017673237784
            ],
            [
              87.01685025660674,
              25.46731582321904
            ],
            [
              87.01708371437604,
              25.467613742130403
            ],
            [
              87.01731216583427,
              25.467916321250847
            ],
            [
              87.01743634714252,
              25.46806993207489
            ],
            [
              87.01763998533593,
              25.468273239596652
            ],
            [
              87.01789833811672,
              25.46847648108232
            ],
            [
              87.01835053925097,
              25.468792703389088
            ],
            [
              87.01867347371414,
              25.468996072137504
            ],
            [
              87.01895684367724,
              25.46914523803545
            ],
            [
              87.01950351793498,
              25.46939389719644
            ],
            [
              87.01977682137701,
              25.469542979066862
            ],
            [
              87.02005009158138,
              25.469791492234858
            ],
            [
              87.02027858166718,
              25.47004891868099
            ],
            [
              87.02038283025757,
              25.470247575788733
            ],
            [
              87.0207845272082,
              25.471367222331487
            ],
            [
              87.02123595579133,
              25.472707984075647
            ],
            [
              87.0213746916038,
              25.47324972760629
            ],
            [
              87.02149361686934,
              25.473777878243236
            ],
            [
              87.02156256166907,
              25.474459475949644
            ],
            [
              87.02157715569919,
              25.47486117075593
            ],
            [
              87.02155703343679,
              25.475190734633713
            ],
            [
              87.0214718030793,
              25.475980408602453
            ],
            [
              87.02133708004115,
              25.47645430667508
            ],
            [
              87.02123230324136,
              25.476873980338656
            ],
            [
              87.02101307119293,
              25.477424430205
            ],
            [
              87.02065953202633,
              25.47797485322291
            ],
            [
              87.02035590056198,
              25.478407852006676
            ],
            [
              87.01978837460989,
              25.47909354227126
            ],
            [
              87.01942499709429,
              25.479499564205195
            ],
            [
              87.0190367793645,
              25.479932486135358
            ],
            [
              87.0184693836681,
              25.48051881896938
            ],
            [
              87.01788223132365,
              25.48102854488342
            ],
            [
              87.01750397860529,
              25.48139824595713
            ],
            [
              87.01714582838635,
              25.48168243824736
            ],
            [
              87.01675758730036,
              25.481930335163064
            ],
            [
              87.0164546134028,
              25.481605210949247
            ],
            [
              87.01616665035364,
              25.48114909424132
            ],
            [
              87.01595811903682,
              25.480720160821758
            ],
            [
              87.01590869013664,
              25.48045824029329
            ],
            [
              87.01593369474257,
              25.480250794061515
            ],
            [
              87.01601343280048,
              25.480061206008997
            ],
            [
              87.01618761793068,
              25.479840166891073
            ],
            [
              87.0163819109502,
              25.479524408297653
            ],
            [
              87.01643679172588,
              25.47930319059572
            ],
            [
              87.0162281858489,
              25.479122520655586
            ],
            [
              87.0158901327395,
              25.478901123805553
            ],
            [
              87.01556232042432,
              25.478616572177533
            ],
            [
              87.01535375407326,
              25.478309523244796
            ],
            [
              87.01511042741224,
              25.4779075812628
            ],
            [
              87.0149764787219,
              25.477537325303036
            ],
            [
              87.01485756423617,
              25.477108528215243
            ],
            [
              87.01468854172388,
              25.477099447078075
            ],
            [
              87.01392782318848,
              25.47700855295042
            ],
            [
              87.0135002116385,
              25.476949493058875
            ],
            [
              87.01287871580246,
              25.476894881265267
            ],
            [
              87.01240145795998,
              25.47691712433016
            ],
            [
              87.01202335705689,
              25.476998089116588
            ],
            [
              87.01096408343679,
              25.477250048867006
            ],
            [
              87.00962611558464,
              25.477655119285917
            ],
            [
              87.00864136889544,
              25.477965810266024
            ],
            [
              87.0084174692008,
              25.478060408108842
            ],
            [
              87.00830816129871,
              25.47797899720167
            ],
            [
              87.00784601671258,
              25.477635760931772
            ],
            [
              87.00778602631958,
              25.477590896346623
            ],
            [
              87.00695170162639,
              25.476966944952913
            ],
            [
              87.00615167640743,
              25.476361494126053
            ],
            [
              87.00509333074702,
              25.4756294072615
            ],
            [
              87.00440770508114,
              25.475136945990812
            ],
            [
              87.00340876860373,
              25.474490635360336
            ],
            [
              87.00259393914884,
              25.474002608739447
            ],
            [
              87.00195289597221,
              25.473622811693346
            ],
            [
              87.0013765835983,
              25.473220758349523
            ],
            [
              87.00100060092267,
              25.472957510117038
            ],
            [
              87.00075052162568,
              25.472782414307495
            ],
            [
              87.00064128738545,
              25.472646825661123
            ],
            [
              87.00063639156714,
              25.47253856727593
            ],
            [
              87.00068612140295,
              25.472457413769913
            ],
            [
              87.00080562967509,
              25.472344599868133
            ],
            [
              87.00099965230174,
              25.472213902641748
            ],
            [
              87.00123849367452,
              25.47206512090577
            ],
            [
              87.00159164656554,
              25.47193903469598
            ],
            [
              87.00199448707156,
              25.47178147682688
            ],
            [
              87.00267591940168,
              25.47151111461082
            ],
            [
              87.00332764714032,
              25.471182265684323
            ],
            [
              87.00372071307771,
              25.47093433363434
            ],
            [
              87.0038699645689,
              25.470762959818096
            ],
            [
              87.00392984357079,
              25.4705960000554
            ],
            [
              87.00394487867372,
              25.47045612115842
            ],
            [
              87.00391032677295,
              25.470320626399335
            ],
            [
              87.00386558079033,
              25.470243875164346
            ],
            [
              87.00372147844234,
              25.47016250438207
            ],
            [
              87.0034828814113,
              25.47009911196857
            ],
            [
              87.0032194208098,
              25.47006286072229
            ],
            [
              87.00285150590375,
              25.470017360725404
            ],
            [
              87.00203613835801,
              25.469935460201068
            ],
            [
              87.00159371628395,
              25.469939616621982
            ],
            [
              87.0010218433842,
              25.46995721794784
            ],
            [
              87.00047490771671,
              25.46999280987597
            ],
            [
              87.00016165799062,
              25.469992490338583
            ],
            [
              86.99999999986704,
              25.470014268350262
            ],
            [
              86.9981857722007,
              25.47048095333215
            ],
            [
              86.99733779131859,
              25.470834394597897
            ],
            [
              86.99485508772345,
              25.47214095374429
            ],
            [
              86.99243978921568,
              25.473329897662534
            ],
            [
              86.99131161301666,
              25.47387247938057
            ],
            [
              86.99112297399351,
              25.474120805998304
            ],
            [
              86.99107369062038,
              25.474648907395135
            ],
            [
              86.99087998060749,
              25.474852172168564
            ],
            [
              86.99010946414724,
              25.47498369696622
            ],
            [
              86.98941346024489,
              25.47511513322384
            ],
            [
              86.98912514505612,
              25.475219143033367
            ],
            [
              86.9891091792986,
              25.475247222171223
            ],
            [
              86.98910097588342,
              25.475261647760863
            ],
            [
              86.98897619270394,
              25.475481106602153
            ],
            [
              86.98906139341706,
              25.476126433882975
            ],
            [
              86.98894725437539,
              25.476437977893358
            ],
            [
              86.98844514104732,
              25.476537635734523
            ],
            [
              86.98754519711757,
              25.47651128263072
            ],
            [
              86.98506401976013,
              25.476558282076777
            ],
            [
              86.9822546474052,
              25.47654225579892
            ],
            [
              86.97969380295675,
              25.476444845956827
            ],
            [
              86.97820684142991,
              25.476179587096233
            ],
            [
              86.97751529496799,
              25.475769316635404
            ],
            [
              86.97668940096374,
              25.475097407762785
            ],
            [
              86.9761766075653,
              25.474339485137484
            ],
            [
              86.97533540087872,
              25.473225252027415
            ],
            [
              86.97504611101787,
              25.472232479259958
            ],
            [
              86.97470198619548,
              25.47088316992518
            ],
            [
              86.97421815358346,
              25.46991013887621
            ],
            [
              86.97375076642933,
              25.468970159384607
            ],
            [
              86.9720232504424,
              25.466199998677663
            ],
            [
              86.97053905393,
              25.462924157107963
            ],
            [
              86.97005619509173,
              25.46216170261893
            ],
            [
              86.97003689029627,
              25.46216142929124
            ],
            [
              86.96975289959731,
              25.462157395882926
            ],
            [
              86.96918639143642,
              25.462568437858724
            ],
            [
              86.96849578910386,
              25.463155637202743
            ],
            [
              86.96789975331961,
              25.46384209813802
            ],
            [
              86.9678856362949,
              25.46493885179451
            ],
            [
              86.9679955622379,
              25.465669986687846
            ],
            [
              86.96840419597918,
              25.46687483803202
            ],
            [
              86.96840557399481,
              25.46688401564272
            ],
            [
              86.96856407903178,
              25.467939931738076
            ],
            [
              86.96847041618868,
              25.46890590585487
            ],
            [
              86.9681131993193,
              25.46998479629985
            ],
            [
              86.96745270043024,
              25.47091045934804
            ],
            [
              86.96661325444165,
              25.472084509352467
            ],
            [
              86.96511736366085,
              25.473051327674302
            ],
            [
              86.96377534979665,
              25.4736840417891
            ],
            [
              86.96205020626041,
              25.474019090316375
            ],
            [
              86.95911710714476,
              25.474679786969695
            ],
            [
              86.95783970101411,
              25.475339464655598
            ],
            [
              86.95671645476938,
              25.47607575734122
            ],
            [
              86.95594120508592,
              25.476789298015444
            ],
            [
              86.95502204978554,
              25.47787304105332
            ],
            [
              86.95412295656035,
              25.479263732399346
            ],
            [
              86.95354140341509,
              25.47964770582927
            ],
            [
              86.95270110312865,
              25.479706767639282
            ],
            [
              86.95060767907201,
              25.47968982379336
            ],
            [
              86.94944408140302,
              25.47964978265552
            ],
            [
              86.9491058845632,
              25.47950102390524
            ],
            [
              86.9487673319905,
              25.478783523238295
            ],
            [
              86.94847283818919,
              25.476942190348762
            ],
            [
              86.94800458416084,
              25.47549362232588
            ],
            [
              86.94763627040275,
              25.474852866363857
            ],
            [
              86.9476096119984,
              25.474846766203616
            ],
            [
              86.94673115487194,
              25.4746457421511
            ],
            [
              86.94573183661055,
              25.474867346336197
            ],
            [
              86.9444741493987,
              25.475319303876713
            ],
            [
              86.94229710386718,
              25.47682782279506
            ],
            [
              86.93983186441952,
              25.478787806672464
            ],
            [
              86.93828583956102,
              25.47954672061735
            ],
            [
              86.93647609358965,
              25.480034950179412
            ],
            [
              86.9345420845633,
              25.480500615851625
            ],
            [
              86.93314039112322,
              25.48157091021556
            ],
            [
              86.93311989426337,
              25.481630770657887
            ],
            [
              86.93276789391088,
              25.482658735320584
            ],
            [
              86.93299208196476,
              25.48348919238212
            ],
            [
              86.93358927208416,
              25.48449997579599
            ],
            [
              86.93430059226212,
              25.484955522696673
            ],
            [
              86.93554417412739,
              25.48565458389811
            ],
            [
              86.9366084351939,
              25.48587530175017
            ],
            [
              86.93749344283543,
              25.485653802187652
            ],
            [
              86.93851252133814,
              25.485125316913066
            ],
            [
              86.93947679542198,
              25.48434855271474
            ],
            [
              86.9404811703001,
              25.48414044905799
            ],
            [
              86.9413018127532,
              25.48427551468033
            ],
            [
              86.94232140329564,
              25.484699269921787
            ],
            [
              86.94351533437683,
              25.485502184321128
            ],
            [
              86.94456518916117,
              25.48657585938317
            ],
            [
              86.94482420310197,
              25.487379129391876
            ],
            [
              86.94471015119689,
              25.48788018701682
            ],
            [
              86.94285601138246,
              25.48925319491357
            ],
            [
              86.94114588408449,
              25.490251381613135
            ],
            [
              86.9370190506187,
              25.491589251249884
            ],
            [
              86.93534338359339,
              25.492000674281673
            ],
            [
              86.93150455629589,
              25.492498677601446
            ],
            [
              86.93016680314106,
              25.492485584696304
            ],
            [
              86.92929641827578,
              25.492264733840244
            ],
            [
              86.92850552892322,
              25.491885973194684
            ],
            [
              86.92780905610029,
              25.49119561233636
            ],
            [
              86.92758494440322,
              25.490437483067506
            ],
            [
              86.92758452219502,
              25.48964758619558
            ],
            [
              86.92795194123107,
              25.488180583323924
            ],
            [
              86.9283392543574,
              25.486876047306684
            ],
            [
              86.92850271539974,
              25.485544489985628
            ],
            [
              86.92840309403137,
              25.485088672852307
            ],
            [
              86.92807977419093,
              25.484867629192518
            ],
            [
              86.92751777557278,
              25.484809195939423
            ],
            [
              86.92680664943094,
              25.484737231017718
            ],
            [
              86.92614505639388,
              25.48419579224753
            ],
            [
              86.92552838001932,
              25.483916167294083
            ],
            [
              86.92511084936346,
              25.48434056928808
            ],
            [
              86.92485263671988,
              25.485189213087008
            ],
            [
              86.92469380379785,
              25.48605587801936
            ],
            [
              86.92467955022923,
              25.487694272161395
            ],
            [
              86.92467555092959,
              25.489960020374195
            ],
            [
              86.9244520851212,
              25.49074998330552
            ],
            [
              86.92251816862135,
              25.492127207318504
            ],
            [
              86.92127527217066,
              25.493138591906735
            ],
            [
              86.92065870988215,
              25.49323813616816
            ],
            [
              86.91671491713863,
              25.492571306832282
            ],
            [
              86.91670190594009,
              25.492569183199635
            ],
            [
              86.916690181129,
              25.492567267957046
            ],
            [
              86.91669021706161,
              25.492574068608803
            ],
            [
              86.91668819675053,
              25.493478251036766
            ],
            [
              86.91632645057551,
              25.494290018780948
            ],
            [
              86.91592193740644,
              25.494529286649065
            ],
            [
              86.91425528407666,
              25.494855036738425
            ],
            [
              86.91262949600748,
              25.495613485173898
            ],
            [
              86.91117922796501,
              25.498292142876032
            ],
            [
              86.91033782634403,
              25.49931240178609
            ],
            [
              86.9100744573707,
              25.500000320075106
            ],
            [
              86.90990049322606,
              25.50045470876808
            ],
            [
              86.9095300181214,
              25.50179895762981
            ],
            [
              86.90892833912052,
              25.502793783980618
            ],
            [
              86.9077573330454,
              25.503718501981986
            ],
            [
              86.90716874519315,
              25.50396428027808
            ],
            [
              86.9064377599953,
              25.503972499959307
            ],
            [
              86.90615596837212,
              25.504097548013476
            ],
            [
              86.90514584966607,
              25.504794774146898
            ],
            [
              86.90439002335567,
              25.50589530614936
            ],
            [
              86.90448798823067,
              25.506516946674495
            ],
            [
              86.90491406276321,
              25.507477711398586
            ],
            [
              86.90529528082033,
              25.508078081772815
            ],
            [
              86.90623608911231,
              25.509218086379207
            ],
            [
              86.9073324999846,
              25.51009012262179
            ],
            [
              86.9078002572446,
              25.51047287062842
            ],
            [
              86.90943436371334,
              25.511379369163144
            ],
            [
              86.90998478484411,
              25.511621323791836
            ],
            [
              86.91031917192883,
              25.511698754747837
            ],
            [
              86.91107925984691,
              25.51235346136802
            ],
            [
              86.91150431030003,
              25.512881101277078
            ],
            [
              86.91151669267789,
              25.513774401054857
            ],
            [
              86.91125266973104,
              25.5144722374026
            ],
            [
              86.91127363640979,
              25.514914220240794
            ],
            [
              86.91152729728982,
              25.51563331383067
            ],
            [
              86.91238830643852,
              25.5167470726642
            ],
            [
              86.91310976230781,
              25.517478953608546
            ],
            [
              86.91384847391541,
              25.518021082242083
            ],
            [
              86.91460971976191,
              25.518395982693185
            ],
            [
              86.9155366580659,
              25.518520797652624
            ],
            [
              86.91670080011396,
              25.518525571753536
            ],
            [
              86.91786344197547,
              25.518787658171888
            ],
            [
              86.91811472142169,
              25.51860875976271
            ],
            [
              86.91826869355972,
              25.518232505324878
            ],
            [
              86.91923911661169,
              25.518262113087545
            ],
            [
              86.91939159574972,
              25.518499484033885
            ],
            [
              86.91939869872867,
              25.51900934713913
            ],
            [
              86.91999207460138,
              25.519115379695457
            ],
            [
              86.92105989569141,
              25.51935135783511
            ],
            [
              86.9226240413658,
              25.51986602217462
            ],
            [
              86.92436893526187,
              25.520500311361175
            ],
            [
              86.92494885616829,
              25.52106228275147
            ],
            [
              86.92548527076714,
              25.521362950332485
            ],
            [
              86.92812440968079,
              25.522266779016476
            ],
            [
              86.9290107216761,
              25.522680806159652
            ],
            [
              86.93028992264065,
              25.523094787288613
            ],
            [
              86.93099508486735,
              25.523718405900635
            ],
            [
              86.93146412761652,
              25.52453426967955
            ],
            [
              86.93182461794677,
              25.526122969399168
            ],
            [
              86.93208458500013,
              25.526927622917555
            ],
            [
              86.93240933406017,
              25.52703225177298
            ],
            [
              86.93474563112858,
              25.527253568025166
            ],
            [
              86.93513149976394,
              25.527808696162563
            ],
            [
              86.937047355635,
              25.527849748301033
            ],
            [
              86.93863065788284,
              25.527939829822632
            ],
            [
              86.94028627001946,
              25.527871130782856
            ],
            [
              86.9417832926775,
              25.527840375123798
            ],
            [
              86.94309860232326,
              25.527622121664425
            ],
            [
              86.9436518783,
              25.526993015962894
            ],
            [
              86.94450038110331,
              25.52683885384833
            ],
            [
              86.9469160443271,
              25.526689071347644
            ],
            [
              86.9474613729085,
              25.526903852167923
            ],
            [
              86.94765424209832,
              25.527176888823554
            ],
            [
              86.9477996595799,
              25.52726086038143
            ],
            [
              86.94799844866743,
              25.527245049197116
            ],
            [
              86.94811568959182,
              25.52709476867027
            ],
            [
              86.94862294038496,
              25.527079885627742
            ],
            [
              86.94915017689658,
              25.527421242659276
            ],
            [
              86.94991905123646,
              25.52691596776067
            ],
            [
              86.95036658023292,
              25.526897212342693
            ],
            [
              86.95065747268822,
              25.527069845247347
            ],
            [
              86.9516112697209,
              25.527320491346543
            ],
            [
              86.95271639065815,
              25.527375372041362
            ],
            [
              86.95435928534533,
              25.52745553030038
            ],
            [
              86.9548471244435,
              25.527481393152442
            ],
            [
              86.95630216613338,
              25.527649467914138
            ],
            [
              86.9565775258191,
              25.52847652385905
            ],
            [
              86.95654929536298,
              25.52893711132998
            ],
            [
              86.95621437827224,
              25.529532060034196
            ],
            [
              86.95633004714487,
              25.529968412076695
            ],
            [
              86.95655818059947,
              25.530620031165835
            ],
            [
              86.9568851691595,
              25.531581875595364
            ],
            [
              86.95697100228661,
              25.532018551712905
            ],
            [
              86.95659808106946,
              25.532383837825943
            ],
            [
              86.95710212757199,
              25.533199166055024
            ],
            [
              86.95748819922659,
              25.533763260854116
            ],
            [
              86.95801016083085,
              25.533734605292985
            ],
            [
              86.95817720165962,
              25.534987044381793
            ],
            [
              86.95821276416508,
              25.535388193918955
            ],
            [
              86.95886516474188,
              25.535434678314196
            ],
            [
              86.95963652831338,
              25.535105325918206
            ],
            [
              86.96034103117667,
              25.534961777295763
            ],
            [
              86.96109657721266,
              25.53421748203418
            ],
            [
              86.96144988281729,
              25.53351850167748
            ],
            [
              86.96140504610483,
              25.532815084971254
            ],
            [
              86.96198126595223,
              25.532749704826568
            ],
            [
              86.96268049660308,
              25.532940112706033
            ],
            [
              86.96408777217437,
              25.533243957183096
            ],
            [
              86.96373746873944,
              25.53415049528271
            ],
            [
              86.96345172991892,
              25.535047312666684
            ],
            [
              86.96297721642966,
              25.53596882039781
            ],
            [
              86.962358437099,
              25.536535513792852
            ],
            [
              86.96243979661598,
              25.53736481287426
            ],
            [
              86.96241296124349,
              25.538975985188205
            ],
            [
              86.96199179959727,
              25.539637650596877
            ],
            [
              86.9607718910347,
              25.53993479685422
            ],
            [
              86.96039013309009,
              25.540285376033005
            ],
            [
              86.95988986220668,
              25.540913911921105
            ],
            [
              86.95943610878363,
              25.541782963674535
            ],
            [
              86.95878980507267,
              25.544024411754382
            ],
            [
              86.958524397822,
              25.54467281619929
            ],
            [
              86.9584656830367,
              25.545433207111042
            ],
            [
              86.95868002196178,
              25.546302517072654
            ],
            [
              86.95914466296608,
              25.546857554607787
            ],
            [
              86.9596458393513,
              25.547471582392273
            ],
            [
              86.96026185007425,
              25.548353190376694
            ],
            [
              86.96118070174408,
              25.549888026090297
            ],
            [
              86.96173006376114,
              25.550772618256527
            ],
            [
              86.96222073255247,
              25.55241750430289
            ],
            [
              86.96267212340634,
              25.552730613923224
            ],
            [
              86.96299017283098,
              25.55304970626124
            ],
            [
              86.96322810331208,
              25.55373615919908
            ],
            [
              86.96352033695212,
              25.555420347792467
            ],
            [
              86.9636179658572,
              25.55659793087437
            ],
            [
              86.9635226411308,
              25.557299334356614
            ],
            [
              86.9631555706411,
              25.557921988185754
            ],
            [
              86.96318029856594,
              25.558375493007336
            ],
            [
              86.9635581811784,
              25.55917682704994
            ],
            [
              86.96388248197913,
              25.560223075644267
            ],
            [
              86.96468994255373,
              25.561702255783302
            ],
            [
              86.96496726326171,
              25.56188680476523
            ],
            [
              86.96538475798495,
              25.56188317989984
            ],
            [
              86.96603904412551,
              25.56162650868004
            ],
            [
              86.96679572024215,
              25.561410755999173
            ],
            [
              86.9673907481167,
              25.56129310416019
            ],
            [
              86.96783910715646,
              25.561242662111393
            ],
            [
              86.96881086600325,
              25.56098683719138
            ],
            [
              86.9688817853,
              25.560756344694394
            ],
            [
              86.96882039892505,
              25.560243858330335
            ],
            [
              86.96870163535628,
              25.559597581154062
            ],
            [
              86.96868278331173,
              25.55894681812567
            ],
            [
              86.96867899781112,
              25.558265064635645
            ],
            [
              86.96886676187518,
              25.557726186952326
            ],
            [
              86.96915359664035,
              25.557470887778152
            ],
            [
              86.97023849290727,
              25.557300913863237
            ],
            [
              86.97137008539931,
              25.55721977468733
            ],
            [
              86.9722350902544,
              25.557150696127493
            ],
            [
              86.97307325075384,
              25.55720389127391
            ],
            [
              86.9738666266431,
              25.55704707983394
            ],
            [
              86.9744117782564,
              25.55662850086421
            ],
            [
              86.9747120203772,
              25.556008912644653
            ],
            [
              86.97492256571685,
              25.554968959987345
            ],
            [
              86.97500966906176,
              25.554116344744223
            ],
            [
              86.97510297527367,
              25.55399098817031
            ],
            [
              86.9759362669043,
              25.5539535352375
            ],
            [
              86.97747435694386,
              25.55397524210391
            ],
            [
              86.97824923831806,
              25.554091973174422
            ],
            [
              86.97905074575726,
              25.55408624660041
            ],
            [
              86.98040331392772,
              25.55384869322172
            ],
            [
              86.98175155581178,
              25.554866084976403
            ],
            [
              86.98223444519277,
              25.554535507090037
            ],
            [
              86.98261670709225,
              25.554129386352376
            ],
            [
              86.9820120681425,
              25.553604116875167
            ],
            [
              86.98231515073621,
              25.553230490269595
            ],
            [
              86.98354725392876,
              25.55378446808114
            ],
            [
              86.98552287202074,
              25.553454241375366
            ],
            [
              86.98642664367189,
              25.55366915579773
            ],
            [
              86.98737796225272,
              25.55373007763394
            ],
            [
              86.98742012198564,
              25.5528632593732
            ],
            [
              86.98820151884055,
              25.552529079989544
            ],
            [
              86.98820796964262,
              25.551937894052976
            ],
            [
              86.98874400694909,
              25.551845848183195
            ],
            [
              86.99031654109162,
              25.551858782247805
            ],
            [
              86.99191698858493,
              25.551735916276893
            ],
            [
              86.99207366375363,
              25.549838960280024
            ],
            [
              86.99424567243133,
              25.549668756712546
            ],
            [
              86.99482916144605,
              25.550103991600782
            ],
            [
              86.99591297883633,
              25.551074766636322
            ],
            [
              86.9968139782865,
              25.55178592630259
            ],
            [
              86.99743009141739,
              25.552753175225206
            ],
            [
              86.99755134511614,
              25.55275216702572
            ],
            [
              86.9987320871323,
              25.552740811003336
            ],
            [
              86.99919463326538,
              25.552872076247503
            ],
            [
              86.99999999986704,
              25.55327099637939
            ],
            [
              87.00052739987204,
              25.55353222804085
            ],
            [
              87.00171059159399,
              25.55451709394441
            ],
            [
              87.00263560121509,
              25.5549240853962
            ],
            [
              87.00379904078059,
              25.55578718832997
            ],
            [
              87.00426447140404,
              25.556384713872603
            ],
            [
              87.00459409023125,
              25.55680788311564
            ],
            [
              87.00502617718793,
              25.557588993152212
            ],
            [
              87.00535364904164,
              25.55854611129499
            ],
            [
              87.0053680409508,
              25.55911028294999
            ],
            [
              87.00585977065246,
              25.55993218735528
            ],
            [
              87.0059785432044,
              25.56060479575753
            ],
            [
              87.00687388775985,
              25.560943995702324
            ],
            [
              87.00782373579857,
              25.56143221029336
            ],
            [
              87.00885810272909,
              25.562073976684587
            ],
            [
              87.0094744458287,
              25.562828138806736
            ],
            [
              87.01025638975766,
              25.562061504022342
            ],
            [
              87.01068958523541,
              25.561736860207912
            ],
            [
              87.01200378186851,
              25.561069917139594
            ],
            [
              87.0125812449843,
              25.56084019467777
            ],
            [
              87.01336783499993,
              25.560371407783137
            ],
            [
              87.01365151757676,
              25.560285797285484
            ],
            [
              87.01478128828538,
              25.560056539300206
            ],
            [
              87.0153084897627,
              25.560260020928368
            ],
            [
              87.01592516523897,
              25.560635077844697
            ],
            [
              87.01650634019347,
              25.561741307622516
            ],
            [
              87.01725301626439,
              25.56133566999117
            ],
            [
              87.01897498515443,
              25.560980370246693
            ],
            [
              87.02020403227839,
              25.560958691392354
            ],
            [
              87.02091542971142,
              25.56119390403727
            ],
            [
              87.02148742118882,
              25.561415427093824
            ],
            [
              87.02156167772682,
              25.561853330875486
            ],
            [
              87.0216004256583,
              25.56304941005448
            ],
            [
              87.02195780781766,
              25.56407867101154
            ],
            [
              87.02219134463871,
              25.56456630961957
            ],
            [
              87.02195177113897,
              25.565346985767256
            ],
            [
              87.02106561185727,
              25.565824743338613
            ],
            [
              87.01975154817481,
              25.56631125168156
            ],
            [
              87.01994002190793,
              25.56703810091767
            ],
            [
              87.01940696790653,
              25.567750775993208
            ],
            [
              87.0189239159305,
              25.568097968402572
            ],
            [
              87.01798889278894,
              25.567546679069043
            ],
            [
              87.01690842162306,
              25.56832666401435
            ],
            [
              87.01527065272293,
              25.569038581047266
            ],
            [
              87.01426519896815,
              25.569313174830658
            ],
            [
              87.01351446430878,
              25.568576898100208
            ],
            [
              87.0128236535671,
              25.567633081760732
            ],
            [
              87.0113650491588,
              25.568250253376196
            ],
            [
              87.01076746737395,
              25.568791388326545
            ],
            [
              87.01051813906851,
              25.569292190323388
            ],
            [
              87.01078146492269,
              25.569775364639593
            ],
            [
              87.0117162976214,
              25.570534388864747
            ],
            [
              87.01201406129034,
              25.571396637069018
            ],
            [
              87.01279979071991,
              25.571952402712604
            ],
            [
              87.0133715782797,
              25.572426706292767
            ],
            [
              87.01369383092157,
              25.57371786111145
            ],
            [
              87.0140020923029,
              25.574038493037577
            ],
            [
              87.01477287107117,
              25.57458976382773
            ],
            [
              87.01482656696898,
              25.57580386233452
            ],
            [
              87.0149847477141,
              25.57687825116365
            ],
            [
              87.01536759801009,
              25.577311789316237
            ],
            [
              87.01618749396316,
              25.578612233918804
            ],
            [
              87.01633132501992,
              25.579253291625417
            ],
            [
              87.01662931236936,
              25.579907928388543
            ],
            [
              87.01745063035553,
              25.579723470379946
            ],
            [
              87.01842123127393,
              25.579512078759002
            ],
            [
              87.0189835892182,
              25.57943127630761
            ],
            [
              87.01937681056415,
              25.579445098689636
            ],
            [
              87.01973977844797,
              25.57971616176907
            ],
            [
              87.01988860593433,
              25.58027590688834
            ],
            [
              87.01992242391152,
              25.581426862851238
            ],
            [
              87.02087809482992,
              25.581256027602414
            ],
            [
              87.02142571770857,
              25.581062367138717
            ],
            [
              87.02215737843949,
              25.580913912351207
            ],
            [
              87.0240685567829,
              25.5808114120883
            ],
            [
              87.02568644776241,
              25.58023483624427
            ]
          ]
        ]
      }
    }
  ]
}