{
  "type": "FeatureCollection",
  "features": [
    {
      "type": "Feature",
      "properties": {
        "object_id": "10-221-01292",
        "stname": "BIHAR",
        "dtname": "Samastipur",
        "sdtname": "Patori",
        "st_area_sh": 0.0,
        "st_length_": 0.0,
        "remarks": "",
        "dist_lgd": 217,
        "state_lgd": 10,
        "subdt_lgd": 1292,
        "ac_no": null,
        "st_length(shape)": 69422.25062895294,
        "st_area(shape)": 130638318.44440164
      },
      "geometry": {
        "type": "Polygon",
        "coordinates": [
          [
            [
              85.64943868280893,
              25.681171491012154
            ],
            [
              85.65399424443058,
              25.680626305345477
            ],
            [
              85.65633362541541,
              25.680163962966333
            ],
            [
              85.65896316044035,
              25.678604127304464
            ],
            [
              85.66129875592453,
              25.677040491977827
            ],
            [
              85.66450859094493,
              25.674833354930545
            ],
            [
              85.66801690379489,
              25.672548675264903
            ],
            [
              85.66888909786718,
              25.671296053733407
            ],
            [
              85.67009869107532,
              25.671103006366117
            ],
            [
              85.67164746567691,
              25.67106242034268
            ],
            [
              85.67235825495052,
              25.670681266645506
            ],
            [
              85.67415387940565,
              25.67003063296925
            ],
            [
              85.6768509183326,
              25.667991781389066
            ],
            [
              85.6788982947478,
              25.666717525167694
            ],
            [
              85.68086205507802,
              25.665755000250652
            ],
            [
              85.68067907544115,
              25.664749009037944
            ],
            [
              85.67952352488048,
              25.660509914997096
            ],
            [
              85.678248697813,
              25.657733500035075
            ],
            [
              85.67640154419658,
              25.653636328187545
            ],
            [
              85.6759712942946,
              25.648880550838435
            ],
            [
              85.6759006166447,
              25.647188285893037
            ],
            [
              85.67695604098378,
              25.64573190176089
            ],
            [
              85.67711957568801,
              25.644120223806752
            ],
            [
              85.67668755610494,
              25.641661745696084
            ],
            [
              85.67685030208834,
              25.639815338254344
            ],
            [
              85.67701445124018,
              25.638356973918263
            ],
            [
              85.67810767488983,
              25.636354436334504
            ],
            [
              85.67853117125748,
              25.635044347834615
            ],
            [
              85.67878149669288,
              25.634046168307517
            ],
            [
              85.67767658775801,
              25.632758604747888
            ],
            [
              85.67682120385965,
              25.631610192766715
            ],
            [
              85.67538039867041,
              25.63107277120056
            ],
            [
              85.6735136357296,
              25.631154959355204
            ],
            [
              85.67304840902372,
              25.63123301039104
            ],
            [
              85.67258317962293,
              25.63131105975603
            ],
            [
              85.67207694033277,
              25.63177741188972
            ],
            [
              85.67047062055242,
              25.633704702997328
            ],
            [
              85.66937730257969,
              25.63570728340458
            ],
            [
              85.66827732270079,
              25.63724942632334
            ],
            [
              85.66777243268021,
              25.63809487381116
            ],
            [
              85.663538994343,
              25.63918560887977
            ],
            [
              85.66048525867123,
              25.640191619682163
            ],
            [
              85.65633221236547,
              25.64004983137263
            ],
            [
              85.65209239419313,
              25.640756622694536
            ],
            [
              85.65132678612761,
              25.639603251114497
            ],
            [
              85.6505479234201,
              25.63599028300327
            ],
            [
              85.64809179558434,
              25.63553660022037
            ],
            [
              85.64554838833386,
              25.63577373306739
            ],
            [
              85.64443056881174,
              25.633501999875442
            ],
            [
              85.64390465192531,
              25.632542124272472
            ],
            [
              85.64254778441789,
              25.631746891066225
            ],
            [
              85.64131123007311,
              25.631163427865502
            ],
            [
              85.63942643794456,
              25.630315503953344
            ],
            [
              85.63864118821536,
              25.62917567400731
            ],
            [
              85.63837246977455,
              25.627682507710453
            ],
            [
              85.6380449170725,
              25.62646030336654
            ],
            [
              85.63779966083025,
              25.622967600331542
            ],
            [
              85.63791372171852,
              25.62131087635429
            ],
            [
              85.63732199605097,
              25.619981016103146
            ],
            [
              85.63649139577295,
              25.618647295962912
            ],
            [
              85.63589897031781,
              25.617100749371538
            ],
            [
              85.63489130940236,
              25.614914455260102
            ],
            [
              85.63482733857435,
              25.614823513283497
            ],
            [
              85.63476136540156,
              25.614729723171756
            ],
            [
              85.63388616736297,
              25.61347736304846
            ],
            [
              85.63403726399378,
              25.61248404825574
            ],
            [
              85.63321195479278,
              25.611231527701495
            ],
            [
              85.63238964506652,
              25.607789924728955
            ],
            [
              85.63150352980229,
              25.601518713971135
            ],
            [
              85.63162068628502,
              25.59607083333676
            ],
            [
              85.63239043738064,
              25.595513629852604
            ],
            [
              85.63480312358756,
              25.595123750089233
            ],
            [
              85.63741548731586,
              25.594913727306444
            ],
            [
              85.63773614634641,
              25.594010205875172
            ],
            [
              85.63783364858904,
              25.593400657951708
            ],
            [
              85.63845262644736,
              25.592406088285312
            ],
            [
              85.64017313737168,
              25.59037500222658
            ],
            [
              85.64067894996204,
              25.58829748668474
            ],
            [
              85.64010236000873,
              25.586990181876185
            ],
            [
              85.63947974038027,
              25.58681128235478
            ],
            [
              85.63828262207645,
              25.58600210067285
            ],
            [
              85.63699973712089,
              25.584809393668053
            ],
            [
              85.63618273823458,
              25.584563306261323
            ],
            [
              85.63518629817536,
              25.584227480609595
            ],
            [
              85.63436361924154,
              25.583755763888174
            ],
            [
              85.63418517070697,
              25.582424779362427
            ],
            [
              85.63348636226432,
              25.58174962778329
            ],
            [
              85.63300498115468,
              25.582179601825118
            ],
            [
              85.63263352688638,
              25.582767313243593
            ],
            [
              85.63169406786393,
              25.583108261306446
            ],
            [
              85.62948154516693,
              25.580631731151126
            ],
            [
              85.6274361180959,
              25.579034737991087
            ],
            [
              85.62479189381945,
              25.576897697228123
            ],
            [
              85.62224231604131,
              25.57638512760182
            ],
            [
              85.62094820843289,
              25.57632072493677
            ],
            [
              85.6194788242412,
              25.575873075989144
            ],
            [
              85.61793504157767,
              25.57551596784729
            ],
            [
              85.61696488083375,
              25.575608626749293
            ],
            [
              85.61697924489515,
              25.577052862108083
            ],
            [
              85.61589005827442,
              25.57725868088781
            ],
            [
              85.61504275023043,
              25.576854618344843
            ],
            [
              85.61372491003053,
              25.577151302822315
            ],
            [
              85.6137798743495,
              25.578866219139783
            ],
            [
              85.6141358757983,
              25.58138375480823
            ],
            [
              85.60758211692998,
              25.58155793784778
            ],
            [
              85.60546434403759,
              25.582339320752876
            ],
            [
              85.60505935835467,
              25.583382951647767
            ],
            [
              85.60457701155612,
              25.585221047949975
            ],
            [
              85.60425741163928,
              25.586530703093512
            ],
            [
              85.603552726418,
              25.587227435363662
            ],
            [
              85.60349953357678,
              25.58946622476723
            ],
            [
              85.60351865870919,
              25.59087886638124
            ],
            [
              85.60166642961138,
              25.590616994305577
            ],
            [
              85.6004173383785,
              25.59067420205468
            ],
            [
              85.59744676604075,
              25.590947539022135
            ],
            [
              85.59557233597903,
              25.59160644712316
            ],
            [
              85.5916376269997,
              25.592382904942887
            ],
            [
              85.58539396297421,
              25.593313606274876
            ],
            [
              85.58028935913573,
              25.594033760770397
            ],
            [
              85.57603171120165,
              25.595072384125373
            ],
            [
              85.5750548589072,
              25.594573571199522
            ],
            [
              85.57414187862607,
              25.59378124822768
            ],
            [
              85.57319298369985,
              25.59260082413346
            ],
            [
              85.57097689019959,
              25.590245208085317
            ],
            [
              85.56921308676678,
              25.587649358076767
            ],
            [
              85.56786989071969,
              25.584082253684237
            ],
            [
              85.56698531606612,
              25.58080749610218
            ],
            [
              85.5661346887472,
              25.579040067149382
            ],
            [
              85.56508823678115,
              25.57662317836927
            ],
            [
              85.56459576596934,
              25.574791785721924
            ],
            [
              85.56498295872142,
              25.574407308796836
            ],
            [
              85.56530982870386,
              25.573815379197153
            ],
            [
              85.56495013517927,
              25.573288026029292
            ],
            [
              85.56455614487543,
              25.57296396284877
            ],
            [
              85.56448746777363,
              25.571429498118043
            ],
            [
              85.56413512156976,
              25.56798200865328
            ],
            [
              85.56373448013954,
              25.565094358404117
            ],
            [
              85.56328585789342,
              25.56289280237803
            ],
            [
              85.56249873787178,
              25.562537875976513
            ],
            [
              85.56141292083167,
              25.56212494108256
            ],
            [
              85.56081881732358,
              25.561349939367172
            ],
            [
              85.5600971683165,
              25.561292804315155
            ],
            [
              85.55921264127366,
              25.56174149887431
            ],
            [
              85.55816422828535,
              25.562339453398618
            ],
            [
              85.55706088691066,
              25.56112673624463
            ],
            [
              85.55587110963936,
              25.56149680411421
            ],
            [
              85.55587092009483,
              25.561496863272723
            ],
            [
              85.55583701318446,
              25.561507408885113
            ],
            [
              85.55107029716535,
              25.56390252898857
            ],
            [
              85.54723385040337,
              25.565904952064624
            ],
            [
              85.54476559980284,
              25.56670202837416
            ],
            [
              85.54298346355174,
              25.56755555077686
            ],
            [
              85.54296367276771,
              25.56795712371324
            ],
            [
              85.54328124159368,
              25.568447826646075
            ],
            [
              85.54464750637729,
              25.571941929328037
            ],
            [
              85.54546489243745,
              25.57432005207108
            ],
            [
              85.54546816589834,
              25.574330645172576
            ],
            [
              85.5456804431899,
              25.575017394274358
            ],
            [
              85.54707999594466,
              25.57494101383532
            ],
            [
              85.54883215721138,
              25.575342117150548
            ],
            [
              85.55078357199467,
              25.576557744334817
            ],
            [
              85.5508103220272,
              25.576570875872502
            ],
            [
              85.55223833790174,
              25.577271860965645
            ],
            [
              85.54868212328759,
              25.577877652757696
            ],
            [
              85.54599846656339,
              25.578356604107885
            ],
            [
              85.5433790896877,
              25.57868796784742
            ],
            [
              85.54308716686477,
              25.578724895281027
            ],
            [
              85.54072068640276,
              25.578904450247354
            ],
            [
              85.53792640843956,
              25.579061634964365
            ],
            [
              85.53687524301321,
              25.57913689622049
            ],
            [
              85.5368609966311,
              25.57972095368982
            ],
            [
              85.53681568740481,
              25.581578515888054
            ],
            [
              85.53723606931338,
              25.58507675723697
            ],
            [
              85.53708909684805,
              25.585291972225313
            ],
            [
              85.53519192862987,
              25.585345212397502
            ],
            [
              85.53513257783733,
              25.588175055909307
            ],
            [
              85.53420073203692,
              25.588256003966304
            ],
            [
              85.53402759613898,
              25.589391861228986
            ],
            [
              85.533950650045,
              25.589986970790264
            ],
            [
              85.53161959284962,
              25.589692729286476
            ],
            [
              85.5296936066771,
              25.59006160375431
            ],
            [
              85.5293777177007,
              25.590248025947034
            ],
            [
              85.5298117387302,
              25.594242983031016
            ],
            [
              85.53042288687251,
              25.596781617220287
            ],
            [
              85.53008995056697,
              25.597139409670778
            ],
            [
              85.52921245463789,
              25.597247955857917
            ],
            [
              85.52922744123175,
              25.59741003731459
            ],
            [
              85.52949823657752,
              25.600338571203288
            ],
            [
              85.5300048127359,
              25.60252948383887
            ],
            [
              85.53003742337737,
              25.60267051791421
            ],
            [
              85.53022639837043,
              25.60348780537207
            ],
            [
              85.5307790886456,
              25.604703177392544
            ],
            [
              85.53157889916723,
              25.6068825619571
            ],
            [
              85.5324216644308,
              25.60921586021929
            ],
            [
              85.53300359127525,
              25.611302764624888
            ],
            [
              85.53302998826987,
              25.61281078608141
            ],
            [
              85.5334545419546,
              25.61433183084975
            ],
            [
              85.53403811720759,
              25.615470759117226
            ],
            [
              85.53438486421231,
              25.616024973769683
            ],
            [
              85.53339032229327,
              25.616737273640787
            ],
            [
              85.5333970830141,
              25.616760650715303
            ],
            [
              85.53356708558833,
              25.617348470043837
            ],
            [
              85.53441119832486,
              25.619171661155654
            ],
            [
              85.53502381790759,
              25.62078938710128
            ],
            [
              85.53637437025854,
              25.623552090924193
            ],
            [
              85.53690833066007,
              25.623867987841187
            ],
            [
              85.53798107990774,
              25.62450262538218
            ],
            [
              85.538821373906,
              25.625012111012513
            ],
            [
              85.53929236420272,
              25.625590128958798
            ],
            [
              85.54098411915649,
              25.625692803860524
            ],
            [
              85.54451049622847,
              25.625615121783966
            ],
            [
              85.54499798318709,
              25.62565609098811
            ],
            [
              85.54473180428353,
              25.62419985321214
            ],
            [
              85.54505312177923,
              25.623571058807652
            ],
            [
              85.54578428214852,
              25.6232262256503
            ],
            [
              85.54642742019641,
              25.623571194882626
            ],
            [
              85.54782419805527,
              25.62335937210047
            ],
            [
              85.54916435240683,
              25.623300457179674
            ],
            [
              85.54936851791135,
              25.623435002367223
            ],
            [
              85.54969293369643,
              25.623648789191755
            ],
            [
              85.55024152855223,
              25.624814396270274
            ],
            [
              85.55073690900724,
              25.62832688473722
            ],
            [
              85.55093834902317,
              25.632265309082584
            ],
            [
              85.55112879366003,
              25.63505248968247
            ],
            [
              85.55142377794147,
              25.63619300619739
            ],
            [
              85.55176894121634,
              25.637302419021147
            ],
            [
              85.55270094242529,
              25.638891643977647
            ],
            [
              85.55319898997838,
              25.639713657856188
            ],
            [
              85.55382169494682,
              25.640523361944638
            ],
            [
              85.55483346655298,
              25.642303447686928
            ],
            [
              85.55484092975637,
              25.642316579292682
            ],
            [
              85.55516118813831,
              25.64343025325041
            ],
            [
              85.55548498408584,
              25.64425053604079
            ],
            [
              85.55551408231455,
              25.64472933406692
            ],
            [
              85.55635935477608,
              25.64525683213342
            ],
            [
              85.55709439137584,
              25.645426609805483
            ],
            [
              85.55737854377155,
              25.64581764383873
            ],
            [
              85.55766962038147,
              25.646461542378148
            ],
            [
              85.55691491337195,
              25.646684311727924
            ],
            [
              85.5553889784365,
              25.64726058894638
            ],
            [
              85.55500605807188,
              25.647626968066874
            ],
            [
              85.55479326424907,
              25.64792731701243
            ],
            [
              85.55475974271594,
              25.648121172019174
            ],
            [
              85.55467013666464,
              25.64863934806034
            ],
            [
              85.55484291682978,
              25.64959347263987
            ],
            [
              85.55531973988765,
              25.650528217049363
            ],
            [
              85.55564880625093,
              25.65132597960441
            ],
            [
              85.55562759523048,
              25.652260218097425
            ],
            [
              85.55546598561591,
              25.652859014046975
            ],
            [
              85.55546596315803,
              25.653274324074996
            ],
            [
              85.55565624789476,
              25.65401654197772
            ],
            [
              85.55574039937562,
              25.654473314201407
            ],
            [
              85.55582974581381,
              25.654912078908218
            ],
            [
              85.55578003394429,
              25.65531786878969
            ],
            [
              85.55570737640745,
              25.655560918878987
            ],
            [
              85.55558415719489,
              25.655866669135925
            ],
            [
              85.55574850128119,
              25.65586829430635
            ],
            [
              85.55702996420364,
              25.655750054395277
            ],
            [
              85.55729601105482,
              25.655991939183167
            ],
            [
              85.55743915400207,
              25.65692780192145
            ],
            [
              85.55761196291331,
              25.657882014875334
            ],
            [
              85.55820990043102,
              25.659932874239075
            ],
            [
              85.55856698973962,
              25.660888906067452
            ],
            [
              85.55881718761424,
              25.661207373004018
            ],
            [
              85.56150819255744,
              25.66151380433012
            ],
            [
              85.56167378799691,
              25.66182691822052
            ],
            [
              85.56177561113604,
              25.662888769626427
            ],
            [
              85.56187186292381,
              25.66354085196301
            ],
            [
              85.56191841541846,
              25.663856225253184
            ],
            [
              85.56202549010875,
              25.66572617711783
            ],
            [
              85.56221323261325,
              25.666269736280093
            ],
            [
              85.56265466204891,
              25.666427567996834
            ],
            [
              85.56358662193536,
              25.666387088069094
            ],
            [
              85.56393569916995,
              25.666769720201252
            ],
            [
              85.5640429544216,
              25.66696537283498
            ],
            [
              85.56405131504195,
              25.66696504491631
            ],
            [
              85.56466906939485,
              25.666940799983635
            ],
            [
              85.56466916281963,
              25.666932949365854
            ],
            [
              85.56447791329227,
              25.66615714530127
            ],
            [
              85.5643957830208,
              25.665245632655797
            ],
            [
              85.56491228286815,
              25.66471649670977
            ],
            [
              85.56467088489002,
              25.6637691998141
            ],
            [
              85.56431007026796,
              25.66295308678049
            ],
            [
              85.56462758070344,
              25.66246045518337
            ],
            [
              85.565370110151,
              25.662679925880443
            ],
            [
              85.56643157027051,
              25.66291236600103
            ],
            [
              85.56707328808191,
              25.66264022928466
            ],
            [
              85.56771448936203,
              25.662169367024166
            ],
            [
              85.56760835790278,
              25.661605398191625
            ],
            [
              85.56736559987537,
              25.660220388888064
            ],
            [
              85.56806578902861,
              25.659437996129576
            ],
            [
              85.56806931042453,
              25.65944569501215
            ],
            [
              85.56871199482319,
              25.65955260562181
            ],
            [
              85.57060007837893,
              25.65983736893523
            ],
            [
              85.57549305171288,
              25.658991625273867
            ],
            [
              85.5782996132393,
              25.658204526371087
            ],
            [
              85.58182721830828,
              25.657086276792096
            ],
            [
              85.5834874962945,
              25.65602630821738
            ],
            [
              85.583464609916,
              25.654938678631634
            ],
            [
              85.58448647139947,
              25.65351465913009
            ],
            [
              85.58835378157967,
              25.653505772746083
            ],
            [
              85.58835560336308,
              25.653505768697272
            ],
            [
              85.58869846874745,
              25.654998891366102
            ],
            [
              85.58910799361749,
              25.657377936888565
            ],
            [
              85.58910851643697,
              25.657380966938728
            ],
            [
              85.58967367712495,
              25.658237181368516
            ],
            [
              85.59031637410003,
              25.658344003990692
            ],
            [
              85.59119130983056,
              25.657800299387052
            ],
            [
              85.5927272699646,
              25.658586572600896
            ],
            [
              85.59332797429342,
              25.65965027069136
            ],
            [
              85.59450442236253,
              25.66007630614177
            ],
            [
              85.59718835576783,
              25.659979650336172
            ],
            [
              85.59790187232663,
              25.660447384387133
            ],
            [
              85.59831208171293,
              25.66110985981668
            ],
            [
              85.5985059363546,
              25.662684579254012
            ],
            [
              85.5993790889293,
              25.663242147154733
            ],
            [
              85.60153271538134,
              25.664031309922205
            ],
            [
              85.60175149288229,
              25.665614886789346
            ],
            [
              85.60259283701109,
              25.667197106662687
            ],
            [
              85.60481849128091,
              25.66871263783494
            ],
            [
              85.60783643088524,
              25.668669236605112
            ],
            [
              85.61111329459885,
              25.66859791731608
            ],
            [
              85.61450104724949,
              25.668982159248056
            ],
            [
              85.61915391887429,
              25.667783455053723
            ],
            [
              85.62173870701831,
              25.667808489243306
            ],
            [
              85.62384971739327,
              25.667604555055075
            ],
            [
              85.62529780791947,
              25.667208170859574
            ],
            [
              85.62525124733997,
              25.668246374982317
            ],
            [
              85.62520468406555,
              25.66928457168355
            ],
            [
              85.62488023863608,
              25.67067099622851
            ],
            [
              85.62478610058417,
              25.671823030308257
            ],
            [
              85.62477474498067,
              25.671962006213548
            ],
            [
              85.62494496943881,
              25.673848179782052
            ],
            [
              85.62624514516696,
              25.673917058948152
            ],
            [
              85.62862630589731,
              25.67406880185736
            ],
            [
              85.62956899076994,
              25.67449060974535
            ],
            [
              85.6294768119437,
              25.67528070279341
            ],
            [
              85.62927800219492,
              25.676987210899867
            ],
            [
              85.62891721631892,
              25.679456955821827
            ],
            [
              85.62847676425027,
              25.681904258354006
            ],
            [
              85.63476775062662,
              25.681987109344952
            ],
            [
              85.63866627187305,
              25.6815255041035
            ],
            [
              85.6418970870469,
              25.680984252998805
            ],
            [
              85.64254908158516,
              25.68234106091428
            ],
            [
              85.6461787514401,
              25.681938575392206
            ],
            [
              85.64943868280893,
              25.681171491012154
            ]
          ]
        ]
      }
    }
  ]
}