{
  "type": "FeatureCollection",
  "features": [
    {
      "type": "Feature",
      "properties": {
        "object_id": "10-222-01316",
        "stname": "BIHAR",
        "dtname": "Begusarai",
        "sdtname": "Bakhri",
        "st_area_sh": 0.0,
        "st_length_": 0.0,
        "remarks": "",
        "dist_lgd": 191,
        "state_lgd": 10,
        "subdt_lgd": 1316,
        "ac_no": null,
        "st_length(shape)": 74902.13049058078,
        "st_area(shape)": 94921186.04856166
      },
      "geometry": {
        "type": "Polygon",
        "coordinates": [
          [
            [
              86.29393132366404,
              25.629895438324734
            ],
            [
              86.29229481510023,
              25.627809291153184
            ],
            [
              86.29132014840685,
              25.62619300317012
            ],
            [
              86.29029115070678,
              25.624980037385473
            ],
            [
              86.29027051640472,
              25.624955711835142
            ],
            [
              86.29026717916344,
              25.624821942683784
            ],
            [
              86.29025115142211,
              25.624179398330817
            ],
            [
              86.2900527099826,
              25.623195363263005
            ],
            [
              86.28989878365866,
              25.622626586901905
            ],
            [
              86.28927200393211,
              25.62193567081807
            ],
            [
              86.28897356023853,
              25.6215789383301
            ],
            [
              86.28865514519954,
              25.62130343339713
            ],
            [
              86.28836160810405,
              25.6210505086564
            ],
            [
              86.28808308814514,
              25.62068475914971
            ],
            [
              86.28802334478888,
              25.62063054733272
            ],
            [
              86.28797382156557,
              25.62038225513072
            ],
            [
              86.28761126600848,
              25.619091289686754
            ],
            [
              86.28778605211163,
              25.618387269142808
            ],
            [
              86.28819962658696,
              25.61790907262562
            ],
            [
              86.28844866204162,
              25.617683544964443
            ],
            [
              86.28879255779361,
              25.617097011156606
            ],
            [
              86.28911159536507,
              25.616587200975637
            ],
            [
              86.28906205058223,
              25.616140341004705
            ],
            [
              86.28862374638543,
              25.615530695289895
            ],
            [
              86.28859461222413,
              25.615490172177353
            ],
            [
              86.28696693769284,
              25.612231657299283
            ],
            [
              86.28675257091996,
              25.611047332657364
            ],
            [
              86.28640865899827,
              25.609558249338622
            ],
            [
              86.2860415076602,
              25.607942180254756
            ],
            [
              86.28545605492829,
              25.60644586306861
            ],
            [
              86.28541608079645,
              25.606335142046188
            ],
            [
              86.28430019444883,
              25.60675408915567
            ],
            [
              86.28347352070692,
              25.607186906629146
            ],
            [
              86.28311016025934,
              25.607213751098534
            ],
            [
              86.28280164016324,
              25.60709620260746
            ],
            [
              86.28226421495964,
              25.60687016606163
            ],
            [
              86.28237903941591,
              25.606436932677234
            ],
            [
              86.28249389171994,
              25.605931551151084
            ],
            [
              86.28129417099673,
              25.60607970918462
            ],
            [
              86.28074705566621,
              25.605510662607564
            ],
            [
              86.28155867633888,
              25.605213325037443
            ],
            [
              86.28058349401252,
              25.604585376112418
            ],
            [
              86.28054002723087,
              25.604329326266292
            ],
            [
              86.28049537287643,
              25.604066284688383
            ],
            [
              86.28038042804592,
              25.603389179748458
            ],
            [
              86.28021686279898,
              25.60243219735246
            ],
            [
              86.28018827930497,
              25.602263906693246
            ],
            [
              86.27970166101726,
              25.599398863185783
            ],
            [
              86.27917624179746,
              25.596645312352333
            ],
            [
              86.280067534951,
              25.596153960231707
            ],
            [
              86.27980387402522,
              25.596049992057498
            ],
            [
              86.27945553340918,
              25.595869212744788
            ],
            [
              86.27911244883586,
              25.59552601072214
            ],
            [
              86.27947076075155,
              25.595571301101955
            ],
            [
              86.27974459779288,
              25.595422571847358
            ],
            [
              86.2807804217908,
              25.5947056380207
            ],
            [
              86.28045297329331,
              25.593346830746434
            ],
            [
              86.28202135721925,
              25.592688943335364
            ],
            [
              86.2819621223094,
              25.59200283116635
            ],
            [
              86.28186364808963,
              25.590567493093097
            ],
            [
              86.28242641925895,
              25.590121016314633
            ],
            [
              86.28336259943059,
              25.5895393843009
            ],
            [
              86.2838756524422,
              25.588912329373617
            ],
            [
              86.28413008856832,
              25.58810458381991
            ],
            [
              86.28411080084084,
              25.58729667239035
            ],
            [
              86.28419624769235,
              25.58617295507384
            ],
            [
              86.28458989124648,
              25.585563824187865
            ],
            [
              86.28506794409797,
              25.58517597808555
            ],
            [
              86.28550117371174,
              25.584824211204992
            ],
            [
              86.28593439883392,
              25.5844724441006
            ],
            [
              86.28674599974364,
              25.583967386223932
            ],
            [
              86.28763222819563,
              25.583503049779086
            ],
            [
              86.28870239299025,
              25.583250993864223
            ],
            [
              86.2900862288208,
              25.58290870930263
            ],
            [
              86.29101221221569,
              25.582385760196573
            ],
            [
              86.29144058194375,
              25.581907533129584
            ],
            [
              86.29159512541027,
              25.58153299739106
            ],
            [
              86.29169503334121,
              25.58095086907769
            ],
            [
              86.29174125435755,
              25.58072004876883
            ],
            [
              86.29207458143023,
              25.57905542423136
            ],
            [
              86.2921394838112,
              25.578753053920266
            ],
            [
              86.29289622640319,
              25.578202905899687
            ],
            [
              86.2937128048779,
              25.577634621254386
            ],
            [
              86.2950321263997,
              25.576768780595255
            ],
            [
              86.29658047070825,
              25.57582628235119
            ],
            [
              86.29732732644221,
              25.57543168733765
            ],
            [
              86.29753623325479,
              25.57532131196523
            ],
            [
              86.29910871080345,
              25.574616345782
            ],
            [
              86.29953728265247,
              25.574424206049066
            ],
            [
              86.29858263132193,
              25.57316898320844
            ],
            [
              86.29833401358391,
              25.572898065745953
            ],
            [
              86.2981697916685,
              25.572974664652186
            ],
            [
              86.29734827156138,
              25.573511346671033
            ],
            [
              86.29655969896393,
              25.57398010725392
            ],
            [
              86.29639245242099,
              25.57407952529234
            ],
            [
              86.29542178323062,
              25.574512265708705
            ],
            [
              86.29482450687294,
              25.574751210720997
            ],
            [
              86.29333598497242,
              25.575526655647547
            ],
            [
              86.29140937896233,
              25.57660427434312
            ],
            [
              86.29030420143124,
              25.577199410223553
            ],
            [
              86.28894034143764,
              25.577677064596603
            ],
            [
              86.28677987161977,
              25.57860548270917
            ],
            [
              86.2867612836799,
              25.578168315956464
            ],
            [
              86.28675051018472,
              25.577914910225044
            ],
            [
              86.2868157251794,
              25.577125107936777
            ],
            [
              86.28695584170246,
              25.57607813836403
            ],
            [
              86.28690713504774,
              25.574669859723098
            ],
            [
              86.2865702955623,
              25.572489743238798
            ],
            [
              86.28662235383133,
              25.56936644723041
            ],
            [
              86.2865331789714,
              25.56887442234438
            ],
            [
              86.28638414936405,
              25.568529065992337
            ],
            [
              86.28623511885843,
              25.568183711075406
            ],
            [
              86.28575838203884,
              25.566901570117178
            ],
            [
              86.28471490439469,
              25.564896971659078
            ],
            [
              86.28451651595577,
              25.564088995164788
            ],
            [
              86.28432300806378,
              25.56328095163139
            ],
            [
              86.28417446983491,
              25.562310498342725
            ],
            [
              86.28410058609775,
              25.561308443258536
            ],
            [
              86.28418578591256,
              25.56047349765434
            ],
            [
              86.28440068987798,
              25.559187328294215
            ],
            [
              86.28422778035547,
              25.557544293782012
            ],
            [
              86.28409398437874,
              25.556858173861936
            ],
            [
              86.28372808529213,
              25.553838479216598
            ],
            [
              86.28348045659925,
              25.552375948368883
            ],
            [
              86.28305446920332,
              25.54990687516902
            ],
            [
              86.2829060342807,
              25.54875581970318
            ],
            [
              86.28275271342126,
              25.547573226140504
            ],
            [
              86.28256975534399,
              25.54616943236823
            ],
            [
              86.28268498134717,
              25.54512233972581
            ],
            [
              86.28277022338278,
              25.54417912399838
            ],
            [
              86.28313352723652,
              25.543139267268437
            ],
            [
              86.2831990593365,
              25.542951701041456
            ],
            [
              86.28411901144254,
              25.543480391366014
            ],
            [
              86.2854618284006,
              25.544122117735192
            ],
            [
              86.28655105544553,
              25.544542535654866
            ],
            [
              86.28826236672305,
              25.544782752152145
            ],
            [
              86.29071493812857,
              25.545023380713587
            ],
            [
              86.29184432256166,
              25.54498342538946
            ],
            [
              86.29159615398127,
              25.544157335928023
            ],
            [
              86.29131816223176,
              25.543173257009997
            ],
            [
              86.29133366086535,
              25.542365329366227
            ],
            [
              86.29147428403826,
              25.540438195644185
            ],
            [
              86.29186496405026,
              25.536674215013342
            ],
            [
              86.29841650587643,
              25.537093036315873
            ],
            [
              86.29841695233912,
              25.53645208937088
            ],
            [
              86.29798027858456,
              25.53462846314509
            ],
            [
              86.29770250961725,
              25.53346379482545
            ],
            [
              86.29750388042984,
              25.53289503532837
            ],
            [
              86.29707649076376,
              25.532249417224467
            ],
            [
              86.29629630214286,
              25.530935597082184
            ],
            [
              86.2955558585834,
              25.52972102527991
            ],
            [
              86.29467135759172,
              25.52824469618143
            ],
            [
              86.29380679830103,
              25.526867609142357
            ],
            [
              86.29337953439907,
              25.526122650011043
            ],
            [
              86.29313136941194,
              25.525283017044547
            ],
            [
              86.29290333656864,
              25.5240145539717
            ],
            [
              86.29278959727728,
              25.523129876277608
            ],
            [
              86.29331602171185,
              25.52305803888789
            ],
            [
              86.29331687331472,
              25.523057922154212
            ],
            [
              86.29352084118989,
              25.52311678833315
            ],
            [
              86.29363506197826,
              25.52334245688371
            ],
            [
              86.29373411291645,
              25.52398343334481
            ],
            [
              86.29406176083991,
              25.524999174337047
            ],
            [
              86.29432488906473,
              25.5257484870542
            ],
            [
              86.29452358742242,
              25.526181891629136
            ],
            [
              86.29480193310815,
              25.526525108362147
            ],
            [
              86.29561760428443,
              25.526629354142333
            ],
            [
              86.29668694442563,
              25.526855636214687
            ],
            [
              86.29774143002524,
              25.527018627621292
            ],
            [
              86.29973125587175,
              25.52700611888639
            ],
            [
              86.30098484227435,
              25.52690302127784
            ],
            [
              86.30181566623284,
              25.526677709614184
            ],
            [
              86.30240768834443,
              25.52652909664706
            ],
            [
              86.30313410830398,
              25.52630373240097
            ],
            [
              86.30387053998737,
              25.525929505968975
            ],
            [
              86.30418407717436,
              25.52566334631592
            ],
            [
              86.30476153579856,
              25.525018182159904
            ],
            [
              86.3052243927487,
              25.524467830378
            ],
            [
              86.30561757995868,
              25.524228772129764
            ],
            [
              86.30640862471977,
              25.523976426136134
            ],
            [
              86.30728913898824,
              25.52370598761404
            ],
            [
              86.30765060039731,
              25.523643802126756
            ],
            [
              86.30773580021213,
              25.523304275331796
            ],
            [
              86.30784729012201,
              25.522553684352502
            ],
            [
              86.30763251281905,
              25.520978010963166
            ],
            [
              86.30756535836167,
              25.519673845734015
            ],
            [
              86.30785072707629,
              25.5187100647883
            ],
            [
              86.30837646519801,
              25.51810301809426
            ],
            [
              86.30992449060464,
              25.518161063859882
            ],
            [
              86.3117522495941,
              25.51822049667626
            ],
            [
              86.31246310534306,
              25.51786823082929
            ],
            [
              86.31324820505358,
              25.517584034148445
            ],
            [
              86.31333894477876,
              25.517456652386453
            ],
            [
              86.3139815105998,
              25.516554609918714
            ],
            [
              86.31419286172827,
              25.515471903231823
            ],
            [
              86.31412300873177,
              25.514735447392997
            ],
            [
              86.31401529803426,
              25.51400684931729
            ],
            [
              86.3137212983064,
              25.51322654012015
            ],
            [
              86.31329992196282,
              25.511870058845545
            ],
            [
              86.3127817548423,
              25.511156424064996
            ],
            [
              86.31218683835887,
              25.510798030234724
            ],
            [
              86.31133024532815,
              25.510556969808963
            ],
            [
              86.31047181434431,
              25.510620658692442
            ],
            [
              86.31022863860028,
              25.510738079738342
            ],
            [
              86.309629765038,
              25.511090865108685
            ],
            [
              86.30911889313595,
              25.512358354079748
            ],
            [
              86.30866635872673,
              25.513202787735292
            ],
            [
              86.30788767029235,
              25.513587044287032
            ],
            [
              86.30725495809168,
              25.51333004024323
            ],
            [
              86.30688598407185,
              25.512617178650867
            ],
            [
              86.3067973140651,
              25.5118209418104
            ],
            [
              86.30629701443563,
              25.51122593286395
            ],
            [
              86.30552359462038,
              25.51097177835339
            ],
            [
              86.30487219297022,
              25.510714674665966
            ],
            [
              86.3035344326289,
              25.50981092033187
            ],
            [
              86.30210237792882,
              25.509076017204872
            ],
            [
              86.30107736425703,
              25.508935682858517
            ],
            [
              86.300860814578,
              25.50898252936506
            ],
            [
              86.30038321178247,
              25.50908584910767
            ],
            [
              86.30031158820657,
              25.509101343250894
            ],
            [
              86.29952942329206,
              25.509416188250995
            ],
            [
              86.29946515332504,
              25.50947199002888
            ],
            [
              86.2993139237436,
              25.509603296144103
            ],
            [
              86.29896695395668,
              25.509904552649008
            ],
            [
              86.2984024149029,
              25.510765394973767
            ],
            [
              86.29815263294824,
              25.51201720714913
            ],
            [
              86.29800031910025,
              25.512541304061738
            ],
            [
              86.29756907566156,
              25.51292870264494
            ],
            [
              86.2962068146692,
              25.513023756962593
            ],
            [
              86.29614188444046,
              25.513038160181754
            ],
            [
              86.29545971369515,
              25.513189480625396
            ],
            [
              86.29448753084355,
              25.513574269859184
            ],
            [
              86.29388968764893,
              25.51374070537912
            ],
            [
              86.29319552888617,
              25.514414702221156
            ],
            [
              86.29263458219522,
              25.515198665643158
            ],
            [
              86.29221756986729,
              25.515781462789082
            ],
            [
              86.29187894093776,
              25.516270880331447
            ],
            [
              86.29084247464442,
              25.517343421878245
            ],
            [
              86.2901487767174,
              25.517932703819884
            ],
            [
              86.28927117927867,
              25.518080788328312
            ],
            [
              86.28880795761253,
              25.517553625259104
            ],
            [
              86.28916820360102,
              25.516573358035515
            ],
            [
              86.28952684609675,
              25.515847006212766
            ],
            [
              86.2900748561493,
              25.51464740461653
            ],
            [
              86.29035836085971,
              25.514022363903955
            ],
            [
              86.29056812556337,
              25.51324444966493
            ],
            [
              86.2902344759955,
              25.512887232746152
            ],
            [
              86.28988112457681,
              25.51269932168249
            ],
            [
              86.2890214718842,
              25.512982942157198
            ],
            [
              86.28708016674116,
              25.51321055116119
            ],
            [
              86.2856990878402,
              25.513339368343
            ],
            [
              86.2831435182991,
              25.513343777827753
            ],
            [
              86.28066389323045,
              25.513128457122416
            ],
            [
              86.27811898489517,
              25.513065106017223
            ],
            [
              86.27784743496458,
              25.513155151615244
            ],
            [
              86.27746479667098,
              25.513282035297685
            ],
            [
              86.2760215911833,
              25.514443215658165
            ],
            [
              86.27560796460565,
              25.514983063707366
            ],
            [
              86.27481150480004,
              25.51714641698012
            ],
            [
              86.2745644159946,
              25.517907143727463
            ],
            [
              86.27403321701429,
              25.519377669116
            ],
            [
              86.27378153063125,
              25.52091721029927
            ],
            [
              86.27363544031152,
              25.522024918804547
            ],
            [
              86.27321861483316,
              25.52308956507987
            ],
            [
              86.27280331199924,
              25.523900293646655
            ],
            [
              86.2723315644227,
              25.524795352375072
            ],
            [
              86.27154101104006,
              25.52595972466962
            ],
            [
              86.27129541613297,
              25.52646653000675
            ],
            [
              86.27047571331768,
              25.52627616292163
            ],
            [
              86.2688779428039,
              25.525860178349298
            ],
            [
              86.2688180108014,
              25.525844575312725
            ],
            [
              86.2683502310835,
              25.526079368049036
            ],
            [
              86.26755850000953,
              25.527429909007815
            ],
            [
              86.26653559737865,
              25.529035829896294
            ],
            [
              86.2661362620989,
              25.530269854162352
            ],
            [
              86.26592466034046,
              25.53131861906276
            ],
            [
              86.26610384639186,
              25.532538562657155
            ],
            [
              86.26637804186096,
              25.533471287828053
            ],
            [
              86.26731766797005,
              25.535406237142094
            ],
            [
              86.26763074432131,
              25.536085050243013
            ],
            [
              86.26817694157361,
              25.537531490984755
            ],
            [
              86.26839173504627,
              25.539039574692595
            ],
            [
              86.2684197085842,
              25.540580497597265
            ],
            [
              86.26839626974181,
              25.541359306128733
            ],
            [
              86.26832634038853,
              25.543697446400706
            ],
            [
              86.26794424467738,
              25.545168592596767
            ],
            [
              86.26732080937859,
              25.546435359292047
            ],
            [
              86.266833305352,
              25.546822381785194
            ],
            [
              86.26632945288557,
              25.54683683362875
            ],
            [
              86.26543517193538,
              25.54662917706048
            ],
            [
              86.26481986010174,
              25.546558365238234
            ],
            [
              86.26368115474928,
              25.54665423096028
            ],
            [
              86.26302717403593,
              25.546803276917068
            ],
            [
              86.26231434917987,
              25.547426186282873
            ],
            [
              86.26216131308638,
              25.54803502569304
            ],
            [
              86.2620778488167,
              25.549473798662174
            ],
            [
              86.26229714374723,
              25.55023685067927
            ],
            [
              86.2625679274149,
              25.55172824611522
            ],
            [
              86.26273149805172,
              25.55244026827678
            ],
            [
              86.26296541575844,
              25.554003806110295
            ],
            [
              86.26305412529108,
              25.554766198765574
            ],
            [
              86.2628447262017,
              25.555442480680195
            ],
            [
              86.26205853773305,
              25.555844868184508
            ],
            [
              86.26140325985243,
              25.55619716188933
            ],
            [
              86.26050611327646,
              25.55644655578117
            ],
            [
              86.26032878224615,
              25.55643866224372
            ],
            [
              86.25964795987207,
              25.556408356404006
            ],
            [
              86.25880914629744,
              25.55626866336214
            ],
            [
              86.25806402431196,
              25.55606171605111
            ],
            [
              86.25721345897679,
              25.555681487241902
            ],
            [
              86.25643515142812,
              25.55522911088183
            ],
            [
              86.25640807530714,
              25.55527455914508
            ],
            [
              86.25639894483056,
              25.557165547883457
            ],
            [
              86.25648561608583,
              25.5592003401758
            ],
            [
              86.25623722472325,
              25.559847343183804
            ],
            [
              86.25559778863266,
              25.560140622358144
            ],
            [
              86.25475421758026,
              25.560417158805443
            ],
            [
              86.25441417829575,
              25.560816647026787
            ],
            [
              86.25403245987702,
              25.56217767534185
            ],
            [
              86.25220033327865,
              25.562068346928097
            ],
            [
              86.25123964257446,
              25.56261653583051
            ],
            [
              86.25060677766014,
              25.5631172518153
            ],
            [
              86.25000004204253,
              25.56309698665003
            ],
            [
              86.24959637328983,
              25.563083501929842
            ],
            [
              86.2492307598675,
              25.562792669209607
            ],
            [
              86.24812453579908,
              25.562010447213282
            ],
            [
              86.24764493604869,
              25.562443171275245
            ],
            [
              86.24727943132251,
              25.562706689287168
            ],
            [
              86.2459082698223,
              25.563573506026636
            ],
            [
              86.24523093740312,
              25.56470634306545
            ],
            [
              86.24443772321062,
              25.564472587070323
            ],
            [
              86.2441642625634,
              25.561477811798625
            ],
            [
              86.24403624005897,
              25.5586264116087
            ],
            [
              86.24231276918583,
              25.558403440862413
            ],
            [
              86.23956218078645,
              25.55853944972001
            ],
            [
              86.23683296779924,
              25.558241880353734
            ],
            [
              86.23498575309735,
              25.558096386888312
            ],
            [
              86.23339199625627,
              25.557913059035382
            ],
            [
              86.23188777899108,
              25.55772906960236
            ],
            [
              86.23038236427166,
              25.5573871326868
            ],
            [
              86.22904444043697,
              25.556849988599687
            ],
            [
              86.22853078555414,
              25.55731828762408
            ],
            [
              86.22763342517916,
              25.55771695469169
            ],
            [
              86.22649527318892,
              25.557877942944753
            ],
            [
              86.22437131359914,
              25.557973348211448
            ],
            [
              86.22281445056676,
              25.55804239874292
            ],
            [
              86.2213856432764,
              25.558561817860994
            ],
            [
              86.21995584873761,
              25.5595867063497
            ],
            [
              86.21946972182835,
              25.561006997362394
            ],
            [
              86.21961054622386,
              25.563045965939022
            ],
            [
              86.2198187164179,
              25.5654229720063
            ],
            [
              86.21832011092832,
              25.565320054108746
            ],
            [
              86.21738507521034,
              25.56538044328376
            ],
            [
              86.21557522144113,
              25.56556382372768
            ],
            [
              86.21377038206782,
              25.566370056107633
            ],
            [
              86.21215136819417,
              25.566773282901703
            ],
            [
              86.21105341940617,
              25.565756040886388
            ],
            [
              86.21054190071706,
              25.564626624620637
            ],
            [
              86.20766983763339,
              25.563891823132906
            ],
            [
              86.20424323105014,
              25.56413980635535
            ],
            [
              86.20388035569279,
              25.566069208029273
            ],
            [
              86.20351918982945,
              25.5675970058245
            ],
            [
              86.20240096606545,
              25.568398598264146
            ],
            [
              86.201286282562,
              25.569028613870117
            ],
            [
              86.20073331021581,
              25.570219183259365
            ],
            [
              86.20124797300838,
              25.572368490700033
            ],
            [
              86.20159816056066,
              25.57322821373193
            ],
            [
              86.20274153176271,
              25.575599176277088
            ],
            [
              86.20437637484997,
              25.577172576844333
            ],
            [
              86.20607097566655,
              25.578750112626235
            ],
            [
              86.20590941995091,
              25.58158080971909
            ],
            [
              86.20491787660828,
              25.586461335988183
            ],
            [
              86.20486222867136,
              25.58697166272064
            ],
            [
              86.20354878841971,
              25.58703446190519
            ],
            [
              86.20242675759557,
              25.587384737973746
            ],
            [
              86.2024348514163,
              25.58840457927913
            ],
            [
              86.20294244895916,
              25.589024127894476
            ],
            [
              86.20382187985936,
              25.59009242932538
            ],
            [
              86.20386116588169,
              25.591283646393315
            ],
            [
              86.20355662622059,
              25.591795623969965
            ],
            [
              86.20298891341889,
              25.59237697522408
            ],
            [
              86.20301932857778,
              25.593703582677676
            ],
            [
              86.20375778865711,
              25.594556257125728
            ],
            [
              86.20441098783617,
              25.59533274764885
            ],
            [
              86.20441620075975,
              25.595996127967037
            ],
            [
              86.20394893308158,
              25.596698650361592
            ],
            [
              86.20339327297607,
              25.59755982214905
            ],
            [
              86.20309496043652,
              25.59760231918486
            ],
            [
              86.20147294888476,
              25.59893974801655
            ],
            [
              86.20043167211307,
              25.600702101660843
            ],
            [
              86.20027539489806,
              25.60234132770074
            ],
            [
              86.200621948765,
              25.602727169832583
            ],
            [
              86.20217295118844,
              25.603109680361797
            ],
            [
              86.20230947265377,
              25.604002425109783
            ],
            [
              86.20185175855863,
              25.605918882966833
            ],
            [
              86.20552954128188,
              25.606440982298743
            ],
            [
              86.20489178324424,
              25.607614012293407
            ],
            [
              86.20460017303502,
              25.60851400109647
            ],
            [
              86.20418910485932,
              25.610660354944834
            ],
            [
              86.20374852073833,
              25.612224716005827
            ],
            [
              86.20307737321987,
              25.61421481669054
            ],
            [
              86.20219557525888,
              25.61663952890721
            ],
            [
              86.20149756092694,
              25.618399671133847
            ],
            [
              86.2011604303873,
              25.619823464772868
            ],
            [
              86.2012824629254,
              25.621411214887907
            ],
            [
              86.20224754189978,
              25.623196593611564
            ],
            [
              86.20399708367913,
              25.62534690120363
            ],
            [
              86.20546258894544,
              25.625572061257746
            ],
            [
              86.20648570178209,
              25.62462663969674
            ],
            [
              86.2076558140335,
              25.624650621079887
            ],
            [
              86.20948550170588,
              25.624972551729034
            ],
            [
              86.21179192260459,
              25.625751708691922
            ],
            [
              86.21327127001113,
              25.62584120792078
            ],
            [
              86.21333404967305,
              25.624978827304275
            ],
            [
              86.21307771540673,
              25.624682622708654
            ],
            [
              86.2117877193874,
              25.623364324266873
            ],
            [
              86.21086342123199,
              25.62171415612224
            ],
            [
              86.21085392334449,
              25.620522782147468
            ],
            [
              86.21386888593197,
              25.620900055854158
            ],
            [
              86.21562091963794,
              25.62085693935911
            ],
            [
              86.21671106476107,
              25.62021789066923
            ],
            [
              86.21801590094896,
              25.61904943209031
            ],
            [
              86.21888969402244,
              25.618745752666705
            ],
            [
              86.22249100316554,
              25.618988106910397
            ],
            [
              86.22479110890781,
              25.61900886805099
            ],
            [
              86.22606667079717,
              25.618535584267832
            ],
            [
              86.22745446729984,
              25.61839087123648
            ],
            [
              86.22960589377776,
              25.617880038674606
            ],
            [
              86.23094586487296,
              25.61674736077612
            ],
            [
              86.23117226996901,
              25.61522043274631
            ],
            [
              86.23093761923698,
              25.613304027619204
            ],
            [
              86.23044739062011,
              25.611186198700175
            ],
            [
              86.23113663200505,
              25.610847569665722
            ],
            [
              86.2330356911769,
              25.610537024404955
            ],
            [
              86.23402367988594,
              25.610828240097337
            ],
            [
              86.23450250708522,
              25.612151760710915
            ],
            [
              86.23484269010017,
              25.61357563203289
            ],
            [
              86.23507930904093,
              25.61572665792468
            ],
            [
              86.23501946237839,
              25.616918523610146
            ],
            [
              86.23544465207037,
              25.617777637321417
            ],
            [
              86.23617642778567,
              25.617772664673197
            ],
            [
              86.23687304703398,
              25.617736402162294
            ],
            [
              86.23804012208142,
              25.61799028081799
            ],
            [
              86.23907405782062,
              25.619012291115666
            ],
            [
              86.24054624834926,
              25.62065853491835
            ],
            [
              86.24213325704595,
              25.622935822606237
            ],
            [
              86.24374975114522,
              25.623949311048555
            ],
            [
              86.24484272685984,
              25.624275849051156
            ],
            [
              86.24579519977581,
              25.62506362367419
            ],
            [
              86.24583982897744,
              25.62564555102951
            ],
            [
              86.2464920462979,
              25.62684599474038
            ],
            [
              86.24711403171575,
              25.62859729112275
            ],
            [
              86.24721768921472,
              25.630298043600625
            ],
            [
              86.24764361193196,
              25.62946506728672
            ],
            [
              86.25042461279527,
              25.628570218195293
            ],
            [
              86.25179851775039,
              25.627947045106165
            ],
            [
              86.25226342555432,
              25.62936087781719
            ],
            [
              86.25248056722312,
              25.630920917710643
            ],
            [
              86.25295014357157,
              25.632894330654313
            ],
            [
              86.25391579477274,
              25.634056517198434
            ],
            [
              86.25440092365375,
              25.63551088462066
            ],
            [
              86.25512541403208,
              25.63710369527069
            ],
            [
              86.25607867117728,
              25.636521469019655
            ],
            [
              86.25650539429343,
              25.63626083725221
            ],
            [
              86.25777900414369,
              25.637313420390694
            ],
            [
              86.26051526441427,
              25.636410638996395
            ],
            [
              86.2611906142516,
              25.63618780835799
            ],
            [
              86.2619018598694,
              25.63702783798496
            ],
            [
              86.26502427803285,
              25.636353249855187
            ],
            [
              86.2656709572396,
              25.636940463354883
            ],
            [
              86.2663332581491,
              25.63689584222445
            ],
            [
              86.26644862339116,
              25.635948107374205
            ],
            [
              86.2671558283868,
              25.635677780805004
            ],
            [
              86.267888005649,
              25.635362426975256
            ],
            [
              86.2687845395739,
              25.635047171119428
            ],
            [
              86.27239967828082,
              25.634449476347687
            ],
            [
              86.27276832711048,
              25.634237574050857
            ],
            [
              86.27293275563841,
              25.634012014855305
            ],
            [
              86.27325237262325,
              25.632865818686035
            ],
            [
              86.27331250495003,
              25.63245968438063
            ],
            [
              86.27372200466726,
              25.630993104269866
            ],
            [
              86.27382186678412,
              25.63065471036318
            ],
            [
              86.27401142298719,
              25.63022601131694
            ],
            [
              86.27423579429738,
              25.62983802904365
            ],
            [
              86.27447521508353,
              25.62933273271404
            ],
            [
              86.2769526841955,
              25.631591103052692
            ],
            [
              86.27911177959099,
              25.633668709350754
            ],
            [
              86.28013191990237,
              25.634328314972134
            ],
            [
              86.28163995321083,
              25.635073929960154
            ],
            [
              86.28568122304415,
              25.637229401292423
            ],
            [
              86.28610787070181,
              25.63930582831398
            ],
            [
              86.28720329432555,
              25.63922972865843
            ],
            [
              86.29308885843776,
              25.638741196642844
            ],
            [
              86.29362684419004,
              25.638380429368357
            ],
            [
              86.29451842121124,
              25.637884451953333
            ],
            [
              86.29483227460518,
              25.637618334639164
            ],
            [
              86.29485919082605,
              25.634594383736825
            ],
            [
              86.29494103004338,
              25.631335764673246
            ],
            [
              86.29491643776417,
              25.63081221420125
            ],
            [
              86.29393132366404,
              25.629895438324734
            ]
          ]
        ]
      }
    }
  ]
}