{
  "type": "FeatureCollection",
  "features": [
    {
      "type": "Feature",
      "properties": {
        "object_id": "10-212-01149",
        "stname": "BIHAR",
        "dtname": "Katihar",
        "sdtname": "Pranpur",
        "st_area_sh": 0.0,
        "st_length_": 0.0,
        "remarks": "",
        "dist_lgd": 201,
        "state_lgd": 10,
        "subdt_lgd": 1149,
        "ac_no": null,
        "st_length(shape)": 111803.70370561493,
        "st_area(shape)": 191475637.62126103
      },
      "geometry": {
        "type": "Polygon",
        "coordinates": [
          [
            [
              87.74693213374117,
              25.56273919939404
            ],
            [
              87.74742326336825,
              25.562400415397452
            ],
            [
              87.74750717679555,
              25.561585164210133
            ],
            [
              87.7472184268222,
              25.56093941130148
            ],
            [
              87.74511972336666,
              25.560040742975733
            ],
            [
              87.74374609688928,
              25.559088243936618
            ],
            [
              87.74345726876251,
              25.55833481681573
            ],
            [
              87.74279587515142,
              25.557843159924545
            ],
            [
              87.74198214523445,
              25.557536189608385
            ],
            [
              87.74128689771356,
              25.557075313266882
            ],
            [
              87.7408797291245,
              25.556598828013414
            ],
            [
              87.74085604594035,
              25.556280540964462
            ],
            [
              87.74081106639576,
              25.555676033858756
            ],
            [
              87.740118235343,
              25.555315417912468
            ],
            [
              87.7382360483288,
              25.55407102328087
            ],
            [
              87.73815040474622,
              25.553086716972203
            ],
            [
              87.73823217389496,
              25.550800969874494
            ],
            [
              87.73833238904975,
              25.549232049234345
            ],
            [
              87.7390777113595,
              25.548939240992276
            ],
            [
              87.7424664737165,
              25.548628978400448
            ],
            [
              87.74226369341417,
              25.5473279926507
            ],
            [
              87.73804259882728,
              25.541651062992816
            ],
            [
              87.73738110819816,
              25.54092866518342
            ],
            [
              87.73738041469876,
              25.540175003941226
            ],
            [
              87.73727594063119,
              25.53786042495827
            ],
            [
              87.73690264301997,
              25.537276233092914
            ],
            [
              87.7361739961368,
              25.537199875604003
            ],
            [
              87.73525885810237,
              25.537000606191683
            ],
            [
              87.73502102643596,
              25.53630864368055
            ],
            [
              87.73539330984924,
              25.535785418171873
            ],
            [
              87.73625734542213,
              25.53569249016352
            ],
            [
              87.73681613974968,
              25.53532293027746
            ],
            [
              87.73737473734614,
              25.534738036254907
            ],
            [
              87.73788333291732,
              25.535060649775538
            ],
            [
              87.73818905296469,
              25.535860221089173
            ],
            [
              87.73852856493812,
              25.536552100268366
            ],
            [
              87.73935271441408,
              25.537788461027368
            ],
            [
              87.7402176411157,
              25.538633740259954
            ],
            [
              87.74103174832511,
              25.53947905325064
            ],
            [
              87.74115070592994,
              25.539848100227633
            ],
            [
              87.74111735777167,
              25.540417216616582
            ],
            [
              87.74113491714053,
              25.54106319763629
            ],
            [
              87.74120311813523,
              25.541509188646856
            ],
            [
              87.74133897844048,
              25.541832079792652
            ],
            [
              87.74191476170668,
              25.541493249656632
            ],
            [
              87.7423716062326,
              25.540816132809613
            ],
            [
              87.74260815690144,
              25.540123807311186
            ],
            [
              87.74303109092374,
              25.53943133516038
            ],
            [
              87.74347100669812,
              25.53878498870981
            ],
            [
              87.74406354713763,
              25.538276948268305
            ],
            [
              87.7447238582788,
              25.537768849746357
            ],
            [
              87.7447403028384,
              25.53723964709438
            ],
            [
              87.74341777612764,
              25.536287094106065
            ],
            [
              87.74275649031439,
              25.535780052235094
            ],
            [
              87.74282350912618,
              25.53499557481859
            ],
            [
              87.74290584241693,
              25.534410860768123
            ],
            [
              87.74304227315237,
              25.53344193671928
            ],
            [
              87.7434644220471,
              25.53284943024336
            ],
            [
              87.74376881258789,
              25.532249333733873
            ],
            [
              87.74139627568425,
              25.531697499316046
            ],
            [
              87.74063335178481,
              25.531175143725537
            ],
            [
              87.74081919974233,
              25.530621289216015
            ],
            [
              87.74112368819948,
              25.530113483312945
            ],
            [
              87.74115706330724,
              25.529575126750522
            ],
            [
              87.74166493034467,
              25.52914406493533
            ],
            [
              87.74130849590794,
              25.52846758684108
            ],
            [
              87.7419516932446,
              25.528104958162274
            ],
            [
              87.74220599372514,
              25.52695996114884
            ],
            [
              87.74222160824142,
              25.5268896581326
            ],
            [
              87.7428626289602,
              25.52488110332917
            ],
            [
              87.74316665029336,
              25.5239118672214
            ],
            [
              87.74336386912577,
              25.52316822487887
            ],
            [
              87.74345431600015,
              25.52282718730422
            ],
            [
              87.74415998308001,
              25.52016628498563
            ],
            [
              87.74442959264961,
              25.518674124914288
            ],
            [
              87.74423384795257,
              25.517881718203355
            ],
            [
              87.74424045506149,
              25.517879229399092
            ],
            [
              87.74368126098364,
              25.515644687959615
            ],
            [
              87.74518930597023,
              25.515981861078263
            ],
            [
              87.74727340281926,
              25.516380069723436
            ],
            [
              87.74657831609683,
              25.514990605695715
            ],
            [
              87.74588162318665,
              25.512822467618733
            ],
            [
              87.74544891729069,
              25.511001032806334
            ],
            [
              87.74533729443013,
              25.510531155196727
            ],
            [
              87.74615031737297,
              25.51043821330426
            ],
            [
              87.74704797778523,
              25.51028367320039
            ],
            [
              87.74767499826031,
              25.51052925402298
            ],
            [
              87.74850500565023,
              25.51048242676682
            ],
            [
              87.74935192113043,
              25.51040481909668
            ],
            [
              87.74999975107903,
              25.511151078916473
            ],
            [
              87.7505663346984,
              25.511067901953734
            ],
            [
              87.75275537363727,
              25.510469459053585
            ],
            [
              87.75281480976973,
              25.510453745377557
            ],
            [
              87.75510366411304,
              25.509848580816836
            ],
            [
              87.75701835307255,
              25.50998553412646
            ],
            [
              87.75790830324473,
              25.510405976016834
            ],
            [
              87.75870881804555,
              25.510591735737254
            ],
            [
              87.75921634102826,
              25.510407063213655
            ],
            [
              87.75981907015971,
              25.50945976808942
            ],
            [
              87.76002799314197,
              25.509437283771295
            ],
            [
              87.7608632907106,
              25.509726875759124
            ],
            [
              87.76174363609577,
              25.50969593627656
            ],
            [
              87.76223105478242,
              25.509764018207434
            ],
            [
              87.76240502431698,
              25.509895040244555
            ],
            [
              87.76323435527549,
              25.511191039834575
            ],
            [
              87.7637662127209,
              25.5115344777987
            ],
            [
              87.76568066632181,
              25.512036941005345
            ],
            [
              87.76787825722218,
              25.513027046857115
            ],
            [
              87.76895691379116,
              25.5137093850848
            ],
            [
              87.76967744709069,
              25.514454637731678
            ],
            [
              87.77030436785273,
              25.51425196285159
            ],
            [
              87.77063331024851,
              25.513435281693873
            ],
            [
              87.7706487603731,
              25.51289367390963
            ],
            [
              87.7704601321297,
              25.51240153964988
            ],
            [
              87.76971445588373,
              25.511972201362397
            ],
            [
              87.76863567714386,
              25.511393714207088
            ],
            [
              87.7687005256259,
              25.511154531008508
            ],
            [
              87.76894424215577,
              25.511235968084012
            ],
            [
              87.77117693382755,
              25.511815338880478
            ],
            [
              87.77260901278213,
              25.51219545383148
            ],
            [
              87.77337132043726,
              25.512316940734586
            ],
            [
              87.77423028412205,
              25.512453824749414
            ],
            [
              87.776736487645,
              25.513128106081737
            ],
            [
              87.77707222220268,
              25.513192802133364
            ],
            [
              87.77767643265605,
              25.513309229157606
            ],
            [
              87.7796206878665,
              25.513960525248166
            ],
            [
              87.78186841104791,
              25.51449459268591
            ],
            [
              87.78255493502908,
              25.51430996913328
            ],
            [
              87.78319409533685,
              25.513856896765343
            ],
            [
              87.78328655713243,
              25.513791354687207
            ],
            [
              87.78412295603557,
              25.512767314352573
            ],
            [
              87.78436903603293,
              25.512218622694594
            ],
            [
              87.78444674479661,
              25.51204535389726
            ],
            [
              87.78502524905979,
              25.5100191919407
            ],
            [
              87.78564792797708,
              25.508805484303988
            ],
            [
              87.78678778227479,
              25.507524345245262
            ],
            [
              87.78755961297027,
              25.50636039731717
            ],
            [
              87.78811790334294,
              25.504541747596097
            ],
            [
              87.78884517041382,
              25.503079862640835
            ],
            [
              87.79025445641469,
              25.500517074103744
            ],
            [
              87.79013822878997,
              25.500028729097775
            ],
            [
              87.79005654767614,
              25.49907163533263
            ],
            [
              87.78948490384676,
              25.49861093569573
            ],
            [
              87.78719226579946,
              25.49860953622811
            ],
            [
              87.78636687664842,
              25.498433003717135
            ],
            [
              87.78623773843644,
              25.49814410531379
            ],
            [
              87.78630263632581,
              25.497796556301765
            ],
            [
              87.78681037490419,
              25.49727786161869
            ],
            [
              87.78674598635958,
              25.4968174097027
            ],
            [
              87.78522098477367,
              25.494564303713148
            ],
            [
              87.78452535996037,
              25.493697267955252
            ],
            [
              87.7840139409843,
              25.492713028211337
            ],
            [
              87.78268169809543,
              25.492017070683495
            ],
            [
              87.78140399821571,
              25.491630404157693
            ],
            [
              87.78020077855447,
              25.491266264654804
            ],
            [
              87.77797298719258,
              25.491147434748594
            ],
            [
              87.77701815979222,
              25.49114680713836
            ],
            [
              87.77695250013149,
              25.492478171842567
            ],
            [
              87.77708118918584,
              25.4932275180635
            ],
            [
              87.7766331724042,
              25.4936921352829
            ],
            [
              87.77523525009165,
              25.494323050967537
            ],
            [
              87.77383246430016,
              25.4947869228418
            ],
            [
              87.772051142821,
              25.495882435851758
            ],
            [
              87.77084231587577,
              25.496342009167147
            ],
            [
              87.76886740296132,
              25.49691828391582
            ],
            [
              87.7680192289414,
              25.497168199983548
            ],
            [
              87.76651452389103,
              25.4976115519361
            ],
            [
              87.7649872630422,
              25.498070843769373
            ],
            [
              87.7636490921708,
              25.498475951050175
            ],
            [
              87.7626344513456,
              25.4985925691009
            ],
            [
              87.76194886879885,
              25.49847728322157
            ],
            [
              87.76193333872423,
              25.49847467077099
            ],
            [
              87.76116747014727,
              25.498532738187958
            ],
            [
              87.75869045378622,
              25.499308016921205
            ],
            [
              87.75785918426334,
              25.49956818394194
            ],
            [
              87.7566226622579,
              25.499722946212795
            ],
            [
              87.75556623090733,
              25.499855159740026
            ],
            [
              87.75516886922625,
              25.500004394375967
            ],
            [
              87.75448660864943,
              25.500260475866767
            ],
            [
              87.75442830978415,
              25.50025843507206
            ],
            [
              87.75320945674201,
              25.50021575594186
            ],
            [
              87.75277085879614,
              25.50020039524585
            ],
            [
              87.75268007505349,
              25.500002291955653
            ],
            [
              87.75213577683971,
              25.498814210220836
            ],
            [
              87.75045492024697,
              25.49868186338506
            ],
            [
              87.75000002416687,
              25.498699722396108
            ],
            [
              87.74953921717218,
              25.498591348823336
            ],
            [
              87.74927653181682,
              25.498450474384
            ],
            [
              87.74883002330654,
              25.49821101324205
            ],
            [
              87.74789227916798,
              25.49736097110418
            ],
            [
              87.74699174863835,
              25.496632017874685
            ],
            [
              87.74627633393936,
              25.49594948288127
            ],
            [
              87.74637600741,
              25.49523517618026
            ],
            [
              87.74681460894918,
              25.494560067870072
            ],
            [
              87.74745284578887,
              25.49391323568896
            ],
            [
              87.74825717034481,
              25.493362715372854
            ],
            [
              87.74841440067235,
              25.49278719226083
            ],
            [
              87.74840052978604,
              25.49211984471594
            ],
            [
              87.74841713334744,
              25.491240000731423
            ],
            [
              87.74883906664651,
              25.49071410966325
            ],
            [
              87.74956076865418,
              25.490020698053666
            ],
            [
              87.74996811510968,
              25.489756647349
            ],
            [
              87.74999785832871,
              25.489740552284406
            ],
            [
              87.75066440826956,
              25.48933922829989
            ],
            [
              87.7512842116796,
              25.48874427664556
            ],
            [
              87.75159590013374,
              25.488445082666768
            ],
            [
              87.75238642297366,
              25.487793469817888
            ],
            [
              87.75255886267728,
              25.487220772753407
            ],
            [
              87.75232594389712,
              25.48592555411467
            ],
            [
              87.75167011175598,
              25.484769982011933
            ],
            [
              87.75133841332891,
              25.4841855228474
            ],
            [
              87.75081025065421,
              25.483176017231617
            ],
            [
              87.75024460757096,
              25.4824037970244
            ],
            [
              87.74997395236238,
              25.481934535770453
            ],
            [
              87.74944036925328,
              25.4816278521204
            ],
            [
              87.74928657228675,
              25.480683211316993
            ],
            [
              87.74928667379639,
              25.480681290208413
            ],
            [
              87.74928495082766,
              25.480670705864657
            ],
            [
              87.74933497980247,
              25.47972263860526
            ],
            [
              87.74965725939381,
              25.479198401755365
            ],
            [
              87.74997180628715,
              25.479017145342546
            ],
            [
              87.74999784395568,
              25.47901741295533
            ],
            [
              87.75053839799138,
              25.478169152150084
            ],
            [
              87.75038942857117,
              25.47777864012541
            ],
            [
              87.7499995327884,
              25.47772192508729
            ],
            [
              87.74997480306696,
              25.47771827740505
            ],
            [
              87.74965537472835,
              25.47697936401758
            ],
            [
              87.7495386063178,
              25.476524339971565
            ],
            [
              87.7490182347316,
              25.47589272587641
            ],
            [
              87.74880865957246,
              25.475377548730762
            ],
            [
              87.74872357564031,
              25.47463464473841
            ],
            [
              87.74895167585726,
              25.47437061538404
            ],
            [
              87.74896602285068,
              25.47436906235911
            ],
            [
              87.74963027220605,
              25.474297186072878
            ],
            [
              87.74999785293883,
              25.474277339779363
            ],
            [
              87.75065434983333,
              25.47427779311701
            ],
            [
              87.75307014780437,
              25.4749749027537
            ],
            [
              87.75440226223414,
              25.47543635799304
            ],
            [
              87.75542150063697,
              25.47549585898525
            ],
            [
              87.75682408071425,
              25.47514946499428
            ],
            [
              87.75872909841142,
              25.47451466139983
            ],
            [
              87.75949506220978,
              25.474226433762016
            ],
            [
              87.75959108762208,
              25.474203557634873
            ],
            [
              87.7607036016941,
              25.47393852739328
            ],
            [
              87.76191240528314,
              25.473361740216017
            ],
            [
              87.7626590660827,
              25.472835145662295
            ],
            [
              87.76305677361516,
              25.4725546516677
            ],
            [
              87.76420612759702,
              25.47168901507732
            ],
            [
              87.76522179609489,
              25.470245423376483
            ],
            [
              87.76553104292809,
              25.469126347888846
            ],
            [
              87.7661040647731,
              25.467799828343058
            ],
            [
              87.7663892726893,
              25.467189761227882
            ],
            [
              87.76680646737523,
              25.466297360044802
            ],
            [
              87.76674281634746,
              25.46520054740077
            ],
            [
              87.76655446298858,
              25.464564011624493
            ],
            [
              87.7654071993864,
              25.463231659767057
            ],
            [
              87.76394676241493,
              25.461903547993234
            ],
            [
              87.76324677538258,
              25.46074755364101
            ],
            [
              87.76286958806615,
              25.460052215672963
            ],
            [
              87.76153372227178,
              25.4584353726486
            ],
            [
              87.7601980217674,
              25.456759820124795
            ],
            [
              87.75982086499366,
              25.45606438368373
            ],
            [
              87.7595033204222,
              25.455373603035014
            ],
            [
              87.7596282293658,
              25.454737334043593
            ],
            [
              87.76001191419672,
              25.453812297662775
            ],
            [
              87.76020213515307,
              25.45242682936493
            ],
            [
              87.76058575081369,
              25.451619272684912
            ],
            [
              87.76065152276385,
              25.450405204914205
            ],
            [
              87.76090574688756,
              25.449710289828076
            ],
            [
              87.76097081096526,
              25.449191267662467
            ],
            [
              87.7621145792227,
              25.448844631652516
            ],
            [
              87.762939920763,
              25.44861504808719
            ],
            [
              87.76370689336943,
              25.44823269363587
            ],
            [
              87.76427778261397,
              25.44794808731488
            ],
            [
              87.76478564965143,
              25.44713607975641
            ],
            [
              87.76491534302224,
              25.446617170602426
            ],
            [
              87.76644105607384,
              25.447083203297517
            ],
            [
              87.76777788216727,
              25.4475445181054
            ],
            [
              87.76968670333133,
              25.447663293754577
            ],
            [
              87.77165494715314,
              25.448007755209723
            ],
            [
              87.77178355266417,
              25.44882023222431
            ],
            [
              87.77280227633234,
              25.449222671283618
            ],
            [
              87.7727369930657,
              25.449917693821828
            ],
            [
              87.77270426474496,
              25.450407382826718
            ],
            [
              87.7726715364242,
              25.450897073084363
            ],
            [
              87.77280015181671,
              25.451709639292417
            ],
            [
              87.7735600178509,
              25.452518068949352
            ],
            [
              87.77387768638988,
              25.453154636808776
            ],
            [
              87.7740662239034,
              25.453615166712122
            ],
            [
              87.77444883255258,
              25.453845671904975
            ],
            [
              87.77502063538375,
              25.453674516273164
            ],
            [
              87.77616939468088,
              25.453269051201882
            ],
            [
              87.77743738197577,
              25.452922452888984
            ],
            [
              87.7779491728544,
              25.45321159297674
            ],
            [
              87.77858513515977,
              25.45367696909572
            ],
            [
              87.77909125227906,
              25.45489143862522
            ],
            [
              87.77985625218513,
              25.455699807169328
            ],
            [
              87.78068063342641,
              25.4567384817623
            ],
            [
              87.78182427591967,
              25.45650899436144
            ],
            [
              87.78322661794341,
              25.456049568085025
            ],
            [
              87.78430553143056,
              25.45593283009047
            ],
            [
              87.78532486235987,
              25.455585957182947
            ],
            [
              87.78551428561225,
              25.45494968282519
            ],
            [
              87.78564386399874,
              25.454548057801222
            ],
            [
              87.78621580067889,
              25.454200862945907
            ],
            [
              87.78799611514661,
              25.453506845779412
            ],
            [
              87.78793205808033,
              25.452757608928625
            ],
            [
              87.78765416694215,
              25.451740649668967
            ],
            [
              87.78742629579558,
              25.450906735351435
            ],
            [
              87.78725760925323,
              25.450401146777676
            ],
            [
              87.78725149442108,
              25.45037799763288
            ],
            [
              87.78687594742836,
              25.448956585867048
            ],
            [
              87.78657170510962,
              25.447979437723927
            ],
            [
              87.78643459704443,
              25.44753907278902
            ],
            [
              87.78611734532373,
              25.446239005982388
            ],
            [
              87.78570593219496,
              25.44465002962832
            ],
            [
              87.7853540333521,
              25.443295783998792
            ],
            [
              87.78487811399943,
              25.441648003091057
            ],
            [
              87.78480743994274,
              25.44139450132699
            ],
            [
              87.7844665697166,
              25.440171807894874
            ],
            [
              87.78355425778203,
              25.43716525502221
            ],
            [
              87.78345229181076,
              25.43693365193944
            ],
            [
              87.7828546166011,
              25.435576089999163
            ],
            [
              87.78199597720814,
              25.43395516786199
            ],
            [
              87.78133102537022,
              25.432542074822997
            ],
            [
              87.78076001305648,
              25.4318466372391
            ],
            [
              87.78031282002998,
              25.43158452433889
            ],
            [
              87.78026823394747,
              25.43157521017788
            ],
            [
              87.77977112243892,
              25.431471363845596
            ],
            [
              87.77973409208627,
              25.431471340318847
            ],
            [
              87.77881676575578,
              25.431470736735353
            ],
            [
              87.77774810743593,
              25.431587376754912
            ],
            [
              87.77672896784776,
              25.431704019095406
            ],
            [
              87.7763162836029,
              25.431875241649642
            ],
            [
              87.77587355161003,
              25.432308223767954
            ],
            [
              87.77469553867569,
              25.43230739628022
            ],
            [
              87.774677771796,
              25.432299422380822
            ],
            [
              87.77431297494229,
              25.43213567460169
            ],
            [
              87.77412439880119,
              25.4318195336635
            ],
            [
              87.77403131267653,
              25.430230737028428
            ],
            [
              87.77402096588106,
              25.430047030630302
            ],
            [
              87.77399699164276,
              25.42962138977775
            ],
            [
              87.77377354110575,
              25.429418127312015
            ],
            [
              87.77371347794922,
              25.429423943392223
            ],
            [
              87.7731719950555,
              25.429476377342223
            ],
            [
              87.77234692839966,
              25.429475838651275
            ],
            [
              87.77233092042131,
              25.429467861319374
            ],
            [
              87.77135823002153,
              25.428983116331896
            ],
            [
              87.77098085316057,
              25.428608272926926
            ],
            [
              87.7707873174208,
              25.428260548152736
            ],
            [
              87.77037574618856,
              25.427136388195898
            ],
            [
              87.76992924935638,
              25.426210799874156
            ],
            [
              87.77031211941532,
              25.42598087460744
            ],
            [
              87.77152059871253,
              25.425200931234226
            ],
            [
              87.77419585259551,
              25.423672701685483
            ],
            [
              87.77432021985503,
              25.423528378206132
            ],
            [
              87.77425580436098,
              25.423266574988194
            ],
            [
              87.77409767302318,
              25.422219289901136
            ],
            [
              87.77406830619823,
              25.421700216623506
            ],
            [
              87.77412997105091,
              25.421324861332057
            ],
            [
              87.77425810494641,
              25.42054490568093
            ],
            [
              87.77400508815843,
              25.42008435075217
            ],
            [
              87.773941187399,
              25.419217711331612
            ],
            [
              87.77407122931615,
              25.418265439148243
            ],
            [
              87.77445445331132,
              25.41762933031922
            ],
            [
              87.77473865421607,
              25.416559848335616
            ],
            [
              87.7749925612345,
              25.41600939115905
            ],
            [
              87.77503012069485,
              25.41590731724708
            ],
            [
              87.77547075961307,
              25.41470979063477
            ],
            [
              87.77623707105944,
              25.413469079735698
            ],
            [
              87.77636164223652,
              25.41309457836716
            ],
            [
              87.77633219456318,
              25.412688290269656
            ],
            [
              87.7760443366169,
              25.412141955173613
            ],
            [
              87.77576145174405,
              25.411735560007404
            ],
            [
              87.77534960742395,
              25.410986070668233
            ],
            [
              87.77531502498046,
              25.410755807218646
            ],
            [
              87.77535088213334,
              25.409397315078877
            ],
            [
              87.7751922657053,
              25.40890971514073
            ],
            [
              87.77506318408717,
              25.40876519223152
            ],
            [
              87.77499120837167,
              25.40876084869515
            ],
            [
              87.7740793015773,
              25.408705810809373
            ],
            [
              87.77261311359138,
              25.408880849683204
            ],
            [
              87.77124609332462,
              25.409281559129546
            ],
            [
              87.77045073665016,
              25.409569905719955
            ],
            [
              87.7701025173067,
              25.41000291602912
            ],
            [
              87.76943526488333,
              25.411537006783313
            ],
            [
              87.76921119361042,
              25.4119972681779
            ],
            [
              87.76866884833406,
              25.412691899352563
            ],
            [
              87.76838532116575,
              25.412980628069338
            ],
            [
              87.7679376277776,
              25.413440612138857
            ],
            [
              87.76672939192385,
              25.414134829307383
            ],
            [
              87.76572512484353,
              25.414585427778448
            ],
            [
              87.76567057824117,
              25.414568112889903
            ],
            [
              87.76518354313517,
              25.414413516140055
            ],
            [
              87.76489550732246,
              25.41421021261307
            ],
            [
              87.76451315379482,
              25.413776591018888
            ],
            [
              87.76432490014894,
              25.413140047133215
            ],
            [
              87.76429656369162,
              25.41160995669609
            ],
            [
              87.76422827286541,
              25.410192680137268
            ],
            [
              87.76404083039822,
              25.408657907729424
            ],
            [
              87.7638829254359,
              25.407502337125663
            ],
            [
              87.76380956002664,
              25.40750814777174
            ],
            [
              87.76202496418826,
              25.407649498690475
            ],
            [
              87.76201543216477,
              25.40765025413036
            ],
            [
              87.76144900305565,
              25.407681388635734
            ],
            [
              87.76043535127555,
              25.40745046892188
            ],
            [
              87.75960596372319,
              25.406984859873532
            ],
            [
              87.75919732908359,
              25.40683968794525
            ],
            [
              87.75919542106193,
              25.406840755792253
            ],
            [
              87.75862174434506,
              25.40716013980564
            ],
            [
              87.75773519878781,
              25.40796687228239
            ],
            [
              87.75687465227149,
              25.408805685375533
            ],
            [
              87.75607849789304,
              25.409784490046032
            ],
            [
              87.7552787861861,
              25.41065078507062
            ],
            [
              87.754992877584,
              25.41083787132775
            ],
            [
              87.75471066734592,
              25.411024578368178
            ],
            [
              87.75353361920217,
              25.411574671260627
            ],
            [
              87.75235893003438,
              25.412065249617896
            ],
            [
              87.75140432721287,
              25.41246610183824
            ],
            [
              87.75140388793669,
              25.41246513059717
            ],
            [
              87.75089493303945,
              25.411342210031055
            ],
            [
              87.75060719097583,
              25.41082291709582
            ],
            [
              87.75044876678727,
              25.410272178137177
            ],
            [
              87.75057846375134,
              25.40975320759467
            ],
            [
              87.7506088995715,
              25.40923413339189
            ],
            [
              87.75095807023087,
              25.40793453775086
            ],
            [
              87.751117892198,
              25.407181046342664
            ],
            [
              87.75112209092363,
              25.40666155129602
            ],
            [
              87.7506802572461,
              25.40622783602358
            ],
            [
              87.74999999631909,
              25.40642781881325
            ],
            [
              87.74503199569261,
              25.40647572521316
            ],
            [
              87.74333440528275,
              25.406484318323752
            ],
            [
              87.74142768707479,
              25.406470196897217
            ],
            [
              87.7392617752629,
              25.406765913164225
            ],
            [
              87.73929809504816,
              25.4084508408568
            ],
            [
              87.74006500028094,
              25.409989686757065
            ],
            [
              87.74051515415464,
              25.4110080037819
            ],
            [
              87.7408897147972,
              25.41260616088527
            ],
            [
              87.74121639703176,
              25.41476316082764
            ],
            [
              87.7415195999997,
              25.41737106075805
            ],
            [
              87.74144560307481,
              25.41808309706723
            ],
            [
              87.74155315117724,
              25.418580698809336
            ],
            [
              87.7416606992797,
              25.419078301743138
            ],
            [
              87.74192799838238,
              25.42007324425297
            ],
            [
              87.74188412017232,
              25.4214492910685
            ],
            [
              87.74142126142556,
              25.42263773040121
            ],
            [
              87.7410899654437,
              25.423991567309063
            ],
            [
              87.7404705698688,
              25.42522820099438
            ],
            [
              87.7399271546989,
              25.42606116538927
            ],
            [
              87.73919932168941,
              25.426657923843468
            ],
            [
              87.73773680242311,
              25.426712681749393
            ],
            [
              87.73762305325025,
              25.42519511413892
            ],
            [
              87.73720689432183,
              25.42118819893457
            ],
            [
              87.73777703437142,
              25.420450015988497
            ],
            [
              87.73863221075896,
              25.419330773797995
            ],
            [
              87.73920276672852,
              25.418663650894516
            ],
            [
              87.73993674601121,
              25.418423025674297
            ],
            [
              87.7400109315823,
              25.4183987052769
            ],
            [
              87.7400320132454,
              25.41756828104522
            ],
            [
              87.73958232020742,
              25.416645410359063
            ],
            [
              87.73934261824859,
              25.416633815099477
            ],
            [
              87.73558480731162,
              25.416451998752255
            ],
            [
              87.73467142907681,
              25.41659888083372
            ],
            [
              87.73388999000105,
              25.416958662068943
            ],
            [
              87.73408404317041,
              25.418807962348286
            ],
            [
              87.73358893580325,
              25.41900015720442
            ],
            [
              87.73222911283855,
              25.419441123006933
            ],
            [
              87.73210303159348,
              25.41948200769304
            ],
            [
              87.73035838473412,
              25.42039216402181
            ],
            [
              87.72915742703077,
              25.420492944103042
            ],
            [
              87.72868460417088,
              25.420044594851337
            ],
            [
              87.72779477706787,
              25.419764374606668
            ],
            [
              87.72651575396972,
              25.419913018141607
            ],
            [
              87.72536794958172,
              25.420155908095285
            ],
            [
              87.72515461137985,
              25.42020290114797
            ],
            [
              87.72432038011146,
              25.42019204698767
            ],
            [
              87.72428431634609,
              25.419155148880883
            ],
            [
              87.72429538718364,
              25.418721936953695
            ],
            [
              87.72425284476842,
              25.41834375292534
            ],
            [
              87.72374961663108,
              25.418284584738394
            ],
            [
              87.72291017423574,
              25.4180731238512
            ],
            [
              87.7221609918652,
              25.418144373260724
            ],
            [
              87.72118320532282,
              25.418214929728954
            ],
            [
              87.72036055962667,
              25.418580634712306
            ],
            [
              87.71986378318971,
              25.41859800500814
            ],
            [
              87.71928137844158,
              25.418310031321973
            ],
            [
              87.71913638765976,
              25.417784679133746
            ],
            [
              87.71915328407192,
              25.416904785743974
            ],
            [
              87.7191322293583,
              25.41611572874186
            ],
            [
              87.71863490674566,
              25.413174006297343
            ],
            [
              87.71798241903231,
              25.413108243827363
            ],
            [
              87.71722072402817,
              25.4128053176489
            ],
            [
              87.71642794731521,
              25.412439690894043
            ],
            [
              87.71589004869948,
              25.41214193083165
            ],
            [
              87.71554635237347,
              25.411863534910427
            ],
            [
              87.71550326378255,
              25.41121014671908
            ],
            [
              87.7151754415859,
              25.409758611613775
            ],
            [
              87.71489941624857,
              25.407670254217003
            ],
            [
              87.71384642724219,
              25.407705893765936
            ],
            [
              87.71266726985417,
              25.407892517209138
            ],
            [
              87.71029743508291,
              25.408189343264166
            ],
            [
              87.70835371616668,
              25.40842032891164
            ],
            [
              87.70695935297933,
              25.408533826687307
            ],
            [
              87.70546727734353,
              25.40873014776727
            ],
            [
              87.7052180316831,
              25.409428949777304
            ],
            [
              87.70518370166623,
              25.410435429823796
            ],
            [
              87.705034019882,
              25.412368632848864
            ],
            [
              87.70472501379729,
              25.41282033898071
            ],
            [
              87.70348329683458,
              25.413603405159023
            ],
            [
              87.70324732378249,
              25.414468926279863
            ],
            [
              87.70302913377975,
              25.41523042183329
            ],
            [
              87.70320937714827,
              25.416030366751453
            ],
            [
              87.7037570862652,
              25.416566960791688
            ],
            [
              87.70514931056388,
              25.416832431331915
            ],
            [
              87.70600667434915,
              25.41719711575564
            ],
            [
              87.70711404466786,
              25.417390551319436
            ],
            [
              87.70814784296482,
              25.418117627658017
            ],
            [
              87.70951166522917,
              25.418699240947507
            ],
            [
              87.71047093929016,
              25.41967113295817
            ],
            [
              87.71153173555466,
              25.421728365850107
            ],
            [
              87.71168768668123,
              25.422064040104065
            ],
            [
              87.71156636830382,
              25.42295138193991
            ],
            [
              87.71106953706963,
              25.42285888025189
            ],
            [
              87.70929446067832,
              25.423057272039095
            ],
            [
              87.70785829079593,
              25.423159012122618
            ],
            [
              87.7067352224176,
              25.423188167050178
            ],
            [
              87.70558582262167,
              25.42316994065761
            ],
            [
              87.70412221908884,
              25.42303464581171
            ],
            [
              87.70271288457893,
              25.423254954403117
            ],
            [
              87.70146144964147,
              25.423664129271398
            ],
            [
              87.7004968638422,
              25.42400085933931
            ],
            [
              87.6999505731651,
              25.42438299863444
            ],
            [
              87.69958430217599,
              25.424289836010797
            ],
            [
              87.69886007859729,
              25.42380196121896
            ],
            [
              87.69885008304313,
              25.42379522564211
            ],
            [
              87.69845465633315,
              25.423180345887626
            ],
            [
              87.69800771303827,
              25.422684277879068
            ],
            [
              87.69714230933124,
              25.422095376154882
            ],
            [
              87.69592168391307,
              25.423334679886096
            ],
            [
              87.69405212002522,
              25.425288706057003
            ],
            [
              87.69387578342989,
              25.42548292534217
            ],
            [
              87.69275426105217,
              25.426718162893195
            ],
            [
              87.69184684134267,
              25.427932208198065
            ],
            [
              87.69197930062624,
              25.42826380385843
            ],
            [
              87.6918780407308,
              25.42883354126785
            ],
            [
              87.69159577120391,
              25.42971260039687
            ],
            [
              87.69107980944742,
              25.43085373004355
            ],
            [
              87.6905104473389,
              25.43180520427507
            ],
            [
              87.68962706115646,
              25.432639675962367
            ],
            [
              87.68879573414141,
              25.433450057340007
            ],
            [
              87.68832466119966,
              25.433309950308246
            ],
            [
              87.68746484321704,
              25.43340181606322
            ],
            [
              87.68717556772926,
              25.433432721634773
            ],
            [
              87.68657563774822,
              25.43357784207324
            ],
            [
              87.68571604793767,
              25.433985322884226
            ],
            [
              87.68508662267261,
              25.434228564143236
            ],
            [
              87.68410009462421,
              25.434609797293362
            ],
            [
              87.68324092522525,
              25.43511216906217
            ],
            [
              87.68282733458022,
              25.43560804232415
            ],
            [
              87.68212461127953,
              25.436062181887344
            ],
            [
              87.6811886260423,
              25.43682596092961
            ],
            [
              87.68106088920216,
              25.43734858713665
            ],
            [
              87.68147952568414,
              25.437552984110095
            ],
            [
              87.68197816702362,
              25.437977615361135
            ],
            [
              87.68253112769172,
              25.438757690196837
            ],
            [
              87.68295221657439,
              25.439324993011716
            ],
            [
              87.68144363170032,
              25.44047052083655
            ],
            [
              87.67974863472669,
              25.440976387978807
            ],
            [
              87.67836566217711,
              25.441243751637778
            ],
            [
              87.6773230981196,
              25.441651759756322
            ],
            [
              87.67646345171521,
              25.442082667388092
            ],
            [
              87.67539236435084,
              25.44215757975505
            ],
            [
              87.67458303528042,
              25.442232457194013
            ],
            [
              87.6744487039078,
              25.44228716989546
            ],
            [
              87.67322797159011,
              25.442784366689033
            ],
            [
              87.67105005199781,
              25.44361477939832
            ],
            [
              87.6709605465579,
              25.443648905192134
            ],
            [
              87.6703075459065,
              25.443651887112267
            ],
            [
              87.66970830223835,
              25.443915681299014
            ],
            [
              87.6692935527666,
              25.44448701409888
            ],
            [
              87.66861737288595,
              25.445012037350214
            ],
            [
              87.66812254309819,
              25.44527526073488
            ],
            [
              87.66746911035716,
              25.445183325351067
            ],
            [
              87.66704990164837,
              25.444948007081422
            ],
            [
              87.66712565477964,
              25.444473128310666
            ],
            [
              87.66735791599298,
              25.4439737880406
            ],
            [
              87.6671188590245,
              25.44323936825894
            ],
            [
              87.66674808028932,
              25.442315641224557
            ],
            [
              87.66666631563214,
              25.441699161382928
            ],
            [
              87.66668933585963,
              25.441129613794544
            ],
            [
              87.66660835812664,
              25.440655446807984
            ],
            [
              87.66626753191795,
              25.440419680827485
            ],
            [
              87.6659023802297,
              25.440516242917877
            ],
            [
              87.66548719956663,
              25.440992659921204
            ],
            [
              87.66509992955943,
              25.44182491829297
            ],
            [
              87.6647902102124,
              25.442490670231077
            ],
            [
              87.66440185593868,
              25.443109277827862
            ],
            [
              87.66448660390088,
              25.444271527868338
            ],
            [
              87.66438429297655,
              25.4446753692471
            ],
            [
              87.66357738037428,
              25.44517730074836
            ],
            [
              87.66303071420138,
              25.4455118989556
            ],
            [
              87.66287839226854,
              25.446319341667646
            ],
            [
              87.66256709009,
              25.446700375128007
            ],
            [
              87.66196729395793,
              25.44686914368406
            ],
            [
              87.66097396027295,
              25.446731301622446
            ],
            [
              87.66063481032059,
              25.446803986883612
            ],
            [
              87.66053258383788,
              25.44720782382514
            ],
            [
              87.66061419128987,
              25.447800557204665
            ],
            [
              87.66061768573631,
              25.44844123173459
            ],
            [
              87.6597050396285,
              25.448730055690973
            ],
            [
              87.65926329308752,
              25.449159077218606
            ],
            [
              87.65992201510896,
              25.450200094858744
            ],
            [
              87.66000388217404,
              25.450840415942274
            ],
            [
              87.65963985607485,
              25.451150523209556
            ],
            [
              87.65910625679606,
              25.451535345594596
            ],
            [
              87.65874245437736,
              25.451869016855596
            ],
            [
              87.65851043121756,
              25.45243922987365
            ],
            [
              87.65814729804376,
              25.452915121142112
            ],
            [
              87.65746715659269,
              25.452728444934458
            ],
            [
              87.65696863562745,
              25.45230382027246
            ],
            [
              87.65649723569894,
              25.452092545625185
            ],
            [
              87.6561589687905,
              25.45233119015519
            ],
            [
              87.6560326198475,
              25.45311430781213
            ],
            [
              87.65553898392075,
              25.453590777173112
            ],
            [
              87.65496430288744,
              25.453593341931803
            ],
            [
              87.65431083421379,
              25.45350143804421
            ],
            [
              87.65371050717737,
              25.453598928920208
            ],
            [
              87.65342531363426,
              25.453979645717787
            ],
            [
              87.65311424591599,
              25.454431634684628
            ],
            [
              87.6526197251487,
              25.454765873806505
            ],
            [
              87.65178318610833,
              25.454627274285116
            ],
            [
              87.65120888236744,
              25.454700980024395
            ],
            [
              87.650766544735,
              25.45501123064627
            ],
            [
              87.65048175004384,
              25.45548675729297
            ],
            [
              87.6499379306321,
              25.456366626852482
            ],
            [
              87.64957449742097,
              25.456795090706937
            ],
            [
              87.64913062277111,
              25.4568208041187
            ],
            [
              87.64899812036836,
              25.45646560134265
            ],
            [
              87.64920454603416,
              25.455990423281925
            ],
            [
              87.64993258116459,
              25.45537062302737
            ],
            [
              87.64990489508752,
              25.455086203913925
            ],
            [
              87.64938150516194,
              25.454898797018355
            ],
            [
              87.64786790499367,
              25.4551663649851
            ],
            [
              87.64745212425598,
              25.455571306179834
            ],
            [
              87.64711737784513,
              25.456473902137393
            ],
            [
              87.64720539387835,
              25.45827584561767
            ],
            [
              87.64759997617197,
              25.458795867612434
            ],
            [
              87.64747115596357,
              25.459128475695447
            ],
            [
              87.6471061560906,
              25.459248651196095
            ],
            [
              87.6460080438092,
              25.459063762703632
            ],
            [
              87.64517226743851,
              25.45909109779487
            ],
            [
              87.64576535315543,
              25.459840698326108
            ],
            [
              87.64645976164982,
              25.46025789129175
            ],
            [
              87.6476311162713,
              25.460649252617397
            ],
            [
              87.64817607205188,
              25.461050862147992
            ],
            [
              87.64859306192191,
              25.461517767634934
            ],
            [
              87.64896247431957,
              25.461588395217145
            ],
            [
              87.64938142341528,
              25.4614010860417
            ],
            [
              87.64962539237172,
              25.461167110159398
            ],
            [
              87.6499848622158,
              25.461237856363276
            ],
            [
              87.65030756581194,
              25.461462676794344
            ],
            [
              87.65125395174354,
              25.461794511862227
            ],
            [
              87.6521368160048,
              25.461933528126682
            ],
            [
              87.65260009067154,
              25.4624762983179
            ],
            [
              87.65322120292697,
              25.46320141879756
            ],
            [
              87.65475669414043,
              25.46415062118264
            ],
            [
              87.6555245039767,
              25.464751529991794
            ],
            [
              87.65602774019885,
              25.465550755971933
            ],
            [
              87.65662990608664,
              25.466077715751343
            ],
            [
              87.65755726031061,
              25.46619782267299
            ],
            [
              87.65816593089937,
              25.466296153226942
            ],
            [
              87.65845903770186,
              25.46653486123894
            ],
            [
              87.65839827924931,
              25.46697796364667
            ],
            [
              87.65813928507141,
              25.467455834720827
            ],
            [
              87.65823105336757,
              25.46781979005968
            ],
            [
              87.65872064328224,
              25.467933492219828
            ],
            [
              87.65919260106453,
              25.467912207744224
            ],
            [
              87.65977250669957,
              25.46756438397248
            ],
            [
              87.66060637325197,
              25.46698686387765
            ],
            [
              87.66114169370279,
              25.46690142682377
            ],
            [
              87.66144931638196,
              25.467112869309467
            ],
            [
              87.66155136589656,
              25.467995312391846
            ],
            [
              87.66218649456536,
              25.467921716172963
            ],
            [
              87.66270299710762,
              25.46764263893437
            ],
            [
              87.66320731939298,
              25.466745713127683
            ],
            [
              87.66360234725097,
              25.466112163646258
            ],
            [
              87.66421620920376,
              25.465723104781297
            ],
            [
              87.66499048511342,
              25.465647227344906
            ],
            [
              87.6657863592175,
              25.465909362613974
            ],
            [
              87.6667301517129,
              25.466110356660838
            ],
            [
              87.66771529635572,
              25.466382848622743
            ],
            [
              87.66783548195758,
              25.466922173765816
            ],
            [
              87.66785464302261,
              25.467882726257507
            ],
            [
              87.66758279664795,
              25.46871268602392
            ],
            [
              87.66686389918057,
              25.469811669349582
            ],
            [
              87.66649354534852,
              25.47094097412048
            ],
            [
              87.6663746102015,
              25.471705213122313
            ],
            [
              87.66611404576852,
              25.472354606707007
            ],
            [
              87.6656216737714,
              25.472849925132614
            ],
            [
              87.66459907027954,
              25.473935795194954
            ],
            [
              87.66395351576351,
              25.47522754390597
            ],
            [
              87.66372772511515,
              25.475876319165426
            ],
            [
              87.66361177506988,
              25.47679395537449
            ],
            [
              87.66329010902787,
              25.477620188122568
            ],
            [
              87.6631059301401,
              25.478358519363212
            ],
            [
              87.66267769965093,
              25.4788301949838
            ],
            [
              87.66243176697726,
              25.48021001921008
            ],
            [
              87.66250678708327,
              25.480484012711496
            ],
            [
              87.66331407607967,
              25.48056089608145
            ],
            [
              87.66442438838094,
              25.480375792197364
            ],
            [
              87.66463968940172,
              25.481942043342137
            ],
            [
              87.66451142165725,
              25.483983066926196
            ],
            [
              87.6648094476342,
              25.484465395313048
            ],
            [
              87.66541659018867,
              25.485479363858953
            ],
            [
              87.66604024467634,
              25.486321635686963
            ],
            [
              87.666556380706,
              25.487260465929495
            ],
            [
              87.66674878456848,
              25.48768137415709
            ],
            [
              87.6668562356529,
              25.488324642797046
            ],
            [
              87.66709076960389,
              25.48886208721754
            ],
            [
              87.66733248109404,
              25.489011430380902
            ],
            [
              87.66729037795497,
              25.48939111962183
            ],
            [
              87.66624315523443,
              25.489999302343538
            ],
            [
              87.66497871718322,
              25.490692221879094
            ],
            [
              87.66279286906024,
              25.49206338375611
            ],
            [
              87.66224629721047,
              25.49259112983443
            ],
            [
              87.66217001407315,
              25.493007344011914
            ],
            [
              87.66220477078981,
              25.493751070997412
            ],
            [
              87.66215322186554,
              25.494654178311023
            ],
            [
              87.66220326072182,
              25.495415674329436
            ],
            [
              87.66196611985985,
              25.49624508970627
            ],
            [
              87.66192804296992,
              25.496827619643895
            ],
            [
              87.66189165221776,
              25.497495872676982
            ],
            [
              87.66214189231317,
              25.49831724822133
            ],
            [
              87.66242005294599,
              25.4987998223227
            ],
            [
              87.66313353806373,
              25.499158029797588
            ],
            [
              87.66324434166079,
              25.49947642707678
            ],
            [
              87.66324688299471,
              25.5000002146703
            ],
            [
              87.6632491494442,
              25.500467346755148
            ],
            [
              87.66324933809041,
              25.500468811876168
            ],
            [
              87.66336259498647,
              25.501161559954692
            ],
            [
              87.65839921798876,
              25.502447544063173
            ],
            [
              87.65317926507792,
              25.503096993723624
            ],
            [
              87.6488003634451,
              25.503267927402504
            ],
            [
              87.64885733280379,
              25.506135981902077
            ],
            [
              87.64842934935129,
              25.50687367338868
            ],
            [
              87.64681864309742,
              25.506927096769285
            ],
            [
              87.64515728713285,
              25.50743239987679
            ],
            [
              87.6449473760038,
              25.50788237265761
            ],
            [
              87.64549963868089,
              25.509140949745127
            ],
            [
              87.64536327442076,
              25.510040844332288
            ],
            [
              87.64291268110546,
              25.51188979596885
            ],
            [
              87.63988177432,
              25.51056336164261
            ],
            [
              87.63709419599218,
              25.510468839651676
            ],
            [
              87.63651644092393,
              25.51093838510492
            ],
            [
              87.63609950495278,
              25.513250307903917
            ],
            [
              87.63574195301184,
              25.516301043904825
            ],
            [
              87.63542438688079,
              25.517348270609375
            ],
            [
              87.63459171598606,
              25.517754224882584
            ],
            [
              87.63419828982424,
              25.517986210644246
            ],
            [
              87.63435978894601,
              25.520117210257208
            ],
            [
              87.63393825629556,
              25.520687988900896
            ],
            [
              87.63154025844183,
              25.520934453951433
            ],
            [
              87.63129429612381,
              25.519309997164385
            ],
            [
              87.6298639563076,
              25.517420484333627
            ],
            [
              87.62815835562037,
              25.520484120704143
            ],
            [
              87.62443380121353,
              25.523350294233467
            ],
            [
              87.62167746898625,
              25.526124008626486
            ],
            [
              87.62293633478772,
              25.528914059990353
            ],
            [
              87.62324083222803,
              25.52997372072066
            ],
            [
              87.62258935422105,
              25.5315044890805
            ],
            [
              87.62248161028585,
              25.534122605808143
            ],
            [
              87.62463392968915,
              25.534015554649876
            ],
            [
              87.62838258409845,
              25.53386906881183
            ],
            [
              87.62966254413942,
              25.53443919761226
            ],
            [
              87.63052538585129,
              25.535801053959176
            ],
            [
              87.63117918869823,
              25.535903270943297
            ],
            [
              87.63397351606878,
              25.536308920892395
            ],
            [
              87.6337918452773,
              25.538192920388816
            ],
            [
              87.63441532279688,
              25.53826850560406
            ],
            [
              87.63531671570917,
              25.53830801898594
            ],
            [
              87.63602919920538,
              25.538354978851128
            ],
            [
              87.6365619720341,
              25.538626075744254
            ],
            [
              87.6370002582646,
              25.53889859371769
            ],
            [
              87.63740338443486,
              25.53991153283598
            ],
            [
              87.63787903519128,
              25.542068973717544
            ],
            [
              87.64074199474787,
              25.542162199108994
            ],
            [
              87.6420216520566,
              25.539696387869895
            ],
            [
              87.64433244775076,
              25.53829631873359
            ],
            [
              87.64665822195397,
              25.5384026260416
            ],
            [
              87.64842955955707,
              25.538653370852604
            ],
            [
              87.64942772078838,
              25.5390565936514
            ],
            [
              87.65032421428909,
              25.53884787881622
            ],
            [
              87.65079962339873,
              25.539485156612816
            ],
            [
              87.65136783925696,
              25.54003518823056
            ],
            [
              87.65155748529153,
              25.541060647712737
            ],
            [
              87.65191863139192,
              25.541952400336996
            ],
            [
              87.6530039579519,
              25.542733043074076
            ],
            [
              87.65587271523532,
              25.542866348811785
            ],
            [
              87.65828343772507,
              25.542488488624027
            ],
            [
              87.65898067591262,
              25.54326640535449
            ],
            [
              87.6605884797098,
              25.543294124926163
            ],
            [
              87.66372008404535,
              25.541893787368647
            ],
            [
              87.66547640271524,
              25.541386757857037
            ],
            [
              87.6662996089601,
              25.542988080236654
            ],
            [
              87.66990915834933,
              25.541850443824025
            ],
            [
              87.67141849331668,
              25.541433064853376
            ],
            [
              87.67235876172118,
              25.541922690621224
            ],
            [
              87.67283659718038,
              25.542672687873885
            ],
            [
              87.674436484125,
              25.54205974592443
            ],
            [
              87.67492025565157,
              25.541375181915697
            ],
            [
              87.67573945900357,
              25.540545083825997
            ],
            [
              87.67612096272492,
              25.53947424269868
            ],
            [
              87.67921710516634,
              25.539535773980052
            ],
            [
              87.68162109568134,
              25.539568010737007
            ],
            [
              87.68174417206178,
              25.542710078679775
            ],
            [
              87.68178761728387,
              25.54313336023684
            ],
            [
              87.6823514601433,
              25.5434577886035
            ],
            [
              87.68381416266593,
              25.543938805788443
            ],
            [
              87.68451207458993,
              25.54474367695507
            ],
            [
              87.68491132812301,
              25.546031626381676
            ],
            [
              87.68533914808215,
              25.546516234254977
            ],
            [
              87.68558334341402,
              25.54629114585028
            ],
            [
              87.68597540233998,
              25.545747771178004
            ],
            [
              87.68678073480567,
              25.545707321691932
            ],
            [
              87.68686541629259,
              25.546941911146817
            ],
            [
              87.68730956223368,
              25.547498423236046
            ],
            [
              87.68824652663459,
              25.54781660312224
            ],
            [
              87.68988927579463,
              25.547847913702086
            ],
            [
              87.69235102169417,
              25.547775288737995
            ],
            [
              87.693959889995,
              25.547360591220794
            ],
            [
              87.69574269998259,
              25.547430054731347
            ],
            [
              87.69651401774004,
              25.54792238976403
            ],
            [
              87.69700797167037,
              25.547986365175706
            ],
            [
              87.69766052496077,
              25.54777242773155
            ],
            [
              87.69802109883432,
              25.546417688123647
            ],
            [
              87.69809249693313,
              25.545279777886392
            ],
            [
              87.70027098695557,
              25.54572153538369
            ],
            [
              87.70114238871378,
              25.54623920293572
            ],
            [
              87.70207430997269,
              25.546304834273148
            ],
            [
              87.70270831125583,
              25.547137684613567
            ],
            [
              87.70293634859068,
              25.54758497816905
            ],
            [
              87.70376799899927,
              25.54737263018227
            ],
            [
              87.70565768604777,
              25.547313908827253
            ],
            [
              87.70857749728373,
              25.546281600668692
            ],
            [
              87.71031585144456,
              25.546365178729342
            ],
            [
              87.7131704288212,
              25.54676827509198
            ],
            [
              87.71719153596797,
              25.546303719844772
            ],
            [
              87.72029774223547,
              25.545872513102253
            ],
            [
              87.72133077965938,
              25.54650460936888
            ],
            [
              87.72250272537232,
              25.550752081929435
            ],
            [
              87.72305091688456,
              25.551757698107018
            ],
            [
              87.72325189606478,
              25.55403229311796
            ],
            [
              87.7241435692057,
              25.556741717788217
            ],
            [
              87.72526941607316,
              25.55728207405168
            ],
            [
              87.72811648533066,
              25.55927425810683
            ],
            [
              87.72821815395959,
              25.55925880691204
            ],
            [
              87.72852318140589,
              25.559243213083803
            ],
            [
              87.72908246531524,
              25.559288962916145
            ],
            [
              87.7299975790952,
              25.55927293714565
            ],
            [
              87.73074323827319,
              25.559272406329967
            ],
            [
              87.73120088140143,
              25.5593643630233
            ],
            [
              87.73140347665083,
              25.559521716832208
            ],
            [
              87.7315570059194,
              25.559640962042653
            ],
            [
              87.73155713976836,
              25.5597947699791
            ],
            [
              87.73149009310883,
              25.560640764396283
            ],
            [
              87.73162592376968,
              25.56093290221374
            ],
            [
              87.73182947841981,
              25.5611480852386
            ],
            [
              87.73206679085999,
              25.561209436832126
            ],
            [
              87.73242273301994,
              25.561270701682282
            ],
            [
              87.73284639557595,
              25.561255014110465
            ],
            [
              87.73340566241734,
              25.56126998529565
            ],
            [
              87.73386328668093,
              25.561331173127623
            ],
            [
              87.7342023252422,
              25.561438588881018
            ],
            [
              87.73432110767561,
              25.561607689808454
            ],
            [
              87.73460960971391,
              25.562053520091546
            ],
            [
              87.73471172300889,
              25.562530248646254
            ],
            [
              87.73459334212245,
              25.562807192061545
            ],
            [
              87.73368143442976,
              25.563983855696904
            ],
            [
              87.7332243186126,
              25.564507139641307
            ],
            [
              87.73256393740283,
              25.565153615611806
            ],
            [
              87.73137826363572,
              25.56590813435133
            ],
            [
              87.73022643210034,
              25.566616475884523
            ],
            [
              87.72936287263457,
              25.567524557331463
            ],
            [
              87.72907531023404,
              25.56817075365246
            ],
            [
              87.72905897976047,
              25.568893663882328
            ],
            [
              87.72899262390537,
              25.57057021838631
            ],
            [
              87.72909371581586,
              25.570643216060336
            ],
            [
              87.73181148426634,
              25.56820755305411
            ],
            [
              87.73293383309412,
              25.567699229727683
            ],
            [
              87.7333562676531,
              25.567507902210515
            ],
            [
              87.73501708193353,
              25.567414390223238
            ],
            [
              87.73593221188312,
              25.567352182025505
            ],
            [
              87.73662696263568,
              25.56722861235075
            ],
            [
              87.73745728084268,
              25.567089555087573
            ],
            [
              87.73828752628614,
              25.566873589399545
            ],
            [
              87.73892524300128,
              25.566401015816794
            ],
            [
              87.73967062370154,
              25.566062062277545
            ],
            [
              87.74051798115285,
              25.566030639765234
            ],
            [
              87.74129735410348,
              25.565799316628826
            ],
            [
              87.74156798415922,
              25.565245394372333
            ],
            [
              87.74151634720005,
              25.56441487328219
            ],
            [
              87.74200734926637,
              25.5639222996893
            ],
            [
              87.7427809586261,
              25.56366541484768
            ],
            [
              87.74349244768734,
              25.56335723010685
            ],
            [
              87.74433969284924,
              25.563233500717644
            ],
            [
              87.7452377170792,
              25.563048203398527
            ],
            [
              87.74605100143181,
              25.56286296981289
            ],
            [
              87.74693213374117,
              25.56273919939404
            ]
          ]
        ]
      }
    }
  ]
}