{
  "type": "FeatureCollection",
  "features": [
    {
      "type": "Feature",
      "properties": {
        "object_id": "10-207-01096",
        "stname": "BIHAR",
        "dtname": "Madhubani",
        "sdtname": "Andhratharhi",
        "st_area_sh": 0.0,
        "st_length_": 0.0,
        "remarks": "",
        "dist_lgd": 206,
        "state_lgd": 10,
        "subdt_lgd": 1096,
        "ac_no": null,
        "st_length(shape)": 97300.5167595078,
        "st_area(shape)": 186769445.10608673
      },
      "geometry": {
        "type": "Polygon",
        "coordinates": [
          [
            [
              86.29971464422552,
              26.414764389610088
            ],
            [
              86.30044745839328,
              26.41298214303027
            ],
            [
              86.30050029101008,
              26.412849909393348
            ],
            [
              86.30058805371839,
              26.412630250723456
            ],
            [
              86.30121013256108,
              26.411615188323676
            ],
            [
              86.30162635706648,
              26.411231776696095
            ],
            [
              86.30231318737317,
              26.410934283898413
            ],
            [
              86.3029846403188,
              26.411042925366353
            ],
            [
              86.30364122434985,
              26.41110643608183
            ],
            [
              86.30440290228601,
              26.41120160514072
            ],
            [
              86.30517471591351,
              26.411278671681806
            ],
            [
              86.3059113829555,
              26.411247487206328
            ],
            [
              86.30665318386936,
              26.411112400241375
            ],
            [
              86.30727475067232,
              26.41099541560487
            ],
            [
              86.30801644019509,
              26.411063382773502
            ],
            [
              86.30850663916753,
              26.412765001221327
            ],
            [
              86.30865664344691,
              26.413320192980926
            ],
            [
              86.30889651159407,
              26.414511727927433
            ],
            [
              86.30914674540132,
              26.415125550788233
            ],
            [
              86.3095323508303,
              26.415671767199445
            ],
            [
              86.31026856062981,
              26.41668303923022
            ],
            [
              86.31085438436592,
              26.417725727283855
            ],
            [
              86.31139029590825,
              26.418461638129745
            ],
            [
              86.31174094429623,
              26.41876859416404
            ],
            [
              86.31219692284625,
              26.41903506620319
            ],
            [
              86.31282339624732,
              26.419112114638626
            ],
            [
              86.31313415494512,
              26.4191164066369
            ],
            [
              86.3134949929234,
              26.419121388894485
            ],
            [
              86.3141866507764,
              26.419112698704406
            ],
            [
              86.31573043793152,
              26.419090750380203
            ],
            [
              86.31656239825885,
              26.419113689041765
            ],
            [
              86.31683805618525,
              26.419113742943164
            ],
            [
              86.3171788338849,
              26.419226696858896
            ],
            [
              86.31744941273669,
              26.419425451813822
            ],
            [
              86.31770496007883,
              26.41960607633193
            ],
            [
              86.31799051204978,
              26.41971443127738
            ],
            [
              86.31814883562703,
              26.41967379627408
            ],
            [
              86.31834141016942,
              26.419624369738635
            ],
            [
              86.31878765277838,
              26.419434992332654
            ],
            [
              86.32009596364976,
              26.419024804015784
            ],
            [
              86.32082274742702,
              26.41884009413988
            ],
            [
              86.32114364181616,
              26.418718372393588
            ],
            [
              86.32138433821002,
              26.41852439898685
            ],
            [
              86.32157993468503,
              26.418068641854056
            ],
            [
              86.32168529898303,
              26.41790174464063
            ],
            [
              86.32205621785542,
              26.417816104063146
            ],
            [
              86.32249226728085,
              26.417807244828147
            ],
            [
              86.32313888360551,
              26.417748819877907
            ],
            [
              86.32467262400247,
              26.41764104233182
            ],
            [
              86.32542944115461,
              26.41758267361301
            ],
            [
              86.32601083260315,
              26.417497113249564
            ],
            [
              86.32787537490853,
              26.41728558094597
            ],
            [
              86.32795066810237,
              26.417132171049975
            ],
            [
              86.3280762103583,
              26.416613234640767
            ],
            [
              86.328331978686,
              26.41611694070022
            ],
            [
              86.32856756007261,
              26.416058365253072
            ],
            [
              86.32896856532052,
              26.416022325988056
            ],
            [
              86.32968517567716,
              26.4161173300875
            ],
            [
              86.33034172108064,
              26.416334212162734
            ],
            [
              86.33086291911694,
              26.416460708818907
            ],
            [
              86.33124882009162,
              26.416366084734545
            ],
            [
              86.33155458595309,
              26.416221696290233
            ],
            [
              86.33211982569277,
              26.416056653235383
            ],
            [
              86.33214107444253,
              26.41605044636649
            ],
            [
              86.3324317072847,
              26.416113652630294
            ],
            [
              86.33274246957579,
              26.41628529908753
            ],
            [
              86.33298799710923,
              26.416258273715627
            ],
            [
              86.33336900675721,
              26.416037216040245
            ],
            [
              86.33416608370545,
              26.415635797807077
            ],
            [
              86.3334850619054,
              26.4138846181277
            ],
            [
              86.33311963443433,
              26.412792396696663
            ],
            [
              86.33297952240285,
              26.412065813807303
            ],
            [
              86.33293961474635,
              26.411682167139674
            ],
            [
              86.3329899114191,
              26.410991685688312
            ],
            [
              86.33296511342571,
              26.410386988668275
            ],
            [
              86.3328700923299,
              26.4097009760589
            ],
            [
              86.33268981392709,
              26.40929924935066
            ],
            [
              86.33232448077912,
              26.408089737850997
            ],
            [
              86.33207903409405,
              26.40756617627326
            ],
            [
              86.3318487051569,
              26.407029050277043
            ],
            [
              86.33152317725748,
              26.406500959698032
            ],
            [
              86.33119756132321,
              26.406040494879033
            ],
            [
              86.33171865335828,
              26.405705571965473
            ],
            [
              86.33225023142764,
              26.405363904776337
            ],
            [
              86.33215023276684,
              26.40479524518276
            ],
            [
              86.33274169432968,
              26.40451566871711
            ],
            [
              86.33336818030716,
              26.40433530137576
            ],
            [
              86.33399461597894,
              26.40426779208521
            ],
            [
              86.33415482062841,
              26.40489966185819
            ],
            [
              86.33544776402022,
              26.404841298761493
            ],
            [
              86.33617446694909,
              26.404773795399148
            ],
            [
              86.33681104280383,
              26.40447617169692
            ],
            [
              86.33739748008928,
              26.40419655422812
            ],
            [
              86.33787364198709,
              26.403808525262573
            ],
            [
              86.3383198639348,
              26.403307673647564
            ],
            [
              86.33870587989388,
              26.40276176077364
            ],
            [
              86.33924723882006,
              26.402473076780144
            ],
            [
              86.33977848541107,
              26.402252061887744
            ],
            [
              86.34014445815951,
              26.401737652117863
            ],
            [
              86.34041028402514,
              26.401114976365584
            ],
            [
              86.34119227825974,
              26.40023960592617
            ],
            [
              86.34168849055469,
              26.399829083828795
            ],
            [
              86.34226483975952,
              26.399571970386997
            ],
            [
              86.34295645090016,
              26.39940964571298
            ],
            [
              86.34364304944148,
              26.39921127066201
            ],
            [
              86.34479567598589,
              26.399026492854393
            ],
            [
              86.34546717744054,
              26.3988731833983
            ],
            [
              86.34596337715911,
              26.398674738226237
            ],
            [
              86.34601869002442,
              26.398110587892553
            ],
            [
              86.34610398056907,
              26.397546483080568
            ],
            [
              86.34676045859892,
              26.397370618129138
            ],
            [
              86.34812353166829,
              26.397127182312236
            ],
            [
              86.34947158939775,
              26.39684312385829
            ],
            [
              86.34960208406582,
              26.396134669276126
            ],
            [
              86.34959213881729,
              26.39552995233916
            ],
            [
              86.34958224117949,
              26.39500640539746
            ],
            [
              86.34956751419871,
              26.39375184565303
            ],
            [
              86.35008870594679,
              26.393417974198798
            ],
            [
              86.35075514898807,
              26.393445107114335
            ],
            [
              86.35138156130371,
              26.393531013621406
            ],
            [
              86.35195771557409,
              26.393819934827324
            ],
            [
              86.35203276712113,
              26.394402104197862
            ],
            [
              86.35206277624152,
              26.395006823019305
            ],
            [
              86.35198744172519,
              26.395570974842183
            ],
            [
              86.35203249313498,
              26.39608538232263
            ],
            [
              86.35207237743528,
              26.39669917365871
            ],
            [
              86.35234797068297,
              26.397240807912063
            ],
            [
              86.3527687379688,
              26.39789072414169
            ],
            [
              86.35385085933983,
              26.39936210621796
            ],
            [
              86.35450211186966,
              26.40043173287848
            ],
            [
              86.35481279061743,
              26.400977853906806
            ],
            [
              86.35509825994335,
              26.40155103818709
            ],
            [
              86.35553908571116,
              26.40262061479122
            ],
            [
              86.35575954036672,
              26.403184747103992
            ],
            [
              86.35586970256664,
              26.403730866369855
            ],
            [
              86.35618516484328,
              26.404990025352745
            ],
            [
              86.35624974922064,
              26.405246392129108
            ],
            [
              86.35632045112506,
              26.40552704819743
            ],
            [
              86.35646065119145,
              26.40610020827421
            ],
            [
              86.35663596909725,
              26.406488341371336
            ],
            [
              86.35714715091811,
              26.406574156907954
            ],
            [
              86.35726229607292,
              26.407616620940008
            ],
            [
              86.35800397391756,
              26.407725049905196
            ],
            [
              86.3586102936152,
              26.40790563964326
            ],
            [
              86.35930194338339,
              26.40806819293533
            ],
            [
              86.35935699034737,
              26.40806816799349
            ],
            [
              86.3599885050938,
              26.408208144702932
            ],
            [
              86.36085046915161,
              26.40850607417173
            ],
            [
              86.36135664915295,
              26.408555737188227
            ],
            [
              86.3623389533229,
              26.4077390213962
            ],
            [
              86.3628552285914,
              26.407355511601494
            ],
            [
              86.3635016832193,
              26.407459332985077
            ],
            [
              86.36395771476991,
              26.407364571175115
            ],
            [
              86.36437369223866,
              26.407278838293603
            ],
            [
              86.36496008999825,
              26.407125511639496
            ],
            [
              86.3653059323995,
              26.407084881051734
            ],
            [
              86.36572681826294,
              26.407274461373888
            ],
            [
              86.3664184213187,
              26.40740989075613
            ],
            [
              86.36708495059827,
              26.40745509687362
            ],
            [
              86.36786176514694,
              26.407409955927097
            ],
            [
              86.36846318722965,
              26.407369363254805
            ],
            [
              86.36877446874698,
              26.407319551684825
            ],
            [
              86.36913967613079,
              26.407261110158547
            ],
            [
              86.36966590742757,
              26.406886558618183
            ],
            [
              86.37010700358829,
              26.40647587591469
            ],
            [
              86.37041267063508,
              26.40592988228216
            ],
            [
              86.37066829702896,
              26.405329674116988
            ],
            [
              86.37093895762743,
              26.404914446334576
            ],
            [
              86.37119458491962,
              26.40455341571918
            ],
            [
              86.37115950660608,
              26.40373658470137
            ],
            [
              86.37108936974197,
              26.403154447925278
            ],
            [
              86.37120966763322,
              26.401899851215806
            ],
            [
              86.3713199538007,
              26.401326721772918
            ],
            [
              86.37154094924203,
              26.401089159203696
            ],
            [
              86.37178597641388,
              26.400825761222993
            ],
            [
              86.37230222024135,
              26.40064076633675
            ],
            [
              86.3729937747881,
              26.400667816287342
            ],
            [
              86.37379054181756,
              26.40059564123106
            ],
            [
              86.37438181203925,
              26.40047832327625
            ],
            [
              86.37519367885032,
              26.400189509658098
            ],
            [
              86.37568975280472,
              26.399950329047297
            ],
            [
              86.37743869271286,
              26.399241767207304
            ],
            [
              86.3785010610291,
              26.398790418157944
            ],
            [
              86.37871151474062,
              26.39871377295426
            ],
            [
              86.37903724206598,
              26.398998067391858
            ],
            [
              86.37973886313381,
              26.399016097731057
            ],
            [
              86.3803853231516,
              26.399169502749153
            ],
            [
              86.38106186684996,
              26.399228140681434
            ],
            [
              86.38149774829043,
              26.398785887230044
            ],
            [
              86.38164813974375,
              26.398578236809772
            ],
            [
              86.38194875915694,
              26.398307490728527
            ],
            [
              86.3825651184262,
              26.39805020572652
            ],
            [
              86.38324659836704,
              26.39791472915131
            ],
            [
              86.38380781455258,
              26.397580815020163
            ],
            [
              86.38447932858365,
              26.397300915311046
            ],
            [
              86.38506062481076,
              26.397282829183066
            ],
            [
              86.38582230813678,
              26.397260187120256
            ],
            [
              86.38655397515593,
              26.39728273825755
            ],
            [
              86.38706509678964,
              26.39756699518257
            ],
            [
              86.38779674494414,
              26.397422502747272
            ],
            [
              86.38830793574817,
              26.39794142086869
            ],
            [
              86.38897442190859,
              26.39798652367732
            ],
            [
              86.3898613106223,
              26.397891712247297
            ],
            [
              86.39041763727775,
              26.3983519456565
            ],
            [
              86.39105404694413,
              26.398225540186875
            ],
            [
              86.39172051513829,
              26.398121651757137
            ],
            [
              86.39236199130288,
              26.398099004226346
            ],
            [
              86.39295826963227,
              26.398130519745575
            ],
            [
              86.3934153998225,
              26.397334922245037
            ],
            [
              86.39406497519771,
              26.39664379088043
            ],
            [
              86.39500800592174,
              26.396239125973175
            ],
            [
              86.39498928233627,
              26.394330575398065
            ],
            [
              86.39482829884746,
              26.39274800264314
            ],
            [
              86.39386646368958,
              26.3917675303404
            ],
            [
              86.39165822236322,
              26.390399827039218
            ],
            [
              86.39017632643625,
              26.388502927119543
            ],
            [
              86.39002712704732,
              26.388106998629357
            ],
            [
              86.38896529322868,
              26.386617370021803
            ],
            [
              86.38870238509111,
              26.385865931619893
            ],
            [
              86.38822073538523,
              26.385305698108045
            ],
            [
              86.38831939465791,
              26.384122679188344
            ],
            [
              86.38834790179513,
              26.382935659808172
            ],
            [
              86.388472817027,
              26.38085896560582
            ],
            [
              86.38701109007478,
              26.378952816599913
            ],
            [
              86.38472384191918,
              26.377156965763763
            ],
            [
              86.38571000525154,
              26.375636590958813
            ],
            [
              86.38774174199764,
              26.37384263220298
            ],
            [
              86.38705974372888,
              26.371740738754568
            ],
            [
              86.38705827678001,
              26.371740878794725
            ],
            [
              86.38705560429204,
              26.371732638155763
            ],
            [
              86.3772647357547,
              26.372662913973077
            ],
            [
              86.37492630159421,
              26.372812176978204
            ],
            [
              86.37074801712053,
              26.371793455812085
            ],
            [
              86.3685250012027,
              26.369870592805196
            ],
            [
              86.36754205922891,
              26.36987830479612
            ],
            [
              86.36753804914946,
              26.369878335380097
            ],
            [
              86.36752866624632,
              26.368897694704607
            ],
            [
              86.36752859438111,
              26.368890063133094
            ],
            [
              86.3666860321368,
              26.368797404128188
            ],
            [
              86.36620311311141,
              26.368079172386206
            ],
            [
              86.36591880979869,
              26.368112316267833
            ],
            [
              86.3659128548667,
              26.368113010051736
            ],
            [
              86.36487650715095,
              26.36819338110774
            ],
            [
              86.36330143616608,
              26.367993526234123
            ],
            [
              86.36414275693868,
              26.36743195369523
            ],
            [
              86.36479311384821,
              26.366799646295128
            ],
            [
              86.36562363776939,
              26.365642551120107
            ],
            [
              86.36582845455247,
              26.36252689882268
            ],
            [
              86.36582901869448,
              26.36251832027675
            ],
            [
              86.36594306880293,
              26.360829757385577
            ],
            [
              86.36876254630653,
              26.36123642015119
            ],
            [
              86.36873690389675,
              26.361178068794224
            ],
            [
              86.36718860180899,
              26.357494508044297
            ],
            [
              86.36779518471303,
              26.35597813432712
            ],
            [
              86.36885203827174,
              26.355441862317313
            ],
            [
              86.36831603959287,
              26.352842372900003
            ],
            [
              86.367140241904,
              26.3524589569186
            ],
            [
              86.36689146875743,
              26.351599012061584
            ],
            [
              86.36683596005939,
              26.35104447102015
            ],
            [
              86.3667961691839,
              26.350548326734014
            ],
            [
              86.36576627676178,
              26.350227032190414
            ],
            [
              86.36589471069459,
              26.34795624276031
            ],
            [
              86.36431052001294,
              26.34782417133744
            ],
            [
              86.36388965840402,
              26.348860737774714
            ],
            [
              86.36304981985162,
              26.349029732754108
            ],
            [
              86.3626129367896,
              26.347354521029025
            ],
            [
              86.36235171029824,
              26.347275347816122
            ],
            [
              86.36098451216507,
              26.346776087300615
            ],
            [
              86.36036622241626,
              26.345588793044286
            ],
            [
              86.3603661262965,
              26.34558861030689
            ],
            [
              86.36036193835068,
              26.34558056825157
            ],
            [
              86.35913520438858,
              26.34458378376698
            ],
            [
              86.35904436225546,
              26.342937466170504
            ],
            [
              86.35888368958373,
              26.34288907264938
            ],
            [
              86.35816533739374,
              26.34267809762375
            ],
            [
              86.35769731692733,
              26.33981621891675
            ],
            [
              86.35535516374156,
              26.33950494323912
            ],
            [
              86.35594491131886,
              26.336206289624442
            ],
            [
              86.35394073937728,
              26.336650438617827
            ],
            [
              86.3535797010747,
              26.335334756380767
            ],
            [
              86.35357743282859,
              26.335326492215284
            ],
            [
              86.35355225844107,
              26.334248303793252
            ],
            [
              86.35201634142616,
              26.33442709710519
            ],
            [
              86.35189560964864,
              26.333308929714548
            ],
            [
              86.35248057100206,
              26.333205120597697
            ],
            [
              86.35195381059755,
              26.33153055332255
            ],
            [
              86.35052702990652,
              26.33160463614479
            ],
            [
              86.35003612485825,
              26.32999297383675
            ],
            [
              86.34939070059798,
              26.32687988623663
            ],
            [
              86.34989181769438,
              26.325851758128504
            ],
            [
              86.34979453464068,
              26.324038455283265
            ],
            [
              86.34923433265311,
              26.323054540259918
            ],
            [
              86.34770008111474,
              26.321382108861023
            ],
            [
              86.34747306696097,
              26.320675405235942
            ],
            [
              86.34585708490141,
              26.32085023787969
            ],
            [
              86.3447791595611,
              26.320190607896233
            ],
            [
              86.34446211265627,
              26.319489121087205
            ],
            [
              86.34317657407739,
              26.319652351110975
            ],
            [
              86.342116567432,
              26.319822896053473
            ],
            [
              86.34102555273965,
              26.319370926083568
            ],
            [
              86.3409068251035,
              26.314719452601523
            ],
            [
              86.3400815141059,
              26.31268157480957
            ],
            [
              86.34015379704522,
              26.308096348174427
            ],
            [
              86.3414519533606,
              26.306619894940496
            ],
            [
              86.3411393019125,
              26.304253225842174
            ],
            [
              86.34087476333269,
              26.301669613705453
            ],
            [
              86.3355089231214,
              26.29917428907004
            ],
            [
              86.33365526210902,
              26.30014041590108
            ],
            [
              86.33201487372152,
              26.30035137178772
            ],
            [
              86.33125654111151,
              26.299567381201715
            ],
            [
              86.33040855034791,
              26.298292234059854
            ],
            [
              86.33003363576913,
              26.295659764140392
            ],
            [
              86.32933243960444,
              26.29510104434129
            ],
            [
              86.32859513386028,
              26.294416175792506
            ],
            [
              86.32762925269037,
              26.293917980798927
            ],
            [
              86.3266154428068,
              26.293117889945364
            ],
            [
              86.32589972717219,
              26.291521279673916
            ],
            [
              86.3241496149626,
              26.291764501265124
            ],
            [
              86.32415393675743,
              26.292779862178854
            ],
            [
              86.32412976938136,
              26.293953261624356
            ],
            [
              86.32345740105244,
              26.294337345712005
            ],
            [
              86.32333645906908,
              26.294798539700945
            ],
            [
              86.3235975346435,
              26.29542380781153
            ],
            [
              86.32397880659954,
              26.29658963194641
            ],
            [
              86.32426164835327,
              26.297395303244887
            ],
            [
              86.32414116990063,
              26.29845207930963
            ],
            [
              86.32347551468182,
              26.299576219703262
            ],
            [
              86.32285450663096,
              26.299562778738
            ],
            [
              86.32136286398314,
              26.300151534238008
            ],
            [
              86.31971606431945,
              26.300213464627728
            ],
            [
              86.31960469298717,
              26.30171244361643
            ],
            [
              86.31862113656574,
              26.302031105742653
            ],
            [
              86.31827017825894,
              26.30361766204801
            ],
            [
              86.31823875788527,
              26.30401041135544
            ],
            [
              86.31777387703079,
              26.305200699257078
            ],
            [
              86.31756928392821,
              26.306912434002754
            ],
            [
              86.3173800771698,
              26.30811863807941
            ],
            [
              86.31760490482415,
              26.308608837745552
            ],
            [
              86.31822897433352,
              26.30895169201943
            ],
            [
              86.31939287563307,
              26.309186715696868
            ],
            [
              86.32087427928327,
              26.309107914986612
            ],
            [
              86.32511075392613,
              26.309112401113268
            ],
            [
              86.32957498293453,
              26.309390196780793
            ],
            [
              86.33133134292687,
              26.30978756965268
            ],
            [
              86.33391159278207,
              26.3099350697392
            ],
            [
              86.33409016438586,
              26.311910170662152
            ],
            [
              86.33387139137649,
              26.313689804972952
            ],
            [
              86.33308508433021,
              26.313677670926204
            ],
            [
              86.3317872918325,
              26.31358820795881
            ],
            [
              86.32999187488821,
              26.313303916862086
            ],
            [
              86.3288961727867,
              26.31341137381549
            ],
            [
              86.32776302171764,
              26.313257482169984
            ],
            [
              86.3269223522236,
              26.31332697315418
            ],
            [
              86.32586340020039,
              26.31307320794097
            ],
            [
              86.32542414828096,
              26.313225412057484
            ],
            [
              86.32488602508641,
              26.314068725756577
            ],
            [
              86.32446636272842,
              26.316346181253987
            ],
            [
              86.32395667300925,
              26.31646283977658
            ],
            [
              86.32344638770707,
              26.316516268872082
            ],
            [
              86.31993053260197,
              26.316479358721462
            ],
            [
              86.31800869574776,
              26.31606497929119
            ],
            [
              86.31660149473663,
              26.316061939601372
            ],
            [
              86.31576442119871,
              26.316528408258055
            ],
            [
              86.3144346495752,
              26.316781942859702
            ],
            [
              86.31385610488783,
              26.317580445160154
            ],
            [
              86.31321781594585,
              26.317878482660593
            ],
            [
              86.31221171181078,
              26.31793561181541
            ],
            [
              86.31098615374337,
              26.319740669245903
            ],
            [
              86.3094138333999,
              26.31975224305042
            ],
            [
              86.30917497316247,
              26.321022018622187
            ],
            [
              86.30687260636066,
              26.321169932761705
            ],
            [
              86.30530048364655,
              26.31900645093969
            ],
            [
              86.30358711522705,
              26.319479301769967
            ],
            [
              86.30226423817332,
              26.31884823637992
            ],
            [
              86.30179543617264,
              26.319609761335908
            ],
            [
              86.30066344303198,
              26.319586454269324
            ],
            [
              86.29843920630366,
              26.318957450764145
            ],
            [
              86.29874136722587,
              26.318034723384088
            ],
            [
              86.29979894931832,
              26.315355634310666
            ],
            [
              86.29887990810397,
              26.312844340945503
            ],
            [
              86.29843427275613,
              26.312288078634737
            ],
            [
              86.29608515762689,
              26.311677981338836
            ],
            [
              86.2962497801909,
              26.309370840691166
            ],
            [
              86.2959492766604,
              26.308813510027633
            ],
            [
              86.29559299224229,
              26.305373095091767
            ],
            [
              86.29718570793601,
              26.303750458742048
            ],
            [
              86.2971706979859,
              26.303186499157423
            ],
            [
              86.29711906192507,
              26.302464919986015
            ],
            [
              86.2963979186695,
              26.301332999238817
            ],
            [
              86.29542368586237,
              26.301010707224997
            ],
            [
              86.2932264048808,
              26.298310196346776
            ],
            [
              86.29471396468566,
              26.297247908002227
            ],
            [
              86.29493695528525,
              26.29587445778415
            ],
            [
              86.29581271027932,
              26.295818449279327
            ],
            [
              86.29685136936027,
              26.29551308426602
            ],
            [
              86.29646068216177,
              26.294378793906706
            ],
            [
              86.29617660522452,
              26.29341062576635
            ],
            [
              86.29816935059569,
              26.293414168603135
            ],
            [
              86.29960100015555,
              26.294491197244934
            ],
            [
              86.30057417205231,
              26.29469620935239
            ],
            [
              86.30104715032076,
              26.294394939087972
            ],
            [
              86.3010358620909,
              26.293144998873608
            ],
            [
              86.30137788665219,
              26.292763475964822
            ],
            [
              86.30204378261948,
              26.291657555797084
            ],
            [
              86.30138124635133,
              26.29091780291499
            ],
            [
              86.29975177788444,
              26.290668004325678
            ],
            [
              86.29857891499161,
              26.289968154177576
            ],
            [
              86.29747916418312,
              26.289597075711736
            ],
            [
              86.29658556595255,
              26.289883436837833
            ],
            [
              86.29534502757949,
              26.290009763402463
            ],
            [
              86.29486891778394,
              26.289963580327118
            ],
            [
              86.29471622215196,
              26.289125362609443
            ],
            [
              86.29288720911435,
              26.286701940903473
            ],
            [
              86.292768010761,
              26.285696460109204
            ],
            [
              86.29252211312165,
              26.285070992160065
            ],
            [
              86.28932778212472,
              26.287287324188476
            ],
            [
              86.28821984137582,
              26.287687872054224
            ],
            [
              86.28687149528716,
              26.288076726396476
            ],
            [
              86.28511959004031,
              26.288120895087392
            ],
            [
              86.28421754584944,
              26.28745506478457
            ],
            [
              86.28287131259836,
              26.286390757679527
            ],
            [
              86.28147519500122,
              26.28533130076989
            ],
            [
              86.28102280881403,
              26.285700093389433
            ],
            [
              86.27979395662446,
              26.285442633602624
            ],
            [
              86.27908707142907,
              26.285894478951526
            ],
            [
              86.27810294637409,
              26.28614524385946
            ],
            [
              86.27707582705129,
              26.286053298266093
            ],
            [
              86.27537393460953,
              26.285523965750347
            ],
            [
              86.27331932495969,
              26.28473082265079
            ],
            [
              86.27237264797392,
              26.28524751031501
            ],
            [
              86.27012939930093,
              26.285200297614523
            ],
            [
              86.26898865477278,
              26.284711990808514
            ],
            [
              86.26592245856968,
              26.28503158724015
            ],
            [
              86.26495475202313,
              26.2848579079067
            ],
            [
              86.26315239379663,
              26.283710914634863
            ],
            [
              86.26185414405644,
              26.28352156023129
            ],
            [
              86.26031845072205,
              26.283090086619335
            ],
            [
              86.25750440533102,
              26.283042185996063
            ],
            [
              86.25672304171371,
              26.2835756303389
            ],
            [
              86.25626806568356,
              26.283646518031286
            ],
            [
              86.25523322264594,
              26.284393856167874
            ],
            [
              86.2545133792526,
              26.285684944921684
            ],
            [
              86.25424720573895,
              26.28675632686396
            ],
            [
              86.25365592294085,
              26.28843907669048
            ],
            [
              86.25331490718764,
              26.288951463892264
            ],
            [
              86.25251810692052,
              26.290031005742424
            ],
            [
              86.25243551132172,
              26.290902516601445
            ],
            [
              86.2528122207344,
              26.292217549388194
            ],
            [
              86.25331864777249,
              26.293463951931876
            ],
            [
              86.25319985455928,
              26.29478242679043
            ],
            [
              86.25249521874537,
              26.29552747280241
            ],
            [
              86.25135748537008,
              26.295390988612105
            ],
            [
              86.25099398209035,
              26.2956236430406
            ],
            [
              86.25056596180693,
              26.29650206527724
            ],
            [
              86.25031531567295,
              26.297049861834356
            ],
            [
              86.25000000880488,
              26.297413516133176
            ],
            [
              86.24863449501287,
              26.298988377752142
            ],
            [
              86.24867461557005,
              26.299579227612295
            ],
            [
              86.24954495641792,
              26.300642687279012
            ],
            [
              86.25000000790655,
              26.301531000240143
            ],
            [
              86.25010005777135,
              26.301726302291176
            ],
            [
              86.25056234429125,
              26.304836806860198
            ],
            [
              86.25060911687315,
              26.30560811475251
            ],
            [
              86.25107390879442,
              26.306674345644872
            ],
            [
              86.25151376797497,
              26.308913951645973
            ],
            [
              86.25212810693318,
              26.310471078307877
            ],
            [
              86.25446600569776,
              26.310405032103034
            ],
            [
              86.2550003200355,
              26.310816448317013
            ],
            [
              86.25641352897921,
              26.311514996147626
            ],
            [
              86.2566274960018,
              26.313092923352823
            ],
            [
              86.25754781911205,
              26.313546689330284
            ],
            [
              86.26037491702418,
              26.31329671725554
            ],
            [
              86.26159915187314,
              26.31299023874508
            ],
            [
              86.26245985379803,
              26.31291652167148
            ],
            [
              86.26339849265862,
              26.313749205337004
            ],
            [
              86.26345889627662,
              26.314362433725023
            ],
            [
              86.26284045201758,
              26.315219692835726
            ],
            [
              86.26241458319927,
              26.316346351154138
            ],
            [
              86.2625130969449,
              26.31731582218873
            ],
            [
              86.26280623518844,
              26.317625109889445
            ],
            [
              86.26372547043886,
              26.31794805702968
            ],
            [
              86.2652236267708,
              26.318036677609662
            ],
            [
              86.26829427322784,
              26.318132270361513
            ],
            [
              86.2696558937214,
              26.31921015231002
            ],
            [
              86.27167680666663,
              26.320098231957985
            ],
            [
              86.27168254510465,
              26.320743481089313
            ],
            [
              86.27148162970487,
              26.321254872815626
            ],
            [
              86.27059374925106,
              26.321658313065647
            ],
            [
              86.26905553165072,
              26.32328470513955
            ],
            [
              86.26875396092164,
              26.324306678057763
            ],
            [
              86.26856506408201,
              26.32560760082785
            ],
            [
              86.26904412035167,
              26.326560876190687
            ],
            [
              86.269930711723,
              26.327145736931897
            ],
            [
              86.27040853280916,
              26.32737698303067
            ],
            [
              86.27235967809784,
              26.327146488931547
            ],
            [
              86.2734333669833,
              26.32679128208483
            ],
            [
              86.27424226216742,
              26.32708333865822
            ],
            [
              86.27515908544133,
              26.327686014400353
            ],
            [
              86.27801662366518,
              26.33026922996381
            ],
            [
              86.2784841644312,
              26.331037517632563
            ],
            [
              86.27867977887252,
              26.33276896832132
            ],
            [
              86.27835848024151,
              26.33382267961525
            ],
            [
              86.27807808370196,
              26.334961842672833
            ],
            [
              86.27743702435565,
              26.336663095970085
            ],
            [
              86.27656837503548,
              26.33755833968999
            ],
            [
              86.27615710923043,
              26.338062158796184
            ],
            [
              86.27512147028544,
              26.33933309572698
            ],
            [
              86.27449443992894,
              26.34093498035755
            ],
            [
              86.2746282035663,
              26.34190421010489
            ],
            [
              86.2755175006633,
              26.34278684998391
            ],
            [
              86.27607316705702,
              26.343883860787958
            ],
            [
              86.27581083114627,
              26.3453703798002
            ],
            [
              86.2744031028241,
              26.347059116891817
            ],
            [
              86.273513412265,
              26.347855100849692
            ],
            [
              86.27331872937665,
              26.348497332730005
            ],
            [
              86.27218026926425,
              26.350053249332554
            ],
            [
              86.27244269859979,
              26.350841005979124
            ],
            [
              86.2734733968107,
              26.351839963089212
            ],
            [
              86.27392196875118,
              26.35272575103573
            ],
            [
              86.2734850650279,
              26.353171110063123
            ],
            [
              86.27164166726766,
              26.353170704364413
            ],
            [
              86.2705296562522,
              26.353751685993757
            ],
            [
              86.268178580999,
              26.354133969148325
            ],
            [
              86.26727217009756,
              26.353021268690608
            ],
            [
              86.2665209009406,
              26.35075227929949
            ],
            [
              86.26582365197326,
              26.350639927332196
            ],
            [
              86.26556136097828,
              26.34985206386373
            ],
            [
              86.26323887011746,
              26.347761208639444
            ],
            [
              86.26126289808929,
              26.347495327208552
            ],
            [
              86.25904176863351,
              26.346671663971136
            ],
            [
              86.25755626058077,
              26.34577515524345
            ],
            [
              86.25577725855166,
              26.345097249359586
            ],
            [
              86.25455252244278,
              26.345385543810924
            ],
            [
              86.25261790166374,
              26.345841339862414
            ],
            [
              86.25103446107536,
              26.346348797755265
            ],
            [
              86.25000002407623,
              26.346213484347537
            ],
            [
              86.24958267308342,
              26.346158887206286
            ],
            [
              86.24887307228096,
              26.34606605703393
            ],
            [
              86.24799275564185,
              26.345629978179897
            ],
            [
              86.24762992699692,
              26.345662185024654
            ],
            [
              86.24539998686485,
              26.345860106225054
            ],
            [
              86.24485571110895,
              26.34606239264111
            ],
            [
              86.24463763609057,
              26.34632566270773
            ],
            [
              86.24481955212212,
              26.348269314984496
            ],
            [
              86.24463755164892,
              26.34866767418207
            ],
            [
              86.24413976281066,
              26.349032064800195
            ],
            [
              86.24296713437809,
              26.348972576278435
            ],
            [
              86.24165320723961,
              26.34937876394029
            ],
            [
              86.24049200717408,
              26.350077218398134
            ],
            [
              86.24016077676926,
              26.350011821862747
            ],
            [
              86.238926967676,
              26.351008594192944
            ],
            [
              86.23666828414979,
              26.351651395387336
            ],
            [
              86.23589715863181,
              26.351688240391777
            ],
            [
              86.23298080501138,
              26.352764236207584
            ],
            [
              86.23289785727299,
              26.351248595779598
            ],
            [
              86.23376276870327,
              26.34986178722699
            ],
            [
              86.23478263592678,
              26.349033504116132
            ],
            [
              86.23584081629718,
              26.349188670803663
            ],
            [
              86.23668098093803,
              26.349020457698465
            ],
            [
              86.23671129907886,
              26.3484607000317
            ],
            [
              86.23509921031776,
              26.347975404031907
            ],
            [
              86.23398139798215,
              26.345514765058645
            ],
            [
              86.23186438057289,
              26.341576291044984
            ],
            [
              86.23138881695304,
              26.341611088020922
            ],
            [
              86.22807537923097,
              26.343082328626423
            ],
            [
              86.22738327671189,
              26.342987741023272
            ],
            [
              86.22669239679992,
              26.343619665827436
            ],
            [
              86.2261855780964,
              26.344114996167036
            ],
            [
              86.22522168579653,
              26.34573172659799
            ],
            [
              86.22519634881392,
              26.345774223847787
            ],
            [
              86.22517794323207,
              26.34580509594745
            ],
            [
              86.22526205967866,
              26.346396391264502
            ],
            [
              86.22560378869423,
              26.348798504960172
            ],
            [
              86.22480476240183,
              26.349692869936412
            ],
            [
              86.22499672429318,
              26.35048129233788
            ],
            [
              86.22478795132957,
              26.351868063679323
            ],
            [
              86.22439553577244,
              26.35285900417818
            ],
            [
              86.22432202932768,
              26.352865781135563
            ],
            [
              86.22425866126923,
              26.35287162272922
            ],
            [
              86.22348923716038,
              26.35616569765786
            ],
            [
              86.22275351963766,
              26.359028385726063
            ],
            [
              86.22300531022526,
              26.3603434572465
            ],
            [
              86.223526916995,
              26.361027968153998
            ],
            [
              86.22437626870622,
              26.36141178393206
            ],
            [
              86.22560131114066,
              26.361820199327163
            ],
            [
              86.22651869855655,
              26.362524897054694
            ],
            [
              86.22736369164207,
              26.363567781281112
            ],
            [
              86.22737644412582,
              26.363580231247514
            ],
            [
              86.23130723465391,
              26.367417257783423
            ],
            [
              86.2318080993237,
              26.36821900360562
            ],
            [
              86.23248873215324,
              26.370637885090105
            ],
            [
              86.23314719186659,
              26.372623257164772
            ],
            [
              86.23413360043908,
              26.375802194005978
            ],
            [
              86.23471208943089,
              26.378522986159318
            ],
            [
              86.23476372459342,
              26.379814393674813
            ],
            [
              86.23448651617484,
              26.38065147608987
            ],
            [
              86.23399663700265,
              26.382130715789344
            ],
            [
              86.23283785610022,
              26.384553280656476
            ],
            [
              86.2323285580465,
              26.38577396381175
            ],
            [
              86.2320852206057,
              26.387704840270285
            ],
            [
              86.23212939436151,
              26.390120301809308
            ],
            [
              86.23250794082895,
              26.392000337883598
            ],
            [
              86.23410946809729,
              26.394658892803307
            ],
            [
              86.23536749936386,
              26.3962050438832
            ],
            [
              86.23637508571913,
              26.39696433600384
            ],
            [
              86.23663095016659,
              26.397067691186223
            ],
            [
              86.23748498569371,
              26.397412669124915
            ],
            [
              86.2394249577369,
              26.398176905083307
            ],
            [
              86.24047257212293,
              26.398954439076842
            ],
            [
              86.23989854775805,
              26.399344146740788
            ],
            [
              86.23948991132184,
              26.399739245741998
            ],
            [
              86.23921638240266,
              26.400171177765795
            ],
            [
              86.23902334882114,
              26.400558392608282
            ],
            [
              86.2389762797952,
              26.400856094807317
            ],
            [
              86.23892882359536,
              26.401212483049306
            ],
            [
              86.23891675562786,
              26.401523915223013
            ],
            [
              86.23894010374038,
              26.40178587697456
            ],
            [
              86.23905356365572,
              26.402066375707722
            ],
            [
              86.23910215263112,
              26.40230138482969
            ],
            [
              86.23909978377374,
              26.402662527090115
            ],
            [
              86.2390071539932,
              26.40302770334197
            ],
            [
              86.23893261987577,
              26.403690928961655
            ],
            [
              86.23895401415257,
              26.404250831882393
            ],
            [
              86.2389512302735,
              26.404675174136354
            ],
            [
              86.23886328430885,
              26.405090035079308
            ],
            [
              86.23864043204982,
              26.405436459837205
            ],
            [
              86.23832283357943,
              26.40570563472365
            ],
            [
              86.238030952079,
              26.405875628750767
            ],
            [
              86.23771427078853,
              26.406004861215948
            ],
            [
              86.23740723021767,
              26.406192830917423
            ],
            [
              86.23707918523885,
              26.406525148776204
            ],
            [
              86.23688177506527,
              26.406813019658205
            ],
            [
              86.23676937875524,
              26.407132945171266
            ],
            [
              86.23673784519383,
              26.407353983703533
            ],
            [
              86.23676667572454,
              26.407543743809224
            ],
            [
              86.23682024585818,
              26.407783294075074
            ],
            [
              86.23689392837274,
              26.40801392431782
            ],
            [
              86.2370320982466,
              26.408348728695437
            ],
            [
              86.23720467718908,
              26.408787548605293
            ],
            [
              86.23736124006838,
              26.409375259157986
            ],
            [
              86.23747289257335,
              26.409931129385754
            ],
            [
              86.23754111872087,
              26.410229444617077
            ],
            [
              86.23754473893148,
              26.41044164316233
            ],
            [
              86.2374827093628,
              26.410725721246862
            ],
            [
              86.23733447656112,
              26.411158316133687
            ],
            [
              86.23721712334738,
              26.4114691856338
            ],
            [
              86.23702904756789,
              26.411860938035254
            ],
            [
              86.23687677683903,
              26.412144534724007
            ],
            [
              86.23659715374895,
              26.412734432622845
            ],
            [
              86.23640889830646,
              26.413153270392066
            ],
            [
              86.23615472179343,
              26.413684614638697
            ],
            [
              86.23602694902068,
              26.414054114970245
            ],
            [
              86.23588950588389,
              26.4143693911304
            ],
            [
              86.23581711694337,
              26.41470307164111
            ],
            [
              86.23578554924596,
              26.414928624354886
            ],
            [
              86.23577296384883,
              26.41531679774525
            ],
            [
              86.23576470563641,
              26.41580882633858
            ],
            [
              86.23575728285724,
              26.416174454957353
            ],
            [
              86.2357255363951,
              26.4164270928849
            ],
            [
              86.23562739275535,
              26.416864467730324
            ],
            [
              86.23557033985333,
              26.41715308594904
            ],
            [
              86.23557321176732,
              26.417478138890264
            ],
            [
              86.2359871940778,
              26.4174901848131
            ],
            [
              86.24222513493659,
              26.417671545269343
            ],
            [
              86.24265350915621,
              26.417671797884946
            ],
            [
              86.24510299664543,
              26.417673221060173
            ],
            [
              86.2467371776743,
              26.41755242085435
            ],
            [
              86.2468986956607,
              26.417569502996184
            ],
            [
              86.24922827961902,
              26.417815861906448
            ],
            [
              86.25000155390715,
              26.417897628784146
            ],
            [
              86.2505248602894,
              26.41762273493391
            ],
            [
              86.25099101136168,
              26.417564502972354
            ],
            [
              86.25125663600468,
              26.41756472099432
            ],
            [
              86.25177789243145,
              26.417529074800534
            ],
            [
              86.25243705462738,
              26.41749933208686
            ],
            [
              86.2524646697375,
              26.41749808590159
            ],
            [
              86.25378281895787,
              26.417413416872638
            ],
            [
              86.25459989869253,
              26.417328381729128
            ],
            [
              86.25472527296347,
              26.417292379063955
            ],
            [
              86.25604855336076,
              26.417126545901258
            ],
            [
              86.25727159165376,
              26.417064373991188
            ],
            [
              86.25785322115583,
              26.416776030694507
            ],
            [
              86.25847501613087,
              26.416478685744963
            ],
            [
              86.25873076020407,
              26.4163615528877
            ],
            [
              86.25911172763124,
              26.416294184988562
            ],
            [
              86.25978337101968,
              26.416276624774117
            ],
            [
              86.2604498374172,
              26.41639455901676
            ],
            [
              86.2609209328168,
              26.416440061698435
            ],
            [
              86.26187303832182,
              26.416580683125787
            ],
            [
              86.2627299861871,
              26.41665805661613
            ],
            [
              86.26334637779571,
              26.41676687129564
            ],
            [
              86.26406804566743,
              26.416862228767958
            ],
            [
              86.26482978019743,
              26.416916979953804
            ],
            [
              86.2655815748688,
              26.41692653033429
            ],
            [
              86.2661680723414,
              26.416863811246934
            ],
            [
              86.26686482723532,
              26.416697370059104
            ],
            [
              86.26710051013161,
              26.416643411216807
            ],
            [
              86.26953647977237,
              26.416401530158453
            ],
            [
              86.27021333069456,
              26.41636718933698
            ],
            [
              86.27023822031614,
              26.416365927049128
            ],
            [
              86.27260406027932,
              26.416128421188322
            ],
            [
              86.27304020223123,
              26.41608820166258
            ],
            [
              86.27317553881868,
              26.41606117061282
            ],
            [
              86.2742091538593,
              26.415921127002342
            ],
            [
              86.2752958099259,
              26.415773886776616
            ],
            [
              86.27584718776244,
              26.415697495819167
            ],
            [
              86.27615293206435,
              26.415679630599946
            ],
            [
              86.27731588025138,
              26.4154412801849
            ],
            [
              86.27797762959533,
              26.415288332851247
            ],
            [
              86.27920585296415,
              26.4148559030943
            ],
            [
              86.28067969818957,
              26.414509390766668
            ],
            [
              86.28141166704265,
              26.414221074873076
            ],
            [
              86.28242928937627,
              26.41391929196107
            ],
            [
              86.28319110565297,
              26.4138295710426
            ],
            [
              86.2838978228634,
              26.41386164302664
            ],
            [
              86.28450407967898,
              26.414119201717337
            ],
            [
              86.28499520930606,
              26.414119580652432
            ],
            [
              86.28571686280472,
              26.414120027168313
            ],
            [
              86.28596714601927,
              26.414607574004638
            ],
            [
              86.28650744223849,
              26.415857976145
            ],
            [
              86.28671749799634,
              26.416431186267396
            ],
            [
              86.28691246385402,
              26.417175959830523
            ],
            [
              86.2871474442677,
              26.41787109212572
            ],
            [
              86.28744275014601,
              26.418426399291757
            ],
            [
              86.28809413742316,
              26.418688501266438
            ],
            [
              86.28861018092633,
              26.41894604515618
            ],
            [
              86.28891546259582,
              26.419478735187116
            ],
            [
              86.28931105908741,
              26.420034082881756
            ],
            [
              86.29043452811433,
              26.41902391021748
            ],
            [
              86.29098620778481,
              26.418554883991657
            ],
            [
              86.29167298778586,
              26.41829347036873
            ],
            [
              86.2923296652417,
              26.418248777749618
            ],
            [
              86.292861280142,
              26.417730078062785
            ],
            [
              86.29343287366568,
              26.41744614434025
            ],
            [
              86.29407438576293,
              26.417387824597924
            ],
            [
              86.29433511009604,
              26.417320220772005
            ],
            [
              86.29472624285894,
              26.41696397319244
            ],
            [
              86.29542811096347,
              26.416725186166328
            ],
            [
              86.2961599019501,
              26.41659471066491
            ],
            [
              86.29574979137853,
              26.41532187107825
            ],
            [
              86.2982811531193,
              26.41486291133727
            ],
            [
              86.29875226918018,
              26.41484057281273
            ],
            [
              86.29971464422552,
              26.414764389610088
            ]
          ]
        ]
      }
    }
  ]
}