{
  "type": "FeatureCollection",
  "features": [
    {
      "type": "Feature",
      "properties": {
        "object_id": "10-234-01467",
        "stname": "BIHAR",
        "dtname": "Rohtas",
        "sdtname": "Kargahar",
        "st_area_sh": 0.0,
        "st_length_": 0.0,
        "remarks": "",
        "dist_lgd": 215,
        "state_lgd": 10,
        "subdt_lgd": 1467,
        "ac_no": null,
        "st_length(shape)": 128509.87472624176,
        "st_area(shape)": 406135690.59563094
      },
      "geometry": {
        "type": "Polygon",
        "coordinates": [
          [
            [
              84.02506010623243,
              25.18738391839745
            ],
            [
              84.02565962658167,
              25.18699310270974
            ],
            [
              84.0257886668773,
              25.186538952794507
            ],
            [
              84.02532059969852,
              25.1844342916112
            ],
            [
              84.02804808612373,
              25.183558057351508
            ],
            [
              84.02817375414378,
              25.18323818779321
            ],
            [
              84.03105198416186,
              25.182302124085695
            ],
            [
              84.03119580174392,
              25.18225722632042
            ],
            [
              84.03388169706979,
              25.181418714083417
            ],
            [
              84.03649833228724,
              25.180557774925706
            ],
            [
              84.0419686771088,
              25.179304191892143
            ],
            [
              84.04333199811325,
              25.181480504312976
            ],
            [
              84.04523934244698,
              25.181652988051304
            ],
            [
              84.04814713691937,
              25.181442452044994
            ],
            [
              84.05201550441669,
              25.181519633718917
            ],
            [
              84.05251793664664,
              25.184913710883464
            ],
            [
              84.05630756770763,
              25.184344509016302
            ],
            [
              84.05694965023503,
              25.18414235892558
            ],
            [
              84.05716905476004,
              25.183851215706273
            ],
            [
              84.05741104921947,
              25.182620392178546
            ],
            [
              84.0569440177982,
              25.17946803779127
            ],
            [
              84.05659564843607,
              25.178252261064593
            ],
            [
              84.05638687457416,
              25.177119841770438
            ],
            [
              84.05662438913528,
              25.17503524176352
            ],
            [
              84.05671415508668,
              25.17326405396273
            ],
            [
              84.05697583792222,
              25.172194685699623
            ],
            [
              84.05738649736443,
              25.171799879837216
            ],
            [
              84.05919744887493,
              25.172050834048935
            ],
            [
              84.05988009033746,
              25.17211809568015
            ],
            [
              84.06032798764315,
              25.173121000313238
            ],
            [
              84.06064571097936,
              25.174631671320874
            ],
            [
              84.06121608638755,
              25.175126111675148
            ],
            [
              84.06239998688028,
              25.1749615900379
            ],
            [
              84.06463130412966,
              25.174414873726445
            ],
            [
              84.06737564923782,
              25.174120121157944
            ],
            [
              84.07019277674858,
              25.17374608868087
            ],
            [
              84.06939830491467,
              25.171050158024382
            ],
            [
              84.06886077011667,
              25.168863537991836
            ],
            [
              84.06881689999146,
              25.16823135283915
            ],
            [
              84.06877303435782,
              25.167599170913128
            ],
            [
              84.06906454934561,
              25.16624757215027
            ],
            [
              84.06879821772849,
              25.165543800678886
            ],
            [
              84.06780952743522,
              25.1654436280192
            ],
            [
              84.06516229559915,
              25.165632953187323
            ],
            [
              84.06477376974722,
              25.164120881983745
            ],
            [
              84.06456621759408,
              25.162934713721256
            ],
            [
              84.06428619924526,
              25.160833772986948
            ],
            [
              84.06395441996982,
              25.15799261614432
            ],
            [
              84.06368770297544,
              25.156321805804236
            ],
            [
              84.06031670031162,
              25.156695817733336
            ],
            [
              84.05768287133962,
              25.15739880520058
            ],
            [
              84.0538985852546,
              25.158087590273528
            ],
            [
              84.05117081855502,
              25.15823074530834
            ],
            [
              84.05109759867283,
              25.15624012711931
            ],
            [
              84.05134172842773,
              25.15449802496673
            ],
            [
              84.05112931818552,
              25.152994861842256
            ],
            [
              84.05078268616515,
              25.15229957462552
            ],
            [
              84.0505215710649,
              25.149401671272475
            ],
            [
              84.05049263812623,
              25.147979801118538
            ],
            [
              84.0501016931112,
              25.146797066084368
            ],
            [
              84.04891237937056,
              25.145365591968066
            ],
            [
              84.04813938805174,
              25.144408326337476
            ],
            [
              84.04636476620796,
              25.143540695133105
            ],
            [
              84.04498641459222,
              25.143246600646847
            ],
            [
              84.04302252580291,
              25.14355244500841
            ],
            [
              84.04056779664405,
              25.14381739305247
            ],
            [
              84.03946206664901,
              25.143730968322664
            ],
            [
              84.03696794007675,
              25.14346776439854
            ],
            [
              84.03514354078644,
              25.142924985121255
            ],
            [
              84.0337255635852,
              25.14263072000555
            ],
            [
              84.03225317542716,
              25.142169434873637
            ],
            [
              84.03195150408679,
              25.141072362717114
            ],
            [
              84.03152103230096,
              25.13989401883075
            ],
            [
              84.03086233094075,
              25.13879234124744
            ],
            [
              84.02993588221857,
              25.137771574689577
            ],
            [
              84.02950027386598,
              25.136873114341963
            ],
            [
              84.02947156370946,
              25.13557315324918
            ],
            [
              84.02963085387395,
              25.134783330869407
            ],
            [
              84.03052346216109,
              25.134589819175034
            ],
            [
              84.0310197436263,
              25.13406204085407
            ],
            [
              84.03103031140732,
              25.13313676505515
            ],
            [
              84.03108564673049,
              25.132161792947553
            ],
            [
              84.0313246992074,
              25.130717646281603
            ],
            [
              84.03288643560019,
              25.130894642315077
            ],
            [
              84.03434391531773,
              25.131197920817634
            ],
            [
              84.03498831190537,
              25.13144660329274
            ],
            [
              84.03508377856554,
              25.129812718822837
            ],
            [
              84.03492631018442,
              25.12815154421277
            ],
            [
              84.03471909939111,
              25.126693515753985
            ],
            [
              84.03411041083605,
              25.125190058253562
            ],
            [
              84.03385371005712,
              25.123727516264157
            ],
            [
              84.03338352734582,
              25.12257165887936
            ],
            [
              84.03292920079762,
              25.120147544306782
            ],
            [
              84.03201442208926,
              25.1169332592216
            ],
            [
              84.03184660331947,
              25.11605747066078
            ],
            [
              84.03159063287083,
              25.113651473775448
            ],
            [
              84.03119990255318,
              25.11242806310608
            ],
            [
              84.03074972711988,
              25.11117295617397
            ],
            [
              84.02995719834196,
              25.110355428048166
            ],
            [
              84.02853455888439,
              25.110119809267797
            ],
            [
              84.02738949884959,
              25.109979168232684
            ],
            [
              84.02511914800449,
              25.109837685958627
            ],
            [
              84.0244552570769,
              25.109385868071186
            ],
            [
              84.02410906882429,
              25.108293330829962
            ],
            [
              84.02385720816808,
              25.107196315608967
            ],
            [
              84.02351104955986,
              25.10613987578637
            ],
            [
              84.02278845013521,
              25.10477626028637
            ],
            [
              84.02212447207106,
              25.10440114166492
            ],
            [
              84.02079113233924,
              25.1042693070551
            ],
            [
              84.01921489174786,
              25.10403805621224
            ],
            [
              84.01828840170316,
              25.103540819987444
            ],
            [
              84.01798169171234,
              25.1027733228032
            ],
            [
              84.0178383187964,
              25.10238052132613
            ],
            [
              84.01795261773816,
              25.102019518872684
            ],
            [
              84.0186915197886,
              25.101681522872298
            ],
            [
              84.01862770975902,
              25.100990870792973
            ],
            [
              84.01888630238997,
              25.100016044081684
            ],
            [
              84.01807486677023,
              25.098241610399754
            ],
            [
              84.0179124423837,
              25.09698211785931
            ],
            [
              84.0184286691432,
              25.096115892403343
            ],
            [
              84.01914309479709,
              25.095340006822525
            ],
            [
              84.0193370437619,
              25.094658588205174
            ],
            [
              84.01944673344796,
              25.093850712005526
            ],
            [
              84.01985881222836,
              25.093101740790285
            ],
            [
              84.02028566829519,
              25.092479188597423
            ],
            [
              84.02094052037435,
              25.09171681321493
            ],
            [
              84.02099591588467,
              25.090741919109416
            ],
            [
              84.02053615093575,
              25.08928811509801
            ],
            [
              84.02022927385826,
              25.088782424595916
            ],
            [
              84.01992816576154,
              25.087360408723306
            ],
            [
              84.02132107727144,
              25.08716277605747
            ],
            [
              84.02292765756322,
              25.086446184117392
            ],
            [
              84.02342340003929,
              25.08624791782534
            ],
            [
              84.02484632605945,
              25.08573434661782
            ],
            [
              84.0271662683998,
              25.08538830891406
            ],
            [
              84.02907965300554,
              25.085037539230715
            ],
            [
              84.03001668657673,
              25.08476274300342
            ],
            [
              84.03085909341249,
              25.084894211367445
            ],
            [
              84.03165656112785,
              25.08562596861179
            ],
            [
              84.03191367962344,
              25.086361864215164
            ],
            [
              84.03383215767681,
              25.085970292245047
            ],
            [
              84.03556193292667,
              25.086025549743937
            ],
            [
              84.03659318180483,
              25.085502565265617
            ],
            [
              84.03649490521444,
              25.08443276525715
            ],
            [
              84.036059337286,
              25.08357942536849
            ],
            [
              84.0349996216948,
              25.082274284355652
            ],
            [
              84.03408403001112,
              25.08052243239351
            ],
            [
              84.03338650526099,
              25.07873007901795
            ],
            [
              84.03338255806361,
              25.077375933049023
            ],
            [
              84.03357206575767,
              25.075800793869227
            ],
            [
              84.03353811303317,
              25.074785117968624
            ],
            [
              84.03345979970334,
              25.073570950727937
            ],
            [
              84.03330244091667,
              25.07190070284165
            ],
            [
              84.03291346500876,
              25.06851968912016
            ],
            [
              84.0335826595898,
              25.068280856227016
            ],
            [
              84.03478702190806,
              25.068087550930176
            ],
            [
              84.03420900363345,
              25.065595606746882
            ],
            [
              84.03352174572868,
              25.063487297073724
            ],
            [
              84.03300280605703,
              25.061699480801217
            ],
            [
              84.0326621172906,
              25.060078853118092
            ],
            [
              84.03242997195991,
              25.058968327781283
            ],
            [
              84.03345640227492,
              25.05812491577745
            ],
            [
              84.03431439667752,
              25.057159543867616
            ],
            [
              84.03440936028115,
              25.056067284184156
            ],
            [
              84.03367225486127,
              25.054356065044928
            ],
            [
              84.03315298371129,
              25.053019673628544
            ],
            [
              84.03301029980315,
              25.051661027912516
            ],
            [
              84.03323892912779,
              25.050771927789555
            ],
            [
              84.0347165769218,
              25.049314928655015
            ],
            [
              84.03454370243357,
              25.048542942609718
            ],
            [
              84.03396578836353,
              25.046163878345723
            ],
            [
              84.03379803517073,
              25.04510756696398
            ],
            [
              84.03318950561749,
              25.043924526283135
            ],
            [
              84.03306656667928,
              25.042624479980347
            ],
            [
              84.03361251419994,
              25.041491903275976
            ],
            [
              84.03453445337938,
              25.040869543695134
            ],
            [
              84.03618988764961,
              25.040071666092295
            ],
            [
              84.0369285651212,
              25.039530417107848
            ],
            [
              84.03715674888149,
              25.039088230139342
            ],
            [
              84.03725125973422,
              25.038519501360145
            ],
            [
              84.03809867377936,
              25.038321480614595
            ],
            [
              84.03929276206576,
              25.038164129179286
            ],
            [
              84.03881821174554,
              25.03662020390913
            ],
            [
              84.03887334225283,
              25.035767117003875
            ],
            [
              84.03853259419759,
              25.03421868173061
            ],
            [
              84.03856875587935,
              25.032088245151986
            ],
            [
              84.03903052766462,
              25.030589939239636
            ],
            [
              84.04028974919898,
              25.029421565190155
            ],
            [
              84.04191057407624,
              25.02821729727298
            ],
            [
              84.0443147882717,
              25.025903089724206
            ],
            [
              84.04486036299153,
              25.024892305882684
            ],
            [
              84.04633730021814,
              25.024012962744262
            ],
            [
              84.04787344720177,
              25.023255456354256
            ],
            [
              84.04706181125773,
              25.022013773282318
            ],
            [
              84.04569546921898,
              25.020500934688286
            ],
            [
              84.0441405160049,
              25.019714644064354
            ],
            [
              84.04209851241346,
              25.021302370611
            ],
            [
              84.03990300111298,
              25.02266431314331
            ],
            [
              84.03771807106823,
              25.023091778747794
            ],
            [
              84.03503748658231,
              25.023722134013454
            ],
            [
              84.03267428317449,
              25.02398703631562
            ],
            [
              84.03015762595656,
              25.024026045206163
            ],
            [
              84.02850785915749,
              25.024255157373947
            ],
            [
              84.02796749556465,
              25.024656568238836
            ],
            [
              84.02773398479476,
              25.02558622379622
            ],
            [
              84.02747119882804,
              25.025789222230355
            ],
            [
              84.0265349252316,
              25.02582014692326
            ],
            [
              84.02561244436804,
              25.020967251630996
            ],
            [
              84.02553498892927,
              25.018687728987263
            ],
            [
              84.02182483541478,
              25.018536292331092
            ],
            [
              84.01836685876344,
              25.018782120180937
            ],
            [
              84.0163851869248,
              25.019028939019762
            ],
            [
              84.01551351477369,
              25.01885220614068
            ],
            [
              84.01468609722673,
              25.01896900892979
            ],
            [
              84.01293235223015,
              25.01911657681296
            ],
            [
              84.01220020820563,
              25.01796501968671
            ],
            [
              84.01075369871431,
              25.017972993120683
            ],
            [
              84.00906435394045,
              25.018201820279693
            ],
            [
              84.00728080014778,
              25.018349359779997
            ],
            [
              84.00546263157231,
              25.018537559771566
            ],
            [
              84.00470445437082,
              25.01881680336657
            ],
            [
              84.0045057892508,
              25.019371819290537
            ],
            [
              84.00408841220684,
              25.020581181000352
            ],
            [
              84.00204252699506,
              25.02056591580023
            ],
            [
              84.0009329441258,
              25.020515345995626
            ],
            [
              84.00013003711136,
              25.020871237349947
            ],
            [
              83.99971812272267,
              25.02168335224751
            ],
            [
              83.99980137678655,
              25.022613332319064
            ],
            [
              83.99974580071486,
              25.023628862603445
            ],
            [
              83.99986343869459,
              25.024883766364457
            ],
            [
              83.99994140976631,
              25.026179294268374
            ],
            [
              84.0002869260791,
              25.027393764932285
            ],
            [
              84.00030533615252,
              25.02876597634194
            ],
            [
              83.9990766438631,
              25.028891325216172
            ],
            [
              83.99820394583595,
              25.029594712848695
            ],
            [
              83.99832695124948,
              25.030447872790266
            ],
            [
              83.99793574572304,
              25.030459461785256
            ],
            [
              83.99597504685129,
              25.030373856381715
            ],
            [
              83.99450493143094,
              25.030235031643794
            ],
            [
              83.9923879032419,
              25.030384195158508
            ],
            [
              83.99036171808429,
              25.03036697363079
            ],
            [
              83.98917188871067,
              25.02947687586732
            ],
            [
              83.98834493199945,
              25.02942923508864
            ],
            [
              83.98503463568592,
              25.029022005385627
            ],
            [
              83.98314764088829,
              25.028965279844222
            ],
            [
              83.98121753234693,
              25.02828094835452
            ],
            [
              83.97766899204025,
              25.028882454695047
            ],
            [
              83.9764847555776,
              25.029856094340907
            ],
            [
              83.97480557164792,
              25.029819153114808
            ],
            [
              83.97216780715668,
              25.030974421310027
            ],
            [
              83.97050623379981,
              25.031628017227806
            ],
            [
              83.96967353326069,
              25.03166597533456
            ],
            [
              83.96921540324556,
              25.031409297398433
            ],
            [
              83.96908641056065,
              25.030947836242742
            ],
            [
              83.9667351493562,
              25.031220902262692
            ],
            [
              83.96339597220629,
              25.03168400573638
            ],
            [
              83.96338332302876,
              25.032897875771056
            ],
            [
              83.96322868164586,
              25.03347417084513
            ],
            [
              83.96204520605625,
              25.033409833873936
            ],
            [
              83.96110798833045,
              25.0334874427576
            ],
            [
              83.96067873376182,
              25.03378612389463
            ],
            [
              83.96045940020375,
              25.034388937265543
            ],
            [
              83.96045568117847,
              25.034749928290513
            ],
            [
              83.96050528165686,
              25.035689065979522
            ],
            [
              83.96053885708895,
              25.035797698966512
            ],
            [
              83.95957674974154,
              25.036353415379086
            ],
            [
              83.95818178468292,
              25.03661658934665
            ],
            [
              83.95635830526746,
              25.037101691003148
            ],
            [
              83.95475174384029,
              25.037223091255168
            ],
            [
              83.95409977714984,
              25.03608460695592
            ],
            [
              83.95358793776217,
              25.03575070607528
            ],
            [
              83.95162112585494,
              25.035733574831298
            ],
            [
              83.95012688527932,
              25.035539968330134
            ],
            [
              83.95022799695275,
              25.034408105130158
            ],
            [
              83.94972849592554,
              25.03291448323889
            ],
            [
              83.94961457158122,
              25.031974774901734
            ],
            [
              83.94918559638863,
              25.03130759287463
            ],
            [
              83.9487777810126,
              25.031452918164746
            ],
            [
              83.94720225817511,
              25.031917492363586
            ],
            [
              83.9436279029821,
              25.032120770085854
            ],
            [
              83.9408806500274,
              25.032353905889558
            ],
            [
              83.94055945110935,
              25.03227884390895
            ],
            [
              83.93825428605541,
              25.032402957710413
            ],
            [
              83.93746160815712,
              25.031001393809216
            ],
            [
              83.9361312131028,
              25.031246888208766
            ],
            [
              83.93310236525595,
              25.031400581708315
            ],
            [
              83.93156269597812,
              25.031757076370752
            ],
            [
              83.92951931706594,
              25.03241588218843
            ],
            [
              83.9275371646286,
              25.032912686891155
            ],
            [
              83.92619700937871,
              25.033600271861932
            ],
            [
              83.92513881194036,
              25.03432645488964
            ],
            [
              83.92436842034594,
              25.035014566680942
            ],
            [
              83.92399906364383,
              25.03526852673311
            ],
            [
              83.9237068174274,
              25.03618660134121
            ],
            [
              83.92341088811828,
              25.037434072721034
            ],
            [
              83.92216127855747,
              25.037531158159688
            ],
            [
              83.9201416663728,
              25.03781093477761
            ],
            [
              83.9185999130035,
              25.038347749106343
            ],
            [
              83.91691567784696,
              25.039230722014185
            ],
            [
              83.91505477821005,
              25.039949628945877
            ],
            [
              83.91339684392841,
              25.040228078300657
            ],
            [
              83.91052809472981,
              25.04068060720751
            ],
            [
              83.90797877117491,
              25.04091486698759
            ],
            [
              83.90693691319322,
              25.040575976328935
            ],
            [
              83.90563867063958,
              25.04104259625013
            ],
            [
              83.90511030314902,
              25.041331189716736
            ],
            [
              83.90456904393581,
              25.04279753494217
            ],
            [
              83.90392458177121,
              25.044646526016475
            ],
            [
              83.90308724412857,
              25.047360197944137
            ],
            [
              83.90277465556254,
              25.050114766010527
            ],
            [
              83.90275417577067,
              25.051987500190325
            ],
            [
              83.90262440783967,
              25.052979143202453
            ],
            [
              83.90022205495345,
              25.053340965729326
            ],
            [
              83.89790080017444,
              25.05354093567304
            ],
            [
              83.8972941579816,
              25.05327821631852
            ],
            [
              83.89636707594717,
              25.052416808605997
            ],
            [
              83.89471685999044,
              25.052419792819638
            ],
            [
              83.89325023811826,
              25.052406444017162
            ],
            [
              83.88871711731069,
              25.053660163095426
            ],
            [
              83.88356866041501,
              25.055431532930843
            ],
            [
              83.88173696680458,
              25.055712522742095
            ],
            [
              83.88038635067323,
              25.056404098398385
            ],
            [
              83.87940855874098,
              25.05654401326865
            ],
            [
              83.87735407575359,
              25.056358045991715
            ],
            [
              83.87524115735697,
              25.05608133731983
            ],
            [
              83.87259947980432,
              25.05568229160289
            ],
            [
              83.87258302266834,
              25.053606158884914
            ],
            [
              83.87268424034295,
              25.051644029914126
            ],
            [
              83.8724183767481,
              25.05015677120717
            ],
            [
              83.87192437969865,
              25.04869004929257
            ],
            [
              83.87108422493927,
              25.047603651059443
            ],
            [
              83.87027302108488,
              25.047041047653238
            ],
            [
              83.86898027172919,
              25.046546110973207
            ],
            [
              83.86657941004636,
              25.046338742368214
            ],
            [
              83.86546363329316,
              25.045976375058036
            ],
            [
              83.8641705794086,
              25.04507079065949
            ],
            [
              83.86299806955368,
              25.04446864994408
            ],
            [
              83.86244583921591,
              25.042906569380005
            ],
            [
              83.86224808858084,
              25.042421791813968
            ],
            [
              83.86188357739138,
              25.04223337126972
            ],
            [
              83.86074330268211,
              25.042294903087512
            ],
            [
              83.85846503408608,
              25.042201391054785
            ],
            [
              83.85773102156575,
              25.042266761098915
            ],
            [
              83.85761130398613,
              25.041895600073435
            ],
            [
              83.85745575889808,
              25.041190045620908
            ],
            [
              83.85701526999851,
              25.040703123206168
            ],
            [
              83.8561202236837,
              25.040545785406753
            ],
            [
              83.85510206236087,
              25.040761883717007
            ],
            [
              83.85289943730169,
              25.040998375809938
            ],
            [
              83.85225783088134,
              25.040333473711897
            ],
            [
              83.85113268020822,
              25.039059306893336
            ],
            [
              83.8507331535873,
              25.038464341260795
            ],
            [
              83.85073900970464,
              25.037945380307907
            ],
            [
              83.85152368541038,
              25.03691481928669
            ],
            [
              83.8516818607656,
              25.035634650966358
            ],
            [
              83.85128580523492,
              25.03473737195015
            ],
            [
              83.85000811882989,
              25.032500542816965
            ],
            [
              83.84851349467368,
              25.031484556884834
            ],
            [
              83.8477819381473,
              25.031333231248972
            ],
            [
              83.84676550338648,
              25.031395817705985
            ],
            [
              83.84610860494509,
              25.031651400920623
            ],
            [
              83.84525651696546,
              25.031643308725975
            ],
            [
              83.84399160909537,
              25.031775780701068
            ],
            [
              83.84337758364921,
              25.0321806636383
            ],
            [
              83.84199712099257,
              25.03201864290412
            ],
            [
              83.8410182663533,
              25.032266638936125
            ],
            [
              83.83952073435049,
              25.03151235135248
            ],
            [
              83.83862533679444,
              25.031391018703943
            ],
            [
              83.83772524015112,
              25.031680321843567
            ],
            [
              83.83653771765114,
              25.03241360886734
            ],
            [
              83.8350793342284,
              25.033428667366923
            ],
            [
              83.83400685717028,
              25.03382761377195
            ],
            [
              83.83407955423296,
              25.033992789331375
            ],
            [
              83.83424921365076,
              25.034378270815598
            ],
            [
              83.8336833334123,
              25.03604378687687
            ],
            [
              83.83356404163413,
              25.036612462022443
            ],
            [
              83.83398488078517,
              25.03715870497416
            ],
            [
              83.83442555922925,
              25.037546868895085
            ],
            [
              83.83583230479451,
              25.038020968668977
            ],
            [
              83.8358915612639,
              25.0383684546153
            ],
            [
              83.83519277527913,
              25.038666452405735
            ],
            [
              83.83380529498345,
              25.03903640236676
            ],
            [
              83.83254166272107,
              25.039365765010626
            ],
            [
              83.83056926059781,
              25.040006594387766
            ],
            [
              83.83034601128341,
              25.04046245614409
            ],
            [
              83.83014735604482,
              25.041085280887135
            ],
            [
              83.83030055473338,
              25.041499301399483
            ],
            [
              83.83040959044595,
              25.041793963656335
            ],
            [
              83.83048861164822,
              25.04212347190253
            ],
            [
              83.83141426266644,
              25.043477655105825
            ],
            [
              83.8310715122664,
              25.04465121707119
            ],
            [
              83.83012417322229,
              25.046131615938055
            ],
            [
              83.83014269199188,
              25.048040955259555
            ],
            [
              83.83015016238178,
              25.048142454658237
            ],
            [
              83.83018189357256,
              25.048573579982214
            ],
            [
              83.82905673391626,
              25.049250476292173
            ],
            [
              83.8286302398705,
              25.049801151982376
            ],
            [
              83.82856983355755,
              25.05110106359796
            ],
            [
              83.82842988142619,
              25.052929178390606
            ],
            [
              83.82792746087429,
              25.055795206078145
            ],
            [
              83.82784779378329,
              25.05632791836138
            ],
            [
              83.82772294323017,
              25.057591726299535
            ],
            [
              83.82714202519381,
              25.05931130962212
            ],
            [
              83.82662612003121,
              25.060408840341925
            ],
            [
              83.82655642873146,
              25.0605570972578
            ],
            [
              83.8263651567462,
              25.061193519299678
            ],
            [
              83.82617388206604,
              25.061829942104712
            ],
            [
              83.82615361158165,
              25.062470816807163
            ],
            [
              83.82596951893217,
              25.06353156229413
            ],
            [
              83.82554737093572,
              25.06479535289666
            ],
            [
              83.82548697630088,
              25.065986921648214
            ],
            [
              83.82536271414423,
              25.066645970744922
            ],
            [
              83.82484688174517,
              25.067201055037525
            ],
            [
              83.82389968104161,
              25.068117171989876
            ],
            [
              83.82393895179257,
              25.06870401787334
            ],
            [
              83.82416153904863,
              25.06925462567819
            ],
            [
              83.82431957067341,
              25.069895691813052
            ],
            [
              83.82379864841994,
              25.07082991171176
            ],
            [
              83.8235148769099,
              25.07238712784735
            ],
            [
              83.8229302137971,
              25.074109370019123
            ],
            [
              83.82252659535006,
              25.075298278653253
            ],
            [
              83.82210444825196,
              25.076471765352114
            ],
            [
              83.8221431476744,
              25.077699457354747
            ],
            [
              83.82218195399638,
              25.07885056094842
            ],
            [
              83.82193878364221,
              25.079310957372574
            ],
            [
              83.82107564189303,
              25.080263137648963
            ],
            [
              83.82086449288552,
              25.080989796818525
            ],
            [
              83.82065334208133,
              25.08171645411562
            ],
            [
              83.82031049915486,
              25.082795194114663
            ],
            [
              83.81998745689384,
              25.083950673300098
            ],
            [
              83.81933371064076,
              25.08655267227437
            ],
            [
              83.8186799356416,
              25.089154664744264
            ],
            [
              83.81781671214574,
              25.09017909401837
            ],
            [
              83.81677027275612,
              25.09078382820651
            ],
            [
              83.8165268230259,
              25.09155102069235
            ],
            [
              83.8163676613205,
              25.092250639189015
            ],
            [
              83.81616390275279,
              25.092927655358753
            ],
            [
              83.81568243989649,
              25.093843849903518
            ],
            [
              83.81463612806762,
              25.094407800324365
            ],
            [
              83.81320830622919,
              25.09468285881256
            ],
            [
              83.8122857364324,
              25.09544095532702
            ],
            [
              83.81154136903177,
              25.096429195858775
            ],
            [
              83.81172437292312,
              25.09694388305427
            ],
            [
              83.81262564995275,
              25.097950677955076
            ],
            [
              83.81274364456362,
              25.09915589411687
            ],
            [
              83.8124260128556,
              25.09956200812639
            ],
            [
              83.81107731372904,
              25.100053627137722
            ],
            [
              83.81063630380662,
              25.100208665256627
            ],
            [
              83.80976836235887,
              25.100513787607756
            ],
            [
              83.80824498582534,
              25.10233236061153
            ],
            [
              83.80802403529974,
              25.102752082342402
            ],
            [
              83.80780308567248,
              25.103171802632783
            ],
            [
              83.80673601557402,
              25.1044940351674
            ],
            [
              83.80576823716224,
              25.10588397127319
            ],
            [
              83.8055248143815,
              25.10645259961019
            ],
            [
              83.8056272232222,
              25.10840255180545
            ],
            [
              83.8056465253227,
              25.10906160028721
            ],
            [
              83.80524375488528,
              25.110379456396018
            ],
            [
              83.8047498458707,
              25.11109473194681
            ],
            [
              83.80425593056796,
              25.111810004939482
            ],
            [
              83.80445881866811,
              25.112435565940824
            ],
            [
              83.80455754261952,
              25.112739956631263
            ],
            [
              83.80476055738215,
              25.113015387097345
            ],
            [
              83.80573951981923,
              25.1159360029512
            ],
            [
              83.80642358241651,
              25.116067005094514
            ],
            [
              83.80714715741158,
              25.116301960082858
            ],
            [
              83.80732733430473,
              25.117200257773447
            ],
            [
              83.80750751299453,
              25.11809855618192
            ],
            [
              83.80854420027342,
              25.12335720564879
            ],
            [
              83.80942255139868,
              25.127584160325906
            ],
            [
              83.8094231110491,
              25.127586857237787
            ],
            [
              83.814068842864,
              25.127533797356612
            ],
            [
              83.81434461307983,
              25.129849341984926
            ],
            [
              83.81450713628104,
              25.131167357800997
            ],
            [
              83.81494691281658,
              25.13299997936894
            ],
            [
              83.8153673558106,
              25.134241395369827
            ],
            [
              83.81589252080715,
              25.134900476101592
            ],
            [
              83.8166549326669,
              25.13636757023015
            ],
            [
              83.81699609394717,
              25.137563809259653
            ],
            [
              83.81713379490044,
              25.138954088144253
            ],
            [
              83.81753221389864,
              25.143111163185534
            ],
            [
              83.81845922227126,
              25.143458894858952
            ],
            [
              83.81863737166681,
              25.143978055810344
            ],
            [
              83.81935917877738,
              25.146690875982916
            ],
            [
              83.81811448569613,
              25.14670869103024
            ],
            [
              83.81396861243789,
              25.147163759382938
            ],
            [
              83.81396320278324,
              25.147197689807218
            ],
            [
              83.81376425110065,
              25.148445538320342
            ],
            [
              83.81346502677107,
              25.15039537894352
            ],
            [
              83.81344420022953,
              25.151713361619546
            ],
            [
              83.81380463127098,
              25.1535280469398
            ],
            [
              83.81438976060939,
              25.15356423365576
            ],
            [
              83.82067506064996,
              25.153244635864855
            ],
            [
              83.82261235212034,
              25.15314607530395
            ],
            [
              83.8232967363145,
              25.15320030228366
            ],
            [
              83.82329585955875,
              25.154387444190636
            ],
            [
              83.8234194057581,
              25.154938090659428
            ],
            [
              83.82361597421027,
              25.15732587461651
            ],
            [
              83.82347670839178,
              25.15793066114752
            ],
            [
              83.82357541886844,
              25.158571712033783
            ],
            [
              83.82393687309101,
              25.159230698799778
            ],
            [
              83.82454083111777,
              25.16087829405515
            ],
            [
              83.82437687690032,
              25.161153562297567
            ],
            [
              83.82423762725152,
              25.161627454777754
            ],
            [
              83.8235033928473,
              25.161988497366
            ],
            [
              83.82293781444271,
              25.162317933180258
            ],
            [
              83.82269926322576,
              25.162958769939113
            ],
            [
              83.8209680012641,
              25.16349104638955
            ],
            [
              83.82084855767067,
              25.16404176559422
            ],
            [
              83.82028118263555,
              25.16659185237983
            ],
            [
              83.82020137361076,
              25.1672734958454
            ],
            [
              83.82040376943417,
              25.168424451832596
            ],
            [
              83.8206596689159,
              25.1711281511615
            ],
            [
              83.82078314414834,
              25.1717510562505
            ],
            [
              83.82092163561904,
              25.17226115538454
            ],
            [
              83.82103874898264,
              25.174788882200797
            ],
            [
              83.8227586921717,
              25.175058263914444
            ],
            [
              83.82488239125006,
              25.17499742731434
            ],
            [
              83.82619166331875,
              25.174594911193854
            ],
            [
              83.82747397694581,
              25.173943787802205
            ],
            [
              83.82835762813123,
              25.173455918985912
            ],
            [
              83.82940904598418,
              25.171755709910784
            ],
            [
              83.83097034759238,
              25.171851884703866
            ],
            [
              83.83181658574284,
              25.17202246662453
            ],
            [
              83.83210861277037,
              25.172936776968267
            ],
            [
              83.83237818101743,
              25.173214723651217
            ],
            [
              83.83349392722788,
              25.173667572836344
            ],
            [
              83.83479608284291,
              25.173874084943485
            ],
            [
              83.83541280233659,
              25.173302364878488
            ],
            [
              83.83538704404415,
              25.1725259370204
            ],
            [
              83.83555166031996,
              25.17158880811106
            ],
            [
              83.83591750101607,
              25.17126289491807
            ],
            [
              83.83671015016823,
              25.170913970932816
            ],
            [
              83.83768447460349,
              25.17072923124022
            ],
            [
              83.83847560111128,
              25.17051560234906
            ],
            [
              83.84008314529538,
              25.170476836894125
            ],
            [
              83.84067924665669,
              25.169968036005283
            ],
            [
              83.84149706660313,
              25.170449673994888
            ],
            [
              83.8424644443663,
              25.170874004782455
            ],
            [
              83.84356958237153,
              25.170952184212393
            ],
            [
              83.84401523119409,
              25.171452902109806
            ],
            [
              83.84437974867176,
              25.171677458638296
            ],
            [
              83.84480129928852,
              25.17168144482107
            ],
            [
              83.84601735767177,
              25.171611734977727
            ],
            [
              83.84786691877319,
              25.171656378127626
            ],
            [
              83.84856432764066,
              25.17182992373577
            ],
            [
              83.85024521297949,
              25.171453227313975
            ],
            [
              83.85143560559673,
              25.17145547528779
            ],
            [
              83.85204561198032,
              25.17146119806803
            ],
            [
              83.85264759910338,
              25.17174216518975
            ],
            [
              83.85349250056068,
              25.172025460927966
            ],
            [
              83.85443505877086,
              25.172016268261764
            ],
            [
              83.8553895753541,
              25.17095124762053
            ],
            [
              83.85633122177427,
              25.16971453599956
            ],
            [
              83.85730156038461,
              25.16987258737992
            ],
            [
              83.85785615239324,
              25.170834548379098
            ],
            [
              83.85840477869007,
              25.172310834047945
            ],
            [
              83.85875601637292,
              25.17326634824409
            ],
            [
              83.8603585937718,
              25.173236336406465
            ],
            [
              83.86124766808658,
              25.17269409118651
            ],
            [
              83.8620093091918,
              25.17245299190499
            ],
            [
              83.86273338814173,
              25.172459786990302
            ],
            [
              83.8637336451426,
              25.172609041374667
            ],
            [
              83.8645799318021,
              25.172779444188574
            ],
            [
              83.86549247101043,
              25.172787967696973
            ],
            [
              83.86664524577685,
              25.172609269828452
            ],
            [
              83.8674909404466,
              25.172833722601826
            ],
            [
              83.86885170304907,
              25.173126240093694
            ],
            [
              83.87137246916112,
              25.173036975179084
            ],
            [
              83.87390045682972,
              25.173186807712018
            ],
            [
              83.87590301270211,
              25.173313753355423
            ],
            [
              83.87723528343875,
              25.17349309733679
            ],
            [
              83.87865536000281,
              25.173808626690448
            ],
            [
              83.88055925300924,
              25.17432260575257
            ],
            [
              83.8818756873457,
              25.174596507092197
            ],
            [
              83.88219484798636,
              25.173110232949835
            ],
            [
              83.88251487999287,
              25.171542719404965
            ],
            [
              83.88300892105978,
              25.17082977273146
            ],
            [
              83.88364441085135,
              25.17078150973656
            ],
            [
              83.88415930990082,
              25.17086748603362
            ],
            [
              83.884615280366,
              25.1708987700085
            ],
            [
              83.88504575664342,
              25.170546161203546
            ],
            [
              83.88517343688972,
              25.169771129636956
            ],
            [
              83.88458926335878,
              25.167892966045127
            ],
            [
              83.88431522868807,
              25.166662913117445
            ],
            [
              83.88475912938907,
              25.165999098795663
            ],
            [
              83.88679705462917,
              25.16560723806309
            ],
            [
              83.88787375287082,
              25.16557200293541
            ],
            [
              83.88972726116961,
              25.165255084712925
            ],
            [
              83.8920066328968,
              25.16455846566277
            ],
            [
              83.89462070791569,
              25.164085991163873
            ],
            [
              83.89419589192288,
              25.16123900875103
            ],
            [
              83.89380428934109,
              25.158532259781
            ],
            [
              83.89492500233672,
              25.158542460077157
            ],
            [
              83.89507604956017,
              25.158792069067665
            ],
            [
              83.89516195185755,
              25.159095250619398
            ],
            [
              83.89567425567417,
              25.159406763158827
            ],
            [
              83.89685552410312,
              25.159331815682705
            ],
            [
              83.89712130235802,
              25.159970619151192
            ],
            [
              83.89753648122446,
              25.16099424503397
            ],
            [
              83.89795342168716,
              25.161413309085727
            ],
            [
              83.89863651410396,
              25.161541319107513
            ],
            [
              83.89924444807414,
              25.161280606654998
            ],
            [
              83.90072729891028,
              25.161294166360392
            ],
            [
              83.90184804244865,
              25.16130440789261
            ],
            [
              83.90279215384595,
              25.161145981960804
            ],
            [
              83.90410093723115,
              25.160742714358822
            ],
            [
              83.90513488375012,
              25.160530993353944
            ],
            [
              83.90549660207738,
              25.16056136932757
            ],
            [
              83.90575908710846,
              25.161502363792028
            ],
            [
              83.90600080129353,
              25.162980259299964
            ],
            [
              83.90679976739878,
              25.164752104649494
            ],
            [
              83.90763202776344,
              25.166194738839017
            ],
            [
              83.90819734296164,
              25.167111414925053
            ],
            [
              83.90828350756703,
              25.16785685187467
            ],
            [
              83.90867535628723,
              25.168307182676756
            ],
            [
              83.9091485744059,
              25.16948483998597
            ],
            [
              83.90984466903808,
              25.172505680228888
            ],
            [
              83.9095300161435,
              25.179046536752363
            ],
            [
              83.90998620489928,
              25.181329682866192
            ],
            [
              83.90997178693898,
              25.18265178125752
            ],
            [
              83.91145936740509,
              25.182705917075445
            ],
            [
              83.91251404704082,
              25.182422081982068
            ],
            [
              83.91493700997461,
              25.18222279837536
            ],
            [
              83.9193415594071,
              25.18226254862785
            ],
            [
              83.92039345785871,
              25.182235821651105
            ],
            [
              83.92120394485751,
              25.182058112348475
            ],
            [
              83.92177976585295,
              25.1811065049909
            ],
            [
              83.92370627664158,
              25.180478495231018
            ],
            [
              83.92609421426245,
              25.179840969854677
            ],
            [
              83.92666326106234,
              25.179512078101865
            ],
            [
              83.92768307438696,
              25.178785650358787
            ],
            [
              83.92869608926146,
              25.178686372268835
            ],
            [
              83.92998447999142,
              25.178806155685837
            ],
            [
              83.93180278421252,
              25.179007408991215
            ],
            [
              83.93280687432471,
              25.179273618973973
            ],
            [
              83.93308370185761,
              25.179826627710632
            ],
            [
              83.932901623231,
              25.181995725713765
            ],
            [
              83.93496131195548,
              25.18143187320672
            ],
            [
              83.93637969789016,
              25.181002164133407
            ],
            [
              83.9379220693004,
              25.18057361606279
            ],
            [
              83.93877213517229,
              25.180400608069395
            ],
            [
              83.94148781324309,
              25.179725128661925
            ],
            [
              83.94273807767576,
              25.179700105896263
            ],
            [
              83.94411321601771,
              25.17959942213715
            ],
            [
              83.9448796747878,
              25.17982731709613
            ],
            [
              83.9456775889659,
              25.180827159335376
            ],
            [
              83.94646529558737,
              25.180919880074626
            ],
            [
              83.94623519033074,
              25.17970390971465
            ],
            [
              83.94611486818494,
              25.175627647362123
            ],
            [
              83.94573236284202,
              25.17381914115082
            ],
            [
              83.9453082816711,
              25.171721357048174
            ],
            [
              83.9446881458844,
              25.169400752995
            ],
            [
              83.9442931997731,
              25.168291645645432
            ],
            [
              83.94317667562164,
              25.16695045822421
            ],
            [
              83.94632668733566,
              25.166901582287085
            ],
            [
              83.9484711141409,
              25.166739895197686
            ],
            [
              83.94951950826457,
              25.16656406663719
            ],
            [
              83.95073971416954,
              25.166096364359113
            ],
            [
              83.95121264392894,
              25.1654596947092
            ],
            [
              83.95137754407237,
              25.164874535240756
            ],
            [
              83.95376078799588,
              25.165112025731876
            ],
            [
              83.95398784167554,
              25.16662126501448
            ],
            [
              83.95597246178495,
              25.166088042018373
            ],
            [
              83.95807223423571,
              25.165925889600274
            ],
            [
              83.9597706672653,
              25.165719555909988
            ],
            [
              83.96012532573275,
              25.166896048731374
            ],
            [
              83.96210527729762,
              25.166804958042537
            ],
            [
              83.96380144657269,
              25.166819729378382
            ],
            [
              83.9641842618344,
              25.16673275912905
            ],
            [
              83.96488014176926,
              25.16611602869182
            ],
            [
              83.96549020384835,
              25.165642933366392
            ],
            [
              83.96593653179728,
              25.165646822180566
            ],
            [
              83.96593653269558,
              25.165646783154212
            ],
            [
              83.96567903421264,
              25.16276528665336
            ],
            [
              83.96516046015535,
              25.160192967343736
            ],
            [
              83.96498305636145,
              25.15960928438262
            ],
            [
              83.96439532999356,
              25.159373963886612
            ],
            [
              83.96330607420252,
              25.159197526270933
            ],
            [
              83.96303825228034,
              25.15872591890524
            ],
            [
              83.96295679484702,
              25.15751121598233
            ],
            [
              83.9630278991967,
              25.156875494322566
            ],
            [
              83.9634520504362,
              25.156630925127335
            ],
            [
              83.96385102908482,
              25.156413244202678
            ],
            [
              83.96354334801516,
              25.155489974646247
            ],
            [
              83.96330909703346,
              25.154657553994927
            ],
            [
              83.96343798371717,
              25.154189323877976
            ],
            [
              83.96407844927707,
              25.15364427079809
            ],
            [
              83.96478027875405,
              25.15340216216448
            ],
            [
              83.96502590240726,
              25.15315608415121
            ],
            [
              83.96500453418156,
              25.15235716105348
            ],
            [
              83.96422091309799,
              25.151880995611606
            ],
            [
              83.9640100614328,
              25.15165802891852
            ],
            [
              83.96377427073872,
              25.150965522365695
            ],
            [
              83.96367410409299,
              25.149168494904544
            ],
            [
              83.96640817067764,
              25.14854686905875
            ],
            [
              83.9687474860854,
              25.148210553272182
            ],
            [
              83.9691923425939,
              25.148819145855892
            ],
            [
              83.97085171687493,
              25.149966211829682
            ],
            [
              83.97348221309723,
              25.150237107980974
            ],
            [
              83.97542581972404,
              25.150280936858415
            ],
            [
              83.97688329495001,
              25.149851216397128
            ],
            [
              83.97822997915539,
              25.150070388967197
            ],
            [
              83.98050025094878,
              25.150645002162353
            ],
            [
              83.98265049973534,
              25.150852951868288
            ],
            [
              83.98331495839818,
              25.15085859673991
            ],
            [
              83.98383353874368,
              25.150587783283157
            ],
            [
              83.9838774834291,
              25.14921165168357
            ],
            [
              83.98382989966846,
              25.148051419146068
            ],
            [
              83.98429271888939,
              25.147419042374203
            ],
            [
              83.98517717676192,
              25.146763190844613
            ],
            [
              83.98584361531165,
              25.14657935623216
            ],
            [
              83.9871509012053,
              25.146283610183506
            ],
            [
              83.98786933334533,
              25.145865544795278
            ],
            [
              83.98829731230624,
              25.145232855819497
            ],
            [
              83.98863239738195,
              25.144960397813094
            ],
            [
              83.99007539895207,
              25.144972650914468
            ],
            [
              83.99115776376658,
              25.145807756074674
            ],
            [
              83.99184273635723,
              25.1471945607209
            ],
            [
              83.99247153369991,
              25.147777533815713
            ],
            [
              83.99331542724748,
              25.14866923785006
            ],
            [
              83.99440857723528,
              25.149910595358826
            ],
            [
              83.99385919365865,
              25.150289518046637
            ],
            [
              83.99349126527783,
              25.15086855292018
            ],
            [
              83.99344964004253,
              25.152023534250624
            ],
            [
              83.99388932225497,
              25.153160018085728
            ],
            [
              83.99373013809168,
              25.15417861582747
            ],
            [
              83.99293197238529,
              25.155110564786636
            ],
            [
              83.99166174738706,
              25.156137744096814
            ],
            [
              83.9910785673928,
              25.1569044653437
            ],
            [
              83.99095143511884,
              25.157702242276645
            ],
            [
              83.99124305161627,
              25.15875617417721
            ],
            [
              83.99092529504242,
              25.16024277207343
            ],
            [
              83.99109732062267,
              25.160880620279706
            ],
            [
              83.99116074437667,
              25.161946142731693
            ],
            [
              83.99132816339616,
              25.16351811327129
            ],
            [
              83.99210818133714,
              25.164350600297162
            ],
            [
              83.99250286783536,
              25.165035466224733
            ],
            [
              83.99303942167307,
              25.16591548096842
            ],
            [
              83.99343328621276,
              25.166690607776847
            ],
            [
              83.99363346499403,
              25.167003683906398
            ],
            [
              83.99372747279023,
              25.167500903260965
            ],
            [
              83.99400507556919,
              25.167999648277995
            ],
            [
              83.99424478830782,
              25.16833113132776
            ],
            [
              83.99476801473999,
              25.16857481931639
            ],
            [
              83.9949679527728,
              25.168905947135613
            ],
            [
              83.99522705115523,
              25.16927818385564
            ],
            [
              83.99530093668903,
              25.16981137338916
            ],
            [
              83.99547618542455,
              25.170142309229806
            ],
            [
              83.99598090476525,
              25.17025939531756
            ],
            [
              83.9963816243489,
              25.170357523346585
            ],
            [
              83.9967003052892,
              25.17072582470621
            ],
            [
              83.99673652895473,
              25.17106007271905
            ],
            [
              83.99669153863033,
              25.171574138979185
            ],
            [
              83.9971288600702,
              25.171979525232228
            ],
            [
              83.99761459800895,
              25.172019743865267
            ],
            [
              83.99793311815083,
              25.171766117231112
            ],
            [
              83.99847871083695,
              25.171726978189827
            ],
            [
              83.99988243177464,
              25.171615295145745
            ],
            [
              84.00156971401661,
              25.170736583337007
            ],
            [
              84.00432813482695,
              25.16994893165181
            ],
            [
              84.00537435592597,
              25.170274819901625
            ],
            [
              84.00672257714876,
              25.171133508101438
            ],
            [
              84.00928165820427,
              25.171410810113063
            ],
            [
              84.01022008865576,
              25.175532560880452
            ],
            [
              84.01031792866492,
              25.176611367782108
            ],
            [
              84.01031833739837,
              25.176615862726543
            ],
            [
              84.01046554881555,
              25.17826798380845
            ],
            [
              84.0120471298913,
              25.179090743059028
            ],
            [
              84.01409516207663,
              25.179620354942095
            ],
            [
              84.0157913502163,
              25.179865320278196
            ],
            [
              84.01681228643504,
              25.18085009178097
            ],
            [
              84.01684613405662,
              25.181910840915688
            ],
            [
              84.01696288989075,
              25.184415973996682
            ],
            [
              84.01753170312865,
              25.187098609021955
            ],
            [
              84.01933996238823,
              25.186785147158847
            ],
            [
              84.02073423933734,
              25.18670587964486
            ],
            [
              84.02172106562641,
              25.18688691590258
            ],
            [
              84.02279562408106,
              25.187338329097187
            ],
            [
              84.02350265121028,
              25.187379456366372
            ],
            [
              84.02471083316513,
              25.187188848878968
            ],
            [
              84.02506010623243,
              25.18738391839745
            ]
          ]
        ]
      }
    }
  ]
}