{
  "type": "FeatureCollection",
  "features": [
    {
      "type": "Feature",
      "properties": {
        "object_id": "10-207-01089",
        "stname": "BIHAR",
        "dtname": "Madhubani",
        "sdtname": "Khajauli",
        "st_area_sh": 0.0,
        "st_length_": 0.0,
        "remarks": "",
        "dist_lgd": 206,
        "state_lgd": 10,
        "subdt_lgd": 1089,
        "ac_no": null,
        "st_length(shape)": 91171.28062794723,
        "st_area(shape)": 150968724.81279027
      },
      "geometry": {
        "type": "Polygon",
        "coordinates": [
          [
            [
              86.20971281589695,
              26.543385264395667
            ],
            [
              86.20790614665542,
              26.54153829282058
            ],
            [
              86.20832256519694,
              26.540930839610542
            ],
            [
              86.2094058157503,
              26.53965555535818
            ],
            [
              86.20922802568083,
              26.538181201909048
            ],
            [
              86.20949040021914,
              26.536554908077758
            ],
            [
              86.20913599417828,
              26.535569147796764
            ],
            [
              86.20837636170604,
              26.534721329331905
            ],
            [
              86.20817445995604,
              26.53215964763465
            ],
            [
              86.2090853786036,
              26.531891835706332
            ],
            [
              86.20977240294638,
              26.53124639288855
            ],
            [
              86.2112133940869,
              26.530776481756178
            ],
            [
              86.21277186959522,
              26.529353525138358
            ],
            [
              86.21355591198865,
              26.529528777038955
            ],
            [
              86.21468181814498,
              26.528569032724732
            ],
            [
              86.21491033787514,
              26.527105416296443
            ],
            [
              86.2151911117071,
              26.525885214649268
            ],
            [
              86.2149060448264,
              26.524790573890815
            ],
            [
              86.21459000762799,
              26.524197075381743
            ],
            [
              86.21454051225244,
              26.523069328854433
            ],
            [
              86.21465656021412,
              26.52134479464838
            ],
            [
              86.21614022492392,
              26.521795001934336
            ],
            [
              86.21813978671146,
              26.522747078619332
            ],
            [
              86.21857372689259,
              26.522450840088332
            ],
            [
              86.21914061504086,
              26.52244700286119
            ],
            [
              86.21991284728325,
              26.523001288750738
            ],
            [
              86.22065821720373,
              26.522747990099074
            ],
            [
              86.22157115077249,
              26.522741805861646
            ],
            [
              86.222020400941,
              26.521867895977735
            ],
            [
              86.2239291170022,
              26.52096587263911
            ],
            [
              86.22465960273675,
              26.520730727072095
            ],
            [
              86.22502214212415,
              26.520304114922578
            ],
            [
              86.22563907182362,
              26.520281878842823
            ],
            [
              86.22617321997302,
              26.52057599292894
            ],
            [
              86.22736878059816,
              26.521353007711333
            ],
            [
              86.22786595858202,
              26.52200840631163
            ],
            [
              86.22885249830851,
              26.522394233339234
            ],
            [
              86.22979636626239,
              26.523655756019952
            ],
            [
              86.23085674840354,
              26.523874048659124
            ],
            [
              86.23213694559976,
              26.52339597560787
            ],
            [
              86.23304181589052,
              26.522437614755734
            ],
            [
              86.23381658138203,
              26.52151176936608
            ],
            [
              86.23363765763868,
              26.51936052215932
            ],
            [
              86.23486688442568,
              26.51820135638916
            ],
            [
              86.23585523785076,
              26.518212609670396
            ],
            [
              86.23571280636921,
              26.51680118077126
            ],
            [
              86.23503795689348,
              26.516494478072165
            ],
            [
              86.23495857726338,
              26.516016772988333
            ],
            [
              86.23475210668185,
              26.51592337375741
            ],
            [
              86.23367543718628,
              26.515551759108913
            ],
            [
              86.23367662206415,
              26.51392279903814
            ],
            [
              86.23392788534069,
              26.51337954703732
            ],
            [
              86.23411101140293,
              26.513098497844815
            ],
            [
              86.23637912274803,
              26.51377325895701
            ],
            [
              86.23650071690828,
              26.512739110974564
            ],
            [
              86.23587419230324,
              26.51220192564153
            ],
            [
              86.23568479420368,
              26.511761003807383
            ],
            [
              86.2360224349864,
              26.510179294043553
            ],
            [
              86.23636277071493,
              26.509504628378227
            ],
            [
              86.23774631818628,
              26.509395828182647
            ],
            [
              86.23858696522241,
              26.509159810038284
            ],
            [
              86.23890704483964,
              26.508462657247026
            ],
            [
              86.23912776809145,
              26.50670581897905
            ],
            [
              86.23920535109097,
              26.50522521969435
            ],
            [
              86.23982158908768,
              26.504548565022667
            ],
            [
              86.23972676741786,
              26.504021304987234
            ],
            [
              86.23968646360431,
              26.503416942027922
            ],
            [
              86.23924575192257,
              26.502910059207927
            ],
            [
              86.23865267069723,
              26.50159653687661
            ],
            [
              86.23892169366697,
              26.50138258890331
            ],
            [
              86.23994373301684,
              26.501244644383718
            ],
            [
              86.24090905184137,
              26.50092658729051
            ],
            [
              86.24132725623369,
              26.500562687670758
            ],
            [
              86.24142456803345,
              26.500360456670908
            ],
            [
              86.2415978189158,
              26.500000365901883
            ],
            [
              86.24174115769578,
              26.49970248896613
            ],
            [
              86.24178662322896,
              26.498569548016032
            ],
            [
              86.24313876559798,
              26.498907567054548
            ],
            [
              86.24366510828588,
              26.498867789661926
            ],
            [
              86.2436766830783,
              26.497884034841235
            ],
            [
              86.24355358064673,
              26.49581364584541
            ],
            [
              86.24279582206017,
              26.49460513672982
            ],
            [
              86.24209206210365,
              26.493838343660116
            ],
            [
              86.24192538329594,
              26.493112996351226
            ],
            [
              86.24131768109109,
              26.492426871762177
            ],
            [
              86.2413952461243,
              26.49095076374395
            ],
            [
              86.24170373477938,
              26.490077682125072
            ],
            [
              86.24158589198377,
              26.48920761212455
            ],
            [
              86.24135876284565,
              26.488451072823484
            ],
            [
              86.24137260408756,
              26.487729016142328
            ],
            [
              86.24193577860042,
              26.487314409307746
            ],
            [
              86.24264639719414,
              26.487129020191272
            ],
            [
              86.24399411625869,
              26.48697076820873
            ],
            [
              86.24406030592546,
              26.485341284747058
            ],
            [
              86.24382284436496,
              26.485130846693036
            ],
            [
              86.24292722492498,
              26.484789627267965
            ],
            [
              86.24238351241274,
              26.48338551711517
            ],
            [
              86.24074780334956,
              26.482115355656852
            ],
            [
              86.24057519296605,
              26.480704167607747
            ],
            [
              86.2400574767998,
              26.478221346387894
            ],
            [
              86.23888531010132,
              26.477196132787576
            ],
            [
              86.23875921897478,
              26.47535595598814
            ],
            [
              86.23876885699946,
              26.474128501625245
            ],
            [
              86.23842555593217,
              26.473277994210044
            ],
            [
              86.23789180393982,
              26.472437840866583
            ],
            [
              86.23829040529598,
              26.472128297798488
            ],
            [
              86.23822731391864,
              26.471208160887528
            ],
            [
              86.23774510366401,
              26.470525570871978
            ],
            [
              86.23779693465927,
              26.470128134788244
            ],
            [
              86.23815512081083,
              26.469209611087305
            ],
            [
              86.23800370078656,
              26.46850223325127
            ],
            [
              86.23746318807335,
              26.466863409133296
            ],
            [
              86.2372012986253,
              26.46614321770749
            ],
            [
              86.23561788229144,
              26.46626700030128
            ],
            [
              86.2349626511232,
              26.466470040748113
            ],
            [
              86.23321475775239,
              26.466712197887777
            ],
            [
              86.23260028764017,
              26.465204811105025
            ],
            [
              86.23231582891894,
              26.46419139871627
            ],
            [
              86.23116876564106,
              26.46433015729019
            ],
            [
              86.22943445030577,
              26.464400696949205
            ],
            [
              86.22805077437533,
              26.464428261091683
            ],
            [
              86.2272033387706,
              26.463829401348292
            ],
            [
              86.22707881700083,
              26.462138081019845
            ],
            [
              86.22657943724622,
              26.46118936563784
            ],
            [
              86.22606322396145,
              26.460033183916003
            ],
            [
              86.22623879698878,
              26.457076319932487
            ],
            [
              86.22532761513483,
              26.457231425061188
            ],
            [
              86.22528312607038,
              26.458495259358735
            ],
            [
              86.2234603976465,
              26.45876937776068
            ],
            [
              86.22271395873085,
              26.458855684361225
            ],
            [
              86.22211057203259,
              26.458647707838054
            ],
            [
              86.2216021022256,
              26.458994078621775
            ],
            [
              86.21979300034626,
              26.4585145197024
            ],
            [
              86.2183149788531,
              26.45864185712071
            ],
            [
              86.21734541998045,
              26.458418315262996
            ],
            [
              86.2159437948123,
              26.45868951130542
            ],
            [
              86.21580033835299,
              26.457115657387828
            ],
            [
              86.21591183904269,
              26.456058957130974
            ],
            [
              86.21391318904516,
              26.456889243862047
            ],
            [
              86.21177167457812,
              26.458022786011295
            ],
            [
              86.21039610324816,
              26.459015703288
            ],
            [
              86.2105189038458,
              26.460522071769933
            ],
            [
              86.2110730520867,
              26.461438926924348
            ],
            [
              86.21065085378463,
              26.463738612723265
            ],
            [
              86.20982904891157,
              26.465616809281162
            ],
            [
              86.2081947106775,
              26.466250467388324
            ],
            [
              86.20769280665691,
              26.46740456660675
            ],
            [
              86.20686108797638,
              26.468096020051167
            ],
            [
              86.2069088145691,
              26.469016218839407
            ],
            [
              86.20738913027678,
              26.470095997245455
            ],
            [
              86.2070108685753,
              26.47165536978991
            ],
            [
              86.20575649884178,
              26.472173674738436
            ],
            [
              86.20512867257791,
              26.472651659363585
            ],
            [
              86.204454893894,
              26.473035173816854
            ],
            [
              86.20443746567918,
              26.474574058790118
            ],
            [
              86.20429982311637,
              26.474908972146277
            ],
            [
              86.203098668682,
              26.475196760670546
            ],
            [
              86.20252146967093,
              26.475742039380368
            ],
            [
              86.20239599389035,
              26.476334028021373
            ],
            [
              86.20190946363755,
              26.476928455651116
            ],
            [
              86.20130878985144,
              26.477063278105756
            ],
            [
              86.20057921141536,
              26.477379485875176
            ],
            [
              86.19967673603314,
              26.476789847356834
            ],
            [
              86.19796608501738,
              26.477324690249574
            ],
            [
              86.19733144682871,
              26.477599656342928
            ],
            [
              86.19685666294656,
              26.477796856799998
            ],
            [
              86.19627364824233,
              26.477638235763912
            ],
            [
              86.19604151638637,
              26.47622734497996
            ],
            [
              86.19582294459967,
              26.475867793759768
            ],
            [
              86.19559292917452,
              26.475336832748482
            ],
            [
              86.19493644126321,
              26.47354526009076
            ],
            [
              86.19515039570938,
              26.472117897205155
            ],
            [
              86.19555821917025,
              26.471095342365356
            ],
            [
              86.1964845421283,
              26.4696993212034
            ],
            [
              86.19575921991003,
              26.46746594820825
            ],
            [
              86.19516267567928,
              26.46564235063624
            ],
            [
              86.19442473572455,
              26.462461412357186
            ],
            [
              86.19401487129133,
              26.459553574638452
            ],
            [
              86.19294888366278,
              26.4561040106682
            ],
            [
              86.19257733417305,
              26.45357951525257
            ],
            [
              86.1912884412849,
              26.4529111333452
            ],
            [
              86.18831149629854,
              26.451816119298975
            ],
            [
              86.18594671814401,
              26.452643867804206
            ],
            [
              86.18517612712363,
              26.452838378140136
            ],
            [
              86.18428151020353,
              26.450078080294574
            ],
            [
              86.18330938843735,
              26.447656740907245
            ],
            [
              86.1820332866605,
              26.447940258389707
            ],
            [
              86.18143487303567,
              26.44584584010073
            ],
            [
              86.18035120656234,
              26.443871940922755
            ],
            [
              86.17996902191798,
              26.4424845957749
            ],
            [
              86.17717275508473,
              26.44325185417179
            ],
            [
              86.17460008431556,
              26.443764818391635
            ],
            [
              86.1731578319404,
              26.4433364350512
            ],
            [
              86.1720516509911,
              26.442919449113436
            ],
            [
              86.1710464083404,
              26.441964743932093
            ],
            [
              86.16899591117794,
              26.4400601150349
            ],
            [
              86.16672936200308,
              26.44061160084045
            ],
            [
              86.16661087421713,
              26.44211509406028
            ],
            [
              86.16410481981453,
              26.44472583060728
            ],
            [
              86.16087055780491,
              26.445274483799764
            ],
            [
              86.16004215300947,
              26.44576258898335
            ],
            [
              86.15927438898726,
              26.445663671398723
            ],
            [
              86.15862609730459,
              26.445460167971213
            ],
            [
              86.15793965417183,
              26.444873381320964
            ],
            [
              86.15646635332547,
              26.444314155813615
            ],
            [
              86.1547944987502,
              26.443363586789673
            ],
            [
              86.15342652087935,
              26.442803687161145
            ],
            [
              86.1522900613151,
              26.442359586738853
            ],
            [
              86.15088671227991,
              26.442400048052168
            ],
            [
              86.1493604862903,
              26.443402405311076
            ],
            [
              86.14775404883063,
              26.44442336263561
            ],
            [
              86.14545899431522,
              26.445195842610246
            ],
            [
              86.14420720633984,
              26.446043023380813
            ],
            [
              86.14303935694461,
              26.44478229301975
            ],
            [
              86.14306368511915,
              26.444033039161845
            ],
            [
              86.14332765955696,
              26.44316050318103
            ],
            [
              86.14318558740153,
              26.44229038084036
            ],
            [
              86.14265234834717,
              26.44205458612827
            ],
            [
              86.1406183729994,
              26.442229721785047
            ],
            [
              86.13994027701226,
              26.442057966761567
            ],
            [
              86.13931938933564,
              26.44151133162663
            ],
            [
              86.13826239114813,
              26.44029951088405
            ],
            [
              86.13698659659512,
              26.438673834809375
            ],
            [
              86.13564679617978,
              26.43587081066893
            ],
            [
              86.13443616362083,
              26.43356789294264
            ],
            [
              86.13427816882697,
              26.432580646938696
            ],
            [
              86.13496363459272,
              26.43240942211516
            ],
            [
              86.13596373528677,
              26.43273711714502
            ],
            [
              86.13671033679749,
              26.432700922212284
            ],
            [
              86.13716241396422,
              26.432819974668394
            ],
            [
              86.13756104765976,
              26.432515191737256
            ],
            [
              86.1372058223554,
              26.431948822626495
            ],
            [
              86.13615058486583,
              26.431607834876026
            ],
            [
              86.13532067629062,
              26.43124299605918
            ],
            [
              86.13485985312627,
              26.43063667089917
            ],
            [
              86.1338248546801,
              26.430322673194212
            ],
            [
              86.13129935803977,
              26.42978321094338
            ],
            [
              86.13044158282612,
              26.42969366727443
            ],
            [
              86.12908743182413,
              26.42959825605921
            ],
            [
              86.126328171089,
              26.429967147936296
            ],
            [
              86.12374916989205,
              26.430289811825453
            ],
            [
              86.12248082237271,
              26.4302794468695
            ],
            [
              86.12150235400908,
              26.42947315581871
            ],
            [
              86.12042505030288,
              26.427525762400776
            ],
            [
              86.1197464126316,
              26.427272749785526
            ],
            [
              86.11886319712909,
              26.427142714181567
            ],
            [
              86.11681768381982,
              26.427078387743062
            ],
            [
              86.11633795471201,
              26.42727536502433
            ],
            [
              86.11572490842951,
              26.427743864267498
            ],
            [
              86.11427738384195,
              26.427901534824052
            ],
            [
              86.11312700128907,
              26.428237851729122
            ],
            [
              86.11247466000113,
              26.42746119403959
            ],
            [
              86.11130710525332,
              26.427513356332867
            ],
            [
              86.11084992385915,
              26.426708353962837
            ],
            [
              86.10998165272969,
              26.426546570248853
            ],
            [
              86.10943203289617,
              26.425439740788278
            ],
            [
              86.10852875801334,
              26.42596870598025
            ],
            [
              86.10833604692704,
              26.42634886611046
            ],
            [
              86.10857415976614,
              26.427367249885307
            ],
            [
              86.11025825298883,
              26.432758746741047
            ],
            [
              86.11207505522675,
              26.437756741297722
            ],
            [
              86.11214366315828,
              26.438221135894803
            ],
            [
              86.11085469840489,
              26.438815528679726
            ],
            [
              86.11059751792557,
              26.439281880033327
            ],
            [
              86.11151154474399,
              26.440178845387102
            ],
            [
              86.11277771834033,
              26.441908557635674
            ],
            [
              86.11294613538811,
              26.44298156525463
            ],
            [
              86.11357505310505,
              26.4446384106936
            ],
            [
              86.11339052567094,
              26.446115141039467
            ],
            [
              86.11322603605758,
              26.45026767437422
            ],
            [
              86.11303548631784,
              26.45094120612316
            ],
            [
              86.11259122090081,
              26.45187346695368
            ],
            [
              86.11234459382945,
              26.453765737754686
            ],
            [
              86.11204087163527,
              26.45606894418759
            ],
            [
              86.11476138533726,
              26.45647222737161
            ],
            [
              86.11624953084363,
              26.457018185111476
            ],
            [
              86.11728630615745,
              26.45686755284918
            ],
            [
              86.11848404340051,
              26.456801569391775
            ],
            [
              86.11938475988136,
              26.45655692239501
            ],
            [
              86.12016376182777,
              26.45681392485636
            ],
            [
              86.12113954692367,
              26.457886529828603
            ],
            [
              86.12250763438901,
              26.459128155668793
            ],
            [
              86.12086183005863,
              26.46028888464204
            ],
            [
              86.12044460572831,
              26.46081489361838
            ],
            [
              86.12025522200177,
              26.461632812013264
            ],
            [
              86.12055952181272,
              26.463435964691595
            ],
            [
              86.12175555764662,
              26.467110868097304
            ],
            [
              86.12169519804604,
              26.467752060986996
            ],
            [
              86.12130697223141,
              26.468133518656643
            ],
            [
              86.12101656217138,
              26.468193943728327
            ],
            [
              86.12072290919323,
              26.467816610786645
            ],
            [
              86.12056067974112,
              26.467587493010843
            ],
            [
              86.12004160442386,
              26.467911010883142
            ],
            [
              86.11892458440238,
              26.470070385310155
            ],
            [
              86.11915840598934,
              26.47047951619651
            ],
            [
              86.1198372889007,
              26.470737122841555
            ],
            [
              86.12132557634094,
              26.470610784678346
            ],
            [
              86.12155295431238,
              26.47084398064693
            ],
            [
              86.12179020566712,
              26.471713501238884
            ],
            [
              86.12250533290525,
              26.472119811030176
            ],
            [
              86.12402666577151,
              26.4723722306042
            ],
            [
              86.12502837804314,
              26.472221639342624
            ],
            [
              86.12561160924135,
              26.472421200283197
            ],
            [
              86.12591671394277,
              26.473642173983624
            ],
            [
              86.12624724635661,
              26.474917197373554
            ],
            [
              86.1262883640438,
              26.475702152655927
            ],
            [
              86.12779131288778,
              26.4775024313845
            ],
            [
              86.12864078497329,
              26.47842675386975
            ],
            [
              86.12967646793568,
              26.47877242668368
            ],
            [
              86.13053104784188,
              26.480360033961848
            ],
            [
              86.13218972143702,
              26.481514052759923
            ],
            [
              86.13290986396936,
              26.482561060385866
            ],
            [
              86.13153433216529,
              26.48368863208735
            ],
            [
              86.13011817584912,
              26.484748741847294
            ],
            [
              86.12798485132251,
              26.485813361300803
            ],
            [
              86.12688021727213,
              26.485644167022603
            ],
            [
              86.1261143486952,
              26.487165070175497
            ],
            [
              86.124724522,
              26.487074312025143
            ],
            [
              86.12419541519596,
              26.486084783838347
            ],
            [
              86.12347811493316,
              26.485389716633552
            ],
            [
              86.12270073264922,
              26.485394454814056
            ],
            [
              86.12161416371922,
              26.485622261124544
            ],
            [
              86.11912529318967,
              26.48610216134907
            ],
            [
              86.11743296241579,
              26.48579212680217
            ],
            [
              86.11669177505128,
              26.485273133853706
            ],
            [
              86.11620580265226,
              26.48533474793632
            ],
            [
              86.11555845240403,
              26.48595238324925
            ],
            [
              86.11530773260822,
              26.486626313211666
            ],
            [
              86.11443144491317,
              26.486803046196275
            ],
            [
              86.11414317194523,
              26.487156730848792
            ],
            [
              86.11470947529025,
              26.489107295111054
            ],
            [
              86.1156587969162,
              26.49064477914844
            ],
            [
              86.11618256323585,
              26.491677695695426
            ],
            [
              86.11433677685527,
              26.49158240337597
            ],
            [
              86.11512585340759,
              26.493152472634655
            ],
            [
              86.1158869016247,
              26.495656815165663
            ],
            [
              86.11579509919255,
              26.496122207042625
            ],
            [
              86.11547020370712,
              26.49626855667415
            ],
            [
              86.11514748573794,
              26.4960403702824
            ],
            [
              86.11442336097392,
              26.495110720791285
            ],
            [
              86.11318910990954,
              26.494387118092
            ],
            [
              86.11286336371951,
              26.494416135063013
            ],
            [
              86.11301251280278,
              26.496928738835315
            ],
            [
              86.113469973573,
              26.497070386722623
            ],
            [
              86.11524867825973,
              26.496824990042363
            ],
            [
              86.11593100890515,
              26.49685244913665
            ],
            [
              86.11631954913017,
              26.49717047811188
            ],
            [
              86.11581220221727,
              26.49840091678177
            ],
            [
              86.1158833451945,
              26.499190208998236
            ],
            [
              86.11535227736819,
              26.499937953333898
            ],
            [
              86.11444096615686,
              26.499478714162358
            ],
            [
              86.11409072829895,
              26.499593648938372
            ],
            [
              86.1136001134065,
              26.50000037635304
            ],
            [
              86.11316763658098,
              26.500358901868942
            ],
            [
              86.11310373671989,
              26.50041184712508
            ],
            [
              86.11248853717562,
              26.500650254830166
            ],
            [
              86.11185585911095,
              26.50035887292742
            ],
            [
              86.11174369636288,
              26.500307280662895
            ],
            [
              86.11131928820518,
              26.500358933222227
            ],
            [
              86.11100206612893,
              26.500397460790865
            ],
            [
              86.1102976890298,
              26.500780818398887
            ],
            [
              86.11024346312598,
              26.501588902028672
            ],
            [
              86.11025731424937,
              26.503447990609086
            ],
            [
              86.10987526525061,
              26.504000737877806
            ],
            [
              86.1076134250445,
              26.5040414331609
            ],
            [
              86.10716312833866,
              26.50419311786446
            ],
            [
              86.1068769358689,
              26.50483103311541
            ],
            [
              86.10705421389866,
              26.5070952787213
            ],
            [
              86.10709324839267,
              26.50761851409268
            ],
            [
              86.10683413114562,
              26.50785469135612
            ],
            [
              86.10496146537513,
              26.50763126684287
            ],
            [
              86.09851098132344,
              26.506275427095762
            ],
            [
              86.09711578360117,
              26.505498512880962
            ],
            [
              86.09575886488979,
              26.50513200381959
            ],
            [
              86.09244373923325,
              26.505878166017304
            ],
            [
              86.09083156692884,
              26.505594359603666
            ],
            [
              86.08907911730289,
              26.504648014816933
            ],
            [
              86.08840122074173,
              26.50453466074334
            ],
            [
              86.08708858627888,
              26.505440368767072
            ],
            [
              86.08564406026774,
              26.506143721011394
            ],
            [
              86.08463799565853,
              26.505743500347318
            ],
            [
              86.08431648861836,
              26.505686780052717
            ],
            [
              86.08271504399505,
              26.50688736288988
            ],
            [
              86.0818809627453,
              26.507388658871985
            ],
            [
              86.08111130866777,
              26.508467151706483
            ],
            [
              86.08014953010378,
              26.509343608135804
            ],
            [
              86.079137041642,
              26.51085217037925
            ],
            [
              86.07727357731494,
              26.511909974971225
            ],
            [
              86.07543463879176,
              26.512191322084245
            ],
            [
              86.07557536886415,
              26.51363456084607
            ],
            [
              86.07519092585515,
              26.514593408342822
            ],
            [
              86.07435947756755,
              26.51546917818056
            ],
            [
              86.07339506514313,
              26.515998215168278
            ],
            [
              86.07310787644174,
              26.516523338342523
            ],
            [
              86.07311267434366,
              26.517191122331575
            ],
            [
              86.0741696159373,
              26.518636609997664
            ],
            [
              86.07655470589872,
              26.518252607038246
            ],
            [
              86.07852595728008,
              26.518931521649566
            ],
            [
              86.07988630665756,
              26.51976292912224
            ],
            [
              86.0810211672206,
              26.520627239302954
            ],
            [
              86.08260293694254,
              26.52084808007998
            ],
            [
              86.08321576223948,
              26.520961803068023
            ],
            [
              86.08331519765659,
              26.52153886166149
            ],
            [
              86.08212588481427,
              26.522186698062008
            ],
            [
              86.0815871768165,
              26.52332259625386
            ],
            [
              86.08147183762557,
              26.52543979931691
            ],
            [
              86.08234539264554,
              26.526937428958934
            ],
            [
              86.08245966014628,
              26.528186807898308
            ],
            [
              86.08304561323982,
              26.529060157701128
            ],
            [
              86.08328030978592,
              26.53029519765324
            ],
            [
              86.08335572604894,
              26.531426240745926
            ],
            [
              86.08245748712164,
              26.532099433003673
            ],
            [
              86.08150003933562,
              26.53361686325335
            ],
            [
              86.08041293500969,
              26.535247867343667
            ],
            [
              86.08172279816989,
              26.53741532179365
            ],
            [
              86.08298409211758,
              26.538396186362498
            ],
            [
              86.08650442442605,
              26.534656849251757
            ],
            [
              86.08737175322275,
              26.534570482214367
            ],
            [
              86.09037785482828,
              26.53539201967461
            ],
            [
              86.09095332997231,
              26.53518552295557
            ],
            [
              86.09127021967194,
              26.533906518022803
            ],
            [
              86.09249412304258,
              26.53387215519688
            ],
            [
              86.09495468136934,
              26.534872853761083
            ],
            [
              86.09803073927763,
              26.53702961035813
            ],
            [
              86.0992289957469,
              26.537604573369048
            ],
            [
              86.1001924038548,
              26.53693089905685
            ],
            [
              86.10142302662376,
              26.537126577603367
            ],
            [
              86.10445228230577,
              26.538349342360924
            ],
            [
              86.10446680087739,
              26.538365533793588
            ],
            [
              86.10608610760178,
              26.540171665843662
            ],
            [
              86.10610344688338,
              26.540192142090813
            ],
            [
              86.10755379487594,
              26.541904720226306
            ],
            [
              86.11181856914516,
              26.54327327777032
            ],
            [
              86.11725375570313,
              26.545478405944717
            ],
            [
              86.11864268318472,
              26.545348135892457
            ],
            [
              86.11960747469819,
              26.544877327013253
            ],
            [
              86.12038235068249,
              26.54516590784704
            ],
            [
              86.12160142381182,
              26.54445902165712
            ],
            [
              86.12350896218169,
              26.54459163366734
            ],
            [
              86.1275024964391,
              26.54387204021793
            ],
            [
              86.12955907070447,
              26.543132802311643
            ],
            [
              86.13191107930723,
              26.542973863229083
            ],
            [
              86.1326202309521,
              26.541200444267197
            ],
            [
              86.13244590837962,
              26.536711409663514
            ],
            [
              86.13487748615698,
              26.53582081239623
            ],
            [
              86.13859480104092,
              26.533784848851106
            ],
            [
              86.13860406806141,
              26.530368742938634
            ],
            [
              86.14144374508247,
              26.52906476468032
            ],
            [
              86.1432172709816,
              26.528737749874153
            ],
            [
              86.1427566104123,
              26.527549309311155
            ],
            [
              86.14238857603029,
              26.52598107409714
            ],
            [
              86.14214931783923,
              26.524209124605246
            ],
            [
              86.14940150426447,
              26.522651692305512
            ],
            [
              86.15139874660198,
              26.523392725164072
            ],
            [
              86.1537531923341,
              26.522944613148603
            ],
            [
              86.16176803496087,
              26.52209924538096
            ],
            [
              86.16252101540842,
              26.52213964810672
            ],
            [
              86.16791605715466,
              26.531451049763685
            ],
            [
              86.16946692303422,
              26.531531290841215
            ],
            [
              86.1703688513424,
              26.530740208358917
            ],
            [
              86.17055245081681,
              26.529836496189166
            ],
            [
              86.1711234442659,
              26.528438397865937
            ],
            [
              86.17224620092883,
              26.52703222899723
            ],
            [
              86.17398595196991,
              26.526249247037914
            ],
            [
              86.1754455921357,
              26.525580932207237
            ],
            [
              86.17619520839256,
              26.52457419514242
            ],
            [
              86.17687019710712,
              26.523667290888994
            ],
            [
              86.17724422055716,
              26.52209442994356
            ],
            [
              86.17775263287199,
              26.521044256263263
            ],
            [
              86.1785545750958,
              26.520312430945236
            ],
            [
              86.17946711789739,
              26.519254107328763
            ],
            [
              86.17947418224877,
              26.519245915818235
            ],
            [
              86.18129817909384,
              26.517708771055048
            ],
            [
              86.18329196740905,
              26.518011698243928
            ],
            [
              86.18422709206025,
              26.518267270860775
            ],
            [
              86.1841381750168,
              26.519711966905977
            ],
            [
              86.18330544393494,
              26.519717516308376
            ],
            [
              86.18159992319777,
              26.51972853232145
            ],
            [
              86.1804471187869,
              26.52048969004804
            ],
            [
              86.17956912519115,
              26.52174545205953
            ],
            [
              86.17906528080954,
              26.52271899877052
            ],
            [
              86.17912396684873,
              26.523174398654994
            ],
            [
              86.17974945120464,
              26.52361702325378
            ],
            [
              86.18049893810408,
              26.523873817174483
            ],
            [
              86.18159308881509,
              26.52393445809797
            ],
            [
              86.1822919700213,
              26.5241420770222
            ],
            [
              86.18566798797936,
              26.52412000806499
            ],
            [
              86.18704844614444,
              26.524855570705274
            ],
            [
              86.18840379010913,
              26.5255867312935
            ],
            [
              86.18895427142704,
              26.526056980351964
            ],
            [
              86.18899586522134,
              26.528750825790517
            ],
            [
              86.19100679698542,
              26.52927915538088
            ],
            [
              86.19208038705621,
              26.528649328059906
            ],
            [
              86.19258476144383,
              26.527725433612414
            ],
            [
              86.19303119359732,
              26.526476953063632
            ],
            [
              86.19342903318216,
              26.52601399414125
            ],
            [
              86.19448087234497,
              26.525185772215657
            ],
            [
              86.19641022001328,
              26.524315651388775
            ],
            [
              86.19771506159101,
              26.523742872344407
            ],
            [
              86.19799588393198,
              26.52686390317587
            ],
            [
              86.19891924963612,
              26.52813934004819
            ],
            [
              86.19969202625761,
              26.5287886470001
            ],
            [
              86.20130396320342,
              26.529599230881463
            ],
            [
              86.20153264373205,
              26.53058596190215
            ],
            [
              86.20033606172245,
              26.532137266772757
            ],
            [
              86.19998520492527,
              26.533421226139527
            ],
            [
              86.19986698393896,
              26.53432454439968
            ],
            [
              86.19952458028864,
              26.534787145911828
            ],
            [
              86.19934510228475,
              26.535546500776654
            ],
            [
              86.19923488618593,
              26.537433523339725
            ],
            [
              86.19833404843247,
              26.53711453375439
            ],
            [
              86.19729491683766,
              26.537022112883154
            ],
            [
              86.19608815871257,
              26.536700614683937
            ],
            [
              86.19509956004742,
              26.53667567499821
            ],
            [
              86.19470126861002,
              26.537052814031437
            ],
            [
              86.19427018956307,
              26.53773258908354
            ],
            [
              86.19343849603536,
              26.539132449108067
            ],
            [
              86.19263012726401,
              26.5409474011599
            ],
            [
              86.19258265579283,
              26.541899857401507
            ],
            [
              86.19280733163191,
              26.542390266338938
            ],
            [
              86.19357755973292,
              26.542714645694556
            ],
            [
              86.19359579373653,
              26.542718712887016
            ],
            [
              86.19485434961929,
              26.542999486240237
            ],
            [
              86.19658820591546,
              26.54274434559879
            ],
            [
              86.1986556974065,
              26.54278036687826
            ],
            [
              86.20204066168645,
              26.543809308346727
            ],
            [
              86.20262400068249,
              26.544599689164166
            ],
            [
              86.2034436981079,
              26.546069848845388
            ],
            [
              86.20409072765759,
              26.547247854862317
            ],
            [
              86.20595757504002,
              26.547844728997852
            ],
            [
              86.20740424263482,
              26.54798399007504
            ],
            [
              86.20952199396766,
              26.547951904843128
            ],
            [
              86.21044954671933,
              26.547255240771822
            ],
            [
              86.21137169790121,
              26.545917783106063
            ],
            [
              86.21113162403984,
              26.54504988478086
            ],
            [
              86.20971281589695,
              26.543385264395667
            ]
          ]
        ]
      }
    }
  ]
}