{
  "type": "FeatureCollection",
  "features": [
    {
      "type": "Feature",
      "properties": {
        "object_id": "10-230-01412",
        "stname": "BIHAR",
        "dtname": "Patna",
        "sdtname": "Daniawan",
        "st_area_sh": 0.0,
        "st_length_": 0.0,
        "remarks": "",
        "dist_lgd": 212,
        "state_lgd": 10,
        "subdt_lgd": 1412,
        "ac_no": null,
        "st_length(shape)": 69689.77872311571,
        "st_area(shape)": 79566220.36857046
      },
      "geometry": {
        "type": "Polygon",
        "coordinates": [
          [
            [
              85.30610936080392,
              25.482778259659824
            ],
            [
              85.30738724483831,
              25.482610684869528
            ],
            [
              85.30925205663829,
              25.482776944343744
            ],
            [
              85.31031121707066,
              25.48280811214105
            ],
            [
              85.3110621691223,
              25.48288905674211
            ],
            [
              85.3119321111182,
              25.482441896702408
            ],
            [
              85.31274222980771,
              25.481593029154034
            ],
            [
              85.31376611789044,
              25.480802684909477
            ],
            [
              85.31582444836218,
              25.480233108282597
            ],
            [
              85.31744015374065,
              25.479614020854335
            ],
            [
              85.31793713229852,
              25.479243705273568
            ],
            [
              85.31831457024492,
              25.47839499193169
            ],
            [
              85.31814470062135,
              25.476982340246142
            ],
            [
              85.31803480072949,
              25.476052614757467
            ],
            [
              85.3174278387364,
              25.475312697693145
            ],
            [
              85.31733224631208,
              25.473448617857084
            ],
            [
              85.31704824842657,
              25.472401631296353
            ],
            [
              85.31656572106667,
              25.471923422221288
            ],
            [
              85.31704234110526,
              25.470600784170955
            ],
            [
              85.3177227385762,
              25.469165154923026
            ],
            [
              85.31836282774199,
              25.466948721184618
            ],
            [
              85.3186303747797,
              25.46518841017315
            ],
            [
              85.3183906916855,
              25.463514006045877
            ],
            [
              85.31871821294651,
              25.462349348011376
            ],
            [
              85.31909019991575,
              25.46081007583707
            ],
            [
              85.31834408080034,
              25.460052183229962
            ],
            [
              85.3174189391269,
              25.459380085991597
            ],
            [
              85.31652910124411,
              25.45946169765753
            ],
            [
              85.31569412976393,
              25.45999924269183
            ],
            [
              85.3143269648684,
              25.45999985018773
            ],
            [
              85.31370019592163,
              25.459354626183654
            ],
            [
              85.31319219862846,
              25.457702940659463
            ],
            [
              85.31353418815544,
              25.455811604143364
            ],
            [
              85.31296694427434,
              25.4547331349197
            ],
            [
              85.31246450216288,
              25.4541105387643
            ],
            [
              85.31130087934106,
              25.453488108912698
            ],
            [
              85.30966506786993,
              25.45316383817731
            ],
            [
              85.30859088670769,
              25.452378904728576
            ],
            [
              85.3070889403836,
              25.450921643241607
            ],
            [
              85.30643237342053,
              25.450353204300956
            ],
            [
              85.30578114784014,
              25.45035346873291
            ],
            [
              85.30449856921008,
              25.450299802013046
            ],
            [
              85.3043790699211,
              25.44992066909758
            ],
            [
              85.3047861540685,
              25.448625112869077
            ],
            [
              85.30481531158598,
              25.44705891139707
            ],
            [
              85.30530232962401,
              25.44675638204154
            ],
            [
              85.30619207587866,
              25.446647664766797
            ],
            [
              85.30723628385311,
              25.447134781085047
            ],
            [
              85.30963222725977,
              25.447025524728275
            ],
            [
              85.31135715969194,
              25.446862308001208
            ],
            [
              85.31379822008543,
              25.44729454513918
            ],
            [
              85.31680591530227,
              25.447694890018898
            ],
            [
              85.31868026092238,
              25.448046088849747
            ],
            [
              85.31944139897102,
              25.448993561339673
            ],
            [
              85.32015812610868,
              25.45045563027063
            ],
            [
              85.32083929702904,
              25.450721546901892
            ],
            [
              85.32286774683952,
              25.450991429404148
            ],
            [
              85.32545820065803,
              25.45155881004751
            ],
            [
              85.32715350305884,
              25.45172043788984
            ],
            [
              85.32782985631434,
              25.452193987027226
            ],
            [
              85.32833128871943,
              25.45116460290024
            ],
            [
              85.32908643320852,
              25.450437516695953
            ],
            [
              85.33067706660738,
              25.450093672982785
            ],
            [
              85.33141259728055,
              25.44974568090301
            ],
            [
              85.33268906826497,
              25.448183373764653
            ],
            [
              85.33453169437239,
              25.44574497323276
            ],
            [
              85.33633600014643,
              25.445518236654568
            ],
            [
              85.33868738980996,
              25.4456206926949
            ],
            [
              85.33855700204138,
              25.444018514280863
            ],
            [
              85.33759263363446,
              25.444068740327342
            ],
            [
              85.33645891572844,
              25.443536735945273
            ],
            [
              85.3368356224462,
              25.44208776738149
            ],
            [
              85.33643608684211,
              25.439343788867465
            ],
            [
              85.33664222684361,
              25.435764437990603
            ],
            [
              85.33626235086953,
              25.43271805584728
            ],
            [
              85.33615616371473,
              25.430163457850927
            ],
            [
              85.33703475558849,
              25.42852451964246
            ],
            [
              85.33737160765035,
              25.426962610619682
            ],
            [
              85.3389618565703,
              25.42673601636252
            ],
            [
              85.34122790718013,
              25.426202002098204
            ],
            [
              85.34336461206715,
              25.425514642630336
            ],
            [
              85.34432852233333,
              25.425017520599283
            ],
            [
              85.34470572492114,
              25.424331269936115
            ],
            [
              85.34478794412583,
              25.421474155256572
            ],
            [
              85.34457746615979,
              25.419267130687363
            ],
            [
              85.34427333163892,
              25.417949431401034
            ],
            [
              85.34455608715437,
              25.4173309007149
            ],
            [
              85.34455512775364,
              25.41602651273408
            ],
            [
              85.34387756985733,
              25.4138875230183
            ],
            [
              85.34365777276855,
              25.412456851922958
            ],
            [
              85.34281745182088,
              25.41196543698309
            ],
            [
              85.34116255923476,
              25.411916808183598
            ],
            [
              85.33936367389518,
              25.412089463376713
            ],
            [
              85.33921358607246,
              25.410789655079945
            ],
            [
              85.33915861456694,
              25.410071322961837
            ],
            [
              85.33907551142003,
              25.410044840088954
            ],
            [
              85.33892144316228,
              25.40978290697712
            ],
            [
              85.33867449629068,
              25.406121265765112
            ],
            [
              85.33834658336421,
              25.40565613033691
            ],
            [
              85.33786445575457,
              25.405448267154178
            ],
            [
              85.33605512210991,
              25.40535728729051
            ],
            [
              85.33534941730082,
              25.404941674762455
            ],
            [
              85.33481778623084,
              25.404336454127037
            ],
            [
              85.33405793007807,
              25.40269726706553
            ],
            [
              85.3340037598698,
              25.40164071812991
            ],
            [
              85.33123519797824,
              25.40149971478294
            ],
            [
              85.32827257573078,
              25.401545910127684
            ],
            [
              85.32530995527996,
              25.401592046217488
            ],
            [
              85.32552856569424,
              25.401863032804403
            ],
            [
              85.32582115776205,
              25.403154321224683
            ],
            [
              85.32370320071499,
              25.403979643293695
            ],
            [
              85.32013406383548,
              25.40404570367531
            ],
            [
              85.31997453921069,
              25.40474085209475
            ],
            [
              85.31988495382065,
              25.404907840677613
            ],
            [
              85.31981993915029,
              25.405625737778266
            ],
            [
              85.31940222164488,
              25.405864820019314
            ],
            [
              85.31721509072769,
              25.40572828210251
            ],
            [
              85.31704311455472,
              25.40574468376586
            ],
            [
              85.31551990241287,
              25.40588994870469
            ],
            [
              85.31511256673718,
              25.405438248263888
            ],
            [
              85.31444226363513,
              25.404214363999145
            ],
            [
              85.31390647516201,
              25.402539058696835
            ],
            [
              85.31342505632317,
              25.40136945027482
            ],
            [
              85.31194857364406,
              25.401630516342873
            ],
            [
              85.31088483809197,
              25.401620903681497
            ],
            [
              85.31037796279456,
              25.401408422771357
            ],
            [
              85.30910058181675,
              25.401258716122136
            ],
            [
              85.30723119040543,
              25.401826523258954
            ],
            [
              85.30715594841558,
              25.402806208192004
            ],
            [
              85.30725481340248,
              25.403600883965176
            ],
            [
              85.30752293626027,
              25.40570675537238
            ],
            [
              85.3075514541773,
              25.40593073493231
            ],
            [
              85.30198391613354,
              25.406040288209915
            ],
            [
              85.30262722306472,
              25.403241455626898
            ],
            [
              85.29957966061558,
              25.403826491966168
            ],
            [
              85.29929414906881,
              25.40016022873189
            ],
            [
              85.29912637072319,
              25.398557341295433
            ],
            [
              85.30281419481469,
              25.39907433696741
            ],
            [
              85.30379874117956,
              25.398578298012584
            ],
            [
              85.3034628583999,
              25.395661488052866
            ],
            [
              85.30394068218096,
              25.394754287287405
            ],
            [
              85.30395611523757,
              25.394031918138978
            ],
            [
              85.30360332616422,
              25.393878199105135
            ],
            [
              85.3017343982836,
              25.39394478033258
            ],
            [
              85.30067339360997,
              25.393702573646024
            ],
            [
              85.29961239522453,
              25.393460361604298
            ],
            [
              85.29744542429893,
              25.393300950618254
            ],
            [
              85.29735143985897,
              25.39271847312492
            ],
            [
              85.2945828258651,
              25.3928656373022
            ],
            [
              85.29450264314116,
              25.393682774124656
            ],
            [
              85.29191257829315,
              25.394263431597672
            ],
            [
              85.28922850744561,
              25.394302191336823
            ],
            [
              85.28915525432576,
              25.392771599850224
            ],
            [
              85.28783309322938,
              25.39282031995421
            ],
            [
              85.28875521297022,
              25.395593107844324
            ],
            [
              85.28915597657127,
              25.3977800039756
            ],
            [
              85.2892252276965,
              25.398157888935156
            ],
            [
              85.28169425810596,
              25.398703166700297
            ],
            [
              85.2810281986453,
              25.39869814277413
            ],
            [
              85.28096537586423,
              25.399220299699987
            ],
            [
              85.28054147794965,
              25.40274346195177
            ],
            [
              85.28048720174016,
              25.403194546036467
            ],
            [
              85.27411422702619,
              25.403577766402044
            ],
            [
              85.27355734970344,
              25.40358460616308
            ],
            [
              85.27308027871058,
              25.403590463250872
            ],
            [
              85.27330806900875,
              25.399445991360064
            ],
            [
              85.27280360209464,
              25.396890156039802
            ],
            [
              85.27222667617141,
              25.397232807714154
            ],
            [
              85.27198012006696,
              25.397745040715822
            ],
            [
              85.27173356216585,
              25.398257274789234
            ],
            [
              85.27092681305697,
              25.399751022800636
            ],
            [
              85.2663877840298,
              25.40051466593151
            ],
            [
              85.26530401604685,
              25.400658193306896
            ],
            [
              85.264206059174,
              25.400124466043405
            ],
            [
              85.26180017680701,
              25.400185516843813
            ],
            [
              85.2578882437134,
              25.400181918747418
            ],
            [
              85.25670688365629,
              25.398713475039788
            ],
            [
              85.25616600622709,
              25.397904802889403
            ],
            [
              85.25532417790636,
              25.397305783318497
            ],
            [
              85.25448235677213,
              25.39670675833969
            ],
            [
              85.25311573715398,
              25.396466152612145
            ],
            [
              85.25259832641495,
              25.396871989781225
            ],
            [
              85.25213522332642,
              25.397589403977076
            ],
            [
              85.25200494694899,
              25.398474192796186
            ],
            [
              85.25270442643317,
              25.399653256272405
            ],
            [
              85.2530511087592,
              25.400737163639732
            ],
            [
              85.25300489223444,
              25.402005799854773
            ],
            [
              85.25199227531357,
              25.40502527321461
            ],
            [
              85.25208045573851,
              25.410357444400177
            ],
            [
              85.25250334484501,
              25.414046042679665
            ],
            [
              85.2525184131856,
              25.414177474063095
            ],
            [
              85.25080600955671,
              25.414352503372875
            ],
            [
              85.25000006803324,
              25.414714635390325
            ],
            [
              85.24879913907601,
              25.414571049280983
            ],
            [
              85.24819891175261,
              25.41437286422501
            ],
            [
              85.24787761042663,
              25.41415453135194
            ],
            [
              85.24772843708887,
              25.413877130779795
            ],
            [
              85.24761653125897,
              25.413628025925924
            ],
            [
              85.24687328585414,
              25.4133942306726
            ],
            [
              85.24543689229127,
              25.413232338013934
            ],
            [
              85.24521594086735,
              25.41320743480215
            ],
            [
              85.24496478898187,
              25.412703387075705
            ],
            [
              85.24464210425037,
              25.411990844330248
            ],
            [
              85.24447131475192,
              25.411429074812947
            ],
            [
              85.24425174942849,
              25.410803526898782
            ],
            [
              85.2440801110221,
              25.409957368184646
            ],
            [
              85.2440343373668,
              25.408656804195957
            ],
            [
              85.24381686871122,
              25.407886835598458
            ],
            [
              85.24346124994477,
              25.40704750572447
            ],
            [
              85.24344784708073,
              25.4066004648237
            ],
            [
              85.24355154230892,
              25.405960723317055
            ],
            [
              85.24344346509876,
              25.4055306058962
            ],
            [
              85.24293597265878,
              25.405226619602168
            ],
            [
              85.24206312910457,
              25.405098821855418
            ],
            [
              85.24129032194035,
              25.404927076024634
            ],
            [
              85.24088293685732,
              25.404574626854394
            ],
            [
              85.23937167141045,
              25.40392006720126
            ],
            [
              85.23783537979806,
              25.40327873562917
            ],
            [
              85.23690881878646,
              25.403087068321494
            ],
            [
              85.23613706444777,
              25.403186144195747
            ],
            [
              85.23427665708765,
              25.403303742323114
            ],
            [
              85.23219514918324,
              25.40324712690742
            ],
            [
              85.2306942143621,
              25.403251638614172
            ],
            [
              85.22876382105481,
              25.403056863374207
            ],
            [
              85.22792062819315,
              25.40294288006104
            ],
            [
              85.22695051056839,
              25.403012434344156
            ],
            [
              85.22655614566706,
              25.403007675944743
            ],
            [
              85.22586729684598,
              25.40299936416302
            ],
            [
              85.22562317876921,
              25.403380102089645
            ],
            [
              85.2255121541866,
              25.403665394674675
            ],
            [
              85.22540112870567,
              25.403950689019464
            ],
            [
              85.22522784278908,
              25.404585059655453
            ],
            [
              85.22515142220952,
              25.405392129062307
            ],
            [
              85.22522360813083,
              25.40623258861594
            ],
            [
              85.22543856060526,
              25.406826507823748
            ],
            [
              85.22548019302711,
              25.407377709613666
            ],
            [
              85.22550003321847,
              25.408059550114718
            ],
            [
              85.22555777692493,
              25.40886823940172
            ],
            [
              85.225907924053,
              25.410073168113083
            ],
            [
              85.22612559303285,
              25.410482049359526
            ],
            [
              85.22611454824644,
              25.410897195713176
            ],
            [
              85.22599412728597,
              25.413012769759472
            ],
            [
              85.2258346269157,
              25.41406258763852
            ],
            [
              85.22549461278405,
              25.41454147116219
            ],
            [
              85.22488359489745,
              25.414859094373515
            ],
            [
              85.22438984398637,
              25.414975003999757
            ],
            [
              85.22361402117777,
              25.41466770916589
            ],
            [
              85.22304803134479,
              25.413947667837633
            ],
            [
              85.22267956756808,
              25.41365432220412
            ],
            [
              85.22191986592559,
              25.413943050239382
            ],
            [
              85.22135118204505,
              25.414423670597145
            ],
            [
              85.22100224315105,
              25.4147346667607
            ],
            [
              85.22293304698843,
              25.41603619077997
            ],
            [
              85.22449848893179,
              25.416140302747618
            ],
            [
              85.22467211710655,
              25.417823892980003
            ],
            [
              85.22600342395087,
              25.420613429957214
            ],
            [
              85.2272453466278,
              25.423651221158547
            ],
            [
              85.22791642497597,
              25.42329926076813
            ],
            [
              85.23055066537637,
              25.422879900898188
            ],
            [
              85.23257846121328,
              25.422880201900107
            ],
            [
              85.23368194721672,
              25.422352177636178
            ],
            [
              85.23368200201394,
              25.42203628120638
            ],
            [
              85.23362235926898,
              25.421458540293905
            ],
            [
              85.23420394565191,
              25.42103432627347
            ],
            [
              85.23466618995103,
              25.42103438225583
            ],
            [
              85.23512839382596,
              25.42124653732144
            ],
            [
              85.23576949808802,
              25.42150837088937
            ],
            [
              85.23623173879388,
              25.42145878126059
            ],
            [
              85.23680823711905,
              25.421088790595824
            ],
            [
              85.23715626242641,
              25.42051109706828
            ],
            [
              85.23715624535843,
              25.41987912334908
            ],
            [
              85.23808571511493,
              25.419721282340554
            ],
            [
              85.2390101165766,
              25.419613060742414
            ],
            [
              85.24060539965534,
              25.420235989373776
            ],
            [
              85.24112715015552,
              25.422289637095375
            ],
            [
              85.24106735379861,
              25.423919024867633
            ],
            [
              85.24054552065346,
              25.424289117184408
            ],
            [
              85.23956134259787,
              25.42460501825732
            ],
            [
              85.23921333974836,
              25.42581459507997
            ],
            [
              85.23950126506828,
              25.42923586781556
            ],
            [
              85.23973468600663,
              25.432286993837856
            ],
            [
              85.23828821604123,
              25.432715662631047
            ],
            [
              85.23821847174088,
              25.43392983166664
            ],
            [
              85.23816356311747,
              25.43600147536851
            ],
            [
              85.23632451679644,
              25.435924599221494
            ],
            [
              85.23604610373705,
              25.436127677917582
            ],
            [
              85.23564307638148,
              25.439084052919547
            ],
            [
              85.23527987673232,
              25.441814637975117
            ],
            [
              85.23473753774417,
              25.445809024168238
            ],
            [
              85.23501537588174,
              25.450083321179125
            ],
            [
              85.23512951043186,
              25.45169916433569
            ],
            [
              85.2372970428045,
              25.451672323167347
            ],
            [
              85.23730210840438,
              25.451013387682597
            ],
            [
              85.2370537529744,
              25.44888744338992
            ],
            [
              85.23721785900716,
              25.448129199105004
            ],
            [
              85.23758078017856,
              25.448057083264455
            ],
            [
              85.2387489314077,
              25.448382153763706
            ],
            [
              85.24038943118633,
              25.4482061867019
            ],
            [
              85.24167205203717,
              25.447930951618623
            ],
            [
              85.24228349123366,
              25.447651129612392
            ],
            [
              85.24235319061822,
              25.44626097161695
            ],
            [
              85.2422439455982,
              25.444541352633212
            ],
            [
              85.24243799876756,
              25.441585028838464
            ],
            [
              85.24360616975964,
              25.44148125927552
            ],
            [
              85.2448737411346,
              25.441558036965862
            ],
            [
              85.24598712567415,
              25.44362977012118
            ],
            [
              85.24642950912063,
              25.445146283814278
            ],
            [
              85.24731937934276,
              25.4462611297948
            ],
            [
              85.24777166042708,
              25.4462386458235
            ],
            [
              85.24791091456748,
              25.446319860004063
            ],
            [
              85.24820421630437,
              25.44672160981835
            ],
            [
              85.24819426297104,
              25.447529449998527
            ],
            [
              85.247995381357,
              25.448197522750537
            ],
            [
              85.2482638338965,
              25.44911824802663
            ],
            [
              85.24855215178022,
              25.449524493611722
            ],
            [
              85.24942700396741,
              25.44963727131818
            ],
            [
              85.25000002760905,
              25.44970735267097
            ],
            [
              85.25064498025381,
              25.449786229226106
            ],
            [
              85.25343387820679,
              25.449862918073507
            ],
            [
              85.25468169473031,
              25.450219430859924
            ],
            [
              85.25538756572774,
              25.450174337042146
            ],
            [
              85.25566593926125,
              25.449876459315025
            ],
            [
              85.25599397076535,
              25.448427529723173
            ],
            [
              85.255760299197,
              25.447574526961436
            ],
            [
              85.25693349716144,
              25.447362366338456
            ],
            [
              85.25875791980792,
              25.447276488681414
            ],
            [
              85.25964764899459,
              25.44681153315016
            ],
            [
              85.2607711000552,
              25.446554244373658
            ],
            [
              85.26132295040557,
              25.44651351569422
            ],
            [
              85.2620686158718,
              25.446639814302728
            ],
            [
              85.26232704321272,
              25.4465134386334
            ],
            [
              85.26242148220021,
              25.445791326025592
            ],
            [
              85.26202356356366,
              25.443706115702174
            ],
            [
              85.26199853110995,
              25.441643435226002
            ],
            [
              85.26149627764471,
              25.439901231081855
            ],
            [
              85.26100404398812,
              25.438754829027165
            ],
            [
              85.26055663536596,
              25.438411837808662
            ],
            [
              85.2607454702218,
              25.437432422711332
            ],
            [
              85.26017378327333,
              25.436326657909987
            ],
            [
              85.25932872730579,
              25.436028828675727
            ],
            [
              85.25955732788432,
              25.435473649751298
            ],
            [
              85.25929363102593,
              25.432761015287703
            ],
            [
              85.26018342309465,
              25.432652648824565
            ],
            [
              85.26095879944056,
              25.43235917509824
            ],
            [
              85.2614358273143,
              25.43173634481857
            ],
            [
              85.26227077992985,
              25.43076134475373
            ],
            [
              85.26375701202473,
              25.430679965940552
            ],
            [
              85.26485549531034,
              25.431004809130787
            ],
            [
              85.26594404861878,
              25.431248475833346
            ],
            [
              85.26737054364557,
              25.431221218793205
            ],
            [
              85.26886174522058,
              25.431275190939342
            ],
            [
              85.27028835074015,
              25.431951992200666
            ],
            [
              85.27186418978458,
              25.432868043076493
            ],
            [
              85.2732062216151,
              25.43297613189566
            ],
            [
              85.27427479639164,
              25.432569747741105
            ],
            [
              85.27490093292445,
              25.43195128964525
            ],
            [
              85.27552718713656,
              25.43146369736152
            ],
            [
              85.27690896762175,
              25.43159886105498
            ],
            [
              85.2774161222952,
              25.43222168717774
            ],
            [
              85.2776846404117,
              25.43295283499746
            ],
            [
              85.27771461629442,
              25.433489942676
            ],
            [
              85.27705865120261,
              25.434140004051887
            ],
            [
              85.27619894281445,
              25.43516925220567
            ],
            [
              85.27605000483528,
              25.435868829019856
            ],
            [
              85.27649257333474,
              25.436654105348126
            ],
            [
              85.27668671992889,
              25.43827440871373
            ],
            [
              85.27641860785089,
              25.439303512030094
            ],
            [
              85.27573266418142,
              25.43949326489493
            ],
            [
              85.27490247802673,
              25.439574640999854
            ],
            [
              85.27409723808753,
              25.439574762681897
            ],
            [
              85.27364995343284,
              25.439926865358238
            ],
            [
              85.27362029196047,
              25.44095144588307
            ],
            [
              85.27379957413162,
              25.442359600690327
            ],
            [
              85.27420256285966,
              25.44435905680014
            ],
            [
              85.27494845020972,
              25.445523407885705
            ],
            [
              85.27506317315634,
              25.44722496530245
            ],
            [
              85.27510821378637,
              25.448926587900424
            ],
            [
              85.27403454017225,
              25.449522494135483
            ],
            [
              85.27296581807201,
              25.449766413768696
            ],
            [
              85.27257825431573,
              25.45052474589067
            ],
            [
              85.27254858296189,
              25.45157639702832
            ],
            [
              85.27255374737643,
              25.452424894827065
            ],
            [
              85.27355305036649,
              25.45321012809095
            ],
            [
              85.27432385159265,
              25.45436994624446
            ],
            [
              85.27483108711446,
              25.4550198503074
            ],
            [
              85.27467713473939,
              25.455751084401022
            ],
            [
              85.27490095538235,
              25.456233981036053
            ],
            [
              85.27486146274748,
              25.45764219395135
            ],
            [
              85.27469266840731,
              25.458820233386383
            ],
            [
              85.27395725990502,
              25.460585123604172
            ],
            [
              85.27429551962693,
              25.46186242303072
            ],
            [
              85.27498694212132,
              25.463270463025385
            ],
            [
              85.27535000881981,
              25.463960996394956
            ],
            [
              85.27554912130086,
              25.46495844496147
            ],
            [
              85.27611105524032,
              25.46569857819758
            ],
            [
              85.27729453711811,
              25.46636636113326
            ],
            [
              85.27836860868591,
              25.467133454820488
            ],
            [
              85.27857764305924,
              25.467950328234128
            ],
            [
              85.27995983407455,
              25.467692761855925
            ],
            [
              85.28121280063958,
              25.467873079951783
            ],
            [
              85.28248066306861,
              25.468003700792664
            ],
            [
              85.28366403355534,
              25.468129821946434
            ],
            [
              85.28496161135568,
              25.467899314917002
            ],
            [
              85.2869305136426,
              25.467772461167282
            ],
            [
              85.28797457788663,
              25.467564564831054
            ],
            [
              85.28856633319856,
              25.46784877440468
            ],
            [
              85.28924280143843,
              25.468868613715255
            ],
            [
              85.28948215485093,
              25.470813818641243
            ],
            [
              85.2895074370363,
              25.472167877934492
            ],
            [
              85.2892593088801,
              25.473576201183526
            ],
            [
              85.28938427082433,
              25.47587802787693
            ],
            [
              85.29070707601278,
              25.476130397079764
            ],
            [
              85.29221356691396,
              25.47577344284884
            ],
            [
              85.29378989823518,
              25.47626045587423
            ],
            [
              85.29474961965715,
              25.47636391810231
            ],
            [
              85.29562464521922,
              25.476232749206602
            ],
            [
              85.29677832279255,
              25.476259493257217
            ],
            [
              85.29762338594662,
              25.475848533745292
            ],
            [
              85.29922932214635,
              25.47559522403574
            ],
            [
              85.30132736623848,
              25.47494905292302
            ],
            [
              85.30129793024327,
              25.47588336405219
            ],
            [
              85.30179584484569,
              25.477494522136414
            ],
            [
              85.30266726187526,
              25.48017974034026
            ],
            [
              85.30287164117878,
              25.481393767181434
            ],
            [
              85.30315044859859,
              25.482300871149793
            ],
            [
              85.30368292588157,
              25.48317627915867
            ],
            [
              85.30455360539429,
              25.48416445289644
            ],
            [
              85.30532887214572,
              25.483288545259224
            ],
            [
              85.30610936080392,
              25.482778259659824
            ]
          ]
        ]
      }
    }
  ]
}