{
  "type": "FeatureCollection",
  "features": [
    {
      "type": "Feature",
      "properties": {
        "object_id": "10-237-01512",
        "stname": "BIHAR",
        "dtname": "Nawada",
        "sdtname": "Nawada",
        "st_area_sh": 0.0,
        "st_length_": 0.0,
        "remarks": "",
        "dist_lgd": 210,
        "state_lgd": 10,
        "subdt_lgd": 1512,
        "ac_no": null,
        "st_length(shape)": 86822.75137888109,
        "st_area(shape)": 219317998.1072041
      },
      "geometry": {
        "type": "Polygon",
        "coordinates": [
          [
            [
              85.51876450619946,
              25.00522365492037
            ],
            [
              85.52092912713225,
              25.004008207812333
            ],
            [
              85.52204784496963,
              25.00408253483004
            ],
            [
              85.52283214787454,
              25.004365715820715
            ],
            [
              85.5248413144491,
              25.004132842741598
            ],
            [
              85.52588336826354,
              25.003989679986603
            ],
            [
              85.5280081749646,
              25.00361344435463
            ],
            [
              85.52784685370925,
              25.00218523971103
            ],
            [
              85.52959595711074,
              25.000906857712124
            ],
            [
              85.52950721883204,
              25.000454523286717
            ],
            [
              85.52948248372068,
              25.000001212658358
            ],
            [
              85.52948065475077,
              24.999922647145784
            ],
            [
              85.5292878816807,
              24.999380836835297
            ],
            [
              85.5289419413631,
              24.998441772277914
            ],
            [
              85.52890275325716,
              24.99790008488975
            ],
            [
              85.5288883092457,
              24.9972997831714
            ],
            [
              85.52897258289744,
              24.99720051162364
            ],
            [
              85.52915098382131,
              24.997101387360342
            ],
            [
              85.5294382973885,
              24.99703824769744
            ],
            [
              85.53036939668893,
              24.997079514698996
            ],
            [
              85.53148375320559,
              24.99722915081799
            ],
            [
              85.5315927206462,
              24.997179532937338
            ],
            [
              85.53170177612171,
              24.997107430939224
            ],
            [
              85.53177425669038,
              24.996864639714193
            ],
            [
              85.53181088639442,
              24.996741945724988
            ],
            [
              85.53197981458361,
              24.996114574331685
            ],
            [
              85.53214401763437,
              24.995148764168654
            ],
            [
              85.53228341999677,
              24.994124268637886
            ],
            [
              85.53228361942281,
              24.993921097358857
            ],
            [
              85.53236292718765,
              24.993808282269438
            ],
            [
              85.53255609641478,
              24.993736233658456
            ],
            [
              85.53296717177699,
              24.99372297210439
            ],
            [
              85.53355160671768,
              24.99374815098086
            ],
            [
              85.5341360425567,
              24.99377332659544
            ],
            [
              85.53452238101094,
              24.993823190922832
            ],
            [
              85.53531963762224,
              24.99393644810393
            ],
            [
              85.53589899887818,
              24.994013583655487
            ],
            [
              85.53637956341923,
              24.993873954910782
            ],
            [
              85.53696903611203,
              24.993775002201325
            ],
            [
              85.53750870620549,
              24.993924206752013
            ],
            [
              85.537919651312,
              24.99403734659667
            ],
            [
              85.53846918311062,
              24.99446647264002
            ],
            [
              85.53901881372396,
              24.994701451610634
            ],
            [
              85.53965269373451,
              24.994814759276014
            ],
            [
              85.54004883280852,
              24.994842116686076
            ],
            [
              85.54082135430846,
              24.99499138263341
            ],
            [
              85.54083796775132,
              24.994997370137394
            ],
            [
              85.54138583407344,
              24.995194830593356
            ],
            [
              85.54208900743008,
              24.99535775888265
            ],
            [
              85.54277736756765,
              24.995434904940705
            ],
            [
              85.54345115613305,
              24.995322340380277
            ],
            [
              85.54408519065385,
              24.995182879215577
            ],
            [
              85.54462020298254,
              24.994970956400543
            ],
            [
              85.54503145082128,
              24.99474554706128
            ],
            [
              85.54527677084393,
              24.99429224224087
            ],
            [
              85.54536359660938,
              24.994131800700693
            ],
            [
              85.54533419744507,
              24.9936804126672
            ],
            [
              85.54524061634868,
              24.992940102285107
            ],
            [
              85.54501841985979,
              24.991847690250335
            ],
            [
              85.54448469122362,
              24.99001922898384
            ],
            [
              85.54418338639587,
              24.988827528964567
            ],
            [
              85.54415873662448,
              24.98869200372258
            ],
            [
              85.54416875822976,
              24.98855212710767
            ],
            [
              85.54428264484486,
              24.988466376869198
            ],
            [
              85.5431536556705,
              24.985982840322468
            ],
            [
              85.54305564498144,
              24.98438033127628
            ],
            [
              85.54350774730099,
              24.982245588958833
            ],
            [
              85.54476728683895,
              24.979691439044494
            ],
            [
              85.5445352960185,
              24.978562930611336
            ],
            [
              85.54619432534648,
              24.978441938142385
            ],
            [
              85.54662045108296,
              24.97799530661969
            ],
            [
              85.54689777628252,
              24.97800893630342
            ],
            [
              85.54717510238042,
              24.978022654743825
            ],
            [
              85.54782396898487,
              24.97778378168251
            ],
            [
              85.54882999586484,
              24.976655868917163
            ],
            [
              85.55107865958234,
              24.975939238749643
            ],
            [
              85.55113448897895,
              24.973551532295975
            ],
            [
              85.55083450467463,
              24.97008030284591
            ],
            [
              85.55116182561136,
              24.96924990666421
            ],
            [
              85.55177621128192,
              24.968591144818298
            ],
            [
              85.55201894415653,
              24.96854611732024
            ],
            [
              85.55226157102993,
              24.968501106092912
            ],
            [
              85.55220920733372,
              24.973398584808876
            ],
            [
              85.55305588835363,
              24.973457701627577
            ],
            [
              85.55549762607684,
              24.972736643227723
            ],
            [
              85.55640879804929,
              24.972651272025523
            ],
            [
              85.55800308579475,
              24.97312144238007
            ],
            [
              85.55957237791738,
              24.974033965344326
            ],
            [
              85.56260294334305,
              24.973999135968604
            ],
            [
              85.56347941609106,
              24.973940858976803
            ],
            [
              85.56380062668718,
              24.97540792264423
            ],
            [
              85.56540054597116,
              24.97445621098952
            ],
            [
              85.56634123927877,
              24.9748672933484
            ],
            [
              85.56793983534432,
              24.976700496880845
            ],
            [
              85.56892027281509,
              24.976971757681262
            ],
            [
              85.56905351183634,
              24.97803700589042
            ],
            [
              85.56862736184534,
              24.978483702405082
            ],
            [
              85.56831018198989,
              24.979138084964713
            ],
            [
              85.56866642418717,
              24.979819787338577
            ],
            [
              85.5687306321704,
              24.980235081961947
            ],
            [
              85.56944859988144,
              24.98028953780954
            ],
            [
              85.5700678256748,
              24.979901565019308
            ],
            [
              85.57087002930832,
              24.98014561279884
            ],
            [
              85.5733807297976,
              24.980164605102427
            ],
            [
              85.57390059832726,
              24.980435590364756
            ],
            [
              85.57591637740065,
              24.979894576025913
            ],
            [
              85.57842706800845,
              24.979917999697257
            ],
            [
              85.58057651639609,
              24.979553035818682
            ],
            [
              85.58233473679941,
              24.978840394639292
            ],
            [
              85.58304299731552,
              24.978425289922416
            ],
            [
              85.58347363439135,
              24.97916572190704
            ],
            [
              85.58360209796857,
              24.98010906539037
            ],
            [
              85.58454796108066,
              24.980113850110612
            ],
            [
              85.58493499033936,
              24.977649468158358
            ],
            [
              85.58675731541967,
              24.977677000390727
            ],
            [
              85.5892930923801,
              24.976838134614084
            ],
            [
              85.59130877174046,
              24.97603057899725
            ],
            [
              85.59209115674223,
              24.976211300064715
            ],
            [
              85.59293775960872,
              24.976947246354527
            ],
            [
              85.59343252022616,
              24.978698729219456
            ],
            [
              85.59331305507315,
              24.98086527769615
            ],
            [
              85.59461068138252,
              24.980355541756108
            ],
            [
              85.59407679374458,
              24.97683009580925
            ],
            [
              85.5933590245612,
              24.975701543207546
            ],
            [
              85.59237882694062,
              24.974455536733124
            ],
            [
              85.5914381291414,
              24.973981409798704
            ],
            [
              85.59046761266464,
              24.973430417634606
            ],
            [
              85.59007661464902,
              24.972744306079306
            ],
            [
              85.59051886155157,
              24.967436135259792
            ],
            [
              85.59181625879054,
              24.96734164273387
            ],
            [
              85.59458917032472,
              24.967450564191754
            ],
            [
              85.59608454098101,
              24.967450851662853
            ],
            [
              85.59696106493293,
              24.96729758224624
            ],
            [
              85.59784235265087,
              24.96738799727503
            ],
            [
              85.59810470562958,
              24.967916148385633
            ],
            [
              85.59735666861104,
              24.969671935824607
            ],
            [
              85.59879261121966,
              24.96960903208157
            ],
            [
              85.59993161840605,
              24.96927966721919
            ],
            [
              85.60074369182962,
              24.969279802401893
            ],
            [
              85.60090701093819,
              24.969636404057614
            ],
            [
              85.60279367515575,
              24.969514836019687
            ],
            [
              85.60334827614756,
              24.969835410160098
            ],
            [
              85.60533392303135,
              24.96977249917148
            ],
            [
              85.60585407902191,
              24.968170132345126
            ],
            [
              85.60691898418052,
              24.966003699056518
            ],
            [
              85.60730054180081,
              24.96404023605508
            ],
            [
              85.60833105226382,
              24.96018558816418
            ],
            [
              85.60887109156486,
              24.957332940636455
            ],
            [
              85.60890109709199,
              24.955017309359466
            ],
            [
              85.6088221926707,
              24.952494100972284
            ],
            [
              85.60826794112354,
              24.95089616963495
            ],
            [
              85.60679776461777,
              24.949122076744082
            ],
            [
              85.6061492330849,
              24.948377170803628
            ],
            [
              85.60490690167454,
              24.946223971884553
            ],
            [
              85.60323898172022,
              24.94355158014394
            ],
            [
              85.60293721695501,
              24.942427590856877
            ],
            [
              85.60349179638725,
              24.941944617705673
            ],
            [
              85.6070711273486,
              24.94140797276756
            ],
            [
              85.61221010701804,
              24.940063450816027
            ],
            [
              85.61239835617236,
              24.93872737090923
            ],
            [
              85.61679442461029,
              24.938745743210923
            ],
            [
              85.62021028105454,
              24.938348597054645
            ],
            [
              85.6204331575681,
              24.936655989755074
            ],
            [
              85.61980937641798,
              24.93550044520355
            ],
            [
              85.61977481463573,
              24.93339248681299
            ],
            [
              85.61976498437157,
              24.93140634497601
            ],
            [
              85.61960168412764,
              24.93022372238343
            ],
            [
              85.619824571421,
              24.92891473923641
            ],
            [
              85.6241855741218,
              24.92828289920196
            ],
            [
              85.6241806208113,
              24.928075234083874
            ],
            [
              85.62369065989242,
              24.926770734681785
            ],
            [
              85.62365108730751,
              24.92507808894686
            ],
            [
              85.62397275873943,
              24.92374200625878
            ],
            [
              85.62259184063689,
              24.91923718894978
            ],
            [
              85.62334424526436,
              24.91887609663983
            ],
            [
              85.62594286297215,
              24.919526136824334
            ],
            [
              85.62708128086375,
              24.9194900023889
            ],
            [
              85.62796229639214,
              24.91889866509293
            ],
            [
              85.6279177498355,
              24.916524337235376
            ],
            [
              85.62733856464935,
              24.915039387365518
            ],
            [
              85.62729901092905,
              24.91370327575648
            ],
            [
              85.627368244088,
              24.913351209859865
            ],
            [
              85.62814527333401,
              24.912105384846093
            ],
            [
              85.62797700899986,
              24.91163142524942
            ],
            [
              85.62810069713302,
              24.90976265166368
            ],
            [
              85.62780871232631,
              24.908512300294966
            ],
            [
              85.62740271873365,
              24.904124900251293
            ],
            [
              85.6275908349373,
              24.903244733738173
            ],
            [
              85.62722449118466,
              24.901493316180915
            ],
            [
              85.6274323325953,
              24.899723919360092
            ],
            [
              85.62713538100341,
              24.89788225965819
            ],
            [
              85.62722940676588,
              24.897259342747645
            ],
            [
              85.62771437395013,
              24.89574269192622
            ],
            [
              85.62663549819221,
              24.89509720119528
            ],
            [
              85.62637323863828,
              24.89429379268163
            ],
            [
              85.6266701677723,
              24.89390560118837
            ],
            [
              85.62819075503685,
              24.893085886149425
            ],
            [
              85.62848265360527,
              24.890964284693936
            ],
            [
              85.62470190688248,
              24.890833403281853
            ],
            [
              85.62152494660822,
              24.890571582185476
            ],
            [
              85.61969887106162,
              24.890580528683827
            ],
            [
              85.61916936630391,
              24.891217018348545
            ],
            [
              85.61872386031348,
              24.893180472285085
            ],
            [
              85.61858023317428,
              24.89391173131778
            ],
            [
              85.61705116222016,
              24.89398390597
            ],
            [
              85.6167493049285,
              24.892503296960772
            ],
            [
              85.61712066397537,
              24.891727025354843
            ],
            [
              85.61661108744393,
              24.889966537773912
            ],
            [
              85.61711085796573,
              24.88832358016008
            ],
            [
              85.61713574489238,
              24.88754720893889
            ],
            [
              85.61625987401561,
              24.887529047401973
            ],
            [
              85.61610156660805,
              24.886775251218516
            ],
            [
              85.61632932097362,
              24.885949284981706
            ],
            [
              85.61604738112842,
              24.884215929964117
            ],
            [
              85.61547329028824,
              24.88399014025958
            ],
            [
              85.61404816339564,
              24.88429251571454
            ],
            [
              85.61209360630549,
              24.884387090657196
            ],
            [
              85.61139103661674,
              24.88365585834575
            ],
            [
              85.6081645836619,
              24.884576355228006
            ],
            [
              85.60576448914031,
              24.88529374901828
            ],
            [
              85.60585402781794,
              24.881912885113696
            ],
            [
              85.60392908369113,
              24.882260138888224
            ],
            [
              85.60360260537418,
              24.88160554007768
            ],
            [
              85.60307830006533,
              24.88107744369564
            ],
            [
              85.60227659499675,
              24.881397724682664
            ],
            [
              85.60069804034522,
              24.881149218380568
            ],
            [
              85.59831794771173,
              24.88147838277437
            ],
            [
              85.59722446085571,
              24.881365304148908
            ],
            [
              85.5966406888717,
              24.880543687743543
            ],
            [
              85.59646783324813,
              24.87965896301271
            ],
            [
              85.59495436962374,
              24.876553178040137
            ],
            [
              85.59457876603712,
              24.874454087599915
            ],
            [
              85.5944904436784,
              24.871623922855278
            ],
            [
              85.59490669872653,
              24.8689968492567
            ],
            [
              85.59444204784077,
              24.867286103262874
            ],
            [
              85.59132450034278,
              24.869208359593692
            ],
            [
              85.58832564365002,
              24.87095456178012
            ],
            [
              85.58652423314616,
              24.8722134320275
            ],
            [
              85.58133489032862,
              24.86953070561627
            ],
            [
              85.57965795937369,
              24.86839274077543
            ],
            [
              85.57803483480929,
              24.869195747241392
            ],
            [
              85.57708974604496,
              24.86930822085296
            ],
            [
              85.57625853401426,
              24.869149997196107
            ],
            [
              85.57638291744342,
              24.867642466109952
            ],
            [
              85.57734859379748,
              24.86517360530551
            ],
            [
              85.57739860211102,
              24.863963824696494
            ],
            [
              85.57714667408115,
              24.862889615310266
            ],
            [
              85.5750434799475,
              24.863994780262132
            ],
            [
              85.57426683967196,
              24.863719216771877
            ],
            [
              85.57329220441964,
              24.863836201778085
            ],
            [
              85.57254027679755,
              24.863519979064577
            ],
            [
              85.57198672324141,
              24.862057256633666
            ],
            [
              85.57172588482224,
              24.85899678806686
            ],
            [
              85.57237462656086,
              24.857493869677086
            ],
            [
              85.5726223513735,
              24.856573165371525
            ],
            [
              85.57259302676938,
              24.855706467882158
            ],
            [
              85.57198524371613,
              24.854198556063036
            ],
            [
              85.57173855286437,
              24.852785652109752
            ],
            [
              85.57127859298102,
              24.85230714632911
            ],
            [
              85.56895326164727,
              24.852541043267767
            ],
            [
              85.56715672001225,
              24.8543502502388
            ],
            [
              85.56545515815053,
              24.853780888710496
            ],
            [
              85.56507885297968,
              24.85421399186807
            ],
            [
              85.56491022931938,
              24.85537860260076
            ],
            [
              85.56468675003627,
              24.857021527111804
            ],
            [
              85.56301830277086,
              24.859331994960968
            ],
            [
              85.56261751311864,
              24.85974705325275
            ],
            [
              85.56239833137585,
              24.862559084270096
            ],
            [
              85.55974629984125,
              24.862950684203863
            ],
            [
              85.55757334344094,
              24.864732732407507
            ],
            [
              85.55540006364708,
              24.86685768014924
            ],
            [
              85.55180541191856,
              24.87163619673538
            ],
            [
              85.55000423318002,
              24.871729986743002
            ],
            [
              85.54848444361942,
              24.873106046188024
            ],
            [
              85.54698005118279,
              24.87349788165671
            ],
            [
              85.54660019676827,
              24.87157934323232
            ],
            [
              85.54670044785564,
              24.869615778223952
            ],
            [
              85.5462167904151,
              24.8677017200412
            ],
            [
              85.54523771479032,
              24.866789348002975
            ],
            [
              85.54423850971662,
              24.86663092877451
            ],
            [
              85.54191230432208,
              24.86766328592108
            ],
            [
              85.54023481910662,
              24.86798741027725
            ],
            [
              85.53853283144348,
              24.868036041857003
            ],
            [
              85.53552966463397,
              24.86790336592323
            ],
            [
              85.53487677717033,
              24.867568927199954
            ],
            [
              85.53432322271581,
              24.86676970494904
            ],
            [
              85.53353961061538,
              24.862661613694474
            ],
            [
              85.53301041038657,
              24.862408470336216
            ],
            [
              85.53246112292967,
              24.862362913393433
            ],
            [
              85.53166435410358,
              24.862800254134807
            ],
            [
              85.53088705985454,
              24.863418254809137
            ],
            [
              85.5304165016475,
              24.864329677745285
            ],
            [
              85.53008916813437,
              24.865295487328723
            ],
            [
              85.52906487491143,
              24.865385088767542
            ],
            [
              85.5270121409439,
              24.864909744385322
            ],
            [
              85.5248144727884,
              24.865937431892203
            ],
            [
              85.52088503871641,
              24.867135496717616
            ],
            [
              85.52003382120434,
              24.86747788882298
            ],
            [
              85.51873268697376,
              24.867323622224855
            ],
            [
              85.51677500105149,
              24.865521148185703
            ],
            [
              85.5160686620318,
              24.864103210260886
            ],
            [
              85.51614888607826,
              24.862848476966548
            ],
            [
              85.51594165013209,
              24.862279602845337
            ],
            [
              85.51491795428882,
              24.861732626061578
            ],
            [
              85.51359145073633,
              24.8624673420682
            ],
            [
              85.51259672017106,
              24.862737401006452
            ],
            [
              85.51054298458199,
              24.86246561169775
            ],
            [
              85.51053881460246,
              24.862465060717792
            ],
            [
              85.50796151661126,
              24.86210648880127
            ],
            [
              85.50550738303545,
              24.86226711693557
            ],
            [
              85.50090176728617,
              24.861798399258163
            ],
            [
              85.50000006176016,
              24.86178019970397
            ],
            [
              85.49775004877309,
              24.861734834884796
            ],
            [
              85.49731337232356,
              24.8617810172128
            ],
            [
              85.49689531615329,
              24.861825228700432
            ],
            [
              85.49553120912299,
              24.862713413052507
            ],
            [
              85.4942463361957,
              24.863798932793205
            ],
            [
              85.49242651382177,
              24.864244188270717
            ],
            [
              85.49163982768643,
              24.8642454613747
            ],
            [
              85.48994350390112,
              24.86458227924025
            ],
            [
              85.48769679222269,
              24.86430599818801
            ],
            [
              85.48855657876432,
              24.86712844101731
            ],
            [
              85.4882525610244,
              24.868514732097463
            ],
            [
              85.48880460810584,
              24.870007857035827
            ],
            [
              85.49020535831488,
              24.872826745086037
            ],
            [
              85.49032493935056,
              24.873268946885965
            ],
            [
              85.48972191197839,
              24.873603905631892
            ],
            [
              85.48862829486669,
              24.873551493077887
            ],
            [
              85.48626356432287,
              24.873731366063694
            ],
            [
              85.48553655686514,
              24.87389944678897
            ],
            [
              85.48475377211307,
              24.876004201726403
            ],
            [
              85.48432876388081,
              24.87628472298876
            ],
            [
              85.48117271818298,
              24.87673197416282
            ],
            [
              85.47808220099192,
              24.87784255135963
            ],
            [
              85.47607817817065,
              24.877791489358962
            ],
            [
              85.47571512764183,
              24.87950726077266
            ],
            [
              85.47626803800426,
              24.881501565191865
            ],
            [
              85.47699213222553,
              24.88244838072445
            ],
            [
              85.47759776111876,
              24.88349916962648
            ],
            [
              85.47753951705067,
              24.88410863486142
            ],
            [
              85.47663421826353,
              24.88693563134314
            ],
            [
              85.47645425337278,
              24.888651168187582
            ],
            [
              85.4767621913606,
              24.889314250066068
            ],
            [
              85.47749261600968,
              24.890920010292454
            ],
            [
              85.47767728537757,
              24.89180442375779
            ],
            [
              85.47767956260681,
              24.893023190210517
            ],
            [
              85.4771322487486,
              24.894129894626552
            ],
            [
              85.47464746106203,
              24.89657113738546
            ],
            [
              85.47404652856115,
              24.89812479466868
            ],
            [
              85.47429238128474,
              24.900006620963527
            ],
            [
              85.47174513912634,
              24.900841019298007
            ],
            [
              85.46998461903588,
              24.901561274693275
            ],
            [
              85.46737617196224,
              24.901398097609345
            ],
            [
              85.46622359931672,
              24.90173380302208
            ],
            [
              85.46416105215305,
              24.902400285668598
            ],
            [
              85.46252302633474,
              24.902515545793456
            ],
            [
              85.46033646315279,
              24.903069271013912
            ],
            [
              85.45896218988844,
              24.904014621595458
            ],
            [
              85.45926642771562,
              24.90539995201258
            ],
            [
              85.46016540685471,
              24.907276383641964
            ],
            [
              85.46096121089019,
              24.90954569329733
            ],
            [
              85.46096405765132,
              24.911206815751502
            ],
            [
              85.46187631029709,
              24.912144365672024
            ],
            [
              85.46157156312515,
              24.913363566768243
            ],
            [
              85.4619384835962,
              24.913751247335487
            ],
            [
              85.46242362595191,
              24.913804654710162
            ],
            [
              85.46279062996629,
              24.91424650039153
            ],
            [
              85.46412999380041,
              24.915964347019997
            ],
            [
              85.46534358271494,
              24.916513312682195
            ],
            [
              85.46674022492822,
              24.917012307152707
            ],
            [
              85.46867919175659,
              24.916233084861847
            ],
            [
              85.47068246358626,
              24.91550794130893
            ],
            [
              85.47408142272003,
              24.914730998046483
            ],
            [
              85.47687259520731,
              24.914505634033954
            ],
            [
              85.47911963836408,
              24.914502204080726
            ],
            [
              85.47802944742683,
              24.91649442706305
            ],
            [
              85.47778874743972,
              24.9174924043617
            ],
            [
              85.47795419196223,
              24.918602465019365
            ],
            [
              85.47741172361667,
              24.919709260218973
            ],
            [
              85.47667966313543,
              24.91999022883146
            ],
            [
              85.47528388510149,
              24.920046447406342
            ],
            [
              85.4748001962199,
              24.920764861134412
            ],
            [
              85.47462466182014,
              24.922263715193722
            ],
            [
              85.475415865583,
              24.924533018776096
            ],
            [
              85.47614673579649,
              24.92630126307311
            ],
            [
              85.47620752209681,
              24.927077573788594
            ],
            [
              85.47566551638363,
              24.928464126996506
            ],
            [
              85.4763970208077,
              24.930566487774357
            ],
            [
              85.47773551686926,
              24.931616150145693
            ],
            [
              85.47858934578389,
              24.932887697627113
            ],
            [
              85.47913660933641,
              24.934380900968822
            ],
            [
              85.47950124359508,
              24.93615428731932
            ],
            [
              85.48072118809029,
              24.937312416871
            ],
            [
              85.48272218987721,
              24.93781036923675
            ],
            [
              85.48502959443115,
              24.93808211569002
            ],
            [
              85.48570862107299,
              24.938527843708005
            ],
            [
              85.48626040674468,
              24.93969160310881
            ],
            [
              85.48626257976932,
              24.940851576117243
            ],
            [
              85.48717714737357,
              24.9427323579186
            ],
            [
              85.48754118964247,
              24.94411752706555
            ],
            [
              85.48827160441009,
              24.945502113737362
            ],
            [
              85.48845771018414,
              24.94705003061358
            ],
            [
              85.48840094743798,
              24.948435867145683
            ],
            [
              85.48852188403141,
              24.94948742164754
            ],
            [
              85.48925610316424,
              24.95025803480527
            ],
            [
              85.48956627436388,
              24.951923145280098
            ],
            [
              85.48932753000913,
              24.9539140792948
            ],
            [
              85.48963240025026,
              24.95540765327887
            ],
            [
              85.48963608244459,
              24.957289919039937
            ],
            [
              85.4900653882172,
              24.95911735365827
            ],
            [
              85.48970559497958,
              24.959948395631077
            ],
            [
              85.4894652677933,
              24.961167553856775
            ],
            [
              85.4901952513696,
              24.962272263837523
            ],
            [
              85.49080229421105,
              24.96376531863525
            ],
            [
              85.4910326968101,
              24.96512362174538
            ],
            [
              85.49133807819261,
              24.966838360825964
            ],
            [
              85.49067348388415,
              24.968829955922917
            ],
            [
              85.48863041489078,
              24.974981034594045
            ],
            [
              85.48821177032396,
              24.978741596759175
            ],
            [
              85.48851705379013,
              24.98040216580608
            ],
            [
              85.48809308670528,
              24.981400468967596
            ],
            [
              85.48858133094363,
              24.98294785867976
            ],
            [
              85.48840039587239,
              24.984108234291256
            ],
            [
              85.48913618166709,
              24.985601041191092
            ],
            [
              85.48895606226611,
              24.987208282130734
            ],
            [
              85.48956219870742,
              24.988200297931936
            ],
            [
              85.49120341803658,
              24.989195236112344
            ],
            [
              85.491694049997,
              24.991907159706827
            ],
            [
              85.49242890603537,
              24.992844842838092
            ],
            [
              85.49188147090459,
              24.99406439885872
            ],
            [
              85.49109491861824,
              24.99450801407186
            ],
            [
              85.48921251331342,
              24.994344123914672
            ],
            [
              85.48848638800128,
              24.995338229124
            ],
            [
              85.49103761688289,
              24.9956140627609
            ],
            [
              85.49371520818227,
              24.997157870345497
            ],
            [
              85.49632526144366,
              24.997099418698866
            ],
            [
              85.49748646779734,
              24.99574331933959
            ],
            [
              85.4976105080701,
              24.99540136396108
            ],
            [
              85.49774706816295,
              24.99479955193713
            ],
            [
              85.49774925196742,
              24.994800839162977
            ],
            [
              85.50000000965787,
              24.996128814266992
            ],
            [
              85.50404202419455,
              24.99851348188213
            ],
            [
              85.50537923297026,
              24.99862734128937
            ],
            [
              85.50589941411363,
              24.998537503670196
            ],
            [
              85.50772172212596,
              24.998832309775924
            ],
            [
              85.50974180682451,
              24.999601299021666
            ],
            [
              85.50977370779687,
              25.00000036268564
            ],
            [
              85.50977371139011,
              25.00000040176484
            ],
            [
              85.509810366247,
              25.000458926194305
            ],
            [
              85.51007566120826,
              25.00127683274201
            ],
            [
              85.51071093270919,
              25.002084579937144
            ],
            [
              85.51071095696372,
              25.002084609246033
            ],
            [
              85.51139739290997,
              25.00295739610715
            ],
            [
              85.5128900461625,
              25.00637041187731
            ],
            [
              85.51597742463997,
              25.00999936074623
            ],
            [
              85.51741542259394,
              25.01154414274039
            ],
            [
              85.51910712814038,
              25.01383182788661
            ],
            [
              85.52038509392145,
              25.015921250710612
            ],
            [
              85.52155864941537,
              25.01556273110179
            ],
            [
              85.52259728783508,
              25.014471502778033
            ],
            [
              85.52275643696406,
              25.013592744381633
            ],
            [
              85.52270239341824,
              25.01314074973298
            ],
            [
              85.52114259558984,
              25.010382644672912
            ],
            [
              85.52000898188841,
              25.00837804910516
            ],
            [
              85.51958286872835,
              25.00762452488842
            ],
            [
              85.51855599823884,
              25.00567303528285
            ],
            [
              85.51876450619946,
              25.00522365492037
            ]
          ]
        ]
      }
    }
  ]
}