{
  "type": "FeatureCollection",
  "features": [
    {
      "type": "Feature",
      "properties": {
        "object_id": "10-211-01136",
        "stname": "BIHAR",
        "dtname": "Purnia",
        "sdtname": "Srinagar",
        "st_area_sh": 0.0,
        "st_length_": 0.0,
        "remarks": "",
        "dist_lgd": 214,
        "state_lgd": 10,
        "subdt_lgd": 1136,
        "ac_no": null,
        "st_length(shape)": 106220.57404900706,
        "st_area(shape)": 172405807.6412187
      },
      "geometry": {
        "type": "Polygon",
        "coordinates": [
          [
            [
              87.41734576985691,
              25.990129944626723
            ],
            [
              87.41864393874873,
              25.989736923331233
            ],
            [
              87.41932398497836,
              25.989578208348192
            ],
            [
              87.41926739560704,
              25.988323033185278
            ],
            [
              87.41973672671544,
              25.98811531586713
            ],
            [
              87.41982644685275,
              25.98776777425193
            ],
            [
              87.41952657393956,
              25.987117911365875
            ],
            [
              87.4186925151477,
              25.986680417884806
            ],
            [
              87.41874215155876,
              25.986044031753867
            ],
            [
              87.41919137028624,
              25.985384926373264
            ],
            [
              87.41957050155698,
              25.984473226112673
            ],
            [
              87.4196996909729,
              25.982654362827603
            ],
            [
              87.41944967725293,
              25.981702153651447
            ],
            [
              87.41960412998962,
              25.98086711777333
            ],
            [
              87.42113686786672,
              25.980343123701157
            ],
            [
              87.4222354418822,
              25.980365398757836
            ],
            [
              87.42318438891067,
              25.98090666098802
            ],
            [
              87.42473265416747,
              25.98175460327068
            ],
            [
              87.42493784644637,
              25.98278347302944
            ],
            [
              87.42522785585773,
              25.983812446028093
            ],
            [
              87.42741995086517,
              25.983694290055965
            ],
            [
              87.42829367476841,
              25.983414194333314
            ],
            [
              87.43189874605594,
              25.98286669668702
            ],
            [
              87.43206333538227,
              25.982433392954103
            ],
            [
              87.4320230288738,
              25.98178350865276
            ],
            [
              87.43157284625399,
              25.98015441623524
            ],
            [
              87.4313473233036,
              25.978394372612918
            ],
            [
              87.4291350422534,
              25.9778807211507
            ],
            [
              87.42873535483405,
              25.977253504030656
            ],
            [
              87.42844501843591,
              25.975714616331413
            ],
            [
              87.42807513442271,
              25.974703825258626
            ],
            [
              87.42770982373264,
              25.973020549942465
            ],
            [
              87.42667589517997,
              25.97212277279751
            ],
            [
              87.42624117795611,
              25.971387308637325
            ],
            [
              87.42619601335858,
              25.97079154525608
            ],
            [
              87.42704470301145,
              25.970682989892335
            ],
            [
              87.4288621457482,
              25.970713861275446
            ],
            [
              87.43059915063942,
              25.969440496813803
            ],
            [
              87.4305638782898,
              25.968885350609785
            ],
            [
              87.43108272992657,
              25.96798260088148
            ],
            [
              87.4317214806026,
              25.96729182904567
            ],
            [
              87.43358371244108,
              25.967160199002464
            ],
            [
              87.43449765661452,
              25.967678835896823
            ],
            [
              87.4351268833519,
              25.967854521106577
            ],
            [
              87.43586530660029,
              25.967019302100468
            ],
            [
              87.43577473665671,
              25.96551647799931
            ],
            [
              87.43595371340066,
              25.96408121136525
            ],
            [
              87.43619801922532,
              25.963345403751813
            ],
            [
              87.43653724912777,
              25.962988785193723
            ],
            [
              87.43715620273157,
              25.962645523394624
            ],
            [
              87.43852892730038,
              25.962288364814167
            ],
            [
              87.44250280192779,
              25.96179464317359
            ],
            [
              87.44368093703302,
              25.961681210104235
            ],
            [
              87.44376548377262,
              25.961112502895396
            ],
            [
              87.44362962167072,
              25.95920803009234
            ],
            [
              87.44381407184972,
              25.95877918887936
            ],
            [
              87.44497230837308,
              25.958765092377845
            ],
            [
              87.44513156889316,
              25.957884909390728
            ],
            [
              87.4450012323286,
              25.95709071030559
            ],
            [
              87.4436882412346,
              25.957046149757435
            ],
            [
              87.4425049066805,
              25.956812040621017
            ],
            [
              87.44200042719,
              25.95641963086406
            ],
            [
              87.4418404498143,
              25.95597740312628
            ],
            [
              87.4418098918233,
              25.954876244688283
            ],
            [
              87.44193941541253,
              25.954348134229452
            ],
            [
              87.44349719472649,
              25.95476261190769
            ],
            [
              87.4440612289271,
              25.954577275989312
            ],
            [
              87.44412590493259,
              25.954184655237754
            ],
            [
              87.44355636944923,
              25.953521454687188
            ],
            [
              87.44282226080912,
              25.953034347867185
            ],
            [
              87.44241767397823,
              25.95267346315993
            ],
            [
              87.44230254678972,
              25.95213198621027
            ],
            [
              87.44305085959107,
              25.95129219126102
            ],
            [
              87.44261125732866,
              25.950696665385475
            ],
            [
              87.44262594658021,
              25.95017763297323
            ],
            [
              87.44335451441161,
              25.94963120194462
            ],
            [
              87.4442321100537,
              25.948064662074394
            ],
            [
              87.4448056008193,
              25.94706249302333
            ],
            [
              87.44507927167227,
              25.945554944673724
            ],
            [
              87.44475450195097,
              25.94504965574471
            ],
            [
              87.44425024793759,
              25.944923499374145
            ],
            [
              87.44350158658992,
              25.945045712173744
            ],
            [
              87.44269777227707,
              25.94482948764
            ],
            [
              87.44261252305492,
              25.944098353876257
            ],
            [
              87.44371556888386,
              25.94394436990134
            ],
            [
              87.44432922781736,
              25.94333478606064
            ],
            [
              87.44419904216977,
              25.942603774687765
            ],
            [
              87.44286545001135,
              25.94130002267584
            ],
            [
              87.44211093524129,
              25.939856180671864
            ],
            [
              87.43952449868873,
              25.938498870313076
            ],
            [
              87.43866070296605,
              25.938020890367593
            ],
            [
              87.43844068579,
              25.93734400702798
            ],
            [
              87.43865515497085,
              25.93700540192915
            ],
            [
              87.4402068670634,
              25.935831291734644
            ],
            [
              87.43983725793467,
              25.935353010141505
            ],
            [
              87.43940314168375,
              25.935655587003552
            ],
            [
              87.43840525623521,
              25.936287935067604
            ],
            [
              87.43811072470471,
              25.936360234915043
            ],
            [
              87.43715625932542,
              25.93431619082052
            ],
            [
              87.43671669299566,
              25.933670984035782
            ],
            [
              87.43636692585494,
              25.93298960823491
            ],
            [
              87.4360322620891,
              25.932394022121606
            ],
            [
              87.43567776531842,
              25.93212340981531
            ],
            [
              87.43313214192418,
              25.932138008767744
            ],
            [
              87.43122038416743,
              25.931976281906177
            ],
            [
              87.43030686938872,
              25.931647119918164
            ],
            [
              87.42987241177796,
              25.931223043334043
            ],
            [
              87.42981223723032,
              25.93053253001918
            ],
            [
              87.4301313969727,
              25.93008114630149
            ],
            [
              87.42994986811503,
              25.926037382744695
            ],
            [
              87.4317412129961,
              25.924998582046197
            ],
            [
              87.43253439934084,
              25.924330343775168
            ],
            [
              87.43332736380174,
              25.923138522731453
            ],
            [
              87.43375154917719,
              25.922980436974708
            ],
            [
              87.43405609961808,
              25.923097643184768
            ],
            [
              87.43419089721637,
              25.92333673799795
            ],
            [
              87.43411148524693,
              25.924194322318414
            ],
            [
              87.43396204600784,
              25.924803635981018
            ],
            [
              87.43384269224592,
              25.925530364381537
            ],
            [
              87.43408302482209,
              25.927082739290622
            ],
            [
              87.43474191033688,
              25.927181825067354
            ],
            [
              87.43531078196531,
              25.92702364374593
            ],
            [
              87.43713694105523,
              25.925908030123125
            ],
            [
              87.43739115799244,
              25.925325770291586
            ],
            [
              87.43830930178981,
              25.924901118344934
            ],
            [
              87.43918225404022,
              25.924119946727757
            ],
            [
              87.44015511961146,
              25.923329664600214
            ],
            [
              87.44050869830392,
              25.92206132683276
            ],
            [
              87.4405182779381,
              25.92128050400868
            ],
            [
              87.44026832710017,
              25.920526919142727
            ],
            [
              87.43999808331999,
              25.919127989729283
            ],
            [
              87.43950835955634,
              25.91796380176673
            ],
            [
              87.43875872712985,
              25.916046038087508
            ],
            [
              87.43784005063148,
              25.91525207884405
            ],
            [
              87.4358530868175,
              25.913871866991393
            ],
            [
              87.43561831121966,
              25.913506440967506
            ],
            [
              87.43546339225735,
              25.91303263072891
            ],
            [
              87.43553804135914,
              25.91276178570713
            ],
            [
              87.43632119981035,
              25.91204387633615
            ],
            [
              87.43708454771462,
              25.911691480216096
            ],
            [
              87.43805234499101,
              25.91097800596792
            ],
            [
              87.43964355780325,
              25.90964138770946
            ],
            [
              87.4402420028691,
              25.908932560133458
            ],
            [
              87.44062530861093,
              25.9072985810264
            ],
            [
              87.44090958227922,
              25.906973487288962
            ],
            [
              87.44158819120443,
              25.906801643989414
            ],
            [
              87.44204706861785,
              25.90645391885199
            ],
            [
              87.44222652326552,
              25.906007057686423
            ],
            [
              87.44219647192436,
              25.905831045074887
            ],
            [
              87.44197175027118,
              25.905655125126252
            ],
            [
              87.44138293514517,
              25.905569678083936
            ],
            [
              87.44045496916846,
              25.906102626788346
            ],
            [
              87.44007109658965,
              25.906644388812502
            ],
            [
              87.43918325476345,
              25.907506816699833
            ],
            [
              87.43857943507722,
              25.907565710322302
            ],
            [
              87.43784085821694,
              25.9074261367931
            ],
            [
              87.43718685414736,
              25.90683520915467
            ],
            [
              87.43607397086777,
              25.906700244632884
            ],
            [
              87.43575450479989,
              25.906515393077875
            ],
            [
              87.4360833070585,
              25.905445582800677
            ],
            [
              87.43687679344053,
              25.90554006714829
            ],
            [
              87.43704566683249,
              25.90411829714419
            ],
            [
              87.43703035774341,
              25.90340978223033
            ],
            [
              87.43731883013734,
              25.901559214219567
            ],
            [
              87.43736822490158,
              25.90076035502891
            ],
            [
              87.43838074839763,
              25.899839179969565
            ],
            [
              87.43852504208678,
              25.89899966689356
            ],
            [
              87.43859923933597,
              25.89789843092296
            ],
            [
              87.43865396829638,
              25.897632128245867
            ],
            [
              87.43711215114668,
              25.897560608709416
            ],
            [
              87.43641402272867,
              25.8986079050103
            ],
            [
              87.43629974534643,
              25.899384251630842
            ],
            [
              87.43595590708658,
              25.900363757760033
            ],
            [
              87.43556681170276,
              25.9005579547335
            ],
            [
              87.43463364627716,
              25.900459080927586
            ],
            [
              87.43263728608531,
              25.89968809577412
            ],
            [
              87.43146421119006,
              25.898916842144455
            ],
            [
              87.43023106774841,
              25.897522765230175
            ],
            [
              87.43028075805836,
              25.89701273285772
            ],
            [
              87.43009585333184,
              25.896525326987682
            ],
            [
              87.43001570833712,
              25.89579429117915
            ],
            [
              87.42877292507418,
              25.894955218037698
            ],
            [
              87.42797906858625,
              25.8939085051151
            ],
            [
              87.42763441375779,
              25.893023973953113
            ],
            [
              87.4278732371643,
              25.89170150410703
            ],
            [
              87.427593359851,
              25.890460544211862
            ],
            [
              87.4277076758608,
              25.88965259732117
            ],
            [
              87.42787706039414,
              25.889038713743343
            ],
            [
              87.42804643684264,
              25.888424859299946
            ],
            [
              87.4287344529255,
              25.887251206060238
            ],
            [
              87.42904851742355,
              25.886668848329183
            ],
            [
              87.42916799784793,
              25.886091079006192
            ],
            [
              87.42913781714931,
              25.885463791733
            ],
            [
              87.42869364785203,
              25.88525631807507
            ],
            [
              87.4279501670886,
              25.885143746400242
            ],
            [
              87.42780535507153,
              25.88485951191972
            ],
            [
              87.42703178164439,
              25.884241446067506
            ],
            [
              87.42599894634142,
              25.88420569719952
            ],
            [
              87.4261482607147,
              25.88334816724794
            ],
            [
              87.42594327235338,
              25.882346308759963
            ],
            [
              87.42602756307312,
              25.881145729207578
            ],
            [
              87.42594754294424,
              25.88054550961461
            ],
            [
              87.42587711861923,
              25.87925925734702
            ],
            [
              87.4256773422832,
              25.878853168709814
            ],
            [
              87.42563712560623,
              25.87808142817756
            ],
            [
              87.42562119757794,
              25.87588347227936
            ],
            [
              87.42538160431525,
              25.875477348596316
            ],
            [
              87.42541117236281,
              25.874714623158063
            ],
            [
              87.42657367408715,
              25.874881190793037
            ],
            [
              87.42721744724396,
              25.875399959023383
            ],
            [
              87.4285096881532,
              25.875634212883636
            ],
            [
              87.42810145685716,
              25.877475771332787
            ],
            [
              87.42821145017383,
              25.877954138126427
            ],
            [
              87.4287851403654,
              25.87803058685464
            ],
            [
              87.42903988910525,
              25.878549586147923
            ],
            [
              87.42975829519415,
              25.87854025428535
            ],
            [
              87.43061104163887,
              25.877691417835717
            ],
            [
              87.43191872368953,
              25.878859897234932
            ],
            [
              87.4322580910342,
              25.879207254298052
            ],
            [
              87.43231329520336,
              25.87973080277018
            ],
            [
              87.43198408241463,
              25.880051308912776
            ],
            [
              87.43199438339602,
              25.88060648492499
            ],
            [
              87.432214121196,
              25.88115700138972
            ],
            [
              87.4316956315803,
              25.881983062634642
            ],
            [
              87.43084784563261,
              25.882669415882255
            ],
            [
              87.43089286110978,
              25.88287705895914
            ],
            [
              87.43147180464916,
              25.883364263368126
            ],
            [
              87.43155191371126,
              25.883892240918044
            ],
            [
              87.4319861296752,
              25.884194436623094
            ],
            [
              87.43346795014368,
              25.884162264811714
            ],
            [
              87.4349352376675,
              25.885208753809735
            ],
            [
              87.43553904837054,
              25.885303273756367
            ],
            [
              87.43633699668464,
              25.884707175249613
            ],
            [
              87.43702088500872,
              25.885325242704926
            ],
            [
              87.43723121834599,
              25.886791932124154
            ],
            [
              87.43692245570476,
              25.888001585766865
            ],
            [
              87.43810059530155,
              25.88904371303061
            ],
            [
              87.43850513542009,
              25.88984686525821
            ],
            [
              87.43908427209722,
              25.890528067701617
            ],
            [
              87.43951333801967,
              25.89050083218955
            ],
            [
              87.44032159001002,
              25.89031090672586
            ],
            [
              87.44071058029098,
              25.889958688137718
            ],
            [
              87.44080507766895,
              25.889466683808582
            ],
            [
              87.44058516469751,
              25.888830410727053
            ],
            [
              87.44038006494512,
              25.887860176371905
            ],
            [
              87.44100811578781,
              25.88668196020472
            ],
            [
              87.44212555801748,
              25.88643771329955
            ],
            [
              87.4438220938052,
              25.886649099695376
            ],
            [
              87.44458542284484,
              25.88662161517772
            ],
            [
              87.44427541064702,
              25.88546190381044
            ],
            [
              87.44336179435867,
              25.8844603307683
            ],
            [
              87.44328672933689,
              25.88400904792485
            ],
            [
              87.4444540999301,
              25.883837024900924
            ],
            [
              87.44682427156957,
              25.88421046473957
            ],
            [
              87.44747277435631,
              25.884119911348588
            ],
            [
              87.44824582316733,
              25.883677239365014
            ],
            [
              87.44856998203423,
              25.88337011393063
            ],
            [
              87.44932809365869,
              25.882900327142263
            ],
            [
              87.4497323085871,
              25.883080726931883
            ],
            [
              87.44917985906042,
              25.88535113539637
            ],
            [
              87.44965919919768,
              25.88580222722817
            ],
            [
              87.45043250043531,
              25.885698039371118
            ],
            [
              87.45102095623523,
              25.885314037191993
            ],
            [
              87.45216294223508,
              25.88450107823064
            ],
            [
              87.45271136641101,
              25.883828297987677
            ],
            [
              87.45329001530293,
              25.883724202948017
            ],
            [
              87.45375403018149,
              25.883714969286288
            ],
            [
              87.4543378902004,
              25.88390868125583
            ],
            [
              87.4550419025835,
              25.88466197795603
            ],
            [
              87.45540651258764,
              25.88529821531304
            ],
            [
              87.45606564603749,
              25.886037996001736
            ],
            [
              87.45672944803184,
              25.88629033685229
            ],
            [
              87.45714840341576,
              25.886163752301535
            ],
            [
              87.45769191740031,
              25.88570310183824
            ],
            [
              87.45768673861271,
              25.885355536781578
            ],
            [
              87.45731202615487,
              25.88464267268375
            ],
            [
              87.45653824611519,
              25.883943585648478
            ],
            [
              87.45555467891401,
              25.882942205819322
            ],
            [
              87.45531450713625,
              25.88190879863287
            ],
            [
              87.45565329866082,
              25.88123609737342
            ],
            [
              87.4562668848308,
              25.8811635786473
            ],
            [
              87.45736049116275,
              25.882616217382555
            ],
            [
              87.4580241799694,
              25.882823410383327
            ],
            [
              87.45846830794417,
              25.882827736699767
            ],
            [
              87.4593059213696,
              25.882145678385445
            ],
            [
              87.45943040630841,
              25.88170786766847
            ],
            [
              87.45933417787687,
              25.879640890908313
            ],
            [
              87.45936852586004,
              25.87894582673085
            ],
            [
              87.45979726210076,
              25.878480715756147
            ],
            [
              87.46037582834772,
              25.878281789040177
            ],
            [
              87.46233155684097,
              25.878271581029416
            ],
            [
              87.46270060721758,
              25.877996084024655
            ],
            [
              87.46298434099839,
              25.877156380042074
            ],
            [
              87.46284369806254,
              25.875924348788214
            ],
            [
              87.46286775764081,
              25.874723851865657
            ],
            [
              87.463356343239,
              25.87432634431296
            ],
            [
              87.46379017831724,
              25.874014750724065
            ],
            [
              87.4644636057599,
              25.873896942091104
            ],
            [
              87.46628452857006,
              25.873977084789832
            ],
            [
              87.46647380360041,
              25.87358876714854
            ],
            [
              87.46658790581117,
              25.872708636766998
            ],
            [
              87.46659680631902,
              25.87125539282602
            ],
            [
              87.46637677476993,
              25.870655266849887
            ],
            [
              87.46575328467395,
              25.870714299294246
            ],
            [
              87.46397720486446,
              25.87058003709638
            ],
            [
              87.46363763539885,
              25.87021469526149
            ],
            [
              87.46275892764245,
              25.86919966167253
            ],
            [
              87.46243399891937,
              25.86835588274684
            ],
            [
              87.46217295478598,
              25.86612200691935
            ],
            [
              87.46203270800721,
              25.86529618071989
            ],
            [
              87.46215122723423,
              25.863653308121293
            ],
            [
              87.46167072467695,
              25.86145565611902
            ],
            [
              87.46128592234184,
              25.860435903282937
            ],
            [
              87.46109068788786,
              25.85948823316649
            ],
            [
              87.46088572737435,
              25.858915106734607
            ],
            [
              87.46085981367334,
              25.857624395211815
            ],
            [
              87.46067986495224,
              25.85707835503496
            ],
            [
              87.46056862387567,
              25.85501583979117
            ],
            [
              87.46153543929346,
              25.853733535935465
            ],
            [
              87.46222784634142,
              25.852514507911962
            ],
            [
              87.46285056029302,
              25.85151221092711
            ],
            [
              87.46398194617252,
              25.850333570817543
            ],
            [
              87.46445018133628,
              25.849475778051254
            ],
            [
              87.46511306525242,
              25.848744178602587
            ],
            [
              87.46586063874031,
              25.84802611037514
            ],
            [
              87.46703218919448,
              25.847262625693368
            ],
            [
              87.46835781868623,
              25.845831100156378
            ],
            [
              87.46999899579455,
              25.84611892185649
            ],
            [
              87.47113641116626,
              25.84637996688395
            ],
            [
              87.47220381364137,
              25.846433370875513
            ],
            [
              87.47289698605393,
              25.8462884943931
            ],
            [
              87.47403374206226,
              25.8457867328302
            ],
            [
              87.47681576431003,
              25.844516602222257
            ],
            [
              87.47677533742733,
              25.843848693347077
            ],
            [
              87.47633563096036,
              25.842937286306817
            ],
            [
              87.47581141278809,
              25.842310318093038
            ],
            [
              87.47497798730853,
              25.841773853235114
            ],
            [
              87.47358612323426,
              25.84135957760048
            ],
            [
              87.47198976217716,
              25.8409183510981
            ],
            [
              87.47140103867929,
              25.840571159623945
            ],
            [
              87.47076221164646,
              25.840057115385136
            ],
            [
              87.46994346823188,
              25.839037662301855
            ],
            [
              87.46970848691987,
              25.838383332109444
            ],
            [
              87.46961282083369,
              25.837264101899166
            ],
            [
              87.46955198332937,
              25.836009505329375
            ],
            [
              87.46933709194037,
              25.83538682522223
            ],
            [
              87.4686082609026,
              25.834493608899916
            ],
            [
              87.46778002229549,
              25.834056367948595
            ],
            [
              87.4662842438041,
              25.83448161833136
            ],
            [
              87.46555138382227,
              25.834910782096735
            ],
            [
              87.46477435277961,
              25.836134367277637
            ],
            [
              87.46401207476885,
              25.837267678772395
            ],
            [
              87.46322897919971,
              25.83710567800078
            ],
            [
              87.46269160430181,
              25.8388526199519
            ],
            [
              87.46236323323451,
              25.839917927767136
            ],
            [
              87.46215420514937,
              25.840500321866227
            ],
            [
              87.46113177143909,
              25.840455752034185
            ],
            [
              87.46051317985636,
              25.840239502369627
            ],
            [
              87.46062133521993,
              25.838113738039937
            ],
            [
              87.46056067468373,
              25.836949336632195
            ],
            [
              87.46051546786536,
              25.836479937750262
            ],
            [
              87.45797203097052,
              25.83662134475761
            ],
            [
              87.45663044021282,
              25.836644660048048
            ],
            [
              87.45532387566635,
              25.836812417295924
            ],
            [
              87.45554228036643,
              25.835264241729362
            ],
            [
              87.45567628834557,
              25.834248620240242
            ],
            [
              87.45581020469658,
              25.833165370739028
            ],
            [
              87.45548101616238,
              25.833147518902138
            ],
            [
              87.45502734538434,
              25.833337325212156
            ],
            [
              87.45476825688334,
              25.833802330020678
            ],
            [
              87.45408025517355,
              25.834132173173312
            ],
            [
              87.45326690165068,
              25.833487198978627
            ],
            [
              87.45281793265484,
              25.833252750020506
            ],
            [
              87.45241925224693,
              25.833618570722937
            ],
            [
              87.45054952935725,
              25.834314595972376
            ],
            [
              87.45009563579703,
              25.83432841304007
            ],
            [
              87.44829515325283,
              25.834180328013645
            ],
            [
              87.44764702326692,
              25.83440181269829
            ],
            [
              87.44570200808175,
              25.83449308416097
            ],
            [
              87.4445202878002,
              25.834944919918907
            ],
            [
              87.44380718536473,
              25.8350129521658
            ],
            [
              87.44324348713407,
              25.83477852967781
            ],
            [
              87.44282959106185,
              25.834760742766864
            ],
            [
              87.4415229510569,
              25.834892177779974
            ],
            [
              87.44057046197125,
              25.83489710901573
            ],
            [
              87.43971727625038,
              25.834283734156394
            ],
            [
              87.43839554724363,
              25.83412184977171
            ],
            [
              87.43788150518691,
              25.833431527651527
            ],
            [
              87.43698835521566,
              25.832574408742495
            ],
            [
              87.43631997091505,
              25.832290329209506
            ],
            [
              87.43567655798267,
              25.832146209190864
            ],
            [
              87.43396076590855,
              25.831731684772507
            ],
            [
              87.43228995876889,
              25.831461495006245
            ],
            [
              87.43091319717118,
              25.830645139179403
            ],
            [
              87.42993077172869,
              25.830708747029696
            ],
            [
              87.42948184944524,
              25.830496803741443
            ],
            [
              87.42836409370352,
              25.829138717604053
            ],
            [
              87.42755607527513,
              25.82872380019727
            ],
            [
              87.42699252975805,
              25.828674328394953
            ],
            [
              87.42700282175626,
              25.829400992735874
            ],
            [
              87.42817018875618,
              25.830384385285083
            ],
            [
              87.4283200178641,
              25.830844740350173
            ],
            [
              87.42782129118467,
              25.830754674062717
            ],
            [
              87.42729244489206,
              25.830380230081484
            ],
            [
              87.42676883128601,
              25.830371416747827
            ],
            [
              87.42667965642607,
              25.831662201710675
            ],
            [
              87.4269346324397,
              25.833210203668145
            ],
            [
              87.426605567873,
              25.83336375403754
            ],
            [
              87.42591698764816,
              25.83256517431885
            ],
            [
              87.42511387132629,
              25.83205989799711
            ],
            [
              87.4245502790968,
              25.831884096192717
            ],
            [
              87.42434595009892,
              25.832371585186436
            ],
            [
              87.4244907459463,
              25.832705585023195
            ],
            [
              87.4256979792802,
              25.833553582639926
            ],
            [
              87.42613200569963,
              25.833824294797566
            ],
            [
              87.42617195108535,
              25.833950645144945
            ],
            [
              87.42571318506305,
              25.83418999164424
            ],
            [
              87.424990006225,
              25.834018770136783
            ],
            [
              87.42448128039815,
              25.833951189291216
            ],
            [
              87.42440154773017,
              25.834104720911377
            ],
            [
              87.42436203173912,
              25.835124730720867
            ],
            [
              87.42419265978221,
              25.835391078081994
            ],
            [
              87.42380357697478,
              25.83533252686225
            ],
            [
              87.42283088477838,
              25.834854406399305
            ],
            [
              87.42211275986215,
              25.834827585768647
            ],
            [
              87.42205292218276,
              25.835062258803976
            ],
            [
              87.4222975603841,
              25.835626356395032
            ],
            [
              87.42214301691754,
              25.835874670900523
            ],
            [
              87.42181403499589,
              25.836136467821373
            ],
            [
              87.42130542415339,
              25.8365428293494
            ],
            [
              87.42076199191551,
              25.836840928897534
            ],
            [
              87.42112614467719,
              25.837179300703866
            ],
            [
              87.42222865331358,
              25.83798228881789
            ],
            [
              87.42222889226545,
              25.838519348951053
            ],
            [
              87.42166541861361,
              25.838858027231915
            ],
            [
              87.42184019124201,
              25.839381506230282
            ],
            [
              87.4214116373593,
              25.840302412991303
            ],
            [
              87.42073842012248,
              25.84057334983163
            ],
            [
              87.4201202148153,
              25.841024920633213
            ],
            [
              87.4190529551723,
              25.841372782628923
            ],
            [
              87.417970616409,
              25.841246758751364
            ],
            [
              87.41680316317078,
              25.840118735743967
            ],
            [
              87.41623462571569,
              25.84011893786799
            ],
            [
              87.41536690166026,
              25.840457631782357
            ],
            [
              87.41230474967259,
              25.840923286933656
            ],
            [
              87.4110379733067,
              25.84079273502471
            ],
            [
              87.41081334687495,
              25.84032340232549
            ],
            [
              87.41052844438595,
              25.838387352011214
            ],
            [
              87.41022924071763,
              25.838233914883546
            ],
            [
              87.40844877084137,
              25.8385276878928
            ],
            [
              87.40810955171872,
              25.838193813637258
            ],
            [
              87.4080445693877,
              25.83759810894877
            ],
            [
              87.40841333320171,
              25.8366682963162
            ],
            [
              87.40768984624157,
              25.835418264848247
            ],
            [
              87.40643790555258,
              25.834655737761718
            ],
            [
              87.40513110474922,
              25.834096396211617
            ],
            [
              87.40437803177517,
              25.834137220061535
            ],
            [
              87.40372477690057,
              25.834502865003525
            ],
            [
              87.40333095637831,
              25.835026520932942
            ],
            [
              87.40324626680659,
              25.835631285983116
            ],
            [
              87.40366553031264,
              25.837079997889248
            ],
            [
              87.40418440889886,
              25.83754473330912
            ],
            [
              87.40434909703986,
              25.838284863069255
            ],
            [
              87.40499262495659,
              25.838672901324934
            ],
            [
              87.4056659095671,
              25.838781080999656
            ],
            [
              87.40596025514635,
              25.83898414339791
            ],
            [
              87.40590557020344,
              25.839859652868178
            ],
            [
              87.40559148684073,
              25.840338146843397
            ],
            [
              87.40509286436587,
              25.840906965931687
            ],
            [
              87.40486347865978,
              25.841001729904924
            ],
            [
              87.40410043797934,
              25.841132765868295
            ],
            [
              87.40296359842772,
              25.8422252520986
            ],
            [
              87.40200116319524,
              25.842879797118105
            ],
            [
              87.40141781791098,
              25.843936072823922
            ],
            [
              87.4006448652197,
              25.844780147323775
            ],
            [
              87.39963755195228,
              25.84534448962807
            ],
            [
              87.39906898844603,
              25.845525123805846
            ],
            [
              87.39722358923933,
              25.845791721012336
            ],
            [
              87.39714383501179,
              25.84604897995585
            ],
            [
              87.39741820205911,
              25.846360345719255
            ],
            [
              87.39855553029426,
              25.84711383491143
            ],
            [
              87.3982463670044,
              25.847456912403917
            ],
            [
              87.39756309133129,
              25.847484152180296
            ],
            [
              87.39696945404883,
              25.847231456002547
            ],
            [
              87.3961913908419,
              25.847204507209167
            ],
            [
              87.39536858704226,
              25.848441301259964
            ],
            [
              87.39515434333858,
              25.849330370921265
            ],
            [
              87.39518944321166,
              25.850634730262875
            ],
            [
              87.39500998137746,
              25.85152841001141
            ],
            [
              87.39459113199476,
              25.85202935901032
            ],
            [
              87.39293024584912,
              25.852453894824603
            ],
            [
              87.39286058329547,
              25.85365893162432
            ],
            [
              87.39169839687979,
              25.854105821140664
            ],
            [
              87.39149399332173,
              25.85448951086048
            ],
            [
              87.3905063756169,
              25.85508988464605
            ],
            [
              87.39032684191749,
              25.855365238618926
            ],
            [
              87.39048156504705,
              25.85602412067096
            ],
            [
              87.39050179510726,
              25.85782938233525
            ],
            [
              87.38989826467856,
              25.858312367677698
            ],
            [
              87.38980855172777,
              25.8585651177792
            ],
            [
              87.39000311334358,
              25.858854025650018
            ],
            [
              87.39012280756697,
              25.85926018464304
            ],
            [
              87.38999828669559,
              25.85993269900868
            ],
            [
              87.3896091841252,
              25.860311796127537
            ],
            [
              87.38762892623478,
              25.860736231874498
            ],
            [
              87.38658632534636,
              25.86077246639111
            ],
            [
              87.38610752419822,
              25.861296042397008
            ],
            [
              87.38574842625667,
              25.861950478627843
            ],
            [
              87.38580331062558,
              25.862528138079906
            ],
            [
              87.38618252813458,
              25.863516524783353
            ],
            [
              87.384795823085,
              25.864504984862414
            ],
            [
              87.38353881499948,
              25.86570563573455
            ],
            [
              87.38175804328925,
              25.86701008196068
            ],
            [
              87.38081521378788,
              25.867461396611525
            ],
            [
              87.3799572023173,
              25.867506610186805
            ],
            [
              87.378635218189,
              25.86682062229787
            ],
            [
              87.37806150733614,
              25.867014683682488
            ],
            [
              87.37703383734609,
              25.867768421149577
            ],
            [
              87.3770116336872,
              25.86790193805079
            ],
            [
              87.37672461476741,
              25.86962788307498
            ],
            [
              87.37669463888466,
              25.87085100074679
            ],
            [
              87.37660986487131,
              25.872105646363003
            ],
            [
              87.37660990799044,
              25.873414498125868
            ],
            [
              87.37662989999711,
              25.87410952776685
            ],
            [
              87.37713871924876,
              25.87516106773091
            ],
            [
              87.37741320397538,
              25.875806533977144
            ],
            [
              87.37738824518355,
              25.87691221608152
            ],
            [
              87.37716878496299,
              25.878130859914638
            ],
            [
              87.37678958991191,
              25.87862277003832
            ],
            [
              87.37638545313695,
              25.878550531780956
            ],
            [
              87.37506838369153,
              25.87733202725423
            ],
            [
              87.37453453108786,
              25.878473802123867
            ],
            [
              87.37406555840725,
              25.879074070232548
            ],
            [
              87.37334215409211,
              25.87990456460813
            ],
            [
              87.37304276267591,
              25.880825250281625
            ],
            [
              87.37285316425205,
              25.882472544216977
            ],
            [
              87.37298787471373,
              25.88354669830264
            ],
            [
              87.37281821080434,
              25.884386144294655
            ],
            [
              87.37200992467798,
              25.885735578723402
            ],
            [
              87.37117171027964,
              25.886344848605553
            ],
            [
              87.37088225333217,
              25.886976678802373
            ],
            [
              87.37077745137952,
              25.88826302318806
            ],
            [
              87.36955990897944,
              25.889400294367036
            ],
            [
              87.36904097829095,
              25.890185604985177
            ],
            [
              87.36892808072098,
              25.890747052272115
            ],
            [
              87.36890122019565,
              25.890880635327534
            ],
            [
              87.36912578464367,
              25.891702049603765
            ],
            [
              87.36965458063061,
              25.892162363101253
            ],
            [
              87.37011366914811,
              25.892347460188734
            ],
            [
              87.37146586002618,
              25.89223016604202
            ],
            [
              87.37152572196005,
              25.892451305183872
            ],
            [
              87.37106668644316,
              25.893173345356495
            ],
            [
              87.37068241770733,
              25.89379169416458
            ],
            [
              87.37039802186814,
              25.894206859209714
            ],
            [
              87.3694799086135,
              25.894585974023556
            ],
            [
              87.36953967802093,
              25.89530361709378
            ],
            [
              87.37025320895278,
              25.896246889024162
            ],
            [
              87.37073224635783,
              25.897212688249887
            ],
            [
              87.37113138400824,
              25.898733678626375
            ],
            [
              87.3714706327753,
              25.89976727065612
            ],
            [
              87.371999539255,
              25.90089552675004
            ],
            [
              87.37112628966226,
              25.90199225560207
            ],
            [
              87.37010820918782,
              25.903395815666016
            ],
            [
              87.36910520064724,
              25.904041149369256
            ],
            [
              87.36832666672309,
              25.904171982100973
            ],
            [
              87.36753825402577,
              25.904230677798154
            ],
            [
              87.36696441381554,
              25.90442920362828
            ],
            [
              87.36624576967309,
              25.90491208003587
            ],
            [
              87.36540231270673,
              25.905954568664356
            ],
            [
              87.36472864002405,
              25.906410342738923
            ],
            [
              87.36345110992588,
              25.906884177157497
            ],
            [
              87.36223347140603,
              25.90699687111969
            ],
            [
              87.36156982571853,
              25.906838838060864
            ],
            [
              87.36060667632539,
              25.90667174988537
            ],
            [
              87.35908966615227,
              25.906761907811816
            ],
            [
              87.358540679631,
              25.90693785196716
            ],
            [
              87.35765234732466,
              25.90736200460318
            ],
            [
              87.35640968263931,
              25.907808610953715
            ],
            [
              87.35483281322723,
              25.907790355062332
            ],
            [
              87.35406430629828,
              25.90748338691219
            ],
            [
              87.35272206156705,
              25.90709498877934
            ],
            [
              87.35243755343849,
              25.907216866689797
            ],
            [
              87.35236247134871,
              25.908679118680052
            ],
            [
              87.35199302212015,
              25.909595210947053
            ],
            [
              87.35116440083071,
              25.91037139072874
            ],
            [
              87.35102960862233,
              25.910669257980093
            ],
            [
              87.35132886169798,
              25.911838172073796
            ],
            [
              87.35133856440136,
              25.9131335277236
            ],
            [
              87.35127352457815,
              25.91395490101435
            ],
            [
              87.3511634549047,
              25.915123796276873
            ],
            [
              87.35108818057549,
              25.917461650612523
            ],
            [
              87.35169174424183,
              25.91880671307438
            ],
            [
              87.35181135582023,
              25.91962359987822
            ],
            [
              87.35175633041582,
              25.920390784224267
            ],
            [
              87.35136179393628,
              25.921663486672823
            ],
            [
              87.35104715361814,
              25.92272853088901
            ],
            [
              87.3503731620335,
              25.923784562790644
            ],
            [
              87.35012332887487,
              25.924867639921462
            ],
            [
              87.34965417203966,
              25.925192529207383
            ],
            [
              87.34926480895784,
              25.925616647690752
            ],
            [
              87.34848607381112,
              25.926180665967642
            ],
            [
              87.34757256801551,
              25.926528087331178
            ],
            [
              87.3469935741705,
              25.92686192763906
            ],
            [
              87.34671898883254,
              25.92713717806691
            ],
            [
              87.34589033789874,
              25.927687597820242
            ],
            [
              87.34548094687766,
              25.928197503200497
            ],
            [
              87.34504157099072,
              25.928567495128004
            ],
            [
              87.34459727233602,
              25.92923538702846
            ],
            [
              87.34420275561945,
              25.929916774036453
            ],
            [
              87.34413271936664,
              25.93048998800142
            ],
            [
              87.34434712925867,
              25.931248227950338
            ],
            [
              87.34545006189988,
              25.932042765334185
            ],
            [
              87.34725160355778,
              25.933221118997633
            ],
            [
              87.34883358258718,
              25.93430902598672
            ],
            [
              87.35016609766555,
              25.935270594651595
            ],
            [
              87.34958702027721,
              25.935681189134527
            ],
            [
              87.34933740361258,
              25.93608737461584
            ],
            [
              87.34853859381418,
              25.936624234242615
            ],
            [
              87.34803444939526,
              25.936795710939816
            ],
            [
              87.3476998781559,
              25.93718830565859
            ],
            [
              87.34761001698308,
              25.93751324660565
            ],
            [
              87.34629720106058,
              25.937738634030076
            ],
            [
              87.34578298023912,
              25.93796871126288
            ],
            [
              87.34512388901011,
              25.93882601461038
            ],
            [
              87.34367117665177,
              25.939272542963366
            ],
            [
              87.3432967696211,
              25.93952070904093
            ],
            [
              87.3429421929004,
              25.94014796572529
            ],
            [
              87.34193880167747,
              25.940210945912792
            ],
            [
              87.34120493827746,
              25.9405762907603
            ],
            [
              87.34084048098693,
              25.941009524887072
            ],
            [
              87.3405058477638,
              25.941668357047643
            ],
            [
              87.33794010210717,
              25.94160449067355
            ],
            [
              87.33750075316972,
              25.941712718234914
            ],
            [
              87.33673686986955,
              25.942254130008727
            ],
            [
              87.33625244167449,
              25.942971600112184
            ],
            [
              87.33605775159958,
              25.943048210271506
            ],
            [
              87.33542901085077,
              25.94229437929058
            ],
            [
              87.33501982823884,
              25.94206859587657
            ],
            [
              87.33374189659376,
              25.942212631050868
            ],
            [
              87.33336738805352,
              25.94252848821539
            ],
            [
              87.33295770957156,
              25.943620517822232
            ],
            [
              87.33257824233091,
              25.94375133813324
            ],
            [
              87.33012227439526,
              25.94388144502408
            ],
            [
              87.32958808222843,
              25.944025713046628
            ],
            [
              87.32919358796973,
              25.94439114299454
            ],
            [
              87.32889305838805,
              25.94700420314851
            ],
            [
              87.32885711320026,
              25.94962184581881
            ],
            [
              87.32861679499712,
              25.951251092086295
            ],
            [
              87.32758828598057,
              25.951720055741323
            ],
            [
              87.3273085200584,
              25.952184827031353
            ],
            [
              87.32706381628005,
              25.95242850078295
            ],
            [
              87.32647965442722,
              25.952532085277547
            ],
            [
              87.32537631125588,
              25.952843146765126
            ],
            [
              87.32484700412752,
              25.95320403337534
            ],
            [
              87.32459719612176,
              25.95344766705438
            ],
            [
              87.32434235485543,
              25.954074877017202
            ],
            [
              87.32402271720936,
              25.954300420134253
            ],
            [
              87.32322402868348,
              25.95426400675404
            ],
            [
              87.32269989764785,
              25.95405622120355
            ],
            [
              87.32069320503358,
              25.95382978993707
            ],
            [
              87.3193153358131,
              25.953838364665696
            ],
            [
              87.3183366940746,
              25.95405009871654
            ],
            [
              87.31685904807722,
              25.95395923871041
            ],
            [
              87.31597554062225,
              25.953787387184057
            ],
            [
              87.31508720741759,
              25.953331177601303
            ],
            [
              87.31324069070666,
              25.952008011029367
            ],
            [
              87.31229725394414,
              25.95185866812021
            ],
            [
              87.31151346307894,
              25.951921545116978
            ],
            [
              87.31044000865379,
              25.952196364628744
            ],
            [
              87.30936167637661,
              25.95238093937785
            ],
            [
              87.30886721579647,
              25.952678593024018
            ],
            [
              87.30850739920268,
              25.953368924009162
            ],
            [
              87.30820195763302,
              25.955011587781748
            ],
            [
              87.30817640774971,
              25.95608568693921
            ],
            [
              87.3082604999418,
              25.957457732049456
            ],
            [
              87.30808011284284,
              25.958545360226175
            ],
            [
              87.30775536288448,
              25.959055224094854
            ],
            [
              87.30681606825372,
              25.960345484399273
            ],
            [
              87.30662091374984,
              25.961144249878245
            ],
            [
              87.30666041177454,
              25.961888981385673
            ],
            [
              87.30647029232783,
              25.962525184056005
            ],
            [
              87.3065893442558,
              25.96380705118551
            ],
            [
              87.30632907716515,
              25.964998374307097
            ],
            [
              87.30590430069822,
              25.965697727012465
            ],
            [
              87.30481018502151,
              25.966775879040956
            ],
            [
              87.30507523025116,
              25.96688084568131
            ],
            [
              87.30640299413999,
              25.967192908658777
            ],
            [
              87.3073807124104,
              25.968867764002482
            ],
            [
              87.30865182943573,
              25.972370523975044
            ],
            [
              87.30894075817385,
              25.973679500935923
            ],
            [
              87.30888548213944,
              25.974202986855467
            ],
            [
              87.30842049528376,
              25.975407833238652
            ],
            [
              87.30824533458316,
              25.976084719791338
            ],
            [
              87.30850302171228,
              25.97736383964364
            ],
            [
              87.30850879787958,
              25.977392508683735
            ],
            [
              87.30889583612142,
              25.97931365600133
            ],
            [
              87.3089373248128,
              25.979745192222225
            ],
            [
              87.31368165571334,
              25.97849266499738
            ],
            [
              87.31564925544308,
              25.977969986343474
            ],
            [
              87.31765660023424,
              25.977708966744064
            ],
            [
              87.31904458178984,
              25.978129230601805
            ],
            [
              87.3199129813784,
              25.97906830897408
            ],
            [
              87.32080632897896,
              25.979881000114418
            ],
            [
              87.32156027331882,
              25.98008890802589
            ],
            [
              87.32439160139762,
              25.979882308327035
            ],
            [
              87.32780691256454,
              25.980091145711537
            ],
            [
              87.33136222616847,
              25.97998841562746
            ],
            [
              87.33338450994282,
              25.98006576239153
            ],
            [
              87.33405326884089,
              25.98087825525256
            ],
            [
              87.33471732775345,
              25.98108612102406
            ],
            [
              87.33570116175429,
              25.980617003079185
            ],
            [
              87.336220762586,
              25.979913097349062
            ],
            [
              87.33696976888673,
              25.979886161901415
            ],
            [
              87.33896686120558,
              25.980410191926573
            ],
            [
              87.33927622841303,
              25.981127876797572
            ],
            [
              87.33940905600586,
              25.98100323365398
            ],
            [
              87.33941126406484,
              25.98100116233709
            ],
            [
              87.3404349949424,
              25.980040497774063
            ],
            [
              87.34187847890782,
              25.978853921126433
            ],
            [
              87.34305204607985,
              25.978303578243594
            ],
            [
              87.34497434287151,
              25.97839418203141
            ],
            [
              87.34626260783729,
              25.978331328063476
            ],
            [
              87.34916377723448,
              25.978056534058805
            ],
            [
              87.34965767457096,
              25.98004243586421
            ],
            [
              87.34956752234397,
              25.98148209126438
            ],
            [
              87.34982705640937,
              25.98208239529714
            ],
            [
              87.35199920522423,
              25.981978974097125
            ],
            [
              87.35408151262922,
              25.981667874161396
            ],
            [
              87.35460088169559,
              25.981221162637024
            ],
            [
              87.35535002094701,
              25.980174218650514
            ],
            [
              87.35662351940617,
              25.97928526522434
            ],
            [
              87.35807172491671,
              25.977769021257874
            ],
            [
              87.35841636357549,
              25.977299702725443
            ],
            [
              87.35870604061022,
              25.976776206363546
            ],
            [
              87.35899571315333,
              25.97625270928631
            ],
            [
              87.35914059523903,
              25.975833005633696
            ],
            [
              87.36222627410397,
              25.976826177356955
            ],
            [
              87.36266071464672,
              25.975806259029586
            ],
            [
              87.36566671025105,
              25.97502565606284
            ],
            [
              87.36699481280475,
              25.974971636751654
            ],
            [
              87.36820235695575,
              25.97506788318766
            ],
            [
              87.36829803112678,
              25.97507550908708
            ],
            [
              87.3686725432603,
              25.974398497204334
            ],
            [
              87.36910703860029,
              25.97220062463423
            ],
            [
              87.37121914132666,
              25.97238123665902
            ],
            [
              87.37199799055945,
              25.971284558028135
            ],
            [
              87.37156366140778,
              25.969479266142272
            ],
            [
              87.37303662808084,
              25.969926062651172
            ],
            [
              87.37535332301147,
              25.96989903527165
            ],
            [
              87.37752022656342,
              25.969795246393826
            ],
            [
              87.37792785958145,
              25.970009570802286
            ],
            [
              87.37806947629103,
              25.970084028862384
            ],
            [
              87.37731556878211,
              25.971808065105936
            ],
            [
              87.37806941969717,
              25.971753904603066
            ],
            [
              87.3790530821198,
              25.97084221494421
            ],
            [
              87.37916790927102,
              25.970264549647496
            ],
            [
              87.37974701810039,
              25.96992604084578
            ],
            [
              87.38015141808174,
              25.969560447887538
            ],
            [
              87.38035613784676,
              25.968328338611233
            ],
            [
              87.38104507380447,
              25.96822449019904
            ],
            [
              87.38113494396043,
              25.966942747922452
            ],
            [
              87.38104498307463,
              25.966211662664183
            ],
            [
              87.38081525511038,
              25.9656609997576
            ],
            [
              87.38121965778667,
              25.964433420102846
            ],
            [
              87.38376092075853,
              25.96438363364097
            ],
            [
              87.38422514943613,
              25.963963870676523
            ],
            [
              87.38555282169682,
              25.959834273262768
            ],
            [
              87.38636645100247,
              25.95810561038588
            ],
            [
              87.38677078900004,
              25.957586582371817
            ],
            [
              87.38885261670468,
              25.957532245706734
            ],
            [
              87.38873263142713,
              25.956065497617875
            ],
            [
              87.39307074685112,
              25.954760722671434
            ],
            [
              87.39330061585085,
              25.95606499199631
            ],
            [
              87.39058486411821,
              25.956697113354245
            ],
            [
              87.38890772475413,
              25.959468443795
            ],
            [
              87.38821399179281,
              25.96061934572928
            ],
            [
              87.38786948159311,
              25.961138398328504
            ],
            [
              87.38803956771073,
              25.963963630805083
            ],
            [
              87.38989190101309,
              25.964225213147113
            ],
            [
              87.39318687116958,
              25.963286054223175
            ],
            [
              87.39526871863718,
              25.962969851344464
            ],
            [
              87.39694632602352,
              25.963285547824995
            ],
            [
              87.39786978066086,
              25.962445952797022
            ],
            [
              87.39810422567867,
              25.96134918396986
            ],
            [
              87.39914278235169,
              25.96197642209237
            ],
            [
              87.39995168741723,
              25.96265774324431
            ],
            [
              87.400646045606,
              25.96443586161284
            ],
            [
              87.40064645523778,
              25.966001892853065
            ],
            [
              87.40176805756552,
              25.96694709134305
            ],
            [
              87.40078497186131,
              25.96935281694817
            ],
            [
              87.40198111998464,
              25.973322052012232
            ],
            [
              87.40221108240918,
              25.974319381349524
            ],
            [
              87.40248577284999,
              25.974838371083212
            ],
            [
              87.4047126353539,
              25.974576167088262
            ],
            [
              87.40471205594054,
              25.974641389257023
            ],
            [
              87.4046905367979,
              25.97705958285708
            ],
            [
              87.40468355958308,
              25.97784366337299
            ],
            [
              87.40491831721458,
              25.978394273284415
            ],
            [
              87.40652494691373,
              25.979049123336463
            ],
            [
              87.40671108592544,
              25.979124989683033
            ],
            [
              87.40752024880749,
              25.980095126869916
            ],
            [
              87.40759368159038,
              25.981275590109554
            ],
            [
              87.40775103678378,
              25.9838049781601
            ],
            [
              87.40749147756557,
              25.984355619910076
            ],
            [
              87.40702722643012,
              25.98482511780671
            ],
            [
              87.40639309039967,
              25.98490645288179
            ],
            [
              87.4048899466213,
              25.98469467584791
            ],
            [
              87.40408093465622,
              25.98435633536208
            ],
            [
              87.40347174484121,
              25.98448734214372
            ],
            [
              87.40289265936806,
              25.98503805418024
            ],
            [
              87.4030579008713,
              25.986969686178725
            ],
            [
              87.40366240417544,
              25.988066288773986
            ],
            [
              87.40418032695418,
              25.98840044067911
            ],
            [
              87.40418640675202,
              25.988404364225026
            ],
            [
              87.4041867939259,
              25.988404613736396
            ],
            [
              87.40739246256001,
              25.987541951309474
            ],
            [
              87.40961965474563,
              25.987568531324282
            ],
            [
              87.41031384584772,
              25.98780305162873
            ],
            [
              87.41118300810594,
              25.988560978117896
            ],
            [
              87.41234218965698,
              25.990654834155933
            ],
            [
              87.41289158221677,
              25.99104732430165
            ],
            [
              87.41365347664689,
              25.990631176246815
            ],
            [
              87.41390017558348,
              25.990496427249468
            ],
            [
              87.41424138177953,
              25.99028669671944
            ],
            [
              87.41453923797492,
              25.99010361066159
            ],
            [
              87.41511794076577,
              25.991627853289835
            ],
            [
              87.41512177567371,
              25.991637955395973
            ],
            [
              87.41520401284474,
              25.991854554968686
            ],
            [
              87.41566820379305,
              25.991227100722792
            ],
            [
              87.41658534956215,
              25.990627276999177
            ],
            [
              87.4170097074142,
              25.990349738894928
            ],
            [
              87.41734576985691,
              25.990129944626723
            ]
          ]
        ]
      }
    }
  ]
}