{
  "type": "FeatureCollection",
  "features": [
    {
      "type": "Feature",
      "properties": {
        "object_id": "10-219-01250",
        "stname": "BIHAR",
        "dtname": "Saran",
        "sdtname": "Taraiya",
        "st_area_sh": 0.0,
        "st_length_": 0.0,
        "remarks": "",
        "dist_lgd": 218,
        "state_lgd": 10,
        "subdt_lgd": 1250,
        "ac_no": null,
        "st_length(shape)": 53629.0613522338,
        "st_area(shape)": 97307015.09151264
      },
      "geometry": {
        "type": "Polygon",
        "coordinates": [
          [
            [
              84.87822934481954,
              26.094343310091762
            ],
            [
              84.8806023847797,
              26.093099245974496
            ],
            [
              84.88173198391016,
              26.093102097062495
            ],
            [
              84.88337906384821,
              26.093846477942456
            ],
            [
              84.8843529337359,
              26.094083661056786
            ],
            [
              84.88722983424738,
              26.09305261203965
            ],
            [
              84.8892473138316,
              26.093275804348835
            ],
            [
              84.89135075320534,
              26.09353446286635
            ],
            [
              84.89321379801915,
              26.09359059696936
            ],
            [
              84.89532589176237,
              26.0935243283909
            ],
            [
              84.89703910656993,
              26.093287587859564
            ],
            [
              84.89752983824337,
              26.09145023328463
            ],
            [
              84.89773113902044,
              26.090088208972997
            ],
            [
              84.89751453903577,
              26.088610450103765
            ],
            [
              84.89784189500674,
              26.087753786388795
            ],
            [
              84.89867513273843,
              26.08824459184991
            ],
            [
              84.89933793400957,
              26.08843381369153
            ],
            [
              84.89990836331667,
              26.08896963507748
            ],
            [
              84.9052424022686,
              26.089107491662652
            ],
            [
              84.9076378066861,
              26.08926127565482
            ],
            [
              84.91063268114719,
              26.08960619308439
            ],
            [
              84.9131803652767,
              26.089869664906963
            ],
            [
              84.91198519721537,
              26.08630735618395
            ],
            [
              84.91214712393524,
              26.0838436301647
            ],
            [
              84.91240481735258,
              26.08285658096212
            ],
            [
              84.91303143358574,
              26.080456352153508
            ],
            [
              84.91365515095552,
              26.079063327957083
            ],
            [
              84.91464899308694,
              26.077544679080983
            ],
            [
              84.91594955239574,
              26.07711901496058
            ],
            [
              84.91744322164281,
              26.07731199301044
            ],
            [
              84.91970241271717,
              26.078987017888085
            ],
            [
              84.92129158276045,
              26.080759737398292
            ],
            [
              84.92221688074073,
              26.080527201336785
            ],
            [
              84.92463939361856,
              26.079535862369735
            ],
            [
              84.9275252611132,
              26.078354831789525
            ],
            [
              84.92886335203455,
              26.07877749393828
            ],
            [
              84.93029534025929,
              26.08147503680552
            ],
            [
              84.93134503783844,
              26.08324197321818
            ],
            [
              84.93340624381744,
              26.08245668623087
            ],
            [
              84.93438596173765,
              26.082368530025075
            ],
            [
              84.93479529975814,
              26.082554499345196
            ],
            [
              84.93607739060297,
              26.083441880685438
            ],
            [
              84.93805293143983,
              26.08661276989757
            ],
            [
              84.9397183792305,
              26.08051623871742
            ],
            [
              84.94071464681319,
              26.079936156788364
            ],
            [
              84.94159397171221,
              26.07993803110147
            ],
            [
              84.94657629238263,
              26.08003893736109
            ],
            [
              84.94658878704992,
              26.080033863891114
            ],
            [
              84.9467729659377,
              26.07942274475202
            ],
            [
              84.94690147083737,
              26.079040690795782
            ],
            [
              84.94702982482012,
              26.07840960231771
            ],
            [
              84.94715834858445,
              26.07806076280937
            ],
            [
              84.9472317202819,
              26.07774525790784
            ],
            [
              84.94710288300557,
              26.07757923879136
            ],
            [
              84.94688226575494,
              26.077529525316077
            ],
            [
              84.94631229638526,
              26.077762230319056
            ],
            [
              84.9459446590586,
              26.078061358274365
            ],
            [
              84.94539309527076,
              26.07832726779603
            ],
            [
              84.94515413532035,
              26.078360600846523
            ],
            [
              84.94487827257808,
              26.078360733171763
            ],
            [
              84.94487812794931,
              26.078111609701306
            ],
            [
              84.94482664100879,
              26.077255976970317
            ],
            [
              84.94474822257607,
              26.07595277265997
            ],
            [
              84.94471054543645,
              26.0742589256353
            ],
            [
              84.94478295144496,
              26.072133208749438
            ],
            [
              84.94483781515262,
              26.071784404603427
            ],
            [
              84.94502159159512,
              26.071585108231137
            ],
            [
              84.94538929809207,
              26.071435454174868
            ],
            [
              84.94566508537586,
              26.071335670980307
            ],
            [
              84.94588563165959,
              26.071119654649596
            ],
            [
              84.94603259693841,
              26.070870548048443
            ],
            [
              84.94603236427473,
              26.070482905731048
            ],
            [
              84.94603228791793,
              26.07035568980273
            ],
            [
              84.94603200674524,
              26.06989074776314
            ],
            [
              84.9461787815812,
              26.069159909644988
            ],
            [
              84.94678482908932,
              26.067847731696762
            ],
            [
              84.94680418958033,
              26.067806143141492
            ],
            [
              84.94751942102302,
              26.066269752032134
            ],
            [
              84.94788681670286,
              26.065655147661356
            ],
            [
              84.948676664908,
              26.06442581627121
            ],
            [
              84.94900725032247,
              26.06377801028628
            ],
            [
              84.9490438288225,
              26.06346243220274
            ],
            [
              84.94882302741723,
              26.063080555350478
            ],
            [
              84.94834471764757,
              26.06274872304012
            ],
            [
              84.94778625390006,
              26.0625044743499
            ],
            [
              84.94773783740119,
              26.062483298638938
            ],
            [
              84.9466898241632,
              26.062516953338783
            ],
            [
              84.94602787359663,
              26.062401023932754
            ],
            [
              84.94575184825926,
              26.06206899360306
            ],
            [
              84.9453095303898,
              26.060242475069664
            ],
            [
              84.94470155869031,
              26.057950912804547
            ],
            [
              84.94465558291411,
              26.057757575208452
            ],
            [
              84.94442515067065,
              26.056788555026984
            ],
            [
              84.94409353668523,
              26.05570917374398
            ],
            [
              84.94390933983115,
              26.054995194613156
            ],
            [
              84.94368834079653,
              26.054397401978676
            ],
            [
              84.94355956280899,
              26.054115213633125
            ],
            [
              84.94321006426455,
              26.053866257294874
            ],
            [
              84.94166708469487,
              26.053405970145285
            ],
            [
              84.94081956015691,
              26.053153136919576
            ],
            [
              84.93778550657302,
              26.052174624172718
            ],
            [
              84.93622258170909,
              26.051676970661767
            ],
            [
              84.93550552039818,
              26.051511197867942
            ],
            [
              84.93504575455093,
              26.051312093785274
            ],
            [
              84.93464123329701,
              26.051079750247546
            ],
            [
              84.93429166917555,
              26.050648082327868
            ],
            [
              84.93373934361638,
              26.04882158592419
            ],
            [
              84.93363156285027,
              26.048491086054653
            ],
            [
              84.93318700278584,
              26.0471278631101
            ],
            [
              84.93229432712506,
              26.04460400199108
            ],
            [
              84.93163192740084,
              26.043342134188325
            ],
            [
              84.93130076616633,
              26.04267793876346
            ],
            [
              84.93104317695354,
              26.042279534796368
            ],
            [
              84.93122684739484,
              26.041914079026082
            ],
            [
              84.93218261533129,
              26.041614831327205
            ],
            [
              84.93368973595143,
              26.040949962666232
            ],
            [
              84.93482940339958,
              26.040584187974765
            ],
            [
              84.93519687633454,
              26.040351513239727
            ],
            [
              84.93530705470414,
              26.039919741246766
            ],
            [
              84.93528769600975,
              26.03984916210438
            ],
            [
              84.93445994159458,
              26.03683114305949
            ],
            [
              84.93322155558492,
              26.032921847282452
            ],
            [
              84.93299977860924,
              26.03222172181771
            ],
            [
              84.93232444224667,
              26.030089710658544
            ],
            [
              84.93258173501539,
              26.02995682796602
            ],
            [
              84.93331690815907,
              26.02985686738749
            ],
            [
              84.93368448440029,
              26.029690628665104
            ],
            [
              84.93383123498172,
              26.029092756247486
            ],
            [
              84.93357314001746,
              26.02749856020344
            ],
            [
              84.93397703424726,
              26.026501979311316
            ],
            [
              84.93463812692275,
              26.025040341838665
            ],
            [
              84.93521935936946,
              26.02404431724136
            ],
            [
              84.93533600920235,
              26.023844416599708
            ],
            [
              84.93618107235643,
              26.023080146832807
            ],
            [
              84.93663116783966,
              26.0227582022432
            ],
            [
              84.93709943085119,
              26.021917147905324
            ],
            [
              84.93754031590778,
              26.02141878718839
            ],
            [
              84.93772394772155,
              26.021086535040432
            ],
            [
              84.93787075759178,
              26.0206547413806
            ],
            [
              84.93713540478505,
              26.020322910881553
            ],
            [
              84.93559118464195,
              26.01965927209415
            ],
            [
              84.9351130680101,
              26.019294100240874
            ],
            [
              84.9353701182337,
              26.018762610080234
            ],
            [
              84.93565338309392,
              26.01836269116895
            ],
            [
              84.93566608527205,
              26.018344759186224
            ],
            [
              84.93338437972172,
              26.0181045706169
            ],
            [
              84.92973562156534,
              26.01715779113615
            ],
            [
              84.92907154827975,
              26.015229175865272
            ],
            [
              84.92991137874728,
              26.014964749887575
            ],
            [
              84.92976397509062,
              26.01407086869596
            ],
            [
              84.92839438743879,
              26.010773249164483
            ],
            [
              84.92805682660615,
              26.0081910196706
            ],
            [
              84.9274481317629,
              26.00612264636147
            ],
            [
              84.92621757097771,
              26.00500514971907
            ],
            [
              84.92748470936465,
              26.000380226283575
            ],
            [
              84.92758580217345,
              26.00000037406343
            ],
            [
              84.92768964921694,
              25.999621416832436
            ],
            [
              84.92752984431779,
              25.99782485464801
            ],
            [
              84.92747993392058,
              25.995969859691428
            ],
            [
              84.92735754115809,
              25.995057959745733
            ],
            [
              84.92623262494524,
              25.99371959166809
            ],
            [
              84.92207861744208,
              25.99159354439599
            ],
            [
              84.91821652827032,
              25.99046544801493
            ],
            [
              84.91643782897349,
              25.99080436520908
            ],
            [
              84.91486207886224,
              25.991762009931353
            ],
            [
              84.9127076663843,
              25.992488135233128
            ],
            [
              84.9085728253361,
              25.9959128899713
            ],
            [
              84.90704856755525,
              25.996288420337684
            ],
            [
              84.90452442198112,
              25.99703158816098
            ],
            [
              84.90251618426458,
              25.997229816266866
            ],
            [
              84.90238131929264,
              25.997243079745697
            ],
            [
              84.90029265990027,
              25.997630679163223
            ],
            [
              84.8978055114411,
              25.99764266930079
            ],
            [
              84.89615253675817,
              25.997620595335466
            ],
            [
              84.89573544627679,
              25.99682978284027
            ],
            [
              84.8948463773519,
              25.996877223730454
            ],
            [
              84.89444992296924,
              25.99752613964524
            ],
            [
              84.89444478640245,
              25.999223052382913
            ],
            [
              84.89437804876339,
              26.000000097932503
            ],
            [
              84.89437960734037,
              26.000000131035907
            ],
            [
              84.89437324097997,
              26.00007425521622
            ],
            [
              84.89346930224215,
              26.000071984807633
            ],
            [
              84.89308314255268,
              26.000000172213337
            ],
            [
              84.89256492602483,
              25.999913475945597
            ],
            [
              84.89247644825754,
              25.99943490012497
            ],
            [
              84.89230902025488,
              25.997010927874957
            ],
            [
              84.89161860207696,
              25.99576804366536
            ],
            [
              84.89051460583045,
              25.995873664279927
            ],
            [
              84.8865371020093,
              25.99662190938437
            ],
            [
              84.88582874896673,
              25.996353867843652
            ],
            [
              84.88580877402806,
              25.99634031762835
            ],
            [
              84.88394535910835,
              25.994932016869075
            ],
            [
              84.88313010475035,
              25.993724950671066
            ],
            [
              84.88177188168517,
              25.99368989873377
            ],
            [
              84.88037460256639,
              25.993361391381985
            ],
            [
              84.87885037532826,
              25.992138944000178
            ],
            [
              84.87680591304785,
              25.991172380712257
            ],
            [
              84.87550200392138,
              25.98978347563749
            ],
            [
              84.87502594263488,
              25.98873071735552
            ],
            [
              84.87479346402925,
              25.986455488363564
            ],
            [
              84.8738651890321,
              25.986272519884377
            ],
            [
              84.87266666396654,
              25.986282934951262
            ],
            [
              84.87184534687867,
              25.987020932710752
            ],
            [
              84.8707022146285,
              25.986900631231524
            ],
            [
              84.87012310579911,
              25.98530150989058
            ],
            [
              84.86976453786357,
              25.985020717084495
            ],
            [
              84.8693201107498,
              25.985019598692336
            ],
            [
              84.86778595892443,
              25.985354002316555
            ],
            [
              84.86587720243904,
              25.98572356025054
            ],
            [
              84.86146322698427,
              25.985612492005764
            ],
            [
              84.85930998231623,
              25.985936112242996
            ],
            [
              84.85865581924487,
              25.985947855672222
            ],
            [
              84.85820577496561,
              25.986109173271842
            ],
            [
              84.85754303118667,
              25.988693365038365
            ],
            [
              84.85794482515536,
              25.989506752702788
            ],
            [
              84.85844751520185,
              25.990022605400267
            ],
            [
              84.85947637456137,
              25.992995087257906
            ],
            [
              84.85983840370568,
              25.995266095154584
            ],
            [
              84.85939140561358,
              25.999051387294724
            ],
            [
              84.8588505704052,
              25.99950127035554
            ],
            [
              84.85857946963222,
              26.000000251338562
            ],
            [
              84.85858440138317,
              26.000000235997963
            ],
            [
              84.85837854075768,
              26.000379082200837
            ],
            [
              84.85827366424492,
              26.000572100988173
            ],
            [
              84.85792439297424,
              26.00197925627813
            ],
            [
              84.85866027758362,
              26.002956111958014
            ],
            [
              84.8591025074182,
              26.003647823142426
            ],
            [
              84.85953945426063,
              26.00442521565649
            ],
            [
              84.85963676516207,
              26.00518364690855
            ],
            [
              84.85992935543327,
              26.00582985184179
            ],
            [
              84.86017224461473,
              26.00638564466207
            ],
            [
              84.86002572490032,
              26.00689972781074
            ],
            [
              84.85997347529012,
              26.007585588329533
            ],
            [
              84.85979450213944,
              26.008853216793295
            ],
            [
              84.85969784790646,
              26.009390047133227
            ],
            [
              84.8595469300404,
              26.009701010704436
            ],
            [
              84.85930121475907,
              26.00998924867997
            ],
            [
              84.8593504118939,
              26.010210484015847
            ],
            [
              84.85927431201291,
              26.01058935299062
            ],
            [
              84.85907347117329,
              26.010900217314052
            ],
            [
              84.85870766910473,
              26.01125580490538
            ],
            [
              84.85838180164218,
              26.011611436629828
            ],
            [
              84.85828633138871,
              26.011787195038284
            ],
            [
              84.8583360342751,
              26.01187760589556
            ],
            [
              84.8599325785885,
              26.012391845839822
            ],
            [
              84.85983031617319,
              26.01310466993353
            ],
            [
              84.85928510616938,
              26.013369473077308
            ],
            [
              84.8590888709922,
              26.013793142172126
            ],
            [
              84.8586913278514,
              26.014681137843265
            ],
            [
              84.85812449629702,
              26.01541525011788
            ],
            [
              84.85731031722241,
              26.015413098678152
            ],
            [
              84.85742982010467,
              26.017020017807642
            ],
            [
              84.85732686598658,
              26.017931414640373
            ],
            [
              84.85714817939846,
              26.01910880872963
            ],
            [
              84.85766356263991,
              26.020333247047084
            ],
            [
              84.85948296190736,
              26.021475521734057
            ],
            [
              84.86028899595728,
              26.022434430779587
            ],
            [
              84.86201474136476,
              26.0217079917349
            ],
            [
              84.86294982828673,
              26.021399078100814
            ],
            [
              84.86329464032029,
              26.021354905999374
            ],
            [
              84.86373908629872,
              26.02140124234689
            ],
            [
              84.86428229575438,
              26.02178177527605
            ],
            [
              84.86511277925142,
              26.022894176756708
            ],
            [
              84.86599847679904,
              26.02396609694127
            ],
            [
              84.86611597284492,
              26.024702068317193
            ],
            [
              84.86597249392776,
              26.025793866001738
            ],
            [
              84.86648706688881,
              26.0257952011487
            ],
            [
              84.86688115780397,
              26.025949697889367
            ],
            [
              84.86722375998195,
              26.026595976603442
            ],
            [
              84.86690150105187,
              26.027371358157463
            ],
            [
              84.8666039862163,
              26.028237095712214
            ],
            [
              84.86645118368479,
              26.029130350791487
            ],
            [
              84.86669366503111,
              26.02984400796145
            ],
            [
              84.86694233666806,
              26.030178677071927
            ],
            [
              84.86750619929043,
              26.030378683157753
            ],
            [
              84.87132015403434,
              26.031164980313758
            ],
            [
              84.87232744394557,
              26.031745280310815
            ],
            [
              84.87232574792633,
              26.0322598101595
            ],
            [
              84.87163208144032,
              26.033611908818216
            ],
            [
              84.87114013883793,
              26.03434629576184
            ],
            [
              84.87093918031898,
              26.03470227805087
            ],
            [
              84.86958993860999,
              26.03483859468023
            ],
            [
              84.86948721985053,
              26.035682324936083
            ],
            [
              84.8696364111546,
              26.035903834702385
            ],
            [
              84.870224643274,
              26.03628450462664
            ],
            [
              84.87002388777428,
              26.036595372727092
            ],
            [
              84.86960897840244,
              26.03666199880118
            ],
            [
              84.86874435533139,
              26.036772493313585
            ],
            [
              84.86807954363063,
              26.036901595681936
            ],
            [
              84.86805241361073,
              26.03756944708563
            ],
            [
              84.86795105040903,
              26.037993471125336
            ],
            [
              84.86819989272587,
              26.038305485673288
            ],
            [
              84.86841862620935,
              26.038640073335753
            ],
            [
              84.8684918451932,
              26.039150237030558
            ],
            [
              84.86858508762477,
              26.039683062648162
            ],
            [
              84.86868350794559,
              26.04013012002866
            ],
            [
              84.86732718391895,
              26.040884666739345
            ],
            [
              84.86671006377662,
              26.041704404826497
            ],
            [
              84.86650670406094,
              26.042773480001255
            ],
            [
              84.86576480612902,
              26.043552280034604
            ],
            [
              84.86586154390534,
              26.044536414337703
            ],
            [
              84.86541515936256,
              26.04506776029622
            ],
            [
              84.86455273536731,
              26.045999619164753
            ],
            [
              84.86415361388657,
              26.047357020886793
            ],
            [
              84.86370278897132,
              26.049246796006678
            ],
            [
              84.86294131764772,
              26.051383926634383
            ],
            [
              84.86257020743415,
              26.051784597316274
            ],
            [
              84.86178014273503,
              26.052003641815396
            ],
            [
              84.86188649158657,
              26.053082559287585
            ],
            [
              84.8623470371715,
              26.055845713704187
            ],
            [
              84.86315608596752,
              26.057477104190955
            ],
            [
              84.86381134678017,
              26.058801237745215
            ],
            [
              84.86251728498583,
              26.05876160294376
            ],
            [
              84.86088793779149,
              26.058892668726635
            ],
            [
              84.85943203192231,
              26.059466410265777
            ],
            [
              84.85878741704408,
              26.05948723225295
            ],
            [
              84.8569901837063,
              26.058990369984613
            ],
            [
              84.85593041241953,
              26.059145433079458
            ],
            [
              84.85491911602213,
              26.059742932764472
            ],
            [
              84.85434729163138,
              26.060386761644953
            ],
            [
              84.85383865294112,
              26.06155422416995
            ],
            [
              84.85373658725683,
              26.06219935200604
            ],
            [
              84.85405397821641,
              26.062913254959987
            ],
            [
              84.85476525437691,
              26.063899052039986
            ],
            [
              84.85567523608164,
              26.065214820778085
            ],
            [
              84.85725972590225,
              26.066586623343415
            ],
            [
              84.85723293814048,
              26.067123550983784
            ],
            [
              84.85698111701014,
              26.067700624391627
            ],
            [
              84.85688302277775,
              26.06863898707665
            ],
            [
              84.85682896485889,
              26.069884525606962
            ],
            [
              84.85667503943327,
              26.071066438857077
            ],
            [
              84.85645122058698,
              26.072243806189224
            ],
            [
              84.85582773857581,
              26.073401951122584
            ],
            [
              84.85622152586042,
              26.07369179319416
            ],
            [
              84.85762436195753,
              26.07410181206673
            ],
            [
              84.85745132577257,
              26.075058154894872
            ],
            [
              84.85752452229853,
              26.075568307717443
            ],
            [
              84.85796623560185,
              26.076485618146055
            ],
            [
              84.85873636488819,
              26.07783259540031
            ],
            [
              84.86033427284421,
              26.07975051976536
            ],
            [
              84.86149919732489,
              26.081107547401647
            ],
            [
              84.86185285327247,
              26.082967858917907
            ],
            [
              84.86210583502616,
              26.085058110779958
            ],
            [
              84.86246260183954,
              26.085988730991343
            ],
            [
              84.86436818996692,
              26.085574100871405
            ],
            [
              84.86575757918256,
              26.08557780090831
            ],
            [
              84.867759867357,
              26.086142815180498
            ],
            [
              84.8698188239545,
              26.08619332938434
            ],
            [
              84.87083664212088,
              26.086728563187986
            ],
            [
              84.87268640803815,
              26.08655738438874
            ],
            [
              84.87352568873676,
              26.086667945611218
            ],
            [
              84.8739889157928,
              26.087161024349385
            ],
            [
              84.87433189885647,
              26.087721554870267
            ],
            [
              84.87514478615371,
              26.088278812775265
            ],
            [
              84.87597850358576,
              26.090158326223726
            ],
            [
              84.87669582989967,
              26.092484404077375
            ],
            [
              84.8768972160167,
              26.093599707665643
            ],
            [
              84.87735556701739,
              26.094065680151214
            ],
            [
              84.87822934481954,
              26.094343310091762
            ]
          ]
        ]
      }
    }
  ]
}