{
  "type": "FeatureCollection",
  "features": [
    {
      "type": "Feature",
      "properties": {
        "object_id": "10-204-01053",
        "stname": "BIHAR",
        "dtname": "Purbi Champaran",
        "sdtname": "Patahi",
        "st_area_sh": 0.0,
        "st_length_": 0.0,
        "remarks": "",
        "dist_lgd": 213,
        "state_lgd": 10,
        "subdt_lgd": 1053,
        "ac_no": null,
        "st_length(shape)": 85994.51677214028,
        "st_area(shape)": 144960443.14880535
      },
      "geometry": {
        "type": "Polygon",
        "coordinates": [
          [
            [
              85.27601889258375,
              26.63075537490491
            ],
            [
              85.27597410258367,
              26.630213815351585
            ],
            [
              85.27566813280465,
              26.629893233178414
            ],
            [
              85.27516618656323,
              26.629658194689455
            ],
            [
              85.27438453818002,
              26.629765751687138
            ],
            [
              85.27335376001902,
              26.630041218074947
            ],
            [
              85.27334701726451,
              26.630042611317098
            ],
            [
              85.27333809789206,
              26.630044992275536
            ],
            [
              85.27231356302231,
              26.63025640833797
            ],
            [
              85.2714599757545,
              26.630255772346214
            ],
            [
              85.27093795486144,
              26.630106417773774
            ],
            [
              85.27066204630506,
              26.629849024374863
            ],
            [
              85.27038607576495,
              26.629591573381386
            ],
            [
              85.27008044105752,
              26.62880160486549
            ],
            [
              85.26989113817936,
              26.62724004671445
            ],
            [
              85.26970085344264,
              26.626599124970273
            ],
            [
              85.26967706156235,
              26.625186582320513
            ],
            [
              85.26982364775208,
              26.624180350122074
            ],
            [
              85.2698396296793,
              26.62417784376368
            ],
            [
              85.26983976442659,
              26.6241769258631
            ],
            [
              85.27017207370808,
              26.623148195610103
            ],
            [
              85.27024321219375,
              26.622272765015094
            ],
            [
              85.27005351315854,
              26.62109480064859
            ],
            [
              85.26972280467491,
              26.620368047225732
            ],
            [
              85.26891516443727,
              26.619749216196237
            ],
            [
              85.26839345885286,
              26.61927956039898
            ],
            [
              85.26810809462984,
              26.61854835026564
            ],
            [
              85.26824933225038,
              26.617758649954634
            ],
            [
              85.2688223208577,
              26.6170550073793
            ],
            [
              85.26939504176711,
              26.616604121379027
            ],
            [
              85.26953592634973,
              26.616220658632088
            ],
            [
              85.2695282008383,
              26.616187532398012
            ],
            [
              85.2693959346925,
              26.615620365320922
            ],
            [
              85.26903519822383,
              26.614893565050444
            ],
            [
              85.26853877482479,
              26.614293047123155
            ],
            [
              85.26804233256112,
              26.613760187040214
            ],
            [
              85.26773135108112,
              26.613525333026832
            ],
            [
              85.26721007399313,
              26.61262241825329
            ],
            [
              85.26678398418923,
              26.61198133905517
            ],
            [
              85.26621232059694,
              26.611380706243146
            ],
            [
              85.26555003855204,
              26.611041736831766
            ],
            [
              85.26495261307402,
              26.61105941266314
            ],
            [
              85.26493918056558,
              26.61106254576984
            ],
            [
              85.26493572474668,
              26.611062647770485
            ],
            [
              85.2642026213214,
              26.611233583869247
            ],
            [
              85.26355466740527,
              26.61149026904299
            ],
            [
              85.26293699839233,
              26.611724494353638
            ],
            [
              85.2622989663685,
              26.61208950862177
            ],
            [
              85.26167609700839,
              26.61244996387703
            ],
            [
              85.261224003672,
              26.612724905779576
            ],
            [
              85.26059870257241,
              26.612892584259676
            ],
            [
              85.26000620794699,
              26.612829450061557
            ],
            [
              85.2599990816118,
              26.612833342089232
            ],
            [
              85.25998889381819,
              26.612832256240818
            ],
            [
              85.25951212376091,
              26.61259715134702
            ],
            [
              85.25934677625646,
              26.612254054959546
            ],
            [
              85.25953823419295,
              26.61165854607425
            ],
            [
              85.25973012421913,
              26.610521509739865
            ],
            [
              85.26013308240444,
              26.609199612372315
            ],
            [
              85.26049542775576,
              26.608324430779465
            ],
            [
              85.26070748585833,
              26.607101596693145
            ],
            [
              85.26080368823877,
              26.60624878471697
            ],
            [
              85.26073443801182,
              26.605242430022194
            ],
            [
              85.26063996668498,
              26.6042991250955
            ],
            [
              85.26061990011814,
              26.603773786255125
            ],
            [
              85.26061549028843,
              26.603658318116597
            ],
            [
              85.26061630236543,
              26.60282793668884
            ],
            [
              85.26076295592881,
              26.6018172739523
            ],
            [
              85.26080952279652,
              26.600449911220206
            ],
            [
              85.26086145889468,
              26.59869451571307
            ],
            [
              85.26088444318954,
              26.59833129009647
            ],
            [
              85.26090157496033,
              26.59833085795111
            ],
            [
              85.26092469759574,
              26.5979647732284
            ],
            [
              85.26116169113399,
              26.596918012678188
            ],
            [
              85.26154419198532,
              26.595911930948464
            ],
            [
              85.26152021235714,
              26.59477906289699
            ],
            [
              85.26175679087373,
              26.594052723014254
            ],
            [
              85.26195323805332,
              26.593348822142104
            ],
            [
              85.26200443393968,
              26.592360509854878
            ],
            [
              85.2619098323571,
              26.59159322532563
            ],
            [
              85.2618104265844,
              26.59065456178946
            ],
            [
              85.26162049308893,
              26.589774395214828
            ],
            [
              85.26145577171023,
              26.58889869390112
            ],
            [
              85.26107530644131,
              26.58793722137875
            ],
            [
              85.26089028493384,
              26.587332322017236
            ],
            [
              85.25981752400807,
              26.58594155227472
            ],
            [
              85.25846858233639,
              26.584825906332654
            ],
            [
              85.25763606325695,
              26.584229542922934
            ],
            [
              85.25703971935053,
              26.583385182028717
            ],
            [
              85.25632767782541,
              26.582784471400803
            ],
            [
              85.25552059184828,
              26.581881252973083
            ],
            [
              85.25492899194488,
              26.581244485106275
            ],
            [
              85.25492686832753,
              26.581242572296475
            ],
            [
              85.25464828818151,
              26.58099157538281
            ],
            [
              85.2542670341918,
              26.580783683401606
            ],
            [
              85.25387600473515,
              26.580386244870528
            ],
            [
              85.25336972502079,
              26.579794677779777
            ],
            [
              85.25304900580309,
              26.57935659939358
            ],
            [
              85.25292873935287,
              26.579157944906164
            ],
            [
              85.25281850259277,
              26.578968339346964
            ],
            [
              85.25268854062567,
              26.57853957784653
            ],
            [
              85.25259856357019,
              26.578214494874054
            ],
            [
              85.25242831036597,
              26.577893900308524
            ],
            [
              85.25219270831808,
              26.57754628282659
            ],
            [
              85.2518920718369,
              26.577117265343624
            ],
            [
              85.2514058667742,
              26.57664758798143
            ],
            [
              85.25106484742776,
              26.57637208378084
            ],
            [
              85.25072883798559,
              26.57610543881414
            ],
            [
              85.25059346816049,
              26.5760287189
            ],
            [
              85.2503326521992,
              26.575838884011084
            ],
            [
              85.25000185298573,
              26.5756309706252
            ],
            [
              85.24990300686343,
              26.575573475044973
            ],
            [
              85.24949739505477,
              26.57510750068272
            ],
            [
              85.24878439412892,
              26.57441749724367
            ],
            [
              85.24837075766986,
              26.57395828132769
            ],
            [
              85.24797444701764,
              26.573468949035828
            ],
            [
              85.24774858809731,
              26.573197808600657
            ],
            [
              85.24366179793364,
              26.571734621113688
            ],
            [
              85.2436467089318,
              26.571734324647718
            ],
            [
              85.24190026993345,
              26.57169997476427
            ],
            [
              85.24146380189309,
              26.57190337037011
            ],
            [
              85.24085693512144,
              26.572273908272603
            ],
            [
              85.24035519818747,
              26.572432262814807
            ],
            [
              85.2397177491703,
              26.57234702733404
            ],
            [
              85.23858330003566,
              26.572162938082815
            ],
            [
              85.23564740176957,
              26.572165224638162
            ],
            [
              85.2344327303851,
              26.57209402565413
            ],
            [
              85.23441768001082,
              26.57209011536889
            ],
            [
              85.23441024016365,
              26.57208967830391
            ],
            [
              85.23286912100494,
              26.571689270652673
            ],
            [
              85.23240214078763,
              26.571396242899226
            ],
            [
              85.2323164639674,
              26.570972140299688
            ],
            [
              85.23245016023114,
              26.569108258644984
            ],
            [
              85.23288734782204,
              26.567503143972527
            ],
            [
              85.23289522335213,
              26.56747423064209
            ],
            [
              85.23347643873086,
              26.56653517736686
            ],
            [
              85.23530165997965,
              26.56497233701353
            ],
            [
              85.23946876761454,
              26.56193199394499
            ],
            [
              85.23953370862309,
              26.561683761348558
            ],
            [
              85.23935633896518,
              26.56149669887896
            ],
            [
              85.23933697667754,
              26.561476278663648
            ],
            [
              85.23903445193764,
              26.561480787117123
            ],
            [
              85.2364950781228,
              26.561347460238
            ],
            [
              85.23525555215107,
              26.56129419677657
            ],
            [
              85.23524577668412,
              26.561290564938627
            ],
            [
              85.23523284633394,
              26.561290011324378
            ],
            [
              85.23459019696958,
              26.56105126191867
            ],
            [
              85.23431902073813,
              26.56080331587382
            ],
            [
              85.23350997014546,
              26.559608061852845
            ],
            [
              85.23281680042783,
              26.558859458309147
            ],
            [
              85.23142557325912,
              26.55761490515562
            ],
            [
              85.23104869586145,
              26.55699246762597
            ],
            [
              85.23104273733617,
              26.556062810242803
            ],
            [
              85.23142338496308,
              26.555322403016415
            ],
            [
              85.23143117694984,
              26.55530971663431
            ],
            [
              85.23230522065332,
              26.553886697907267
            ],
            [
              85.23270584142224,
              26.553087647992264
            ],
            [
              85.23280044839473,
              26.552284282174444
            ],
            [
              85.23309043624654,
              26.55123715873022
            ],
            [
              85.23374704632873,
              26.55043332110233
            ],
            [
              85.2332646528178,
              26.54977033507906
            ],
            [
              85.23306875540716,
              26.549508735003496
            ],
            [
              85.23307866023146,
              26.549502058002513
            ],
            [
              85.23262465078858,
              26.54912066471565
            ],
            [
              85.23260325202018,
              26.549117769383418
            ],
            [
              85.23260174824038,
              26.549116506141043
            ],
            [
              85.23227054119177,
              26.549071624865512
            ],
            [
              85.23117228607825,
              26.549762855312114
            ],
            [
              85.2302294538819,
              26.550196750899026
            ],
            [
              85.22944697815029,
              26.55057191527953
            ],
            [
              85.22819292462377,
              26.550897668110988
            ],
            [
              85.22665267233931,
              26.55107929159899
            ],
            [
              85.22527298223376,
              26.551301368328836
            ],
            [
              85.22431464331902,
              26.551342635060724
            ],
            [
              85.22341034705173,
              26.551210671306073
            ],
            [
              85.22339130186938,
              26.551207891741374
            ],
            [
              85.22199076815433,
              26.550577058185723
            ],
            [
              85.22130784641745,
              26.54992771784435
            ],
            [
              85.22078025686794,
              26.549075074675724
            ],
            [
              85.22078004127228,
              26.549074528234794
            ],
            [
              85.22035287438835,
              26.547992353914893
            ],
            [
              85.21938216207886,
              26.54524469282311
            ],
            [
              85.21876362439502,
              26.543633972982537
            ],
            [
              85.21832582505142,
              26.542086426266106
            ],
            [
              85.21798376725248,
              26.54101253589085
            ],
            [
              85.21749590300145,
              26.539528212842622
            ],
            [
              85.21697403122874,
              26.539384105087723
            ],
            [
              85.21677992505879,
              26.53924074214322
            ],
            [
              85.21675915690771,
              26.539225402712233
            ],
            [
              85.21661227427391,
              26.539503359762815
            ],
            [
              85.21682784928088,
              26.539871630822027
            ],
            [
              85.21699331176967,
              26.540207507109375
            ],
            [
              85.21704849078598,
              26.540518905661447
            ],
            [
              85.21696806821187,
              26.540717406126056
            ],
            [
              85.21678245381628,
              26.54087082165431
            ],
            [
              85.21651648422022,
              26.540961029397327
            ],
            [
              85.21603477073396,
              26.540969899242935
            ],
            [
              85.21521198669724,
              26.54099675228042
            ],
            [
              85.21461491695207,
              26.541019213386058
            ],
            [
              85.21427870269406,
              26.541122889305154
            ],
            [
              85.21393744529402,
              26.541307894738527
            ],
            [
              85.21372659273054,
              26.541574045258688
            ],
            [
              85.2135760458687,
              26.541903428777086
            ],
            [
              85.21347552618505,
              26.542282494622967
            ],
            [
              85.21340513689432,
              26.542869168368956
            ],
            [
              85.21331959571972,
              26.543604772361608
            ],
            [
              85.21422237563078,
              26.544660917832697
            ],
            [
              85.215220542252,
              26.545690142982235
            ],
            [
              85.21563189788861,
              26.5461189671258
            ],
            [
              85.21577229288941,
              26.546285999819737
            ],
            [
              85.21581244578597,
              26.546471003354167
            ],
            [
              85.21576217965595,
              26.546723708011687
            ],
            [
              85.21572192614805,
              26.547053099242497
            ],
            [
              85.21565158356974,
              26.547409627145427
            ],
            [
              85.21573174742905,
              26.54771651161484
            ],
            [
              85.21574673402297,
              26.54802335910114
            ],
            [
              85.21572150663481,
              26.548307712341465
            ],
            [
              85.21561610730252,
              26.54860550175428
            ],
            [
              85.21547045356405,
              26.548840125728145
            ],
            [
              85.2152596548995,
              26.54904314966348
            ],
            [
              85.21482310780739,
              26.54925516137533
            ],
            [
              85.21436642228325,
              26.549291165341753
            ],
            [
              85.21405035813535,
              26.5492684696011
            ],
            [
              85.21344329822593,
              26.54910133035584
            ],
            [
              85.213182332246,
              26.549042658670103
            ],
            [
              85.21297166293883,
              26.549042587150595
            ],
            [
              85.21283610985739,
              26.54908767978155
            ],
            [
              85.21268055578616,
              26.549290699260673
            ],
            [
              85.21231407459126,
              26.54982308477948
            ],
            [
              85.21194254755943,
              26.550508942784948
            ],
            [
              85.21169141633523,
              26.550982734722794
            ],
            [
              85.21143039376146,
              26.551253492986966
            ],
            [
              85.21103391961587,
              26.551469958030545
            ],
            [
              85.21045682570765,
              26.551596178358306
            ],
            [
              85.20948334389215,
              26.551893764767176
            ],
            [
              85.20872049634951,
              26.55215075174233
            ],
            [
              85.20819349339988,
              26.552552184708556
            ],
            [
              85.2077165769172,
              26.55298986094659
            ],
            [
              85.20733497168621,
              26.55363048864918
            ],
            [
              85.20690312278302,
              26.554659359283765
            ],
            [
              85.20568871819822,
              26.554866561816375
            ],
            [
              85.20501123037049,
              26.554943004212188
            ],
            [
              85.20405268214826,
              26.55506457781837
            ],
            [
              85.20304408967985,
              26.555163516184308
            ],
            [
              85.20270284216132,
              26.555213040378217
            ],
            [
              85.20254221530367,
              26.55528067326732
            ],
            [
              85.20230132038213,
              26.55547915460999
            ],
            [
              85.20229111372389,
              26.555808645238628
            ],
            [
              85.20222066783931,
              26.556250836185345
            ],
            [
              85.20215526330011,
              26.55663893617704
            ],
            [
              85.20204476872352,
              26.556851027857054
            ],
            [
              85.20182894488323,
              26.557072048813403
            ],
            [
              85.2015176912137,
              26.557283999073974
            ],
            [
              85.20119654709288,
              26.557392205061994
            ],
            [
              85.20029825516498,
              26.557558866977153
            ],
            [
              85.19905864205664,
              26.557766024896104
            ],
            [
              85.19816026209382,
              26.558022949692912
            ],
            [
              85.19728193881635,
              26.5583971692322
            ],
            [
              85.19616778621725,
              26.558811966992607
            ],
            [
              85.19415002096875,
              26.559573824040438
            ],
            [
              85.19310104922835,
              26.55998413715354
            ],
            [
              85.1924987018809,
              26.560326817318785
            ],
            [
              85.19211725295673,
              26.560534265926655
            ],
            [
              85.19179600013976,
              26.560710087282978
            ],
            [
              85.19157513675076,
              26.56079130022355
            ],
            [
              85.19146499700874,
              26.56023612422229
            ],
            [
              85.19128974557825,
              26.55959522890163
            ],
            [
              85.19105959181258,
              26.558241355325215
            ],
            [
              85.19060839768976,
              26.55733861031454
            ],
            [
              85.19059346319818,
              26.557009127297537
            ],
            [
              85.19074415558707,
              26.55685119820648
            ],
            [
              85.1909750217168,
              26.55675207809095
            ],
            [
              85.19160730272613,
              26.556698177700472
            ],
            [
              85.19203388211184,
              26.556698298230877
            ],
            [
              85.1923550352158,
              26.556590204083026
            ],
            [
              85.19265123042624,
              26.55645486909875
            ],
            [
              85.19278673499863,
              26.556283455055524
            ],
            [
              85.19285716740849,
              26.556039755052744
            ],
            [
              85.192797101557,
              26.555687750612012
            ],
            [
              85.19258670982926,
              26.555033295705
            ],
            [
              85.19237614382835,
              26.554514299047494
            ],
            [
              85.1920803402834,
              26.553972638176695
            ],
            [
              85.19194539895467,
              26.553051953785655
            ],
            [
              85.19103708991301,
              26.553173440201896
            ],
            [
              85.19028426936559,
              26.5533265738933
            ],
            [
              85.18852296684253,
              26.553506311599666
            ],
            [
              85.18800604478699,
              26.55350604481823
            ],
            [
              85.18764488611016,
              26.55340666708209
            ],
            [
              85.18737398655983,
              26.553280189197515
            ],
            [
              85.18705792959848,
              26.553067880378105
            ],
            [
              85.18677191589347,
              26.552982022197376
            ],
            [
              85.1856378180001,
              26.553189169905075
            ],
            [
              85.18507069359494,
              26.553297206189228
            ],
            [
              85.18413735299788,
              26.553454723129224
            ],
            [
              85.18333933371693,
              26.553576193047547
            ],
            [
              85.182983024146,
              26.553652765676507
            ],
            [
              85.18226544540548,
              26.553769728235565
            ],
            [
              85.18165324803091,
              26.55379651881288
            ],
            [
              85.18110625127802,
              26.553863938791743
            ],
            [
              85.18013272634334,
              26.5539672736415
            ],
            [
              85.17944024024366,
              26.553917299721853
            ],
            [
              85.17918936773427,
              26.553890077663265
            ],
            [
              85.17872272169024,
              26.553813121896376
            ],
            [
              85.17829628334005,
              26.55369103670425
            ],
            [
              85.17791497814633,
              26.553659291366966
            ],
            [
              85.17751858934068,
              26.553659054317507
            ],
            [
              85.17723748313209,
              26.55375824862392
            ],
            [
              85.1766050350361,
              26.553988038312593
            ],
            [
              85.17623867241882,
              26.554091614116835
            ],
            [
              85.17595268925656,
              26.554136585032616
            ],
            [
              85.17568667743967,
              26.554109396775377
            ],
            [
              85.17551122837983,
              26.553897205203494
            ],
            [
              85.1753457631961,
              26.55364888610073
            ],
            [
              85.1750649282787,
              26.553481766901182
            ],
            [
              85.17485426705638,
              26.553341774833186
            ],
            [
              85.17463851418299,
              26.553264981821
            ],
            [
              85.17435259030954,
              26.553206153160744
            ],
            [
              85.17403650190715,
              26.553142797207137
            ],
            [
              85.17385084888402,
              26.55306142215317
            ],
            [
              85.17373546926892,
              26.5529620809955
            ],
            [
              85.17361030071218,
              26.552605503660246
            ],
            [
              85.1734702839021,
              26.551865332051637
            ],
            [
              85.17326998833984,
              26.551265086956924
            ],
            [
              85.17296937701148,
              26.550515770800228
            ],
            [
              85.17277907430844,
              26.549992214251834
            ],
            [
              85.17233311466877,
              26.54912098936574
            ],
            [
              85.17219281309274,
              26.5488095378267
            ],
            [
              85.17181694989304,
              26.548118836828664
            ],
            [
              85.17212341015221,
              26.547500746654205
            ],
            [
              85.17249540520633,
              26.546575817074785
            ],
            [
              85.17259630487735,
              26.545777072213347
            ],
            [
              85.17254695772382,
              26.544445806093414
            ],
            [
              85.1710262958991,
              26.54498649137242
            ],
            [
              85.16916929584883,
              26.545757174760784
            ],
            [
              85.1675078132218,
              26.546591043017845
            ],
            [
              85.16550013425734,
              26.547569186889167
            ],
            [
              85.16383875673323,
              26.548213543024904
            ],
            [
              85.16147955711664,
              26.549326712055407
            ],
            [
              85.16046090531368,
              26.549479539092694
            ],
            [
              85.15947240636156,
              26.54946085489518
            ],
            [
              85.15832349165588,
              26.54921639224923
            ],
            [
              85.157450663373,
              26.548899978796033
            ],
            [
              85.15669350306443,
              26.5482631168293
            ],
            [
              85.15596673096526,
              26.547364655198486
            ],
            [
              85.15556075983051,
              26.546854436163656
            ],
            [
              85.155526077674,
              26.546236109342118
            ],
            [
              85.15558190437565,
              26.545450916689727
            ],
            [
              85.15571275297994,
              26.544968111817877
            ],
            [
              85.1559539973461,
              26.544485443940168
            ],
            [
              85.1562855197034,
              26.544016368153425
            ],
            [
              85.15715927864092,
              26.543218131845155
            ],
            [
              85.15810288069345,
              26.542735884940086
            ],
            [
              85.15884597607965,
              26.542136194788473
            ],
            [
              85.1591070893833,
              26.541933247830013
            ],
            [
              85.1591974805621,
              26.541766292375698
            ],
            [
              85.1592177393684,
              26.541500057919123
            ],
            [
              85.15873672207648,
              26.540714511385342
            ],
            [
              85.15745804842294,
              26.5397660450919
            ],
            [
              85.15588378682014,
              26.53836150100435
            ],
            [
              85.15484622098889,
              26.53714236013893
            ],
            [
              85.15438551640217,
              26.5360905616691
            ],
            [
              85.15416071120569,
              26.53489002297013
            ],
            [
              85.15412709894271,
              26.533120946820816
            ],
            [
              85.15399764991363,
              26.53192048796366
            ],
            [
              85.1539081947793,
              26.530918577366947
            ],
            [
              85.1535726560544,
              26.53016916928292
            ],
            [
              85.15300146138269,
              26.529302370266198
            ],
            [
              85.15111517086424,
              26.527967215779746
            ],
            [
              85.15106683431543,
              26.527904016277738
            ],
            [
              85.15101622502895,
              26.527572567948322
            ],
            [
              85.15085636892583,
              26.52688648117991
            ],
            [
              85.15057206830807,
              26.524923198185437
            ],
            [
              85.15035730986975,
              26.523817461098428
            ],
            [
              85.15018355143927,
              26.521646618297545
            ],
            [
              85.14996383340224,
              26.520531839974826
            ],
            [
              85.14972475577252,
              26.518527947865277
            ],
            [
              85.14943026915776,
              26.51691217801228
            ],
            [
              85.14903516943458,
              26.515463237110083
            ],
            [
              85.1475651348626,
              26.51579610779839
            ],
            [
              85.14617545099955,
              26.516029794086155
            ],
            [
              85.14481087504866,
              26.516209361940145
            ],
            [
              85.14323034230686,
              26.516564686711835
            ],
            [
              85.14121821578344,
              26.51720397369173
            ],
            [
              85.1388547536608,
              26.518046077875276
            ],
            [
              85.1373996445973,
              26.518433021037406
            ],
            [
              85.13643618708203,
              26.51872560379354
            ],
            [
              85.13443890611698,
              26.51951826333614
            ],
            [
              85.13298350689762,
              26.520085624996597
            ],
            [
              85.13193953697669,
              26.520671417941593
            ],
            [
              85.13138732191028,
              26.520995944699095
            ],
            [
              85.13084517156832,
              26.521374524197306
            ],
            [
              85.13062905667391,
              26.52174895091831
            ],
            [
              85.13058830010948,
              26.52234906028783
            ],
            [
              85.13066764111201,
              26.523224698634884
            ],
            [
              85.13087239501303,
              26.524163491711164
            ],
            [
              85.13072142055312,
              26.5246462073032
            ],
            [
              85.13037002925836,
              26.524858048695034
            ],
            [
              85.12981813309389,
              26.524880181007326
            ],
            [
              85.12890011955221,
              26.52487933786402
            ],
            [
              85.12807747295774,
              26.52474782672636
            ],
            [
              85.12753582836731,
              26.52463903936484
            ],
            [
              85.12696895908367,
              26.524647572088885
            ],
            [
              85.12646703709676,
              26.524868290998548
            ],
            [
              85.12609029085311,
              26.525368883172963
            ],
            [
              85.12552220525059,
              26.52640181305876
            ],
            [
              85.12491446172325,
              26.527069156206334
            ],
            [
              85.12444243566898,
              26.527470350631344
            ],
            [
              85.12356420401966,
              26.52774036708508
            ],
            [
              85.12311785720613,
              26.52768135735209
            ],
            [
              85.12263188840036,
              26.52708514427603
            ],
            [
              85.12222644008507,
              26.52625900937891
            ],
            [
              85.12182540339617,
              26.525951716270615
            ],
            [
              85.12095734876071,
              26.52610893720603
            ],
            [
              85.11935144490032,
              26.526549684188378
            ],
            [
              85.11752488606007,
              26.52700829912417
            ],
            [
              85.11420273737467,
              26.527871681897047
            ],
            [
              85.11360544125407,
              26.528173413638257
            ],
            [
              85.11328414891122,
              26.52833104465031
            ],
            [
              85.11301277325377,
              26.528696389010534
            ],
            [
              85.11273122597238,
              26.529192547196086
            ],
            [
              85.11229450730205,
              26.529458295022728
            ],
            [
              85.11190304575574,
              26.52959336930731
            ],
            [
              85.11133604082649,
              26.529664974848952
            ],
            [
              85.11079900189851,
              26.529799830277195
            ],
            [
              85.11062333275146,
              26.529885435759827
            ],
            [
              85.11016111180854,
              26.53042199263429
            ],
            [
              85.10994975529015,
              26.530954317843783
            ],
            [
              85.10912429786715,
              26.533196326751753
            ],
            [
              85.10907243543086,
              26.53456366610891
            ],
            [
              85.10919720603394,
              26.535123392314404
            ],
            [
              85.1097734222881,
              26.535751293841916
            ],
            [
              85.11028489785805,
              26.53594578495148
            ],
            [
              85.11112290474556,
              26.53586092177
            ],
            [
              85.11182516810881,
              26.53595633327186
            ],
            [
              85.1122561779855,
              26.53628622637889
            ],
            [
              85.11254156107317,
              26.53680997086628
            ],
            [
              85.11272658078406,
              26.537333586786367
            ],
            [
              85.11326321636847,
              26.537532674619957
            ],
            [
              85.113629465798,
              26.537555589673904
            ],
            [
              85.1140961405881,
              26.537483849217253
            ],
            [
              85.11458301669232,
              26.53729927802916
            ],
            [
              85.11540110074348,
              26.537065421262202
            ],
            [
              85.11592799320033,
              26.536939532933733
            ],
            [
              85.11624920828805,
              26.536863153278915
            ],
            [
              85.11648490735398,
              26.536949127201037
            ],
            [
              85.11686575710182,
              26.537328496328634
            ],
            [
              85.11713547896083,
              26.5383757756953
            ],
            [
              85.11778090232279,
              26.540019016065386
            ],
            [
              85.12094253913493,
              26.539317902978013
            ],
            [
              85.12174052966981,
              26.53909304408009
            ],
            [
              85.12311071739626,
              26.53866100714724
            ],
            [
              85.1241094670241,
              26.538427175658565
            ],
            [
              85.12547442565729,
              26.538162118056256
            ],
            [
              85.1263524515924,
              26.538158405118967
            ],
            [
              85.12754134312482,
              26.538353481234335
            ],
            [
              85.128614615192,
              26.53871990113259
            ],
            [
              85.12962252494079,
              26.53927589737565
            ],
            [
              85.13144204997235,
              26.5410193829554
            ],
            [
              85.13232893419448,
              26.542130240632726
            ],
            [
              85.13303019324124,
              26.543272576201115
            ],
            [
              85.1331499674147,
              26.54395860276659
            ],
            [
              85.13338510593191,
              26.544590605032443
            ],
            [
              85.13403620395151,
              26.545764482815855
            ],
            [
              85.13472809626481,
              26.546265932893917
            ],
            [
              85.13588166244702,
              26.546826497219474
            ],
            [
              85.1376772365965,
              26.54756346123789
            ],
            [
              85.13866529537411,
              26.54799297429192
            ],
            [
              85.13886573376853,
              26.548227760238117
            ],
            [
              85.13884046415957,
              26.54839928114946
            ],
            [
              85.13834347841518,
              26.548642598007095
            ],
            [
              85.13758060302474,
              26.548899143865157
            ],
            [
              85.1366621025962,
              26.549178275624165
            ],
            [
              85.13613489662728,
              26.549534376644317
            ],
            [
              85.13589831631407,
              26.55024266674707
            ],
            [
              85.13561188040092,
              26.550657583209734
            ],
            [
              85.13516008440683,
              26.550905478877517
            ],
            [
              85.13451767938425,
              26.55102224093443
            ],
            [
              85.13387538036281,
              26.55105332887333
            ],
            [
              85.13345869232671,
              26.551233540234403
            ],
            [
              85.13326760000452,
              26.55167109132755
            ],
            [
              85.13335192306363,
              26.55256016009324
            ],
            [
              85.133431038589,
              26.553787747993194
            ],
            [
              85.1332148778805,
              26.55413953005848
            ],
            [
              85.13282329775657,
              26.55435130574513
            ],
            [
              85.13223100255716,
              26.55449070918416
            ],
            [
              85.13144318634119,
              26.554458461044852
            ],
            [
              85.13056502116719,
              26.554489348771206
            ],
            [
              85.13031386479015,
              26.554755410041484
            ],
            [
              85.13021789597175,
              26.555323907254166
            ],
            [
              85.13022716928042,
              26.556113662300266
            ],
            [
              85.13060794626473,
              26.55665549867207
            ],
            [
              85.13111922779858,
              26.557211002983376
            ],
            [
              85.13119885356704,
              26.557842942654204
            ],
            [
              85.13128326825428,
              26.558732006143757
            ],
            [
              85.13140276125509,
              26.55962562429585
            ],
            [
              85.13155774579442,
              26.560162801375327
            ],
            [
              85.1318380929266,
              26.56086702113669
            ],
            [
              85.13193771339668,
              26.561575597979978
            ],
            [
              85.13183604386944,
              26.561596942204694
            ],
            [
              85.13058775303547,
              26.561610625036618
            ],
            [
              85.12924265794983,
              26.561780930317614
            ],
            [
              85.1283043209232,
              26.561780094677058
            ],
            [
              85.12760174943777,
              26.561779542672177
            ],
            [
              85.12576772559754,
              26.56157760512792
            ],
            [
              85.12522320100828,
              26.561624042711372
            ],
            [
              85.12384306174512,
              26.561740144622725
            ],
            [
              85.12239252869963,
              26.561937396675418
            ],
            [
              85.12070119864902,
              26.56213900977601
            ],
            [
              85.11978769375176,
              26.56226898836534
            ],
            [
              85.11904955886257,
              26.562651887048183
            ],
            [
              85.1187381497845,
              26.562926888314298
            ],
            [
              85.11924941425036,
              26.563459882224663
            ],
            [
              85.1193796367289,
              26.56371722894453
            ],
            [
              85.11937925224993,
              26.56402411475709
            ],
            [
              85.11930869766924,
              26.56430385006532
            ],
            [
              85.11916290918346,
              26.564484181205223
            ],
            [
              85.11872584376343,
              26.564944100376756
            ],
            [
              85.11835417839104,
              26.56521453560987
            ],
            [
              85.11699737376568,
              26.566747596224182
            ],
            [
              85.11624414178982,
              26.567135020312215
            ],
            [
              85.11554124241935,
              26.567441204388306
            ],
            [
              85.11495865261827,
              26.567774648997013
            ],
            [
              85.11450645867056,
              26.56822547832672
            ],
            [
              85.11429501142233,
              26.568766809112535
            ],
            [
              85.11414312786735,
              26.569903927661453
            ],
            [
              85.11402208167945,
              26.570436325907302
            ],
            [
              85.11367503104417,
              26.571121854090876
            ],
            [
              85.11322285236781,
              26.571505046171218
            ],
            [
              85.11254484531386,
              26.571924131791626
            ],
            [
              85.11224825304808,
              26.572338956111604
            ],
            [
              85.11223736277189,
              26.572984337971608
            ],
            [
              85.11247279863144,
              26.573381611778437
            ],
            [
              85.11313950577741,
              26.574063767278428
            ],
            [
              85.11412712527888,
              26.5749762439738
            ],
            [
              85.11462337709972,
              26.575509279044446
            ],
            [
              85.11488360196954,
              26.576172860130065
            ],
            [
              85.11507358397402,
              26.576741657614335
            ],
            [
              85.1156901786019,
              26.577360473033227
            ],
            [
              85.11622683844082,
              26.577672360354416
            ],
            [
              85.11667832810939,
              26.57794810324674
            ],
            [
              85.11708429295595,
              26.578386174970078
            ],
            [
              85.11741507779637,
              26.578837835813633
            ],
            [
              85.11747402165206,
              26.579893805277656
            ],
            [
              85.11734204835705,
              26.58122947665825
            ],
            [
              85.11733051039552,
              26.582465978353294
            ],
            [
              85.11760043796873,
              26.583449997012924
            ],
            [
              85.11823178023863,
              26.58436672090499
            ],
            [
              85.11919420019973,
              26.585536429281017
            ],
            [
              85.12015683395988,
              26.58645786806637
            ],
            [
              85.12073841315629,
              26.587031521967575
            ],
            [
              85.12159547510763,
              26.588155982084338
            ],
            [
              85.12236766962079,
              26.588932913309673
            ],
            [
              85.12305944784805,
              26.589705201784188
            ],
            [
              85.12402786675862,
              26.590021986151452
            ],
            [
              85.12478524535783,
              26.590568710888654
            ],
            [
              85.12512084965975,
              26.59121885315416
            ],
            [
              85.1252405465781,
              26.591963562959496
            ],
            [
              85.12586188520899,
              26.592956859021992
            ],
            [
              85.12700550793933,
              26.59374765273576
            ],
            [
              85.12930314780613,
              26.595071880604845
            ],
            [
              85.13056721305651,
              26.595876186626572
            ],
            [
              85.1315099140988,
              26.596847249990585
            ],
            [
              85.1322316448526,
              26.59759572495112
            ],
            [
              85.13250280491434,
              26.597876930938327
            ],
            [
              85.13327530126146,
              26.598468757214594
            ],
            [
              85.13415334695952,
              26.59886665186107
            ],
            [
              85.13476057934548,
              26.599047616151445
            ],
            [
              85.13498113461235,
              26.599350105155747
            ],
            [
              85.13503100368705,
              26.5997292227432
            ],
            [
              85.13488002563388,
              26.600049593105734
            ],
            [
              85.1345585715943,
              26.600229802094688
            ],
            [
              85.13390067602292,
              26.60053614266804
            ],
            [
              85.13367943444318,
              26.60084280371174
            ],
            [
              85.13347281024973,
              26.601663984196946
            ],
            [
              85.1334216278381,
              26.602620665892626
            ],
            [
              85.13345530927134,
              26.60412793365601
            ],
            [
              85.13350481722328,
              26.604750711809135
            ],
            [
              85.13371043799856,
              26.604990109858697
            ],
            [
              85.13407681768382,
              26.60511226005144
            ],
            [
              85.13438297790567,
              26.605112440770657
            ],
            [
              85.13475445103862,
              26.60511278132597
            ],
            [
              85.13556269674076,
              26.605113434324753
            ],
            [
              85.13601932477276,
              26.60537100791291
            ],
            [
              85.13632515980447,
              26.605781941667356
            ],
            [
              85.13630436470395,
              26.606467845347694
            ],
            [
              85.13652407824941,
              26.607654877297136
            ],
            [
              85.13685885160972,
              26.609248145384104
            ],
            [
              85.13714428679968,
              26.610051627295768
            ],
            [
              85.13775137455688,
              26.610404188295902
            ],
            [
              85.13830852856071,
              26.61049486093638
            ],
            [
              85.13891613913742,
              26.610373444154458
            ],
            [
              85.139709515925,
              26.61019357562183
            ],
            [
              85.14035215091631,
              26.610175991216984
            ],
            [
              85.14065330213216,
              26.61022140996066
            ],
            [
              85.14100929639444,
              26.610745152229445
            ],
            [
              85.14117946066544,
              26.611340963037623
            ],
            [
              85.14155001033025,
              26.61235658618585
            ],
            [
              85.14230604774471,
              26.612876352760953
            ],
            [
              85.14316356693851,
              26.612742497823948
            ],
            [
              85.14481076814914,
              26.612676978207094
            ],
            [
              85.14623067313498,
              26.612695489857867
            ],
            [
              85.14634471336201,
              26.61362532439806
            ],
            [
              85.14665252019579,
              26.614557775203675
            ],
            [
              85.14709298484084,
              26.615259797181306
            ],
            [
              85.14785540837866,
              26.616024050232458
            ],
            [
              85.1488436378362,
              26.616791239180575
            ],
            [
              85.14974116709446,
              26.61718012423087
            ],
            [
              85.15125231665868,
              26.617547916706858
            ],
            [
              85.15289259455338,
              26.617917372036562
            ],
            [
              85.15379667342837,
              26.61790013736774
            ],
            [
              85.15476903504475,
              26.617651626164996
            ],
            [
              85.1559583523786,
              26.617957153914777
            ],
            [
              85.15681401655137,
              26.618954637321142
            ],
            [
              85.15737959585427,
              26.619919381992954
            ],
            [
              85.15720801134677,
              26.620555496163853
            ],
            [
              85.15700176983562,
              26.621336123202408
            ],
            [
              85.15699385657629,
              26.621829304786267
            ],
            [
              85.15698548337954,
              26.622351366051284
            ],
            [
              85.1578101511834,
              26.62326142920542
            ],
            [
              85.15837994089001,
              26.623965185358593
            ],
            [
              85.15970542844792,
              26.623837291706696
            ],
            [
              85.16158010015647,
              26.623687423617234
            ],
            [
              85.16306657299984,
              26.623590556142144
            ],
            [
              85.16432841761481,
              26.623403757847775
            ],
            [
              85.16598179743795,
              26.622960868975028
            ],
            [
              85.16635712614008,
              26.623720036928244
            ],
            [
              85.1674409561068,
              26.62457543776527
            ],
            [
              85.16798403440842,
              26.62493057917541
            ],
            [
              85.16848656006322,
              26.625807369055774
            ],
            [
              85.16937452316198,
              26.626805286665746
            ],
            [
              85.17032521921031,
              26.627919994844998
            ],
            [
              85.170837936252,
              26.62815874933833
            ],
            [
              85.17161250860572,
              26.628168710179548
            ],
            [
              85.17261300815174,
              26.628181573186577
            ],
            [
              85.17373617893799,
              26.628602186615158
            ],
            [
              85.17453709528576,
              26.628989590850352
            ],
            [
              85.17549431220472,
              26.629698166813217
            ],
            [
              85.17597103195632,
              26.630168505730946
            ],
            [
              85.17618636531647,
              26.6308385842362
            ],
            [
              85.1765681358375,
              26.631191623969414
            ],
            [
              85.17691813474354,
              26.631515283653275
            ],
            [
              85.17785317764805,
              26.63158531021058
            ],
            [
              85.17895015086566,
              26.63162833872031
            ],
            [
              85.18001525095872,
              26.63164197704569
            ],
            [
              85.18107897213775,
              26.631742692944766
            ],
            [
              85.18229166812692,
              26.632628522162367
            ],
            [
              85.18391484569189,
              26.634099978360563
            ],
            [
              85.1843221059091,
              26.634888484139605
            ],
            [
              85.1847343140469,
              26.63535797220905
            ],
            [
              85.18534756873856,
              26.635365801303188
            ],
            [
              85.18598949406079,
              26.635606061086833
            ],
            [
              85.18653634708326,
              26.635729117255025
            ],
            [
              85.18750697584943,
              26.635596442161454
            ],
            [
              85.18819739941723,
              26.634930950117383
            ],
            [
              85.18845772669499,
              26.634680021208126
            ],
            [
              85.18806793242184,
              26.632789178905185
            ],
            [
              85.18713488018405,
              26.63054326435217
            ],
            [
              85.1869895417542,
              26.62952594698253
            ],
            [
              85.18677689256013,
              26.628681889875168
            ],
            [
              85.18726693163246,
              26.62831101825617
            ],
            [
              85.1885007910314,
              26.62786251830914
            ],
            [
              85.18914578320205,
              26.62789970693367
            ],
            [
              85.18947764961408,
              26.62732371874772
            ],
            [
              85.18937697272526,
              26.625523576043967
            ],
            [
              85.18894296517043,
              26.624386504937824
            ],
            [
              85.18900273367956,
              26.62264653203451
            ],
            [
              85.18907278340711,
              26.622299277763
            ],
            [
              85.19011196979913,
              26.621906230102418
            ],
            [
              85.1915343092194,
              26.621779269734294
            ],
            [
              85.19166506799215,
              26.621735766108383
            ],
            [
              85.19296212027807,
              26.621304219136405
            ],
            [
              85.19451985287965,
              26.620772763401572
            ],
            [
              85.19671488807305,
              26.620771548331653
            ],
            [
              85.19890765142706,
              26.620915413967644
            ],
            [
              85.19941652098436,
              26.620944715342656
            ],
            [
              85.1995527091747,
              26.62095255666752
            ],
            [
              85.19977335786635,
              26.621202042865896
            ],
            [
              85.19983818658548,
              26.621275342684466
            ],
            [
              85.19982318741518,
              26.62223258390361
            ],
            [
              85.19944859533159,
              26.623475469393004
            ],
            [
              85.19990403040087,
              26.625308988796338
            ],
            [
              85.20025414429128,
              26.627692505672318
            ],
            [
              85.20047282926572,
              26.63091606479613
            ],
            [
              85.20092902161474,
              26.63140917934471
            ],
            [
              85.20238938492436,
              26.631762100878582
            ],
            [
              85.20245542906407,
              26.631807202691
            ],
            [
              85.20363129861816,
              26.63261020726325
            ],
            [
              85.20441893337443,
              26.632761915374658
            ],
            [
              85.20595254082076,
              26.632812982293913
            ],
            [
              85.20742404773146,
              26.63236710175348
            ],
            [
              85.20772738005684,
              26.63220305492797
            ],
            [
              85.20803071238217,
              26.632039007063906
            ],
            [
              85.20884508998446,
              26.63157284909202
            ],
            [
              85.20930103619511,
              26.631317457694397
            ],
            [
              85.21004386388334,
              26.631297836886706
            ],
            [
              85.21149267216347,
              26.631548138845723
            ],
            [
              85.21403713493439,
              26.631928362230706
            ],
            [
              85.21411925262946,
              26.63494674728044
            ],
            [
              85.21429311167122,
              26.636225536162172
            ],
            [
              85.21548020208152,
              26.636704672097505
            ],
            [
              85.21690091105953,
              26.636693433664767
            ],
            [
              85.21787536305558,
              26.636407974211682
            ],
            [
              85.21823056590208,
              26.636303917221465
            ],
            [
              85.21881788623146,
              26.63620092408251
            ],
            [
              85.22023770408072,
              26.635951933947176
            ],
            [
              85.22227347156748,
              26.63583235010764
            ],
            [
              85.22324532294076,
              26.635612339605267
            ],
            [
              85.22489286371456,
              26.635545905651988
            ],
            [
              85.22579709889638,
              26.6355281292191
            ],
            [
              85.22644932609833,
              26.63510110214256
            ],
            [
              85.2273334147633,
              26.63429974675603
            ],
            [
              85.22805646424392,
              26.633467403706664
            ],
            [
              85.22812998685832,
              26.63288800834571
            ],
            [
              85.22745440166238,
              26.630645538270002
            ],
            [
              85.22712664504276,
              26.628871633085847
            ],
            [
              85.22686983107607,
              26.626692421163785
            ],
            [
              85.22691258729037,
              26.62601113989441
            ],
            [
              85.22695534170799,
              26.62532985777598
            ],
            [
              85.2271570970326,
              26.62272110620648
            ],
            [
              85.22737261814063,
              26.621302123090274
            ],
            [
              85.2277364960178,
              26.618637347603244
            ],
            [
              85.22786783600056,
              26.616404930010702
            ],
            [
              85.22738412016949,
              26.614280930269224
            ],
            [
              85.22715094536954,
              26.61265325575794
            ],
            [
              85.22722802980404,
              26.611841833718707
            ],
            [
              85.22746600879417,
              26.61106148078663
            ],
            [
              85.22837809884484,
              26.610521594874673
            ],
            [
              85.22966858534436,
              26.61056663519357
            ],
            [
              85.2315088911034,
              26.610531484968522
            ],
            [
              85.23331384995264,
              26.61069896828486
            ],
            [
              85.2349525728636,
              26.611183543376995
            ],
            [
              85.23630040511591,
              26.611693558614196
            ],
            [
              85.23689931281415,
              26.612629360628
            ],
            [
              85.2373628830266,
              26.61396976593691
            ],
            [
              85.23769388525933,
              26.61554059834051
            ],
            [
              85.23953383079396,
              26.61553440786604
            ],
            [
              85.2406934866555,
              26.61569381328026
            ],
            [
              85.24136278005118,
              26.616253339125944
            ],
            [
              85.24240204100337,
              26.617948999976086
            ],
            [
              85.24258098271302,
              26.618908654254817
            ],
            [
              85.24302350090682,
              26.61952341091343
            ],
            [
              85.24430912392737,
              26.61988744139236
            ],
            [
              85.24498687855474,
              26.619895805603115
            ],
            [
              85.24497801667444,
              26.62047601210152
            ],
            [
              85.2448277213409,
              26.621866770026905
            ],
            [
              85.24477234289856,
              26.62337477993654
            ],
            [
              85.24509903411625,
              26.62523574697526
            ],
            [
              85.24516631074451,
              26.625336478157234
            ],
            [
              85.24550935489364,
              26.625850101006233
            ],
            [
              85.24653236711897,
              26.626500984725457
            ],
            [
              85.25000413380822,
              26.628756077063635
            ],
            [
              85.25012876157916,
              26.628868120634174
            ],
            [
              85.25100806491861,
              26.6293196906199
            ],
            [
              85.25168718139194,
              26.629294082905556
            ],
            [
              85.25327531388108,
              26.629008304632016
            ],
            [
              85.25542952423804,
              26.628695409703678
            ],
            [
              85.25629535913643,
              26.628790673215892
            ],
            [
              85.25672287007508,
              26.629202884737264
            ],
            [
              85.25667533123024,
              26.63046549525583
            ],
            [
              85.25676884495302,
              26.631755239163766
            ],
            [
              85.25677662616002,
              26.632484493003627
            ],
            [
              85.25705365042396,
              26.634734463033407
            ],
            [
              85.2569284692908,
              26.635529784166724
            ],
            [
              85.25729186387437,
              26.636432893786722
            ],
            [
              85.25742898271932,
              26.637333226823063
            ],
            [
              85.25776477476919,
              26.638193610926475
            ],
            [
              85.25772076810003,
              26.638600077863167
            ],
            [
              85.25724557368777,
              26.638848564391473
            ],
            [
              85.25639160643259,
              26.63921117872348
            ],
            [
              85.25461328802142,
              26.63959644806366
            ],
            [
              85.25299967931085,
              26.640305958717867
            ],
            [
              85.25251853805143,
              26.64094438189177
            ],
            [
              85.2522716666383,
              26.64167887807948
            ],
            [
              85.25131373286371,
              26.642667632102825
            ],
            [
              85.25000245575528,
              26.64404669514344
            ],
            [
              85.25000250156936,
              26.64613334760263
            ],
            [
              85.25373284112663,
              26.645901783799314
            ],
            [
              85.25442176630455,
              26.645864970373584
            ],
            [
              85.25691300389487,
              26.645725825152063
            ],
            [
              85.25893088322935,
              26.645716464010516
            ],
            [
              85.26048359065524,
              26.645294784695906
            ],
            [
              85.26273789758939,
              26.64461037939476
            ],
            [
              85.26456396325453,
              26.644476624252018
            ],
            [
              85.26457232836648,
              26.644348384215974
            ],
            [
              85.26454804241276,
              26.643513447868365
            ],
            [
              85.2644284272411,
              26.6425972453984
            ],
            [
              85.26440916376815,
              26.641735363261205
            ],
            [
              85.26441064688669,
              26.641726188074472
            ],
            [
              85.26455060620457,
              26.640859985138377
            ],
            [
              85.26511869989193,
              26.640178959374268
            ],
            [
              85.26581197022088,
              26.639944864637418
            ],
            [
              85.26582005595675,
              26.639944451117234
            ],
            [
              85.26582830698266,
              26.639941664071486
            ],
            [
              85.26660582940376,
              26.63990186174267
            ],
            [
              85.26697705011009,
              26.639796862859757
            ],
            [
              85.26711795086241,
              26.63949455633574
            ],
            [
              85.26721373642452,
              26.63912917430581
            ],
            [
              85.26733453467742,
              26.63880886365765
            ],
            [
              85.26762133800152,
              26.63820886563767
            ],
            [
              85.26795340922946,
              26.637550206819416
            ],
            [
              85.26807438804374,
              26.636990746689143
            ],
            [
              85.26807518484937,
              26.636178424633403
            ],
            [
              85.26819629930924,
              26.63555583935083
            ],
            [
              85.26855326285371,
              26.635109258069548
            ],
            [
              85.26943232993624,
              26.63476694792557
            ],
            [
              85.2702660734194,
              26.634469772045865
            ],
            [
              85.27147658021421,
              26.63415025614307
            ],
            [
              85.27257148640837,
              26.633830663865144
            ],
            [
              85.27258714224715,
              26.63382690584953
            ],
            [
              85.27261326705224,
              26.633820628838965
            ],
            [
              85.27354618993266,
              26.633596462167933
            ],
            [
              85.27439989757475,
              26.633123474613782
            ],
            [
              85.27518868666617,
              26.6326547056856
            ],
            [
              85.27564088420712,
              26.63233455033252
            ],
            [
              85.27585215718219,
              26.631906012102714
            ],
            [
              85.27599837506264,
              26.631265272312913
            ],
            [
              85.27601889258375,
              26.63075537490491
            ]
          ]
        ]
      }
    }
  ]
}