{
  "type": "FeatureCollection",
  "features": [
    {
      "type": "Feature",
      "properties": {
        "object_id": "10-212-01155",
        "stname": "BIHAR",
        "dtname": "Katihar",
        "sdtname": "Kursela",
        "st_area_sh": 0.0,
        "st_length_": 0.0,
        "remarks": "",
        "dist_lgd": 201,
        "state_lgd": 10,
        "subdt_lgd": 1155,
        "ac_no": null,
        "st_length(shape)": 80348.39413748268,
        "st_area(shape)": 153683091.52761996
      },
      "geometry": {
        "type": "Polygon",
        "coordinates": [
          [
            [
              87.31535506078079,
              25.49288705791164
            ],
            [
              87.31595225539176,
              25.492079446075216
            ],
            [
              87.31630079004391,
              25.491190393605386
            ],
            [
              87.31672869983456,
              25.490721229902185
            ],
            [
              87.31718134293992,
              25.490414473798605
            ],
            [
              87.31816606178134,
              25.49027493825171
            ],
            [
              87.31880744901271,
              25.49059560031542
            ],
            [
              87.31938410903463,
              25.49086217665178
            ],
            [
              87.32036358530803,
              25.491336443386768
            ],
            [
              87.32122385065166,
              25.491512769824254
            ],
            [
              87.32216356389736,
              25.49177491763232
            ],
            [
              87.32308834804132,
              25.492316810396296
            ],
            [
              87.32314291620325,
              25.492492922139892
            ],
            [
              87.32348078515803,
              25.493246737683663
            ],
            [
              87.32395282558531,
              25.494167654145986
            ],
            [
              87.32483317636037,
              25.493978358056218
            ],
            [
              87.32669321271631,
              25.493586304071165
            ],
            [
              87.32775758607228,
              25.49329328705098
            ],
            [
              87.32872256982522,
              25.492657256757585
            ],
            [
              87.32909567519701,
              25.492341412636623
            ],
            [
              87.32968782486935,
              25.491240285345118
            ],
            [
              87.32990693474696,
              25.49059949735476
            ],
            [
              87.3303846812729,
              25.48953445839622
            ],
            [
              87.3293058414476,
              25.48889317315978
            ],
            [
              87.32880872185422,
              25.488441694792797
            ],
            [
              87.32779453916982,
              25.487674041285082
            ],
            [
              87.3269995085838,
              25.486333327220393
            ],
            [
              87.32695499616317,
              25.48565624381646
            ],
            [
              87.32661725656577,
              25.484699315332698
            ],
            [
              87.32638385179709,
              25.483796528936207
            ],
            [
              87.32626002173014,
              25.482722314923908
            ],
            [
              87.32597208742703,
              25.48153061507192
            ],
            [
              87.32568382703555,
              25.481192012881287
            ],
            [
              87.32533086997725,
              25.480876003204603
            ],
            [
              87.32481891201196,
              25.480460601744763
            ],
            [
              87.32405838571603,
              25.479837422662683
            ],
            [
              87.32312378388433,
              25.47915104003705
            ],
            [
              87.32314396274057,
              25.478604986939096
            ],
            [
              87.32304465129094,
              25.478307036864383
            ],
            [
              87.3229555042788,
              25.477499078909315
            ],
            [
              87.32277679882604,
              25.476632406625235
            ],
            [
              87.32277715186397,
              25.475869709768588
            ],
            [
              87.32280739724128,
              25.474962481860075
            ],
            [
              87.32439360194576,
              25.4748953152635
            ],
            [
              87.32515442288913,
              25.47479625375078
            ],
            [
              87.32626325836006,
              25.47472894514046
            ],
            [
              87.32725797365397,
              25.473971059120096
            ],
            [
              87.3285906315645,
              25.473655487049694
            ],
            [
              87.3319420141242,
              25.473318015093817
            ],
            [
              87.33175906413173,
              25.470424847972673
            ],
            [
              87.33396677365548,
              25.470181757697212
            ],
            [
              87.33521986059475,
              25.469798469353215
            ],
            [
              87.33601540591539,
              25.46973549279616
            ],
            [
              87.33598610376914,
              25.468038433615746
            ],
            [
              87.33565354385772,
              25.466241904805305
            ],
            [
              87.33572851904796,
              25.46498723940091
            ],
            [
              87.33363042824341,
              25.465000219321723
            ],
            [
              87.33166169663642,
              25.464819055867736
            ],
            [
              87.33170681541989,
              25.463790020602843
            ],
            [
              87.33143829191344,
              25.46369065472156
            ],
            [
              87.3305633382166,
              25.463568533077286
            ],
            [
              87.33003134961714,
              25.463482632107045
            ],
            [
              87.32917632684152,
              25.463256623200703
            ],
            [
              87.328759378294,
              25.461514293840402
            ],
            [
              87.32864040272281,
              25.460602589227463
            ],
            [
              87.32748678533663,
              25.461184428083893
            ],
            [
              87.32680543834644,
              25.461522676204577
            ],
            [
              87.32597018659192,
              25.461761658094154
            ],
            [
              87.3252243980565,
              25.46184711583022
            ],
            [
              87.32403604191997,
              25.462009230282426
            ],
            [
              87.3230864966135,
              25.46179677635248
            ],
            [
              87.32229607438491,
              25.461769408622224
            ],
            [
              87.32099864211165,
              25.461317542107178
            ],
            [
              87.32012394892622,
              25.46059513466552
            ],
            [
              87.32002008032318,
              25.45937186893852
            ],
            [
              87.32003617004823,
              25.456857906951374
            ],
            [
              87.31991269032423,
              25.45498023733449
            ],
            [
              87.32004289663308,
              25.45297179920814
            ],
            [
              87.32060505964294,
              25.452024148754994
            ],
            [
              87.3206103947374,
              25.451211716884828
            ],
            [
              87.32253446300679,
              25.450941615869457
            ],
            [
              87.32375729378899,
              25.450973714178247
            ],
            [
              87.3248113086714,
              25.450906323293697
            ],
            [
              87.32613875276003,
              25.450581787661417
            ],
            [
              87.3274959768986,
              25.45043332796689
            ],
            [
              87.3291713187338,
              25.45024429235534
            ],
            [
              87.32995190979997,
              25.450032383835463
            ],
            [
              87.33072236517474,
              25.45010037383248
            ],
            [
              87.3312990988585,
              25.449951547718523
            ],
            [
              87.33237309766272,
              25.449441818283315
            ],
            [
              87.33329785395891,
              25.44912621675687
            ],
            [
              87.33430215068364,
              25.44870215774068
            ],
            [
              87.33507768603137,
              25.448517372287913
            ],
            [
              87.3368923601604,
              25.447904000103936
            ],
            [
              87.3378966559868,
              25.44757926170036
            ],
            [
              87.33985553936334,
              25.446753792802244
            ],
            [
              87.34055657922117,
              25.44638385871904
            ],
            [
              87.34132210284503,
              25.446212509154712
            ],
            [
              87.3428086762997,
              25.445608057054898
            ],
            [
              87.3435543121215,
              25.44548638916638
            ],
            [
              87.3440366041228,
              25.445247250041938
            ],
            [
              87.34494137829383,
              25.444832162785293
            ],
            [
              87.34661186024336,
              25.444123943771416
            ],
            [
              87.34733275286898,
              25.44379450814594
            ],
            [
              87.34827735205145,
              25.44326213021677
            ],
            [
              87.34996261577899,
              25.442635100789037
            ],
            [
              87.35095690616974,
              25.44197169725465
            ],
            [
              87.35301502463908,
              25.440825610185286
            ],
            [
              87.35409880969003,
              25.440008826053116
            ],
            [
              87.3552373263963,
              25.439219113151367
            ],
            [
              87.35602777557436,
              25.438718234117445
            ],
            [
              87.35661937098618,
              25.438127072803315
            ],
            [
              87.3583095943124,
              25.43678225173748
            ],
            [
              87.35919443576554,
              25.436154949261255
            ],
            [
              87.3601638347381,
              25.435577354723094
            ],
            [
              87.36079518509284,
              25.43491396910397
            ],
            [
              87.3619334862034,
              25.434146696054263
            ],
            [
              87.36372796620486,
              25.43274773578108
            ],
            [
              87.36467249621708,
              25.431948911827813
            ],
            [
              87.3657859193842,
              25.430807054294643
            ],
            [
              87.36698389198588,
              25.429723839057814
            ],
            [
              87.36792831869184,
              25.42863164935998
            ],
            [
              87.36839558187842,
              25.42807196370349
            ],
            [
              87.3694890840058,
              25.426812779922425
            ],
            [
              87.36997127629414,
              25.426126765023625
            ],
            [
              87.3707416732784,
              25.425296269086278
            ],
            [
              87.36946430308038,
              25.42513830536122
            ],
            [
              87.36827145896068,
              25.424795219399275
            ],
            [
              87.36727746231901,
              25.4245107791903
            ],
            [
              87.36619608295639,
              25.423990808726284
            ],
            [
              87.36619049094377,
              25.423988120016787
            ],
            [
              87.36614555631495,
              25.424041384687612
            ],
            [
              87.36548113538136,
              25.42482897164107
            ],
            [
              87.36475054993382,
              25.42420596938617
            ],
            [
              87.360849292419,
              25.420874689660593
            ],
            [
              87.36194285293688,
              25.41978708095987
            ],
            [
              87.36176394895647,
              25.419615490729505
            ],
            [
              87.35957242887082,
              25.41749843819732
            ],
            [
              87.35724683522898,
              25.41544452873494
            ],
            [
              87.35664547692666,
              25.415485091848737
            ],
            [
              87.35512964534317,
              25.415737641205997
            ],
            [
              87.35175996140619,
              25.41633742038125
            ],
            [
              87.34942402366387,
              25.41685158932011
            ],
            [
              87.34841030001857,
              25.416305303107016
            ],
            [
              87.34712823342824,
              25.4154880979958
            ],
            [
              87.34504099067907,
              25.415343286005925
            ],
            [
              87.34329160161327,
              25.415433171904457
            ],
            [
              87.34269520470627,
              25.415577515622978
            ],
            [
              87.34242678181117,
              25.41577148361215
            ],
            [
              87.34159156059934,
              25.416628885227393
            ],
            [
              87.33935001782707,
              25.416993941060834
            ],
            [
              87.33862944769668,
              25.416759095122153
            ],
            [
              87.3351908998083,
              25.41500693501115
            ],
            [
              87.33035117501113,
              25.41264494799917
            ],
            [
              87.3269228149164,
              25.41093329599885
            ],
            [
              87.32348446555572,
              25.409280102635154
            ],
            [
              87.32026985778626,
              25.407753399624387
            ],
            [
              87.31716864615171,
              25.40834349359544
            ],
            [
              87.31482770928481,
              25.408807455084002
            ],
            [
              87.31386894007701,
              25.408048775192484
            ],
            [
              87.31150453831661,
              25.406115945972683
            ],
            [
              87.30962689228615,
              25.40453090434429
            ],
            [
              87.30920082943173,
              25.40221980688996
            ],
            [
              87.30668600387868,
              25.402769251816782
            ],
            [
              87.3018452028998,
              25.403913411659172
            ],
            [
              87.29863594639447,
              25.402535133651096
            ],
            [
              87.29578933437942,
              25.401310479062396
            ],
            [
              87.29252046118025,
              25.399932004966075
            ],
            [
              87.29263030357993,
              25.399223522107462
            ],
            [
              87.2927120026601,
              25.398671857842224
            ],
            [
              87.29318438624381,
              25.39548206326306
            ],
            [
              87.29320948607118,
              25.39504881824554
            ],
            [
              87.2926883347473,
              25.394181930769687
            ],
            [
              87.291626499132,
              25.392005783939204
            ],
            [
              87.29067360041456,
              25.39034424499282
            ],
            [
              87.2899888038937,
              25.389165846129046
            ],
            [
              87.28966654406531,
              25.388181699694968
            ],
            [
              87.28923504730174,
              25.38703503796921
            ],
            [
              87.28779606479421,
              25.384308015213797
            ],
            [
              87.28672938456461,
              25.382194961094942
            ],
            [
              87.2861092209301,
              25.380903716269383
            ],
            [
              87.28564782194567,
              25.38007750433099
            ],
            [
              87.28489340599026,
              25.379007309649097
            ],
            [
              87.28442733396972,
              25.377707179108477
            ],
            [
              87.28420475569682,
              25.376384541633467
            ],
            [
              87.2843496081381,
              25.37533292364469
            ],
            [
              87.2838443489099,
              25.373418876632186
            ],
            [
              87.28322468833196,
              25.37141765740581
            ],
            [
              87.28322404244327,
              25.371415570597026
            ],
            [
              87.28264501895386,
              25.369545536814275
            ],
            [
              87.28190144476562,
              25.367410147855093
            ],
            [
              87.28065093868616,
              25.365640015937025
            ],
            [
              87.27924169400778,
              25.363504255191252
            ],
            [
              87.27781770168741,
              25.36137293263563
            ],
            [
              87.27555516888022,
              25.358081021192312
            ],
            [
              87.27441734297841,
              25.35837366008018
            ],
            [
              87.2713118499732,
              25.359346409644747
            ],
            [
              87.27109361056313,
              25.35895353024946
            ],
            [
              87.26990312721603,
              25.35698027639215
            ],
            [
              87.27063861297344,
              25.35667838724823
            ],
            [
              87.26963705790696,
              25.35446601419115
            ],
            [
              87.26928485004362,
              25.353933220907315
            ],
            [
              87.26669784934907,
              25.35283448001358
            ],
            [
              87.2633412332045,
              25.351532077329235
            ],
            [
              87.26490872061176,
              25.353871351982814
            ],
            [
              87.26636234565842,
              25.355926080183156
            ],
            [
              87.26764717007669,
              25.35780464203075
            ],
            [
              87.26907105280264,
              25.35989542786266
            ],
            [
              87.27164105827033,
              25.363630004342667
            ],
            [
              87.27311960707455,
              25.365747828944556
            ],
            [
              87.2744643868515,
              25.367630914342406
            ],
            [
              87.27533270379506,
              25.368944956903285
            ],
            [
              87.27592318439758,
              25.369717229087808
            ],
            [
              87.277183614166,
              25.371491896964116
            ],
            [
              87.27628913917971,
              25.371847847679486
            ],
            [
              87.27297946539868,
              25.372960450188568
            ],
            [
              87.26955041090622,
              25.37414507917316
            ],
            [
              87.2661461777634,
              25.375392797922462
            ],
            [
              87.26279652086735,
              25.37653676030768
            ],
            [
              87.26126089490661,
              25.377068143973066
            ],
            [
              87.25996873035416,
              25.377523045336112
            ],
            [
              87.25925313419546,
              25.377621746929726
            ],
            [
              87.25727537362154,
              25.37808062967444
            ],
            [
              87.25494951228177,
              25.37874219416244
            ],
            [
              87.25175877634263,
              25.379777714911466
            ],
            [
              87.24999938094291,
              25.38034964138861
            ],
            [
              87.24754915414027,
              25.381146215652105
            ],
            [
              87.24683580197315,
              25.3810925992817
            ],
            [
              87.24456089038132,
              25.381739916631037
            ],
            [
              87.24447121336314,
              25.3814872100813
            ],
            [
              87.24417729628028,
              25.38066149072392
            ],
            [
              87.24382872839047,
              25.37984480062382
            ],
            [
              87.24316250274148,
              25.379443591684133
            ],
            [
              87.24273499809102,
              25.379213746903208
            ],
            [
              87.24138305155473,
              25.378646141000154
            ],
            [
              87.23947453491954,
              25.377866760023213
            ],
            [
              87.23869920259108,
              25.377573983286755
            ],
            [
              87.2383756680533,
              25.377431408103604
            ],
            [
              87.23779961798746,
              25.37717755219399
            ],
            [
              87.23581153666922,
              25.376353008656267
            ],
            [
              87.2345094277666,
              25.375925233638103
            ],
            [
              87.23282586724486,
              25.37666218260469
            ],
            [
              87.23155947266295,
              25.37723635988342
            ],
            [
              87.23002332567931,
              25.377986494674374
            ],
            [
              87.2299951131895,
              25.378000272056916
            ],
            [
              87.23000097829002,
              25.378997691127964
            ],
            [
              87.22992276287655,
              25.380424102708858
            ],
            [
              87.22891942465424,
              25.380776866698355
            ],
            [
              87.22829366541386,
              25.381043609049442
            ],
            [
              87.22636647370221,
              25.38179413816937
            ],
            [
              87.22577041635836,
              25.382002214963368
            ],
            [
              87.22583604457807,
              25.383189184369176
            ],
            [
              87.22586651004264,
              25.384015164817804
            ],
            [
              87.2257476440659,
              25.384457574890234
            ],
            [
              87.22542280607266,
              25.38475953179092
            ],
            [
              87.22392064594949,
              25.386155857668815
            ],
            [
              87.22234171400551,
              25.38762833992203
            ],
            [
              87.22176073757868,
              25.388003353712516
            ],
            [
              87.2204397371056,
              25.38892952823044
            ],
            [
              87.21973947159556,
              25.389259470063752
            ],
            [
              87.21901448983874,
              25.389833089156742
            ],
            [
              87.21809553935424,
              25.390294110177805
            ],
            [
              87.2174747145597,
              25.390637468766514
            ],
            [
              87.21725132870137,
              25.39085877792281
            ],
            [
              87.21658594836707,
              25.391473115607813
            ],
            [
              87.21589070623607,
              25.392015158775617
            ],
            [
              87.2157566210018,
              25.392141602946708
            ],
            [
              87.21600040221037,
              25.39248449776566
            ],
            [
              87.21642816916888,
              25.393030308368274
            ],
            [
              87.21671163704835,
              25.393382173688224
            ],
            [
              87.21681610842094,
              25.393540144924625
            ],
            [
              87.21660258157286,
              25.393774984131287
            ],
            [
              87.21590749305379,
              25.394465940994124
            ],
            [
              87.21534135230385,
              25.394994427372954
            ],
            [
              87.21524215494027,
              25.39517500361223
            ],
            [
              87.2153019072797,
              25.39540067930403
            ],
            [
              87.21713252470842,
              25.398080518801123
            ],
            [
              87.21738129426173,
              25.398423403239292
            ],
            [
              87.21768471821524,
              25.398806843253503
            ],
            [
              87.21792350658745,
              25.399127164702616
            ],
            [
              87.21818217108361,
              25.399497125366956
            ],
            [
              87.21855020905888,
              25.399925711124247
            ],
            [
              87.21891323712984,
              25.40027754335679
            ],
            [
              87.21953469164337,
              25.400642716034195
            ],
            [
              87.2194113206155,
              25.40174860124446
            ],
            [
              87.21923339040889,
              25.40303509029518
            ],
            [
              87.21909516034789,
              25.404285395201658
            ],
            [
              87.2189516751425,
              25.404994146949594
            ],
            [
              87.21880337227225,
              25.40606394734252
            ],
            [
              87.21859044010888,
              25.407079568663985
            ],
            [
              87.21843694856953,
              25.407756727289563
            ],
            [
              87.21712106040877,
              25.409061965019635
            ],
            [
              87.21518930435717,
              25.411003935392895
            ],
            [
              87.21422581540087,
              25.41184861569587
            ],
            [
              87.21365418055467,
              25.411623232040316
            ],
            [
              87.21291850615106,
              25.41146572263628
            ],
            [
              87.21230729512666,
              25.411520248079107
            ],
            [
              87.21130353379787,
              25.411692372372148
            ],
            [
              87.21059293317047,
              25.411715335836767
            ],
            [
              87.20924129206136,
              25.41191015795113
            ],
            [
              87.20839150287058,
              25.412000947873203
            ],
            [
              87.20843710225272,
              25.413192464636218
            ],
            [
              87.20685184257587,
              25.41342805264029
            ],
            [
              87.2051872751342,
              25.413749436319485
            ],
            [
              87.204074205005,
              25.413980270948592
            ],
            [
              87.201355999075,
              25.414469139673464
            ],
            [
              87.20082932940034,
              25.4146093830119
            ],
            [
              87.20071818893506,
              25.41468312784246
            ],
            [
              87.20033250265772,
              25.414939043669833
            ],
            [
              87.20042732163259,
              25.415575478260056
            ],
            [
              87.20061167299687,
              25.416356188179172
            ],
            [
              87.20077634856152,
              25.41732196111362
            ],
            [
              87.20087621516993,
              25.41806214860676
            ],
            [
              87.20116020407231,
              25.419258127132967
            ],
            [
              87.20203987302607,
              25.419221520622695
            ],
            [
              87.20218438500581,
              25.419835309025633
            ],
            [
              87.20227438002763,
              25.42061154034349
            ],
            [
              87.20236930320705,
              25.42136076539788
            ],
            [
              87.20300043976275,
              25.421355920909377
            ],
            [
              87.20338382455634,
              25.422389298389913
            ],
            [
              87.20337880566885,
              25.422362212970583
            ],
            [
              87.20361282578351,
              25.423034663660857
            ],
            [
              87.20403620896344,
              25.424370415936266
            ],
            [
              87.20415479466578,
              25.424747605859473
            ],
            [
              87.2045044108895,
              25.425859623377654
            ],
            [
              87.20483801643996,
              25.426843396738814
            ],
            [
              87.20497749605748,
              25.42723142433717
            ],
            [
              87.20525122170771,
              25.427849634063083
            ],
            [
              87.2060615092805,
              25.427971044737806
            ],
            [
              87.20665794301846,
              25.42806556910754
            ],
            [
              87.20736379335462,
              25.428173482939513
            ],
            [
              87.20847236202594,
              25.42837591431083
            ],
            [
              87.20904408580536,
              25.42849746480822
            ],
            [
              87.20943114021688,
              25.428529204019124
            ],
            [
              87.2094814108385,
              25.42853332617306
            ],
            [
              87.21006791459929,
              25.428460787276578
            ],
            [
              87.21134011139962,
              25.428225342229005
            ],
            [
              87.21198622107445,
              25.42817528562661
            ],
            [
              87.21363643703117,
              25.42824207021603
            ],
            [
              87.21464544182628,
              25.428259473193815
            ],
            [
              87.21502823193515,
              25.42827281972083
            ],
            [
              87.2152079443993,
              25.429401011695436
            ],
            [
              87.215312809234,
              25.429987752175286
            ],
            [
              87.21659544805118,
              25.430361536630986
            ],
            [
              87.21715719873434,
              25.430568861177925
            ],
            [
              87.21751900240152,
              25.43070386362046
            ],
            [
              87.21791798464339,
              25.430852738668804
            ],
            [
              87.2195188121241,
              25.43135723783608
            ],
            [
              87.22010055391556,
              25.431559916974564
            ],
            [
              87.22057296085549,
              25.43184845528531
            ],
            [
              87.22070237395195,
              25.4320831452684
            ],
            [
              87.22083193077887,
              25.43256147774888
            ],
            [
              87.22099148235311,
              25.43317973801109
            ],
            [
              87.22140509725266,
              25.434488360046473
            ],
            [
              87.22219519878269,
              25.43419900382796
            ],
            [
              87.22261387029896,
              25.43559791966759
            ],
            [
              87.22285803418978,
              25.43636053834204
            ],
            [
              87.22328150899791,
              25.43749764866904
            ],
            [
              87.22358529497248,
              25.438228568965346
            ],
            [
              87.22405817532454,
              25.439076806319044
            ],
            [
              87.22416784434937,
              25.43938367711947
            ],
            [
              87.22423302161481,
              25.44004713871432
            ],
            [
              87.22438745997847,
              25.4405750976099
            ],
            [
              87.22474600994772,
              25.44127892861013
            ],
            [
              87.2250247706551,
              25.441752694032257
            ],
            [
              87.22557717167275,
              25.44251058990743
            ],
            [
              87.22615938418143,
              25.443250377713934
            ],
            [
              87.22626930563287,
              25.44390022418072
            ],
            [
              87.22634954764564,
              25.444793849212726
            ],
            [
              87.22640477786592,
              25.445448294818966
            ],
            [
              87.22687246056579,
              25.4458857342058
            ],
            [
              87.22724553090326,
              25.44620149510352
            ],
            [
              87.22747965073091,
              25.44677899489141
            ],
            [
              87.22767907223243,
              25.447415245108253
            ],
            [
              87.22789334827546,
              25.448015441730924
            ],
            [
              87.22836180262813,
              25.449486504368632
            ],
            [
              87.22854627975657,
              25.450104715879053
            ],
            [
              87.2285715772133,
              25.450596658279448
            ],
            [
              87.22957882759867,
              25.454152558602726
            ],
            [
              87.22999245687123,
              25.455276117651884
            ],
            [
              87.23010224357536,
              25.45578607788107
            ],
            [
              87.23025202507256,
              25.45650819218404
            ],
            [
              87.23052615496466,
              25.457288809639447
            ],
            [
              87.23088011813607,
              25.458358275608155
            ],
            [
              87.23106941921759,
              25.45883198761371
            ],
            [
              87.23145835200637,
              25.460185765684752
            ],
            [
              87.23181248675598,
              25.461440263791882
            ],
            [
              87.23311310176031,
              25.46564883238884
            ],
            [
              87.23178247224571,
              25.467286525689293
            ],
            [
              87.23117510601077,
              25.469365622859968
            ],
            [
              87.22975210093888,
              25.470530800951313
            ],
            [
              87.22964621741463,
              25.47074427997548
            ],
            [
              87.23094925966686,
              25.473185659645736
            ],
            [
              87.23210621070108,
              25.47308425378117
            ],
            [
              87.23432020573682,
              25.473758207847368
            ],
            [
              87.2359230014263,
              25.473249300216324
            ],
            [
              87.23769092093978,
              25.47219670633198
            ],
            [
              87.23917262103403,
              25.47158107860712
            ],
            [
              87.23963310014359,
              25.470550690035324
            ],
            [
              87.23967933104139,
              25.46973786013528
            ],
            [
              87.23871773393707,
              25.469317836353326
            ],
            [
              87.23823953286356,
              25.469270120385893
            ],
            [
              87.23941226460235,
              25.46800899919925
            ],
            [
              87.24123083292814,
              25.46641876521049
            ],
            [
              87.24300215436159,
              25.465582594096446
            ],
            [
              87.2435978577692,
              25.465520396362614
            ],
            [
              87.24390951568061,
              25.4663283082682
            ],
            [
              87.24406448494858,
              25.46848732197027
            ],
            [
              87.24528531697926,
              25.47014913492363
            ],
            [
              87.24752309491217,
              25.47030398211429
            ],
            [
              87.24884012213676,
              25.470322783676274
            ],
            [
              87.25000000437373,
              25.47046735926059
            ],
            [
              87.25015257424158,
              25.470486375713442
            ],
            [
              87.25034682414199,
              25.470161577400546
            ],
            [
              87.25083981507835,
              25.46936766174615
            ],
            [
              87.25124288465476,
              25.46903401791571
            ],
            [
              87.25158656570939,
              25.46851073283486
            ],
            [
              87.25194526300237,
              25.46777986013495
            ],
            [
              87.25216925432518,
              25.467464079607705
            ],
            [
              87.2524432746228,
              25.466922670115743
            ],
            [
              87.25313469981218,
              25.466593781070035
            ],
            [
              87.25359113919791,
              25.467569075751772
            ],
            [
              87.25474989494752,
              25.46731277781401
            ],
            [
              87.2561570761957,
              25.467178469291685
            ],
            [
              87.25757807443125,
              25.467044793221604
            ],
            [
              87.25791727379097,
              25.46701288086942
            ],
            [
              87.25785436926319,
              25.4666180373978
            ],
            [
              87.25784308642324,
              25.466611060094973
            ],
            [
              87.25785335237029,
              25.4666116497148
            ],
            [
              87.25881664010394,
              25.46666704638961
            ],
            [
              87.26061360484549,
              25.466734237856908
            ],
            [
              87.26085572686569,
              25.466722902082278
            ],
            [
              87.26002550567675,
              25.468765476745098
            ],
            [
              87.25965236167738,
              25.471131950387583
            ],
            [
              87.26295133203185,
              25.47146361199507
            ],
            [
              87.2627570497921,
              25.472363912847456
            ],
            [
              87.26378651012453,
              25.480657173765216
            ],
            [
              87.26473634918011,
              25.480540529388943
            ],
            [
              87.26595478270896,
              25.480342824296297
            ],
            [
              87.26636771938045,
              25.480122029789104
            ],
            [
              87.26680558969099,
              25.47984698610365
            ],
            [
              87.26762145490338,
              25.479409821812002
            ],
            [
              87.2681089301839,
              25.47923409393876
            ],
            [
              87.26868080667691,
              25.479103619911893
            ],
            [
              87.26887370101954,
              25.480331467098008
            ],
            [
              87.26919609829018,
              25.48124793805601
            ],
            [
              87.26929477103762,
              25.48215968811196
            ],
            [
              87.26985680019848,
              25.482011148984867
            ],
            [
              87.27080159611205,
              25.481930643315724
            ],
            [
              87.27220906661775,
              25.481714903004747
            ],
            [
              87.27323323497485,
              25.481905185847804
            ],
            [
              87.27427230099262,
              25.482050345971945
            ],
            [
              87.27543593998412,
              25.48204211830354
            ],
            [
              87.27639081679179,
              25.481794583292654
            ],
            [
              87.27643001657583,
              25.482593468151602
            ],
            [
              87.27658276071686,
              25.48421843698535
            ],
            [
              87.27673082912683,
              25.485622179400607
            ],
            [
              87.2765513663943,
              25.486186285305347
            ],
            [
              87.27594467659078,
              25.486226496987605
            ],
            [
              87.27594463167499,
              25.486226500231197
            ],
            [
              87.27594468018403,
              25.48622654320885
            ],
            [
              87.2785227893539,
              25.488535575680174
            ],
            [
              87.28546894671133,
              25.49085435664222
            ],
            [
              87.28600599013093,
              25.49093141987882
            ],
            [
              87.28796545561576,
              25.490661781043208
            ],
            [
              87.28886063488122,
              25.490563040652166
            ],
            [
              87.2902680982004,
              25.49037432838723
            ],
            [
              87.29127287642208,
              25.490027321268265
            ],
            [
              87.29220785644453,
              25.48999626724345
            ],
            [
              87.29311289472024,
              25.490041904015637
            ],
            [
              87.29425146083385,
              25.490254688348884
            ],
            [
              87.29536522805569,
              25.490557650800188
            ],
            [
              87.29627995106848,
              25.491050130801263
            ],
            [
              87.29682664239421,
              25.491528862218892
            ],
            [
              87.29760210408006,
              25.49200770524976
            ],
            [
              87.2982880163085,
              25.492486518803396
            ],
            [
              87.29913334087233,
              25.492730666746166
            ],
            [
              87.29991400200707,
              25.49287547080511
            ],
            [
              87.30049583812163,
              25.492893795298663
            ],
            [
              87.30173913701758,
              25.492831307620868
            ],
            [
              87.30286783334114,
              25.493039426231235
            ],
            [
              87.30418569330398,
              25.493071644665292
            ],
            [
              87.30575678385387,
              25.493577945834826
            ],
            [
              87.30580133490204,
              25.49403385483068
            ],
            [
              87.30639763299438,
              25.494846489664408
            ],
            [
              87.30737195742962,
              25.495523999684245
            ],
            [
              87.30885345989451,
              25.49643186135364
            ],
            [
              87.3097932378189,
              25.49674826797774
            ],
            [
              87.31033024979743,
              25.496910954039926
            ],
            [
              87.31107620721609,
              25.496830086181305
            ],
            [
              87.31213077366411,
              25.496469448194308
            ],
            [
              87.31302135175868,
              25.49571151517751
            ],
            [
              87.31376279514306,
              25.494682762118106
            ],
            [
              87.31424565487963,
              25.493757708601656
            ],
            [
              87.31535506078079,
              25.49288705791164
            ]
          ],
          [
            [
              87.32667484306707,
              25.4399798139123
            ],
            [
              87.33051264718347,
              25.439159559339497
            ],
            [
              87.33140740693568,
              25.439173374353324
            ],
            [
              87.33361448943533,
              25.438849098326482
            ],
            [
              87.33698480488796,
              25.438615261136363
            ],
            [
              87.33999701234247,
              25.438615986367072
            ],
            [
              87.34175665028732,
              25.438778913308166
            ],
            [
              87.34219899869953,
              25.438968546939204
            ],
            [
              87.34255177699306,
              25.439568930867463
            ],
            [
              87.34283492686893,
              25.44041305407019
            ],
            [
              87.34280978122749,
              25.441220907367
            ],
            [
              87.34304799557623,
              25.442620199173597
            ],
            [
              87.34061221188672,
              25.442913041942656
            ],
            [
              87.33830555742603,
              25.44336377617739
            ],
            [
              87.33612320913942,
              25.44375587788092
            ],
            [
              87.334979805598,
              25.44388646811439
            ],
            [
              87.33408497667551,
              25.444017086597636
            ],
            [
              87.33399040383902,
              25.44451810664254
            ],
            [
              87.33412407135665,
              25.446039206860355
            ],
            [
              87.3340542336315,
              25.446955424780057
            ],
            [
              87.33355706912236,
              25.447086121050734
            ],
            [
              87.33160340136436,
              25.447049496226
            ],
            [
              87.33080310934572,
              25.447013151241517
            ],
            [
              87.32984867001761,
              25.4469631681499
            ],
            [
              87.32844701430676,
              25.446461737282302
            ],
            [
              87.32726887381162,
              25.44632149207434
            ],
            [
              87.32650833763424,
              25.446158741626448
            ],
            [
              87.32612072806383,
              25.445905838267535
            ],
            [
              87.32606151830686,
              25.444718790039918
            ],
            [
              87.32559985072615,
              25.4433826630671
            ],
            [
              87.32530686878947,
              25.442497877688886
            ],
            [
              87.32507386916097,
              25.441044500713733
            ],
            [
              87.32501435128181,
              25.440728539716858
            ],
            [
              87.32574525742793,
              25.440286391188177
            ],
            [
              87.32667484306707,
              25.4399798139123
            ]
          ]
        ]
      }
    }
  ]
}