{
  "type": "FeatureCollection",
  "features": [
    {
      "type": "Feature",
      "properties": {
        "object_id": "10-219-01258",
        "stname": "BIHAR",
        "dtname": "Saran",
        "sdtname": "Chapra",
        "st_area_sh": 0.0,
        "st_length_": 0.0,
        "remarks": "",
        "dist_lgd": 218,
        "state_lgd": 10,
        "subdt_lgd": 1258,
        "ac_no": null,
        "st_length(shape)": 119729.94798472138,
        "st_area(shape)": 239470568.44351175
      },
      "geometry": {
        "type": "Polygon",
        "coordinates": [
          [
            [
              84.75000002308728,
              25.850159568238922
            ],
            [
              84.751657504618,
              25.848406893271182
            ],
            [
              84.75267056889989,
              25.848279484753377
            ],
            [
              84.75410280056806,
              25.848094802872705
            ],
            [
              84.75563907511248,
              25.84810007391206
            ],
            [
              84.7563487208307,
              25.846554405120013
            ],
            [
              84.75709523161161,
              25.844557697355263
            ],
            [
              84.76027254312714,
              25.844509721367096
            ],
            [
              84.76163605996429,
              25.846482052671075
            ],
            [
              84.7629436863194,
              25.84627430925862
            ],
            [
              84.76485006137095,
              25.846009930734365
            ],
            [
              84.76529188786199,
              25.847753496914443
            ],
            [
              84.76524816775543,
              25.848673980362793
            ],
            [
              84.76507398442183,
              25.852265938114147
            ],
            [
              84.7649865208525,
              25.8529200419574
            ],
            [
              84.7665281259998,
              25.852834917304072
            ],
            [
              84.76803535711274,
              25.852627834204835
            ],
            [
              84.76860626791684,
              25.852051993004068
            ],
            [
              84.76984427483744,
              25.851812356042057
            ],
            [
              84.77121595286894,
              25.851816903383234
            ],
            [
              84.7715860767323,
              25.85154732537816
            ],
            [
              84.77235990887425,
              25.850155382201127
            ],
            [
              84.77310076476043,
              25.849494309741072
            ],
            [
              84.77524244900907,
              25.849013978041565
            ],
            [
              84.77730325972931,
              25.84879497512624
            ],
            [
              84.77920597863768,
              25.849469105251675
            ],
            [
              84.7793029706372,
              25.850164509347852
            ],
            [
              84.7801726853593,
              25.850957063134057
            ],
            [
              84.78066187911693,
              25.853382230107698
            ],
            [
              84.78156350289628,
              25.85368752485619
            ],
            [
              84.78444179759303,
              25.8536336091872
            ],
            [
              84.78698523538624,
              25.853763568106462
            ],
            [
              84.78940799440245,
              25.85412330199276
            ],
            [
              84.7910207901377,
              25.85370422808619
            ],
            [
              84.7912579103384,
              25.85170562807543
            ],
            [
              84.79256503992517,
              25.85164660877249
            ],
            [
              84.79313986918054,
              25.850014600117955
            ],
            [
              84.79304472142226,
              25.84883186005189
            ],
            [
              84.79378600041491,
              25.848017296738924
            ],
            [
              84.79492533907965,
              25.847474757231115
            ],
            [
              84.79771932598875,
              25.847257843727334
            ],
            [
              84.79996604305705,
              25.846660047942997
            ],
            [
              84.7997541879737,
              25.8446465420558
            ],
            [
              84.79952589192402,
              25.843039168903726
            ],
            [
              84.79694872329024,
              25.842670085201174
            ],
            [
              84.7964516719688,
              25.84090840585374
            ],
            [
              84.7952272062528,
              25.837664089281535
            ],
            [
              84.79467890424779,
              25.836285856163478
            ],
            [
              84.79412709432158,
              25.83581482708767
            ],
            [
              84.79188767965822,
              25.835839322984082
            ],
            [
              84.79098372564904,
              25.836170407201745
            ],
            [
              84.78750330369203,
              25.835978849320632
            ],
            [
              84.78627785342249,
              25.83306398417143
            ],
            [
              84.78246079499927,
              25.833539170395497
            ],
            [
              84.78153964723559,
              25.831893396970802
            ],
            [
              84.78197797029698,
              25.830775539763643
            ],
            [
              84.78335655008483,
              25.828961142304433
            ],
            [
              84.78344455533826,
              25.828126551969667
            ],
            [
              84.77845896659684,
              25.82778099834321
            ],
            [
              84.77568583407711,
              25.82788931977309
            ],
            [
              84.77502054716759,
              25.825887747072937
            ],
            [
              84.77316616480805,
              25.825714749201996
            ],
            [
              84.77251053658445,
              25.82256235040247
            ],
            [
              84.77468366635962,
              25.821581131951817
            ],
            [
              84.77659567025474,
              25.821072819254052
            ],
            [
              84.77846768115342,
              25.82056442108534
            ],
            [
              84.78101751495142,
              25.818875724930525
            ],
            [
              84.7823947876905,
              25.818604903383466
            ],
            [
              84.78363045719473,
              25.818884176848734
            ],
            [
              84.78600846214353,
              25.819031647036592
            ],
            [
              84.78607984497096,
              25.817334920137142
            ],
            [
              84.78578543561129,
              25.81611998009785
            ],
            [
              84.78351030842381,
              25.816446607158266
            ],
            [
              84.7818336730146,
              25.816743579103925
            ],
            [
              84.7805290685921,
              25.81628808100164
            ],
            [
              84.77938155885153,
              25.815174182854754
            ],
            [
              84.77886699577195,
              25.814157024775806
            ],
            [
              84.77670925593424,
              25.81006104783482
            ],
            [
              84.77496914556704,
              25.806282359992178
            ],
            [
              84.77885049192355,
              25.805717338124936
            ],
            [
              84.7786566211122,
              25.804322064971238
            ],
            [
              84.77843441114855,
              25.801261470318373
            ],
            [
              84.77965957844881,
              25.800340200037613
            ],
            [
              84.7809996402739,
              25.799342655984326
            ],
            [
              84.78187214516328,
              25.79934539692141
            ],
            [
              84.78304523622818,
              25.79898361289793
            ],
            [
              84.7856203198722,
              25.798360049814793
            ],
            [
              84.78818255581098,
              25.798467469672477
            ],
            [
              84.7881945060992,
              25.795376003121998
            ],
            [
              84.7886680386282,
              25.79410924390939
            ],
            [
              84.7902269785655,
              25.793216090735584
            ],
            [
              84.79291026698043,
              25.791649444269133
            ],
            [
              84.79418316267005,
              25.79122916483753
            ],
            [
              84.79659160523556,
              25.791087816057015
            ],
            [
              84.79842956729001,
              25.791517709719468
            ],
            [
              84.79932966842493,
              25.792125294892447
            ],
            [
              84.801949425288,
              25.79414632866492
            ],
            [
              84.80355258210024,
              25.79472887590954
            ],
            [
              84.80470707175057,
              25.793951634984357
            ],
            [
              84.80504630255132,
              25.792558141842417
            ],
            [
              84.80591735127159,
              25.79162208488092
            ],
            [
              84.8063582237518,
              25.789682713940252
            ],
            [
              84.80689813010217,
              25.78929169229585
            ],
            [
              84.80960590030352,
              25.789087861215258
            ],
            [
              84.81132261404915,
              25.78724712377323
            ],
            [
              84.81262347159863,
              25.787341307058387
            ],
            [
              84.81543985171108,
              25.78604541484469
            ],
            [
              84.81714951098677,
              25.78475069023575
            ],
            [
              84.8178092139685,
              25.782915804907063
            ],
            [
              84.81884812727266,
              25.782341168007996
            ],
            [
              84.81941535498409,
              25.78264527892753
            ],
            [
              84.82045708989658,
              25.781316974651684
            ],
            [
              84.82039518699035,
              25.78049986315921
            ],
            [
              84.81950110636448,
              25.778222567054424
            ],
            [
              84.81958265273103,
              25.777735397218382
            ],
            [
              84.81970168220113,
              25.776526178077457
            ],
            [
              84.82094414027397,
              25.7747742091369
            ],
            [
              84.82109207573326,
              25.77385391978863
            ],
            [
              84.8214156192542,
              25.77260023965192
            ],
            [
              84.82106438157139,
              25.771840980122796
            ],
            [
              84.820919451875,
              25.77055431073196
            ],
            [
              84.82084082772808,
              25.768875126776514
            ],
            [
              84.8213814832734,
              25.768222272152684
            ],
            [
              84.82114979069365,
              25.767513070917495
            ],
            [
              84.82130751599293,
              25.766601862891594
            ],
            [
              84.82191997657384,
              25.765398606743688
            ],
            [
              84.82448728080749,
              25.765279778253415
            ],
            [
              84.82655527355844,
              25.7654302348321
            ],
            [
              84.82997364887878,
              25.765688351108007
            ],
            [
              84.8328142349949,
              25.765804880810904
            ],
            [
              84.83423250504693,
              25.766472314754772
            ],
            [
              84.83561544076555,
              25.767234467613214
            ],
            [
              84.83727852239377,
              25.767744744871056
            ],
            [
              84.83879367125763,
              25.76778057260968
            ],
            [
              84.83974337197262,
              25.76554920798368
            ],
            [
              84.83824705179713,
              25.76584286998222
            ],
            [
              84.83668922217748,
              25.766632836989313
            ],
            [
              84.83499342390664,
              25.764087015382515
            ],
            [
              84.83415742475378,
              25.762270335609422
            ],
            [
              84.8354242029163,
              25.762048296214598
            ],
            [
              84.83673528868357,
              25.761957171208344
            ],
            [
              84.8359053360909,
              25.759833630111963
            ],
            [
              84.83489053536559,
              25.757853930670812
            ],
            [
              84.83489200770433,
              25.757420700629975
            ],
            [
              84.83770163158756,
              25.756377108397555
            ],
            [
              84.83930432936069,
              25.755551198850366
            ],
            [
              84.84109913904383,
              25.75537574715651
            ],
            [
              84.84458128666449,
              25.754374434916706
            ],
            [
              84.84600235496865,
              25.754161770161147
            ],
            [
              84.84773983866194,
              25.756215646721746
            ],
            [
              84.84911431764051,
              25.75801566196204
            ],
            [
              84.8502743759473,
              25.759860281636456
            ],
            [
              84.85146846692858,
              25.761989245988776
            ],
            [
              84.85316255031557,
              25.762151838925483
            ],
            [
              84.85523547661407,
              25.762306456250144
            ],
            [
              84.85636263502188,
              25.762079303861608
            ],
            [
              84.85837564818249,
              25.762251769238237
            ],
            [
              84.86003356539612,
              25.76282033704887
            ],
            [
              84.86216834878677,
              25.763882207391212
            ],
            [
              84.86265756230733,
              25.763648801881626
            ],
            [
              84.86280410358131,
              25.76303085290593
            ],
            [
              84.86152222473889,
              25.76178628220456
            ],
            [
              84.86073218609087,
              25.76103050031274
            ],
            [
              84.86080024784671,
              25.760015150321514
            ],
            [
              84.86166296289612,
              25.759895657072224
            ],
            [
              84.86147658493255,
              25.758956387742135
            ],
            [
              84.86114824530632,
              25.75876593884253
            ],
            [
              84.8611300193875,
              25.758242356109445
            ],
            [
              84.86227740426226,
              25.757906898034797
            ],
            [
              84.86218374591071,
              25.75606079007165
            ],
            [
              84.86152200285501,
              25.754199568878153
            ],
            [
              84.86134776831744,
              25.752610365093226
            ],
            [
              84.86220143104373,
              25.75216135472931
            ],
            [
              84.8643844342022,
              25.7521084697579
            ],
            [
              84.86759850477915,
              25.7522704038657
            ],
            [
              84.87000921828573,
              25.752728024179124
            ],
            [
              84.8702089209599,
              25.754177306974185
            ],
            [
              84.87085493271836,
              25.754779284702785
            ],
            [
              84.87242971624235,
              25.754801405714293
            ],
            [
              84.87439393920495,
              25.754630479712336
            ],
            [
              84.87519226211649,
              25.754343704390745
            ],
            [
              84.87549886161453,
              25.75350500117183
            ],
            [
              84.87546733703626,
              25.752448839232418
            ],
            [
              84.87550638769999,
              25.75110854428486
            ],
            [
              84.87732515365514,
              25.7511899012265
            ],
            [
              84.87791431642916,
              25.750870996939966
            ],
            [
              84.87794564427641,
              25.750392906315117
            ],
            [
              84.87773703031459,
              25.750000170151857
            ],
            [
              84.87755421506941,
              25.749656006201025
            ],
            [
              84.87792058307657,
              25.74883098040261
            ],
            [
              84.8786992113238,
              25.7484583457462
            ],
            [
              84.88020934669008,
              25.748421554986088
            ],
            [
              84.88075799364819,
              25.748301126053512
            ],
            [
              84.88149160102832,
              25.74796902123197
            ],
            [
              84.8819013109513,
              25.747599939177398
            ],
            [
              84.88226809487843,
              25.746648566675802
            ],
            [
              84.88263898859799,
              25.7459454709976
            ],
            [
              84.88327757398403,
              25.745739439045554
            ],
            [
              84.8841938609637,
              25.74594940422031
            ],
            [
              84.88455764361949,
              25.745950316928642
            ],
            [
              84.88478708591947,
              25.745910241097302
            ],
            [
              84.8849669546905,
              25.745743742052053
            ],
            [
              84.88492388316757,
              25.745165878762716
            ],
            [
              84.88693776769401,
              25.74496330536408
            ],
            [
              84.88753057493317,
              25.745046046106125
            ],
            [
              84.88830602943248,
              25.745711378066563
            ],
            [
              84.88871280096619,
              25.746335262364774
            ],
            [
              84.88971945936179,
              25.746337773113616
            ],
            [
              84.89095555556577,
              25.746255079391954
            ],
            [
              84.89241458757215,
              25.74663326676338
            ],
            [
              84.89375850316979,
              25.747182631826934
            ],
            [
              84.89412727327203,
              25.74718354938057
            ],
            [
              84.89421786118189,
              25.746894909639796
            ],
            [
              84.89444970018707,
              25.746024446945405
            ],
            [
              84.89436124308105,
              25.745613463970088
            ],
            [
              84.89385837516812,
              25.745445330851226
            ],
            [
              84.89349079263873,
              25.745069737052454
            ],
            [
              84.89308424658215,
              25.744364742667177
            ],
            [
              84.89313131920136,
              25.743620154605843
            ],
            [
              84.8933180537961,
              25.742835264918586
            ],
            [
              84.89409765222383,
              25.742092484657096
            ],
            [
              84.89560373439153,
              25.741721541873105
            ],
            [
              84.89780977394713,
              25.742241429964977
            ],
            [
              84.89876561464712,
              25.742573256261963
            ],
            [
              84.89940650421184,
              25.74323826222322
            ],
            [
              84.89951735002968,
              25.744520269975975
            ],
            [
              84.90047361203953,
              25.74473017095525
            ],
            [
              84.9017533717562,
              25.74506724003229
            ],
            [
              84.90202747829213,
              25.745067898675984
            ],
            [
              84.90289720469232,
              25.744158254849538
            ],
            [
              84.90367645726869,
              25.743537247803232
            ],
            [
              84.90518981040029,
              25.742340376904988
            ],
            [
              84.90610289668261,
              25.741972382685372
            ],
            [
              84.90711007610108,
              25.741767233927643
            ],
            [
              84.90852452561823,
              25.742059394665155
            ],
            [
              84.90984787967733,
              25.742847738116126
            ],
            [
              84.91053492468134,
              25.743056960738745
            ],
            [
              84.91153580241809,
              25.743348157836685
            ],
            [
              84.91178803677346,
              25.743163690286423
            ],
            [
              84.91204016872089,
              25.74297922487724
            ],
            [
              84.91218423423794,
              25.74136387964516
            ],
            [
              84.91250747592494,
              25.739834576085137
            ],
            [
              84.91346692785235,
              25.73888446604509
            ],
            [
              84.91471701262194,
              25.737385313626927
            ],
            [
              84.91350009814421,
              25.73356896568395
            ],
            [
              84.91349943788248,
              25.733566545298316
            ],
            [
              84.91349281999379,
              25.73353520570981
            ],
            [
              84.91261321122714,
              25.72936899965547
            ],
            [
              84.91147397407202,
              25.72439665801152
            ],
            [
              84.91134661991418,
              25.723469935317393
            ],
            [
              84.91101846264596,
              25.72224381011412
            ],
            [
              84.909636836671,
              25.7219751829214
            ],
            [
              84.9070377132117,
              25.721214059670377
            ],
            [
              84.90333724533258,
              25.720401477899227
            ],
            [
              84.90168803638727,
              25.72014449095944
            ],
            [
              84.89533017403133,
              25.718146133244293
            ],
            [
              84.89332214202895,
              25.717338494965606
            ],
            [
              84.89080579203487,
              25.71503249579406
            ],
            [
              84.8890171762356,
              25.71450003278225
            ],
            [
              84.88626197139398,
              25.713967700931217
            ],
            [
              84.88419429934156,
              25.7136158101114
            ],
            [
              84.8819573406722,
              25.713489617270014
            ],
            [
              84.88033807796525,
              25.71270433684169
            ],
            [
              84.87745840435448,
              25.711409112106793
            ],
            [
              84.87676092541844,
              25.71184232371994
            ],
            [
              84.87618800059148,
              25.713918513912574
            ],
            [
              84.87580656514204,
              25.714085967247716
            ],
            [
              84.87559265022176,
              25.714179876725073
            ],
            [
              84.87537588404875,
              25.71427503819922
            ],
            [
              84.87504212668306,
              25.7146767159525
            ],
            [
              84.87503887029015,
              25.71476901921157
            ],
            [
              84.87490260214975,
              25.718630463174502
            ],
            [
              84.87448405999089,
              25.719338971289357
            ],
            [
              84.87290470673705,
              25.719036646284323
            ],
            [
              84.86781776557369,
              25.71822402373959
            ],
            [
              84.86502271685595,
              25.71792150813645
            ],
            [
              84.86429531144454,
              25.717537790704725
            ],
            [
              84.86379217493538,
              25.716982610331947
            ],
            [
              84.86224304280431,
              25.71356140581908
            ],
            [
              84.85989684809807,
              25.710672588688865
            ],
            [
              84.85900011834043,
              25.710216677754065
            ],
            [
              84.85511413577873,
              25.710116927073177
            ],
            [
              84.85365946688972,
              25.709633724762746
            ],
            [
              84.85283762608404,
              25.70879869474476
            ],
            [
              84.85174703359988,
              25.706618581395155
            ],
            [
              84.85141354033887,
              25.705327696067634
            ],
            [
              84.84933176024491,
              25.70231246627594
            ],
            [
              84.84888366620814,
              25.701346453656335
            ],
            [
              84.84877409420137,
              25.700791349107842
            ],
            [
              84.85011444258905,
              25.69947370638613
            ],
            [
              84.85012230105116,
              25.699441780673553
            ],
            [
              84.85033884174703,
              25.69856202605247
            ],
            [
              84.85019957413188,
              25.697496861222547
            ],
            [
              84.84936275122391,
              25.696991233073742
            ],
            [
              84.84761427574482,
              25.69711724832598
            ],
            [
              84.84683234798553,
              25.696584526266836
            ],
            [
              84.84590592890774,
              25.69572228226006
            ],
            [
              84.84503928283064,
              25.695469376047914
            ],
            [
              84.84146258483138,
              25.695798087641617
            ],
            [
              84.8400926899557,
              25.695874467705217
            ],
            [
              84.83956476174133,
              25.695495216331512
            ],
            [
              84.83928596420299,
              25.69498516636875
            ],
            [
              84.83967471643042,
              25.69419995974871
            ],
            [
              84.83995381310773,
              25.693694476260955
            ],
            [
              84.83826515734168,
              25.693770809913747
            ],
            [
              84.83684031790997,
              25.69412697037915
            ],
            [
              84.83527609318385,
              25.694456042663138
            ],
            [
              84.83320885771266,
              25.694378756680482
            ],
            [
              84.83094200760222,
              25.695240081938206
            ],
            [
              84.82930772057213,
              25.696277684855616
            ],
            [
              84.82639793633138,
              25.69782482493872
            ],
            [
              84.8242756287434,
              25.698505596081823
            ],
            [
              84.82226326057315,
              25.6979723378928
            ],
            [
              84.82117240667925,
              25.697795913236337
            ],
            [
              84.8199567857755,
              25.698124882292518
            ],
            [
              84.81473033714686,
              25.699919179309756
            ],
            [
              84.80969824441978,
              25.701085909336882
            ],
            [
              84.80886152841133,
              25.700882431161176
            ],
            [
              84.80825973083283,
              25.698954979073953
            ],
            [
              84.80769918658712,
              25.69490177963429
            ],
            [
              84.80782160899405,
              25.69413446707681
            ],
            [
              84.80786642684188,
              25.69385355713119
            ],
            [
              84.80786912538099,
              25.69383664034431
            ],
            [
              84.80790281939068,
              25.693820631806464
            ],
            [
              84.80866634336473,
              25.69345788517721
            ],
            [
              84.81185459456377,
              25.69308019329577
            ],
            [
              84.81680106257289,
              25.69292879111288
            ],
            [
              84.82105021513935,
              25.69267771086875
            ],
            [
              84.82208148557709,
              25.692271870069245
            ],
            [
              84.82113175970925,
              25.688597669128868
            ],
            [
              84.82101250925362,
              25.688612579028835
            ],
            [
              84.81890006337082,
              25.688876696369153
            ],
            [
              84.81727623273065,
              25.688848966022867
            ],
            [
              84.8151395449116,
              25.68841927233059
            ],
            [
              84.81338098135183,
              25.68895117362783
            ],
            [
              84.81198115371258,
              25.689203304395924
            ],
            [
              84.81078094700082,
              25.688769455057745
            ],
            [
              84.80876939360253,
              25.687252097616152
            ],
            [
              84.80807222907684,
              25.68699448537267
            ],
            [
              84.80751412914702,
              25.687427559972853
            ],
            [
              84.80739885643145,
              25.68866862997118
            ],
            [
              84.80670055643522,
              25.69028859920308
            ],
            [
              84.80640334073861,
              25.690525346343353
            ],
            [
              84.80520548940957,
              25.691479477355195
            ],
            [
              84.80305290320662,
              25.69269247130977
            ],
            [
              84.80042704857938,
              25.693733748052587
            ],
            [
              84.79729318138763,
              25.694716031612078
            ],
            [
              84.79538062772356,
              25.694286184237498
            ],
            [
              84.79225297238197,
              25.69339536780513
            ],
            [
              84.79024066080561,
              25.69321820620054
            ],
            [
              84.78845266843715,
              25.69278383883617
            ],
            [
              84.78730733082293,
              25.69235442161892
            ],
            [
              84.78685943980544,
              25.691848575733612
            ],
            [
              84.78686018720376,
              25.69083307118464
            ],
            [
              84.78672268657476,
              25.688097906303494
            ],
            [
              84.78644475141914,
              25.68673021733187
            ],
            [
              84.78597181537151,
              25.686373369301887
            ],
            [
              84.78529873288194,
              25.68720798102975
            ],
            [
              84.78524319274285,
              25.688196299231013
            ],
            [
              84.78465512681178,
              25.688629277985065
            ],
            [
              84.78345444309463,
              25.6890076316024
            ],
            [
              84.78339913202593,
              25.68961685906196
            ],
            [
              84.78352260725838,
              25.691034193044093
            ],
            [
              84.78320932788789,
              25.691556409035623
            ],
            [
              84.78282435307624,
              25.692198129107457
            ],
            [
              84.78145364073364,
              25.693212738045702
            ],
            [
              84.78013838858008,
              25.69349174637905
            ],
            [
              84.7793562730729,
              25.6935408503663
            ],
            [
              84.77885365578996,
              25.692931251181324
            ],
            [
              84.7783506180955,
              25.692881254064588
            ],
            [
              84.77790181977953,
              25.69341353532606
            ],
            [
              84.7775670446226,
              25.69470411029373
            ],
            [
              84.77577778383298,
              25.695867345906052
            ],
            [
              84.77466583030964,
              25.696605005969428
            ],
            [
              84.77405824398744,
              25.697008063608507
            ],
            [
              84.77319100592058,
              25.697540077107167
            ],
            [
              84.7722444277495,
              25.69771542798032
            ],
            [
              84.76986900994879,
              25.696878774734024
            ],
            [
              84.76891736168622,
              25.697026950198428
            ],
            [
              84.76830411957101,
              25.697613274036698
            ],
            [
              84.76701256407632,
              25.699106239224793
            ],
            [
              84.76483537122111,
              25.699434085184087
            ],
            [
              84.76454100857386,
              25.699939354894408
            ],
            [
              84.76414203621349,
              25.7057432150249
            ],
            [
              84.76395148198215,
              25.705790698373153
            ],
            [
              84.76286805985059,
              25.706060662831632
            ],
            [
              84.7617449402683,
              25.706340511170453
            ],
            [
              84.76049448718945,
              25.706652076240054
            ],
            [
              84.75124108787313,
              25.70872064024747
            ],
            [
              84.75000291386588,
              25.708851807807733
            ],
            [
              84.74999852829066,
              25.708854958767105
            ],
            [
              84.74785735428506,
              25.710393130136342
            ],
            [
              84.74435319883827,
              25.71113996915646
            ],
            [
              84.74265874175214,
              25.71048688469918
            ],
            [
              84.74089594712737,
              25.70970669086555
            ],
            [
              84.74072484142194,
              25.709630959091623
            ],
            [
              84.73898023768169,
              25.70870258190212
            ],
            [
              84.7371313521134,
              25.707995412321136
            ],
            [
              84.73588548493404,
              25.707648785169805
            ],
            [
              84.73302051404956,
              25.707163512908323
            ],
            [
              84.73021382675901,
              25.706750283860938
            ],
            [
              84.73003097558122,
              25.70672335979804
            ],
            [
              84.72760010657464,
              25.706328734281342
            ],
            [
              84.72698660125303,
              25.70622913089169
            ],
            [
              84.72621406807501,
              25.70607224629827
            ],
            [
              84.7254374062399,
              25.705914518091767
            ],
            [
              84.72514802205598,
              25.705855748360293
            ],
            [
              84.7239202316751,
              25.705820700030277
            ],
            [
              84.7239125322148,
              25.70582047987031
            ],
            [
              84.72180502706605,
              25.705627791978745
            ],
            [
              84.71854676925861,
              25.705444952728065
            ],
            [
              84.71740755815462,
              25.705553365621405
            ],
            [
              84.71755387125654,
              25.706632682060675
            ],
            [
              84.7179006901265,
              25.709328263808253
            ],
            [
              84.71824163131951,
              25.714456302641377
            ],
            [
              84.71822922019554,
              25.717281449091708
            ],
            [
              84.71850768535722,
              25.719647362171084
            ],
            [
              84.71864280185743,
              25.72175089928673
            ],
            [
              84.71928663789629,
              25.72372538227686
            ],
            [
              84.71985861320398,
              25.726155386270946
            ],
            [
              84.72072340156505,
              25.727738120977556
            ],
            [
              84.72347503740005,
              25.728601117878117
            ],
            [
              84.72403505343638,
              25.732610526332106
            ],
            [
              84.72474519232975,
              25.73315471001256
            ],
            [
              84.72687963166564,
              25.732787952983767
            ],
            [
              84.72860409787214,
              25.73269492488301
            ],
            [
              84.73006058584961,
              25.732370741706674
            ],
            [
              84.73187615829396,
              25.731916942686926
            ],
            [
              84.73463083582448,
              25.732057559981016
            ],
            [
              84.7360807256762,
              25.732062757685565
            ],
            [
              84.74217132755705,
              25.732743048902606
            ],
            [
              84.74309026995672,
              25.738130299227045
            ],
            [
              84.74466695790913,
              25.743524346635045
            ],
            [
              84.74556157213426,
              25.74645187498144
            ],
            [
              84.74595478359876,
              25.74773491367827
            ],
            [
              84.74656788917007,
              25.750000204943614
            ],
            [
              84.746671763163,
              25.750390622202325
            ],
            [
              84.74709309189588,
              25.751940608788246
            ],
            [
              84.74782489905216,
              25.754484279774484
            ],
            [
              84.74842410229614,
              25.755600900205355
            ],
            [
              84.7490263786767,
              25.758924181076225
            ],
            [
              84.7500000356637,
              25.759800710107
            ],
            [
              84.75125581934545,
              25.760931195166307
            ],
            [
              84.75098170113145,
              25.76211268438102
            ],
            [
              84.75085816211862,
              25.764246976150947
            ],
            [
              84.75192146288616,
              25.766249999260204
            ],
            [
              84.75258109400265,
              25.768224469360877
            ],
            [
              84.7537051271716,
              25.77122509378516
            ],
            [
              84.75196285635613,
              25.771855488858357
            ],
            [
              84.75000001590077,
              25.773463133139636
            ],
            [
              84.74978245022716,
              25.7736413239023
            ],
            [
              84.7478279551208,
              25.774980154309517
            ],
            [
              84.74584810865876,
              25.775198829402736
            ],
            [
              84.74228688234362,
              25.775709850612333
            ],
            [
              84.73865500442972,
              25.776419044118924
            ],
            [
              84.73684030694449,
              25.776480294737258
            ],
            [
              84.73524317423455,
              25.77693492738958
            ],
            [
              84.73386243579509,
              25.776929996167812
            ],
            [
              84.73212314289478,
              25.776855954204212
            ],
            [
              84.73052599221855,
              25.77731062990792
            ],
            [
              84.72848792234971,
              25.778291680235608
            ],
            [
              84.7263484919741,
              25.77851403303201
            ],
            [
              84.72420407325373,
              25.778736416150455
            ],
            [
              84.72086191998527,
              25.779247652662892
            ],
            [
              84.71621557282434,
              25.77936132896536
            ],
            [
              84.71389088109106,
              25.779749870072347
            ],
            [
              84.71062285769814,
              25.7803921350091
            ],
            [
              84.70906570810318,
              25.78081508501042
            ],
            [
              84.70713403469661,
              25.781367470879974
            ],
            [
              84.70453478098156,
              25.781818034670746
            ],
            [
              84.70391092796623,
              25.781912362205848
            ],
            [
              84.70328278280043,
              25.78200733597133
            ],
            [
              84.70110220688986,
              25.78245945525332
            ],
            [
              84.69863438119249,
              25.782517712289014
            ],
            [
              84.69290453823815,
              25.781904427769245
            ],
            [
              84.68898677418001,
              25.781821490266477
            ],
            [
              84.6857917658534,
              25.78174586996679
            ],
            [
              84.68656927659642,
              25.786018621987047
            ],
            [
              84.6872058901804,
              25.789505512221623
            ],
            [
              84.68756215663218,
              25.791149808077694
            ],
            [
              84.68821025966864,
              25.79220392710251
            ],
            [
              84.68879230598898,
              25.792468009234877
            ],
            [
              84.68930074704993,
              25.79246990187719
            ],
            [
              84.69053730229302,
              25.791359903230354
            ],
            [
              84.69272200057242,
              25.790050426012996
            ],
            [
              84.69541205869133,
              25.78940638701076
            ],
            [
              84.69671179244837,
              25.790792489682612
            ],
            [
              84.69764700603275,
              25.792303562768193
            ],
            [
              84.69829073607043,
              25.794346077889017
            ],
            [
              84.69420854797593,
              25.797354379377495
            ],
            [
              84.69456735216839,
              25.798470593991794
            ],
            [
              84.69528913232952,
              25.79979128159628
            ],
            [
              84.6962234736498,
              25.801500962150683
            ],
            [
              84.695709169285,
              25.80274921011861
            ],
            [
              84.69570277058524,
              25.80413025580369
            ],
            [
              84.69685985726505,
              25.805118615190633
            ],
            [
              84.69743617233391,
              25.806632869137466
            ],
            [
              84.69706345593264,
              25.80853601228491
            ],
            [
              84.69850795229938,
              25.80992269025844
            ],
            [
              84.70009861444433,
              25.810980418123584
            ],
            [
              84.69951297396452,
              25.81255331978676
            ],
            [
              84.69987489620935,
              25.81301503807217
            ],
            [
              84.70096510241795,
              25.814481531252795
            ],
            [
              84.70166120244002,
              25.820333523917522
            ],
            [
              84.70035272178708,
              25.820788894060684
            ],
            [
              84.70142866364728,
              25.824277302736068
            ],
            [
              84.7016334121584,
              25.82638126616076
            ],
            [
              84.6987309321192,
              25.826437898174113
            ],
            [
              84.69800043380826,
              25.82695864895876
            ],
            [
              84.69583508703671,
              25.82828174225991
            ],
            [
              84.69675330898751,
              25.83030728072447
            ],
            [
              84.69812326405032,
              25.831693528320116
            ],
            [
              84.69847968770728,
              25.83333775535675
            ],
            [
              84.69832662466435,
              25.835174114931323
            ],
            [
              84.69955670574919,
              25.836627541255133
            ],
            [
              84.69874886428892,
              25.83767610863409
            ],
            [
              84.69867258743984,
              25.838529142396936
            ],
            [
              84.69859636538794,
              25.839381536953336
            ],
            [
              84.69779266066956,
              25.840628638615655
            ],
            [
              84.69488220538727,
              25.842327973703636
            ],
            [
              84.69334476572796,
              25.843703140241978
            ],
            [
              84.69304963681779,
              25.84495218435839
            ],
            [
              84.69269901178599,
              25.846170911170063
            ],
            [
              84.69216247591456,
              25.848035789852098
            ],
            [
              84.69383198319197,
              25.84830849482428
            ],
            [
              84.69538518469126,
              25.847854194227374
            ],
            [
              84.69899476102997,
              25.847078203353725
            ],
            [
              84.70509554980613,
              25.84683960083063
            ],
            [
              84.70574499133234,
              25.847695095715924
            ],
            [
              84.70777570669394,
              25.848623434402956
            ],
            [
              84.70857254918188,
              25.848888219387632
            ],
            [
              84.70973725357533,
              25.848301357105733
            ],
            [
              84.7101771271289,
              25.84698962565105
            ],
            [
              84.71054653503498,
              25.845808540966953
            ],
            [
              84.711781668245,
              25.84620586874997
            ],
            [
              84.71227436363563,
              25.8497550781112
            ],
            [
              84.71503449124496,
              25.84930951819366
            ],
            [
              84.72353987510233,
              25.847828996664436
            ],
            [
              84.72353239303433,
              25.84953501833106
            ],
            [
              84.72971266744177,
              25.848244192283452
            ],
            [
              84.73028802310988,
              25.84896835074973
            ],
            [
              84.73162459228514,
              25.848995763183165
            ],
            [
              84.7366833506031,
              25.84866193059857
            ],
            [
              84.73709518683837,
              25.853785935803778
            ],
            [
              84.73728718286571,
              25.86016375575575
            ],
            [
              84.73979464313176,
              25.85934680661186
            ],
            [
              84.74113820299655,
              25.8589273413785
            ],
            [
              84.74291931786323,
              25.85883442110575
            ],
            [
              84.74339829957272,
              25.857622026668704
            ],
            [
              84.7451423840867,
              25.856838373380462
            ],
            [
              84.74783168492584,
              25.856517193938398
            ],
            [
              84.747928248429,
              25.851422571857686
            ],
            [
              84.74954322078216,
              25.850642592188702
            ],
            [
              84.75000002308728,
              25.850159568238922
            ]
          ]
        ]
      }
    }
  ]
}