{
  "type": "FeatureCollection",
  "features": [
    {
      "type": "Feature",
      "properties": {
        "object_id": "10-236-01490",
        "stname": "BIHAR",
        "dtname": "Gaya",
        "sdtname": "Khizirsarai",
        "st_area_sh": 0.0,
        "st_length_": 0.0,
        "remarks": "",
        "dist_lgd": 196,
        "state_lgd": 10,
        "subdt_lgd": 1490,
        "ac_no": null,
        "st_length(shape)": 103698.13096672995,
        "st_area(shape)": 223124430.97950032
      },
      "geometry": {
        "type": "Polygon",
        "coordinates": [
          [
            [
              85.1835475101992,
              25.072698045347313
            ],
            [
              85.18350642664798,
              25.07145166839311
            ],
            [
              85.1835200388195,
              25.07086500980187
            ],
            [
              85.18366759698635,
              25.068925778666724
            ],
            [
              85.18374073512183,
              25.06833533486496
            ],
            [
              85.18372489063685,
              25.06705766723668
            ],
            [
              85.18349683174245,
              25.066391311614797
            ],
            [
              85.18293957083907,
              25.066203930406626
            ],
            [
              85.18199366011628,
              25.065822196047442
            ],
            [
              85.18193248574374,
              25.065266219368834
            ],
            [
              85.18194154705,
              25.064652421218696
            ],
            [
              85.18194036486709,
              25.06406106660383
            ],
            [
              85.18143277810401,
              25.0635312213418
            ],
            [
              85.18089486511523,
              25.063041628299715
            ],
            [
              85.1797938943946,
              25.062423249876485
            ],
            [
              85.1793054255774,
              25.0622773249477
            ],
            [
              85.17715713332151,
              25.062106510852903
            ],
            [
              85.17496077131645,
              25.061835766855307
            ],
            [
              85.1748066913806,
              25.061197395163262
            ],
            [
              85.17473684287569,
              25.06056005767452
            ],
            [
              85.17450487181817,
              25.058489778790197
            ],
            [
              85.17451396815875,
              25.057875983312076
            ],
            [
              85.17442556405332,
              25.05648457512259
            ],
            [
              85.1745273827009,
              25.055298635672095
            ],
            [
              85.17482491370615,
              25.054616160064676
            ],
            [
              85.17508006399294,
              25.054118238057264
            ],
            [
              85.17519226536852,
              25.053568905804575
            ],
            [
              85.17538559090251,
              25.052226097915362
            ],
            [
              85.17532611973577,
              25.05155729101305
            ],
            [
              85.17539479593924,
              25.050935197366677
            ],
            [
              85.17590287767403,
              25.050422326075207
            ],
            [
              85.17640809557973,
              25.05043755907692
            ],
            [
              85.17721439912425,
              25.050533226321026
            ],
            [
              85.17786056179966,
              25.050735258979856
            ],
            [
              85.17844540277888,
              25.051062930839883
            ],
            [
              85.17911707581177,
              25.05121561805255
            ],
            [
              85.17986962057643,
              25.05126095623843
            ],
            [
              85.18058682022789,
              25.05135099860223
            ],
            [
              85.18118242392254,
              25.051286069603375
            ],
            [
              85.18195336259092,
              25.05109238023197
            ],
            [
              85.18196753531116,
              25.050803654300857
            ],
            [
              85.18198745904584,
              25.050460830946186
            ],
            [
              85.18237041444475,
              25.050366209399293
            ],
            [
              85.18311966688387,
              25.0502986390442
            ],
            [
              85.18358009658611,
              25.050326842667072
            ],
            [
              85.18402646316258,
              25.050300702882947
            ],
            [
              85.18528642131547,
              25.05021228331282
            ],
            [
              85.1865605773414,
              25.050169165646846
            ],
            [
              85.187284789242,
              25.05011932501754
            ],
            [
              85.18772420824807,
              25.05022851163886
            ],
            [
              85.18874389670684,
              25.050304149395878
            ],
            [
              85.18947220223018,
              25.05031303138891
            ],
            [
              85.19073169595407,
              25.050256156999502
            ],
            [
              85.19152599890472,
              25.05015749469091
            ],
            [
              85.19147877357192,
              25.04999892794922
            ],
            [
              85.19147580643653,
              25.04986347022116
            ],
            [
              85.19174718658556,
              25.04960495939243
            ],
            [
              85.19180809685338,
              25.049506390963074
            ],
            [
              85.19180440118431,
              25.049420579120795
            ],
            [
              85.19148527827289,
              25.049218073091414
            ],
            [
              85.19139815157179,
              25.049077077237758
            ],
            [
              85.19139029580464,
              25.048937045605285
            ],
            [
              85.19146659870485,
              25.048802552715966
            ],
            [
              85.1916679542792,
              25.048588329799877
            ],
            [
              85.19227987227765,
              25.048085689942894
            ],
            [
              85.1923072915551,
              25.047905461187156
            ],
            [
              85.19229434773015,
              25.047774395845927
            ],
            [
              85.1921689779508,
              25.04753813818395
            ],
            [
              85.19179398162531,
              25.047091194723144
            ],
            [
              85.19172277756266,
              25.046878166788193
            ],
            [
              85.19154888438487,
              25.04589649693619
            ],
            [
              85.1914759214209,
              25.04512821761752
            ],
            [
              85.19147159872773,
              25.044071872898193
            ],
            [
              85.19134533063308,
              25.043221691227647
            ],
            [
              85.19140566597913,
              25.042486634353878
            ],
            [
              85.19136984386054,
              25.04121322971893
            ],
            [
              85.19139621570237,
              25.04076665874994
            ],
            [
              85.19139124173064,
              25.039416891071927
            ],
            [
              85.19158519878025,
              25.03869248805001
            ],
            [
              85.19158758290901,
              25.03853001036834
            ],
            [
              85.19152503411411,
              25.038402854727114
            ],
            [
              85.19158409564908,
              25.038092103336098
            ],
            [
              85.19153965329704,
              25.037743979323295
            ],
            [
              85.19135486894477,
              25.036829886604234
            ],
            [
              85.19121347771232,
              25.035997576248807
            ],
            [
              85.1911742797249,
              25.034954348944634
            ],
            [
              85.19122548369609,
              25.03450356512095
            ],
            [
              85.1912427286546,
              25.034341269092927
            ],
            [
              85.19113190170137,
              25.03412775832982
            ],
            [
              85.1910349438378,
              25.033982127730525
            ],
            [
              85.19056162959943,
              25.033822885676567
            ],
            [
              85.1901476966963,
              25.033668878593865
            ],
            [
              85.1899167901424,
              25.033535157655827
            ],
            [
              85.18963820101322,
              25.033274461190555
            ],
            [
              85.1895041993223,
              25.03295232862508
            ],
            [
              85.18942859980294,
              25.03236457984093
            ],
            [
              85.18940762324274,
              25.031768465826897
            ],
            [
              85.18966120507103,
              25.031369804117368
            ],
            [
              85.19081517639343,
              25.03072480616853
            ],
            [
              85.19121485572796,
              25.030160897898043
            ],
            [
              85.19128552888631,
              25.03007362775694
            ],
            [
              85.19138137014397,
              25.029955277632045
            ],
            [
              85.19152562161229,
              25.029916407370056
            ],
            [
              85.19170309277982,
              25.029977250251942
            ],
            [
              85.19225709998524,
              25.0303767157837
            ],
            [
              85.19378460158256,
              25.03162763630369
            ],
            [
              85.19485929388618,
              25.03199730877719
            ],
            [
              85.19565592077844,
              25.032070182252095
            ],
            [
              85.19701760774736,
              25.032127339372607
            ],
            [
              85.19854665983686,
              25.031920183244324
            ],
            [
              85.19905154626423,
              25.0319533878612
            ],
            [
              85.20019189733027,
              25.031899493739676
            ],
            [
              85.20107009214867,
              25.031815334082943
            ],
            [
              85.20130747735239,
              25.031845292739494
            ],
            [
              85.2016086689924,
              25.03191664993723
            ],
            [
              85.20176620295054,
              25.03198626933567
            ],
            [
              85.20186838811073,
              25.032113898828023
            ],
            [
              85.20188287344469,
              25.032479715855207
            ],
            [
              85.201914147393,
              25.033053383082493
            ],
            [
              85.20180412802519,
              25.03346283363874
            ],
            [
              85.20184484775872,
              25.034068214901414
            ],
            [
              85.20194168794299,
              25.034222866110003
            ],
            [
              85.20209367660084,
              25.03433304440636
            ],
            [
              85.20222657695726,
              25.034393334886726
            ],
            [
              85.20245927565011,
              25.034405179080547
            ],
            [
              85.202642568799,
              25.034407396204106
            ],
            [
              85.20285597886611,
              25.034382893893596
            ],
            [
              85.20301040375503,
              25.03432607804349
            ],
            [
              85.20326872689138,
              25.034279547710643
            ],
            [
              85.20334779121279,
              25.03429404611755
            ],
            [
              85.20342600033806,
              25.034367216937714
            ],
            [
              85.20358182929377,
              25.034554178810737
            ],
            [
              85.20360925126613,
              25.034712504255477
            ],
            [
              85.20357117707114,
              25.035285333289472
            ],
            [
              85.20385657812513,
              25.03610131980073
            ],
            [
              85.2038390861299,
              25.036281673341016
            ],
            [
              85.2038206086828,
              25.03652972424032
            ],
            [
              85.20380478306244,
              25.0369358009514
            ],
            [
              85.20379594992828,
              25.037202024993626
            ],
            [
              85.20379893143668,
              25.03733748368614
            ],
            [
              85.2037875767315,
              25.037436656859636
            ],
            [
              85.20384009942953,
              25.037572714324163
            ],
            [
              85.20386798223764,
              25.037699445970077
            ],
            [
              85.20401272238946,
              25.03796752567103
            ],
            [
              85.20412528398953,
              25.038063683657906
            ],
            [
              85.20422311591386,
              25.03815063476497
            ],
            [
              85.20428541407881,
              25.03829583800345
            ],
            [
              85.20423885619427,
              25.03843069808885
            ],
            [
              85.20422949844395,
              25.0387330288961
            ],
            [
              85.20433851080031,
              25.039072903757962
            ],
            [
              85.20440412105371,
              25.03933099973253
            ],
            [
              85.20466109941209,
              25.039717803285296
            ],
            [
              85.20483166612834,
              25.039913971000967
            ],
            [
              85.2049347819432,
              25.039978413621498
            ],
            [
              85.2051116171035,
              25.04008437489686
            ],
            [
              85.20530397335527,
              25.040145382837725
            ],
            [
              85.2056358316825,
              25.040153905016084
            ],
            [
              85.20622635360753,
              25.04009332599649
            ],
            [
              85.20686654787623,
              25.040024316729184
            ],
            [
              85.20725290160185,
              25.040033494093112
            ],
            [
              85.20753430066124,
              25.04010460236263
            ],
            [
              85.20765723510785,
              25.04016928172318
            ],
            [
              85.20773935459954,
              25.040314724295072
            ],
            [
              85.20774949298584,
              25.040639861093375
            ],
            [
              85.20775083776384,
              25.04088815222609
            ],
            [
              85.20782754580425,
              25.041065127645997
            ],
            [
              85.20787121380852,
              25.0411288518218
            ],
            [
              85.20802361209817,
              25.04121194379351
            ],
            [
              85.20833493583629,
              25.04126986902333
            ],
            [
              85.20899754576627,
              25.041363628370693
            ],
            [
              85.20975969891121,
              25.04142698533358
            ],
            [
              85.21070749070623,
              25.041673137640167
            ],
            [
              85.21112748184763,
              25.041754935998547
            ],
            [
              85.21141430134145,
              25.04179450325414
            ],
            [
              85.21167119705484,
              25.04184725116501
            ],
            [
              85.21178911530893,
              25.041916382301302
            ],
            [
              85.21192632757868,
              25.042021857648788
            ],
            [
              85.21199920071115,
              25.04212204600087
            ],
            [
              85.21201327731164,
              25.042176384887654
            ],
            [
              85.21201711940611,
              25.04225317109935
            ],
            [
              85.2119371962953,
              25.042297350393557
            ],
            [
              85.21174385189667,
              25.042304050168365
            ],
            [
              85.21149607588006,
              25.042305581057075
            ],
            [
              85.2112733341138,
              25.04228935737946
            ],
            [
              85.21112913834104,
              25.04232373278936
            ],
            [
              85.21103435440047,
              25.042367732193078
            ],
            [
              85.21094426056398,
              25.042429844231854
            ],
            [
              85.2108984940952,
              25.042510546618853
            ],
            [
              85.21095802724572,
              25.04318837816167
            ],
            [
              85.21109499607202,
              25.043993538238947
            ],
            [
              85.2111746757394,
              25.044649040825497
            ],
            [
              85.21119003782907,
              25.044956184887567
            ],
            [
              85.21129121597785,
              25.04583765261797
            ],
            [
              85.21136183883053,
              25.04643436398018
            ],
            [
              85.21141338416155,
              25.04766281924987
            ],
            [
              85.21121239060831,
              25.04785450468671
            ],
            [
              85.21119789629118,
              25.048170316968243
            ],
            [
              85.21112178742706,
              25.048634351758768
            ],
            [
              85.21110497365989,
              25.04945119999752
            ],
            [
              85.21117625228275,
              25.05000277812463
            ],
            [
              85.21143663166278,
              25.050841022155392
            ],
            [
              85.2115234960558,
              25.051343133132594
            ],
            [
              85.21154309460039,
              25.051699981616036
            ],
            [
              85.21148237118211,
              25.05212808904958
            ],
            [
              85.2115419744012,
              25.052801406985843
            ],
            [
              85.21175914391777,
              25.053544334894777
            ],
            [
              85.21179164137149,
              25.05403676207061
            ],
            [
              85.21216823939311,
              25.05437985536793
            ],
            [
              85.21252783500135,
              25.054528633891955
            ],
            [
              85.21376694864638,
              25.05485501878098
            ],
            [
              85.21475780926937,
              25.055214522182712
            ],
            [
              85.2163620189071,
              25.0556536131504
            ],
            [
              85.21743954180222,
              25.055847117096526
            ],
            [
              85.21844424905701,
              25.055935915891975
            ],
            [
              85.2189141676636,
              25.055995722945916
            ],
            [
              85.22123293590589,
              25.056028034839425
            ],
            [
              85.22303210690976,
              25.056008951732036
            ],
            [
              85.22412371988008,
              25.055913672865394
            ],
            [
              85.22455021302753,
              25.055914407708077
            ],
            [
              85.2250058008104,
              25.055915193005045
            ],
            [
              85.22543145672797,
              25.05595187898205
            ],
            [
              85.22578493570745,
              25.05583873760662
            ],
            [
              85.22622009669907,
              25.055559548169686
            ],
            [
              85.22681438166684,
              25.055070093357674
            ],
            [
              85.22740866304139,
              25.054580635777253
            ],
            [
              85.22761518392856,
              25.054348366595033
            ],
            [
              85.22775238182527,
              25.05376768316891
            ],
            [
              85.22786722784109,
              25.05232904974269
            ],
            [
              85.227865606382,
              25.05140814999259
            ],
            [
              85.22786492276407,
              25.051020392093225
            ],
            [
              85.2278639840246,
              25.050487249834813
            ],
            [
              85.22779667595532,
              25.049998922252488
            ],
            [
              85.22773897267302,
              25.04987635216828
            ],
            [
              85.22771184175483,
              25.04969546359499
            ],
            [
              85.22749778220577,
              25.049074474626494
            ],
            [
              85.22701732995417,
              25.048025978316996
            ],
            [
              85.2269285835906,
              25.047650246327144
            ],
            [
              85.22691037024823,
              25.04719410203255
            ],
            [
              85.22692552303043,
              25.046944895077647
            ],
            [
              85.22692984392698,
              25.046873830652633
            ],
            [
              85.22690544209058,
              25.046503382661857
            ],
            [
              85.22707789706556,
              25.04588249309134
            ],
            [
              85.22716445782801,
              25.045721017828566
            ],
            [
              85.22739303055882,
              25.044987943830243
            ],
            [
              85.22739711968998,
              25.044703603216135
            ],
            [
              85.22733479008399,
              25.044558408378016
            ],
            [
              85.22732981521396,
              25.044215275385618
            ],
            [
              85.2273443400738,
              25.04414611380485
            ],
            [
              85.22745748018886,
              25.043607391121867
            ],
            [
              85.22766774435584,
              25.043113347226846
            ],
            [
              85.22864626661844,
              25.042948969329256
            ],
            [
              85.22890635224937,
              25.04278053408719
            ],
            [
              85.22896170464055,
              25.042031847920818
            ],
            [
              85.22913878324431,
              25.040742920315257
            ],
            [
              85.2293599870948,
              25.037071054834
            ],
            [
              85.22946227915452,
              25.036503493612923
            ],
            [
              85.22958185929188,
              25.03611218876463
            ],
            [
              85.2299625823773,
              25.034441983000903
            ],
            [
              85.23034157800238,
              25.032546048267275
            ],
            [
              85.23053921455144,
              25.031893852330825
            ],
            [
              85.23077534301207,
              25.0302851172135
            ],
            [
              85.23076711803732,
              25.029822320203728
            ],
            [
              85.23075889216426,
              25.02935952389026
            ],
            [
              85.23085261788943,
              25.028006397632545
            ],
            [
              85.2308190083214,
              25.027586183686495
            ],
            [
              85.23063581668214,
              25.02654123737781
            ],
            [
              85.2305446080364,
              25.025646350894576
            ],
            [
              85.2303328975818,
              25.024862884386884
            ],
            [
              85.2302246946075,
              25.02411676282689
            ],
            [
              85.23003778843456,
              25.02324782188574
            ],
            [
              85.2300247251337,
              25.022822525317665
            ],
            [
              85.23022139779043,
              25.021652545357302
            ],
            [
              85.23063663055576,
              25.020632147202328
            ],
            [
              85.23090809604474,
              25.019535101359153
            ],
            [
              85.23099650643837,
              25.018627727910417
            ],
            [
              85.23104531460271,
              25.017724938085436
            ],
            [
              85.23105273558527,
              25.0174007296169
            ],
            [
              85.2309933030461,
              25.014786604039966
            ],
            [
              85.23275621175686,
              25.0141443543016
            ],
            [
              85.23332068164036,
              25.01396336501075
            ],
            [
              85.23487552436168,
              25.013298754383914
            ],
            [
              85.2356134724013,
              25.01310410630769
            ],
            [
              85.23656933016926,
              25.012927389322076
            ],
            [
              85.23754994730305,
              25.012723511593467
            ],
            [
              85.23860491080643,
              25.012627945928568
            ],
            [
              85.23878801980068,
              25.01247428590672
            ],
            [
              85.23880769200709,
              25.012262173933593
            ],
            [
              85.2388173318284,
              25.011982320345584
            ],
            [
              85.2386085588648,
              25.011219662332206
            ],
            [
              85.23846925082549,
              25.010484009153558
            ],
            [
              85.2383200119107,
              25.00986118295717
            ],
            [
              85.23799257059976,
              25.009243015075285
            ],
            [
              85.23759027806607,
              25.00802466070756
            ],
            [
              85.23745626559534,
              25.007758453156267
            ],
            [
              85.23742628342443,
              25.007492122912968
            ],
            [
              85.23747562878128,
              25.007234858748625
            ],
            [
              85.2374528546922,
              25.006321028080862
            ],
            [
              85.23763625114735,
              25.004434242826
            ],
            [
              85.23784447164705,
              25.00271002962064
            ],
            [
              85.23784462436065,
              25.001477771699047
            ],
            [
              85.23781573903268,
              25.000809609785836
            ],
            [
              85.23663113066755,
              25.000895445039216
            ],
            [
              85.23564051438629,
              25.00094945861039
            ],
            [
              85.23468979767668,
              25.001136697711853
            ],
            [
              85.23417955190037,
              25.00108249778425
            ],
            [
              85.23237712270696,
              25.00072679495164
            ],
            [
              85.23198862470277,
              25.00047032099653
            ],
            [
              85.23136816462424,
              25.000000137166026
            ],
            [
              85.23091066073488,
              24.99965343816873
            ],
            [
              85.2301677701646,
              24.999314809722886
            ],
            [
              85.22998489922388,
              24.996741993761113
            ],
            [
              85.229332321679,
              24.98977264090015
            ],
            [
              85.22933738099069,
              24.988896983893454
            ],
            [
              85.22873320826656,
              24.98893751105678
            ],
            [
              85.22452317733075,
              24.990710756376654
            ],
            [
              85.22308679364933,
              24.991383036907152
            ],
            [
              85.22225475067697,
              24.991382878950947
            ],
            [
              85.22123464001,
              24.990538641678086
            ],
            [
              85.22058604829002,
              24.98965375200307
            ],
            [
              85.21910541000445,
              24.989021546213287
            ],
            [
              85.21572766728104,
              24.989314206060772
            ],
            [
              85.21179040439135,
              24.989525348021953
            ],
            [
              85.21040345589833,
              24.989989961976956
            ],
            [
              85.20977452201171,
              24.989858899113283
            ],
            [
              85.20896734620305,
              24.98969165061983
            ],
            [
              85.20797188440918,
              24.989858404069146
            ],
            [
              85.20605983919152,
              24.990728948306803
            ],
            [
              85.20429635286402,
              24.991766631315617
            ],
            [
              85.20383559258175,
              24.992186264365326
            ],
            [
              85.20332034229098,
              24.99248853237943
            ],
            [
              85.20236943603686,
              24.992438563292936
            ],
            [
              85.19979395982908,
              24.99262279712667
            ],
            [
              85.1998137919356,
              24.99264082919086
            ],
            [
              85.19785260707532,
              24.992527272818865
            ],
            [
              85.19670869239252,
              24.99204390433681
            ],
            [
              85.19568389701134,
              24.991222046864088
            ],
            [
              85.19466369202125,
              24.991072755983843
            ],
            [
              85.1946192074484,
              24.99088762338105
            ],
            [
              85.19454032279005,
              24.990102217133675
            ],
            [
              85.1942539533522,
              24.98816569322409
            ],
            [
              85.19380352459402,
              24.987569730231417
            ],
            [
              85.1925356774363,
              24.987641446993248
            ],
            [
              85.19239772495473,
              24.986192480843947
            ],
            [
              85.19200740965874,
              24.984228767645604
            ],
            [
              85.19089954616493,
              24.981145435851587
            ],
            [
              85.19103960429749,
              24.978148400664484
            ],
            [
              85.19011355981719,
              24.97819314290213
            ],
            [
              85.18951439789572,
              24.978066524916876
            ],
            [
              85.18726603780877,
              24.97834090226343
            ],
            [
              85.18527505762712,
              24.978804937177948
            ],
            [
              85.18550603694457,
              24.982136239266943
            ],
            [
              85.18457968703706,
              24.982727115829384
            ],
            [
              85.18365348085999,
              24.98289378589888
            ],
            [
              85.1818011879818,
              24.983150186605744
            ],
            [
              85.18161773672942,
              24.983610474068893
            ],
            [
              85.18240452437439,
              24.984626480708506
            ],
            [
              85.1819882899875,
              24.98509116691772
            ],
            [
              85.18110665641821,
              24.985343560203287
            ],
            [
              85.18022481264313,
              24.985848723029267
            ],
            [
              85.18008584865858,
              24.98639484170026
            ],
            [
              85.18041226319515,
              24.987112633108453
            ],
            [
              85.18126800102976,
              24.988995267167482
            ],
            [
              85.17983645387783,
              24.989441477682295
            ],
            [
              85.17852888591318,
              24.989666587345653
            ],
            [
              85.17533913093433,
              24.99018410196598
            ],
            [
              85.17271923034083,
              24.9901105262047
            ],
            [
              85.17086683325803,
              24.990317146280507
            ],
            [
              85.16943555200746,
              24.99037958591548
            ],
            [
              85.1672312731498,
              24.990951656949616
            ],
            [
              85.1664287793604,
              24.991077604600008
            ],
            [
              85.16579942955383,
              24.991713611109397
            ],
            [
              85.16496227337088,
              24.991970410294858
            ],
            [
              85.16461028469648,
              24.99238103596202
            ],
            [
              85.16443608070162,
              24.993658333406383
            ],
            [
              85.16426266722424,
              24.993784615358567
            ],
            [
              85.16363355726781,
              24.99394224513878
            ],
            [
              85.16356401688505,
              24.99416334400751
            ],
            [
              85.16357812223164,
              24.995237587352257
            ],
            [
              85.16191887012148,
              24.99534045916579
            ],
            [
              85.15996739784605,
              24.995443120834686
            ],
            [
              85.1588786936206,
              24.99418763939912
            ],
            [
              85.15756172658314,
              24.993559429374898
            ],
            [
              85.1544672029059,
              24.99246056868065
            ],
            [
              85.15439066464707,
              24.99246421873959
            ],
            [
              85.15377989918709,
              24.990975098869832
            ],
            [
              85.15231674571017,
              24.987471445817754
            ],
            [
              85.15271830521858,
              24.98694810287181
            ],
            [
              85.15317488563984,
              24.985675588602806
            ],
            [
              85.15341920583755,
              24.983509071948166
            ],
            [
              85.15352504085276,
              24.98121618330245
            ],
            [
              85.15349064615715,
              24.9808956608056
            ],
            [
              85.1523218831753,
              24.980881393863104
            ],
            [
              85.15165864172968,
              24.98043408394727
            ],
            [
              85.15127347378022,
              24.979066105113734
            ],
            [
              85.15033495888716,
              24.976099931222794
            ],
            [
              85.14984560073783,
              24.975083987687846
            ],
            [
              85.15002918314423,
              24.974574085281905
            ],
            [
              85.15083186378321,
              24.9740419790879
            ],
            [
              85.15177793979605,
              24.973640867006146
            ],
            [
              85.15291176010999,
              24.973876367043278
            ],
            [
              85.1543720353847,
              24.974608530136585
            ],
            [
              85.15511971397547,
              24.97469025835154
            ],
            [
              85.1550872488611,
              24.97189615987624
            ],
            [
              85.15461316117326,
              24.970130996015627
            ],
            [
              85.15439553890579,
              24.96990068761613
            ],
            [
              85.15341031700784,
              24.969597602659203
            ],
            [
              85.15205919961653,
              24.968766173872623
            ],
            [
              85.15176803407338,
              24.96746598583367
            ],
            [
              85.15257072369552,
              24.966834657886732
            ],
            [
              85.15278914726024,
              24.96617122733366
            ],
            [
              85.15304849717094,
              24.963742947338062
            ],
            [
              85.15270320543699,
              24.96200046814252
            ],
            [
              85.15233395922766,
              24.959346090862912
            ],
            [
              85.15235057267051,
              24.957138875848667
            ],
            [
              85.15451404555638,
              24.95747874679414
            ],
            [
              85.15533077943967,
              24.957727569260378
            ],
            [
              85.15533159600825,
              24.95667584079537
            ],
            [
              85.15546668735563,
              24.95488398497336
            ],
            [
              85.15550258313608,
              24.953281605122744
            ],
            [
              85.15546826479726,
              24.95272636326173
            ],
            [
              85.15468636937734,
              24.952292512665803
            ],
            [
              85.15387552844233,
              24.950779918719967
            ],
            [
              85.15139272064263,
              24.94758252717386
            ],
            [
              85.14949817819999,
              24.94557710735977
            ],
            [
              85.14890972509504,
              24.944669468222266
            ],
            [
              85.14681648609134,
              24.943620829306514
            ],
            [
              85.1438256181164,
              24.944300237619544
            ],
            [
              85.14287461574254,
              24.944800593886423
            ],
            [
              85.14197864775628,
              24.94466451922061
            ],
            [
              85.14158299467084,
              24.944298625686812
            ],
            [
              85.14053625075233,
              24.94107499898018
            ],
            [
              85.13950872089941,
              24.93928208532789
            ],
            [
              85.13950866520388,
              24.9392819916544
            ],
            [
              85.13949330940243,
              24.93925519614889
            ],
            [
              85.13495896598778,
              24.938886179837937
            ],
            [
              85.12828084614819,
              24.938700235613332
            ],
            [
              85.12758281384993,
              24.938699734661473
            ],
            [
              85.12737982334178,
              24.938744701394402
            ],
            [
              85.12678604771877,
              24.938473319694975
            ],
            [
              85.12628941591059,
              24.93506497890209
            ],
            [
              85.12568995395182,
              24.935470750610055
            ],
            [
              85.12349509213328,
              24.937333129628616
            ],
            [
              85.1224255283116,
              24.937589498996875
            ],
            [
              85.121574220968,
              24.93736302497079
            ],
            [
              85.12132768911803,
              24.93645555502622
            ],
            [
              85.1199711962081,
              24.936526593715172
            ],
            [
              85.1202328377211,
              24.93246439869112
            ],
            [
              85.1203537401786,
              24.93044689325046
            ],
            [
              85.12053538761387,
              24.92716094082344
            ],
            [
              85.12021775770243,
              24.92330134000438
            ],
            [
              85.12019180717051,
              24.91968575503048
            ],
            [
              85.12010632258976,
              24.916201010763675
            ],
            [
              85.12015843026613,
              24.913768108794006
            ],
            [
              85.12053898177332,
              24.909588717712623
            ],
            [
              85.12068813714478,
              24.908893715992892
            ],
            [
              85.12080066460884,
              24.905400087265384
            ],
            [
              85.12104489317841,
              24.903788852613847
            ],
            [
              85.12127461395613,
              24.90177591188176
            ],
            [
              85.12184313344491,
              24.897601130695254
            ],
            [
              85.12215164994781,
              24.895931195961158
            ],
            [
              85.12250374282677,
              24.89524539268549
            ],
            [
              85.1232764233285,
              24.89463673777355
            ],
            [
              85.1241080629573,
              24.894321455177998
            ],
            [
              85.12456407833824,
              24.893613219819645
            ],
            [
              85.12405520428936,
              24.892854468135294
            ],
            [
              85.12074016307446,
              24.892215147928717
            ],
            [
              85.11684601392851,
              24.891787387361667
            ],
            [
              85.1136345313979,
              24.891685221086835
            ],
            [
              85.11120002062113,
              24.89143917601241
            ],
            [
              85.10818614140186,
              24.891571798153496
            ],
            [
              85.10601862340226,
              24.89161935460487
            ],
            [
              85.10451924266663,
              24.891496022821038
            ],
            [
              85.1029398498869,
              24.89216256481563
            ],
            [
              85.10080193227422,
              24.89224619501554
            ],
            [
              85.09973309069805,
              24.892204487892
            ],
            [
              85.09915000592522,
              24.891490668325734
            ],
            [
              85.09759825700175,
              24.88980547708709
            ],
            [
              85.09675785610402,
              24.888568132865093
            ],
            [
              85.09675767105104,
              24.888567859063087
            ],
            [
              85.09672391236269,
              24.888518154208604
            ],
            [
              85.09594974335249,
              24.886300993886532
            ],
            [
              85.09565899013606,
              24.885366376906894
            ],
            [
              85.09422759390111,
              24.883485905166516
            ],
            [
              85.09383864224772,
              24.88344285698462
            ],
            [
              85.09351702830799,
              24.882639089055015
            ],
            [
              85.0934195682862,
              24.881736639891287
            ],
            [
              85.09342577474649,
              24.880298856739653
            ],
            [
              85.09343589157321,
              24.8779543300932
            ],
            [
              85.09407476082686,
              24.877124750825473
            ],
            [
              85.09608120101456,
              24.876033372753117
            ],
            [
              85.09643529893326,
              24.874717814049326
            ],
            [
              85.09614870491657,
              24.873444855372743
            ],
            [
              85.09468496394149,
              24.869999058194317
            ],
            [
              85.093196872334,
              24.867238363843374
            ],
            [
              85.09286795329442,
              24.866459886931185
            ],
            [
              85.09253903874637,
              24.86568140919191
            ],
            [
              85.09174889499549,
              24.865493609646357
            ],
            [
              85.08972570122778,
              24.8658739128437
            ],
            [
              85.08790192536829,
              24.86595211069351
            ],
            [
              85.08695877786327,
              24.86576232694322
            ],
            [
              85.08626512664867,
              24.86292289568483
            ],
            [
              85.08618792363653,
              24.862515731301766
            ],
            [
              85.0854405172353,
              24.86226498229234
            ],
            [
              85.08389518318127,
              24.862334008925206
            ],
            [
              85.08221212302114,
              24.862312400868504
            ],
            [
              85.08051476168168,
              24.862315975722094
            ],
            [
              85.07978715055607,
              24.862585866273918
            ],
            [
              85.07893788238813,
              24.862625712838007
            ],
            [
              85.07879231219295,
              24.863042708056266
            ],
            [
              85.07940842532383,
              24.864586484873154
            ],
            [
              85.08008959265098,
              24.866423034404054
            ],
            [
              85.08103132890267,
              24.871207699048835
            ],
            [
              85.08088575601256,
              24.87162469465904
            ],
            [
              85.07533744640747,
              24.874117233064634
            ],
            [
              85.07488915294472,
              24.87431453685635
            ],
            [
              85.07538355243943,
              24.876529485340164
            ],
            [
              85.07546023083545,
              24.878764429708514
            ],
            [
              85.07547944130782,
              24.88201406688761
            ],
            [
              85.07542949677466,
              24.88320744570939
            ],
            [
              85.07530263938517,
              24.886238529194777
            ],
            [
              85.07485095478222,
              24.886651568264533
            ],
            [
              85.07161098308069,
              24.88650818578259
            ],
            [
              85.06767975956463,
              24.88607653791583
            ],
            [
              85.06578091688675,
              24.88559499100664
            ],
            [
              85.06436954320114,
              24.884193166107835
            ],
            [
              85.06170649562623,
              24.8818611899639
            ],
            [
              85.05862628211143,
              24.882189240082525
            ],
            [
              85.05541091526551,
              24.882261609834284
            ],
            [
              85.05547967770727,
              24.883201774664844
            ],
            [
              85.05542816022403,
              24.884303376903322
            ],
            [
              85.0552746049043,
              24.884483829123834
            ],
            [
              85.05492811571608,
              24.884768022684398
            ],
            [
              85.05461124488104,
              24.885056754640523
            ],
            [
              85.05399235685428,
              24.88565228625912
            ],
            [
              85.0535368211737,
              24.886099000725707
            ],
            [
              85.05285356436522,
              24.886721582788134
            ],
            [
              85.05219009384919,
              24.887344150303715
            ],
            [
              85.05164556027677,
              24.88774112496265
            ],
            [
              85.05125434217395,
              24.88815617096995
            ],
            [
              85.05039286679963,
              24.88888248977378
            ],
            [
              85.04976419522106,
              24.889247754045048
            ],
            [
              85.04934347015607,
              24.889423622668335
            ],
            [
              85.04885343827029,
              24.88956328509616
            ],
            [
              85.04838825019193,
              24.88963980478508
            ],
            [
              85.0478736071623,
              24.889689134343516
            ],
            [
              85.04594350401082,
              24.889936416630103
            ],
            [
              85.04529517280233,
              24.89002181173229
            ],
            [
              85.04466166199933,
              24.890071107728186
            ],
            [
              85.04411731797146,
              24.890183681309125
            ],
            [
              85.04373620861047,
              24.890269232696475
            ],
            [
              85.04323144794725,
              24.890300529624472
            ],
            [
              85.04234879119689,
              24.89031255229729
            ],
            [
              85.04010878364542,
              24.891171633370178
            ],
            [
              85.04031715775704,
              24.892075553689224
            ],
            [
              85.04056867525681,
              24.89289119299499
            ],
            [
              85.0415249273852,
              24.895785004095032
            ],
            [
              85.04203843584264,
              24.89829839684829
            ],
            [
              85.04124170294916,
              24.901168413597976
            ],
            [
              85.04104614689831,
              24.901872829018078
            ],
            [
              85.03991056319147,
              24.905140225641098
            ],
            [
              85.03626541356755,
              24.90541308130996
            ],
            [
              85.03684067491255,
              24.90775611217661
            ],
            [
              85.03839785415191,
              24.91313292572931
            ],
            [
              85.03933939097762,
              24.91520152802111
            ],
            [
              85.04046009319349,
              24.91736727432613
            ],
            [
              85.04125719888779,
              24.9189076233876
            ],
            [
              85.04437649810058,
              24.92410182323847
            ],
            [
              85.0445186627825,
              24.925677583760955
            ],
            [
              85.04430340577917,
              24.926969415776842
            ],
            [
              85.04392635231171,
              24.92792911207479
            ],
            [
              85.04368925906046,
              24.928839874772844
            ],
            [
              85.04425012580137,
              24.930344975672053
            ],
            [
              85.04464430295478,
              24.930946704593676
            ],
            [
              85.04503848280315,
              24.9315484346508
            ],
            [
              85.04552347963177,
              24.9325702131753
            ],
            [
              85.0462808258916,
              24.933976342665485
            ],
            [
              85.0481614255827,
              24.936539533162367
            ],
            [
              85.04940034968322,
              24.938307355153007
            ],
            [
              85.05063930791971,
              24.94007516725713
            ],
            [
              85.05284333165582,
              24.94294178459837
            ],
            [
              85.05334042340144,
              24.943588294797486
            ],
            [
              85.05566272202279,
              24.946411028770157
            ],
            [
              85.05885843642524,
              24.950362077991755
            ],
            [
              85.06407715325426,
              24.956725619987502
            ],
            [
              85.06693890278015,
              24.960697559346574
            ],
            [
              85.0695704554212,
              24.963371802282566
            ],
            [
              85.07125607039,
              24.965264004675667
            ],
            [
              85.07249889228052,
              24.966659100001376
            ],
            [
              85.07406703096638,
              24.968786400055095
            ],
            [
              85.07560135526829,
              24.970405537644652
            ],
            [
              85.08032934401716,
              24.974401364943095
            ],
            [
              85.08392621009286,
              24.977722466710528
            ],
            [
              85.08606085244801,
              24.980132454821025
            ],
            [
              85.08708773281896,
              24.98129175121512
            ],
            [
              85.08766855383725,
              24.982454265246766
            ],
            [
              85.08779325796499,
              24.983395135838354
            ],
            [
              85.08723397136067,
              24.98354026214952
            ],
            [
              85.08622855264018,
              24.983717724106985
            ],
            [
              85.08609970638066,
              24.9839445379041
            ],
            [
              85.08686406219468,
              24.985845600403962
            ],
            [
              85.08799402604109,
              24.988689654683295
            ],
            [
              85.0880704493156,
              24.98888200136242
            ],
            [
              85.09039367499832,
              24.99176984823826
            ],
            [
              85.091226231807,
              24.993533744845895
            ],
            [
              85.09196141932375,
              24.99520890779889
            ],
            [
              85.09278447285504,
              24.99694306388799
            ],
            [
              85.09443815181717,
              25.000001127172606
            ],
            [
              85.09468606078445,
              25.00039649005176
            ],
            [
              85.09486073280158,
              25.000851023695137
            ],
            [
              85.09523893970585,
              25.001924857684433
            ],
            [
              85.09584303427651,
              25.00259307296432
            ],
            [
              85.09625008698292,
              25.00290050383769
            ],
            [
              85.09627352313036,
              25.002918204670838
            ],
            [
              85.09650657575945,
              25.00309421880957
            ],
            [
              85.09712065420621,
              25.003681125902904
            ],
            [
              85.098180408425,
              25.004823257600204
            ],
            [
              85.09864583276023,
              25.005626822175625
            ],
            [
              85.09893779061746,
              25.006958464230564
            ],
            [
              85.09901188096713,
              25.00792440136994
            ],
            [
              85.10005679681406,
              25.008624236768718
            ],
            [
              85.10103736364222,
              25.009585775323504
            ],
            [
              85.1016514852081,
              25.01027648597962
            ],
            [
              85.10292932342841,
              25.01128775893822
            ],
            [
              85.10376127297596,
              25.012091382166137
            ],
            [
              85.1048360766707,
              25.01306195410343
            ],
            [
              85.10606931533378,
              25.013987501815954
            ],
            [
              85.1070452315837,
              25.013423410820195
            ],
            [
              85.10771898691142,
              25.0131616939452
            ],
            [
              85.10844697532946,
              25.013983289882727
            ],
            [
              85.10894729472192,
              25.01452049499353
            ],
            [
              85.10948216871004,
              25.01529241266315
            ],
            [
              85.11001700496895,
              25.01637118618137
            ],
            [
              85.11034881299052,
              25.01695355180882
            ],
            [
              85.11054196514964,
              25.017341724290144
            ],
            [
              85.11073512000374,
              25.017729896358215
            ],
            [
              85.111101548198,
              25.018750101292138
            ],
            [
              85.11139372434585,
              25.019300814596377
            ],
            [
              85.11155506985573,
              25.019638754634787
            ],
            [
              85.1117256042326,
              25.019995937120306
            ],
            [
              85.11244377675956,
              25.02107477431706
            ],
            [
              85.11306294775565,
              25.02185118234516
            ],
            [
              85.11393964957404,
              25.023268586922704
            ],
            [
              85.11455376934329,
              25.024175920369228
            ],
            [
              85.11536617604185,
              25.02567907940296
            ],
            [
              85.1158912053928,
              25.026536706797398
            ],
            [
              85.11640628500369,
              25.027624510142697
            ],
            [
              85.11684224908915,
              25.028586000012506
            ],
            [
              85.11734254243045,
              25.02957908981592
            ],
            [
              85.11782795787403,
              25.03028779185105
            ],
            [
              85.11830351071406,
              25.03109125000453
            ],
            [
              85.11883355266431,
              25.0317592569149
            ],
            [
              85.1189574590881,
              25.032061724627106
            ],
            [
              85.11924964781232,
              25.033018590783534
            ],
            [
              85.1194704078951,
              25.033845415956883
            ],
            [
              85.11956179261063,
              25.034187684273345
            ],
            [
              85.11993320555642,
              25.035830769052257
            ],
            [
              85.11989352158044,
              25.037419539687434
            ],
            [
              85.11993312291142,
              25.038611183310664
            ],
            [
              85.11911562366352,
              25.039459748005196
            ],
            [
              85.11883811520764,
              25.039897607832522
            ],
            [
              85.11827326264184,
              25.04059264298446
            ],
            [
              85.11824839817307,
              25.041260663266208
            ],
            [
              85.1182936678735,
              25.04138258516547
            ],
            [
              85.11847132139901,
              25.041861043049973
            ],
            [
              85.11875869335672,
              25.042407169845788
            ],
            [
              85.11933837890453,
              25.04278637032331
            ],
            [
              85.1202251885665,
              25.04378849865301
            ],
            [
              85.1208246532202,
              25.044632609925117
            ],
            [
              85.12169986563184,
              25.04568857137493
            ],
            [
              85.1222607835767,
              25.046273450182234
            ],
            [
              85.12294293905063,
              25.046381380400405
            ],
            [
              85.12350681604605,
              25.046447187690955
            ],
            [
              85.12444672422615,
              25.04654933866837
            ],
            [
              85.12456441520648,
              25.04760709113753
            ],
            [
              85.12462257932448,
              25.048343600927524
            ],
            [
              85.1245885197005,
              25.048643845871073
            ],
            [
              85.12447378238083,
              25.04965528201275
            ],
            [
              85.12446169195542,
              25.05044958482977
            ],
            [
              85.12463152923965,
              25.051011459695136
            ],
            [
              85.12489605883631,
              25.051863424111588
            ],
            [
              85.12519994182897,
              25.05240893588052
            ],
            [
              85.12564832871648,
              25.05290210329227
            ],
            [
              85.12666835584014,
              25.053930615914766
            ],
            [
              85.12686364688797,
              25.053819455073597
            ],
            [
              85.12741315083883,
              25.053506670829037
            ],
            [
              85.12805857869239,
              25.053099525950586
            ],
            [
              85.12878826582462,
              25.05334345024955
            ],
            [
              85.13072508028958,
              25.05404493986339
            ],
            [
              85.13177572379475,
              25.054365112757424
            ],
            [
              85.13260694031705,
              25.054777312744676
            ],
            [
              85.13334010392941,
              25.054466041336617
            ],
            [
              85.13412882115561,
              25.05441275768468
            ],
            [
              85.13614338031685,
              25.054564451971967
            ],
            [
              85.13712902172804,
              25.054924398111684
            ],
            [
              85.13878807531053,
              25.055319864022653
            ],
            [
              85.1394777972941,
              25.0549312786707
            ],
            [
              85.14000217626479,
              25.05466249713769
            ],
            [
              85.14064689175432,
              25.054300426237017
            ],
            [
              85.14172252100079,
              25.053623252638953
            ],
            [
              85.14292871139065,
              25.05315986091559
            ],
            [
              85.14364473604574,
              25.052997284402792
            ],
            [
              85.14437019121469,
              25.052866418189573
            ],
            [
              85.1447029667218,
              25.05215736728688
            ],
            [
              85.14610676311798,
              25.052062049618762
            ],
            [
              85.1475757790004,
              25.05191336738512
            ],
            [
              85.14826678377821,
              25.051978016102613
            ],
            [
              85.14846648735072,
              25.051996698631633
            ],
            [
              85.14964062315629,
              25.052345371375843
            ],
            [
              85.15048675530555,
              25.052757657907787
            ],
            [
              85.1518192578075,
              25.05345134982963
            ],
            [
              85.15315368539913,
              25.054348182678577
            ],
            [
              85.15319635268021,
              25.05440976538162
            ],
            [
              85.15354172616084,
              25.054908230627518
            ],
            [
              85.15355954783776,
              25.055702916061747
            ],
            [
              85.15338630593858,
              25.056350777341486
            ],
            [
              85.1528362010148,
              25.057675563917716
            ],
            [
              85.15260377900304,
              25.058634153132015
            ],
            [
              85.15243985173504,
              25.05998179692581
            ],
            [
              85.15258935834777,
              25.06124757631511
            ],
            [
              85.15277857498762,
              25.062509334981367
            ],
            [
              85.1531097793413,
              25.063556188976236
            ],
            [
              85.15305266265891,
              25.06439056707477
            ],
            [
              85.15274766306041,
              25.06523088776499
            ],
            [
              85.1522729007378,
              25.066154861186984
            ],
            [
              85.15216961334474,
              25.066762963182327
            ],
            [
              85.15232174034317,
              25.067193686131194
            ],
            [
              85.15275556104838,
              25.067677569113265
            ],
            [
              85.15333939321953,
              25.068077090836674
            ],
            [
              85.15368272662616,
              25.06831203709698
            ],
            [
              85.15434944814521,
              25.068798811597084
            ],
            [
              85.15632358671189,
              25.068358407234577
            ],
            [
              85.15643782456826,
              25.0683417703925
            ],
            [
              85.15779521579348,
              25.068134695793372
            ],
            [
              85.1580522139148,
              25.068095489371622
            ],
            [
              85.15870504298798,
              25.06785532036979
            ],
            [
              85.15939403913279,
              25.067516286932587
            ],
            [
              85.15987886168828,
              25.0672424302668
            ],
            [
              85.1606454462225,
              25.0670172041089
            ],
            [
              85.16142679456841,
              25.067130707839496
            ],
            [
              85.16207550396767,
              25.067165827332214
            ],
            [
              85.16264112099981,
              25.06712317537422
            ],
            [
              85.16426725671701,
              25.067084614710573
            ],
            [
              85.16498553973672,
              25.06710703879292
            ],
            [
              85.16629990884637,
              25.067037516638155
            ],
            [
              85.16703305898406,
              25.067060114048356
            ],
            [
              85.16825254444011,
              25.06703905698244
            ],
            [
              85.16888759765044,
              25.066992726216956
            ],
            [
              85.16980569563374,
              25.06690925463207
            ],
            [
              85.17033260965017,
              25.066802900739408
            ],
            [
              85.17118769800283,
              25.06662385009127
            ],
            [
              85.17140122485091,
              25.067262958390245
            ],
            [
              85.17163296234644,
              25.06834466308433
            ],
            [
              85.1718443538991,
              25.06879415564172
            ],
            [
              85.17197003539384,
              25.06934189966602
            ],
            [
              85.17216528781414,
              25.070210997328044
            ],
            [
              85.17244110025075,
              25.070995319764428
            ],
            [
              85.17304684502665,
              25.07092152637147
            ],
            [
              85.17436092218378,
              25.07087450137822
            ],
            [
              85.17504360766377,
              25.070959635048872
            ],
            [
              85.17553431777759,
              25.071290679223683
            ],
            [
              85.17601652264231,
              25.07152682111852
            ],
            [
              85.17681727280174,
              25.071672080834897
            ],
            [
              85.17790670106932,
              25.071735115376104
            ],
            [
              85.17948844114686,
              25.071686817294644
            ],
            [
              85.18089843232524,
              25.07185758467024
            ],
            [
              85.1816202394358,
              25.07197928166669
            ],
            [
              85.18167803614286,
              25.072092840197108
            ],
            [
              85.18185149543433,
              25.072429004172548
            ],
            [
              85.18194297986285,
              25.072610686688492
            ],
            [
              85.18225792201495,
              25.072763507343836
            ],
            [
              85.18278079001935,
              25.072932417245486
            ],
            [
              85.18290407391063,
              25.072974552943663
            ],
            [
              85.18313651029544,
              25.073008997045562
            ],
            [
              85.18320086290746,
              25.07300142588587
            ],
            [
              85.18331028040402,
              25.07298855369276
            ],
            [
              85.18349958238382,
              25.07292316016451
            ],
            [
              85.1835475101992,
              25.072698045347313
            ]
          ]
        ]
      }
    }
  ]
}