{
  "type": "FeatureCollection",
  "features": [
    {
      "type": "Feature",
      "properties": {
        "object_id": "10-229-01397",
        "stname": "BIHAR",
        "dtname": "Nalanda",
        "sdtname": "Katrisarai",
        "st_area_sh": 0.0,
        "st_length_": 0.0,
        "remarks": "",
        "dist_lgd": 209,
        "state_lgd": 10,
        "subdt_lgd": 1397,
        "ac_no": null,
        "st_length(shape)": 38918.76300208476,
        "st_area(shape)": 48673462.28309288
      },
      "geometry": {
        "type": "Polygon",
        "coordinates": [
          [
            [
              85.61296076981218,
              25.112334841322237
            ],
            [
              85.61479072518254,
              25.112311319296236
            ],
            [
              85.61547467279544,
              25.112340282183045
            ],
            [
              85.61666565830082,
              25.112256591809572
            ],
            [
              85.61725316817474,
              25.112172829799142
            ],
            [
              85.6185678157621,
              25.11198539260167
            ],
            [
              85.61881906286898,
              25.111689767763217
            ],
            [
              85.6196096324213,
              25.11061361866192
            ],
            [
              85.61993630657099,
              25.11022388618134
            ],
            [
              85.62051512434623,
              25.109899705215764
            ],
            [
              85.6222439662465,
              25.10960427136861
            ],
            [
              85.62260513300816,
              25.10967534575745
            ],
            [
              85.62391315372369,
              25.109321806045035
            ],
            [
              85.62452210907836,
              25.108961770098425
            ],
            [
              85.62520000384292,
              25.10820056873593
            ],
            [
              85.62551636443484,
              25.10695746138372
            ],
            [
              85.62630008612973,
              25.106486171227022
            ],
            [
              85.62734543406631,
              25.10567418632566
            ],
            [
              85.627451709256,
              25.104149218647297
            ],
            [
              85.62839151502816,
              25.102573272999688
            ],
            [
              85.62987488958208,
              25.1007134063808
            ],
            [
              85.63126030824415,
              25.099186701051504
            ],
            [
              85.63181001701093,
              25.098352046769175
            ],
            [
              85.63259605635925,
              25.09811099021217
            ],
            [
              85.63317148119766,
              25.097637740404718
            ],
            [
              85.6334583195561,
              25.097256636900596
            ],
            [
              85.63370690764971,
              25.096301819644403
            ],
            [
              85.63451276023996,
              25.096060934765962
            ],
            [
              85.63428239087861,
              25.094036244874946
            ],
            [
              85.63416213161487,
              25.092364712596144
            ],
            [
              85.63816927175556,
              25.09224805620637
            ],
            [
              85.63776946216534,
              25.090745516617996
            ],
            [
              85.63935522669537,
              25.08991131240328
            ],
            [
              85.64128801940278,
              25.089075752807386
            ],
            [
              85.64105671759017,
              25.08757476316655
            ],
            [
              85.64078309255125,
              25.086764130180732
            ],
            [
              85.64096581257499,
              25.085930588741654
            ],
            [
              85.64230108098974,
              25.084877349781273
            ],
            [
              85.642982821442,
              25.084644308998506
            ],
            [
              85.64423762057022,
              25.084592575342494
            ],
            [
              85.64419980598834,
              25.08442518585435
            ],
            [
              85.64399248021063,
              25.08254518494641
            ],
            [
              85.64310074508599,
              25.082491885845208
            ],
            [
              85.64294393876324,
              25.081876454876895
            ],
            [
              85.64233848144828,
              25.08058874775758
            ],
            [
              85.64292870513266,
              25.08011107569611
            ],
            [
              85.64789940070497,
              25.077081948670568
            ],
            [
              85.64707631663099,
              25.075747129758682
            ],
            [
              85.64579915394376,
              25.073333667949953
            ],
            [
              85.64644596789779,
              25.07311427232524
            ],
            [
              85.64888396503615,
              25.072287285634367
            ],
            [
              85.64822039480715,
              25.07042119133204
            ],
            [
              85.65015353785753,
              25.06816337702056
            ],
            [
              85.65237360819955,
              25.066856227012437
            ],
            [
              85.65288299608478,
              25.06650870382651
            ],
            [
              85.65323064230313,
              25.064633742246468
            ],
            [
              85.65352639644075,
              25.06297049915751
            ],
            [
              85.65352265226262,
              25.06240612805538
            ],
            [
              85.65337550821909,
              25.061357382046303
            ],
            [
              85.65309376510497,
              25.060379650333257
            ],
            [
              85.6491261175991,
              25.060605458317365
            ],
            [
              85.64862798829934,
              25.06060671393066
            ],
            [
              85.64485352529195,
              25.060616184330677
            ],
            [
              85.64362870114813,
              25.06061946699021
            ],
            [
              85.64141363891382,
              25.06062537968313
            ],
            [
              85.64070060295367,
              25.061910054779073
            ],
            [
              85.63925353021868,
              25.065029991355768
            ],
            [
              85.63994881816373,
              25.066702280952104
            ],
            [
              85.6399533465711,
              25.067189908101817
            ],
            [
              85.63930818911044,
              25.067260745929335
            ],
            [
              85.63838318757419,
              25.067536689699995
            ],
            [
              85.6373849993934,
              25.068155069978342
            ],
            [
              85.63680712484924,
              25.068416130858633
            ],
            [
              85.63598305981493,
              25.06852820037522
            ],
            [
              85.63535459305228,
              25.068881339637723
            ],
            [
              85.6345600879807,
              25.0694564281184
            ],
            [
              85.63232399528724,
              25.069508076223272
            ],
            [
              85.63167257297582,
              25.069249249623887
            ],
            [
              85.63077665260026,
              25.068690198901994
            ],
            [
              85.63076167498953,
              25.068623859192655
            ],
            [
              85.63070106655563,
              25.068355416085787
            ],
            [
              85.630672911558,
              25.067321296062953
            ],
            [
              85.62996172972059,
              25.067089001394532
            ],
            [
              85.62953996799976,
              25.06668330122055
            ],
            [
              85.6291666012182,
              25.06549249518436
            ],
            [
              85.62880129322308,
              25.06446880732692
            ],
            [
              85.62918229119298,
              25.064002877917748
            ],
            [
              85.62950478997321,
              25.063608484041495
            ],
            [
              85.63036402225428,
              25.0625599810524
            ],
            [
              85.63124151818337,
              25.06120463992746
            ],
            [
              85.63241520123805,
              25.059508906678847
            ],
            [
              85.63158497465919,
              25.058842115326136
            ],
            [
              85.63038042279642,
              25.057964190657366
            ],
            [
              85.63003803441744,
              25.057554711237213
            ],
            [
              85.62949311007789,
              25.057084671217233
            ],
            [
              85.6284968263255,
              25.057535969336527
            ],
            [
              85.62843407810462,
              25.05693945198171
            ],
            [
              85.62804135622196,
              25.05615478484473
            ],
            [
              85.6271779692327,
              25.054909784958646
            ],
            [
              85.62608462610714,
              25.053843238990428
            ],
            [
              85.62455030270355,
              25.0527680883847
            ],
            [
              85.62285289016015,
              25.052097730072774
            ],
            [
              85.62233420920329,
              25.051501497124875
            ],
            [
              85.62042358961203,
              25.051285115818082
            ],
            [
              85.61969001726617,
              25.050406969371572
            ],
            [
              85.61818941122847,
              25.050311749628012
            ],
            [
              85.61698435720743,
              25.048169611377052
            ],
            [
              85.61589300025695,
              25.046498047929145
            ],
            [
              85.61556413511627,
              25.046215073191167
            ],
            [
              85.61420669987359,
              25.045732890227008
            ],
            [
              85.61378584904446,
              25.04349420417091
            ],
            [
              85.61329109022365,
              25.04342186567939
            ],
            [
              85.6129792310896,
              25.042069068696513
            ],
            [
              85.61123844698595,
              25.04218824460732
            ],
            [
              85.60768617417926,
              25.042543255165068
            ],
            [
              85.6073698423334,
              25.04159221170052
            ],
            [
              85.60705652343704,
              25.040374831153525
            ],
            [
              85.60666628898942,
              25.039824897715235
            ],
            [
              85.60585238030771,
              25.03949220668745
            ],
            [
              85.6044491345788,
              25.039564810382686
            ],
            [
              85.60338676266929,
              25.039730897908832
            ],
            [
              85.60286411205719,
              25.037748564835063
            ],
            [
              85.60216178671017,
              25.037629093233736
            ],
            [
              85.60208540026663,
              25.03606178814842
            ],
            [
              85.60014503116808,
              25.03587196278792
            ],
            [
              85.60005830242068,
              25.03565444209426
            ],
            [
              85.59956103909683,
              25.03406059819798
            ],
            [
              85.59935720956226,
              25.033246040396225
            ],
            [
              85.59791629567681,
              25.033151186618944
            ],
            [
              85.59778354444079,
              25.033059641397703
            ],
            [
              85.59791813093496,
              25.031246021359504
            ],
            [
              85.59800548401151,
              25.03010012266511
            ],
            [
              85.59811457991117,
              25.029220794051618
            ],
            [
              85.59672351713417,
              25.02910382764537
            ],
            [
              85.59479515042612,
              25.029175900277433
            ],
            [
              85.5918490221456,
              25.02898548472469
            ],
            [
              85.59092303964907,
              25.029798372907127
            ],
            [
              85.5895087536253,
              25.03084589773402
            ],
            [
              85.58796681071148,
              25.031788357693035
            ],
            [
              85.58712840497195,
              25.03208964105461
            ],
            [
              85.58628999294424,
              25.032390919606694
            ],
            [
              85.58517093823862,
              25.03275046933793
            ],
            [
              85.58504040673965,
              25.03289820866928
            ],
            [
              85.5851689736231,
              25.03421770665053
            ],
            [
              85.58463233714036,
              25.034776926005094
            ],
            [
              85.58367797776229,
              25.034600789617606
            ],
            [
              85.58217719565478,
              25.034541330252654
            ],
            [
              85.58142407507005,
              25.033671847799205
            ],
            [
              85.57919188375988,
              25.03215166388138
            ],
            [
              85.5775652207316,
              25.031409246120106
            ],
            [
              85.5756978388516,
              25.031346212815627
            ],
            [
              85.57499047036256,
              25.029953441357353
            ],
            [
              85.57343123308289,
              25.030240961267115
            ],
            [
              85.57321613418306,
              25.030274531801723
            ],
            [
              85.57303568869361,
              25.03054749106506
            ],
            [
              85.57235552478468,
              25.030761919678547
            ],
            [
              85.5718761567996,
              25.03122793880096
            ],
            [
              85.57140116181336,
              25.03335489367953
            ],
            [
              85.57157310834188,
              25.034699607692698
            ],
            [
              85.57154183619019,
              25.03604022194598
            ],
            [
              85.57171757001598,
              25.0369155168036
            ],
            [
              85.57165639923669,
              25.03816139774066
            ],
            [
              85.5719396856565,
              25.04038151312791
            ],
            [
              85.572181794202,
              25.04108287913403
            ],
            [
              85.57194972612643,
              25.04136010510209
            ],
            [
              85.57166446970122,
              25.041437224699898
            ],
            [
              85.5714964667768,
              25.041443280746304
            ],
            [
              85.57108484883213,
              25.04128611969373
            ],
            [
              85.57064032559863,
              25.04181969262053
            ],
            [
              85.5701279400353,
              25.042944748623615
            ],
            [
              85.56985463299998,
              25.044538666704295
            ],
            [
              85.56969082969951,
              25.046348997601257
            ],
            [
              85.56887050075844,
              25.047194858901086
            ],
            [
              85.56873375112106,
              25.047944421780844
            ],
            [
              85.56846312106534,
              25.048694291773824
            ],
            [
              85.56842996334987,
              25.049263059630523
            ],
            [
              85.56901228275807,
              25.0502909118559
            ],
            [
              85.5693603592694,
              25.05266437195333
            ],
            [
              85.56974510680726,
              25.053913893293
            ],
            [
              85.56933482375914,
              25.054293850813828
            ],
            [
              85.56940062715034,
              25.054821835012845
            ],
            [
              85.56988214929544,
              25.055132263250407
            ],
            [
              85.57005668656525,
              25.05556973427372
            ],
            [
              85.56981577727069,
              25.056319546228337
            ],
            [
              85.57022910021773,
              25.05709949406398
            ],
            [
              85.56999302116444,
              25.057790541896633
            ],
            [
              85.5703706693166,
              25.058196003789245
            ],
            [
              85.57078189200254,
              25.058163499605172
            ],
            [
              85.57126043174094,
              25.057350033674325
            ],
            [
              85.57177570898116,
              25.057317277810945
            ],
            [
              85.57239632087496,
              25.057753778348392
            ],
            [
              85.5737033426639,
              25.059186348265545
            ],
            [
              85.57456340319168,
              25.060245158606907
            ],
            [
              85.57680168867272,
              25.063395295214615
            ],
            [
              85.5779357712947,
              25.0649861636439
            ],
            [
              85.57842104390615,
              25.066704809955343
            ],
            [
              85.57869907607983,
              25.0669208491317
            ],
            [
              85.57886954757468,
              25.067638141218442
            ],
            [
              85.57938782518798,
              25.068733760838057
            ],
            [
              85.57959881160043,
              25.069794038742646
            ],
            [
              85.57987422338844,
              25.07085410893094
            ],
            [
              85.58035697532719,
              25.07160232123704
            ],
            [
              85.58132130330995,
              25.07269703477195
            ],
            [
              85.58122003802461,
              25.073726386918622
            ],
            [
              85.58166714840611,
              25.074131617878844
            ],
            [
              85.58266526741663,
              25.074847032133924
            ],
            [
              85.58334523369622,
              25.075233717095983
            ],
            [
              85.5839946734258,
              25.07529547888182
            ],
            [
              85.5852004532856,
              25.07585238803876
            ],
            [
              85.58557870959723,
              25.076415782652873
            ],
            [
              85.58859782958787,
              25.07675192499757
            ],
            [
              85.58959776768678,
              25.078090255982012
            ],
            [
              85.59014410058472,
              25.07852679234114
            ],
            [
              85.59083333029153,
              25.078651572869646
            ],
            [
              85.5925814742923,
              25.078146534891165
            ],
            [
              85.59399174305011,
              25.079113759203814
            ],
            [
              85.59629162780682,
              25.080981614315515
            ],
            [
              85.59784079227721,
              25.081975466715047
            ],
            [
              85.59911344991326,
              25.083317592980652
            ],
            [
              85.59869361418039,
              25.08381957166704
            ],
            [
              85.59945600088732,
              25.085257643274886
            ],
            [
              85.60014448858567,
              25.0868493756527
            ],
            [
              85.60028786689153,
              25.08846941478125
            ],
            [
              85.60042578793207,
              25.089908904285252
            ],
            [
              85.60029419911598,
              25.090690080642585
            ],
            [
              85.59967881092552,
              25.092158505995588
            ],
            [
              85.59889445861332,
              25.09347385715904
            ],
            [
              85.5969419676483,
              25.09366346230978
            ],
            [
              85.59557078458853,
              25.09429409816207
            ],
            [
              85.59417029938248,
              25.095136830712363
            ],
            [
              85.59344930704388,
              25.096109006023013
            ],
            [
              85.59475610874557,
              25.09722984575273
            ],
            [
              85.59599396115594,
              25.098508858839633
            ],
            [
              85.59658106588965,
              25.099288341103005
            ],
            [
              85.59696071279335,
              25.100316595945753
            ],
            [
              85.59703219174051,
              25.101034035645323
            ],
            [
              85.59751785781404,
              25.10275259401376
            ],
            [
              85.59759032041642,
              25.10384474962673
            ],
            [
              85.59834502113776,
              25.10424920894921
            ],
            [
              85.59926981156994,
              25.103497825220124
            ],
            [
              85.59961056142181,
              25.103027549137472
            ],
            [
              85.60043232317575,
              25.10265095277373
            ],
            [
              85.60175992985943,
              25.102735955338456
            ],
            [
              85.602191144552,
              25.102721395072166
            ],
            [
              85.60250091600132,
              25.102684728801343
            ],
            [
              85.60763252499383,
              25.102077333188713
            ],
            [
              85.60788157841479,
              25.102413754030295
            ],
            [
              85.60887515644153,
              25.104870006003605
            ],
            [
              85.61095155023705,
              25.109354435742418
            ],
            [
              85.61169874463585,
              25.110806114146705
            ],
            [
              85.61235002142021,
              25.112410388657622
            ],
            [
              85.61296076981218,
              25.112334841322237
            ]
          ]
        ]
      }
    }
  ]
}