{
  "type": "FeatureCollection",
  "features": [
    {
      "type": "Feature",
      "properties": {
        "object_id": "10-236-01498",
        "stname": "BIHAR",
        "dtname": "Gaya",
        "sdtname": "Gurua",
        "st_area_sh": 0.0,
        "st_length_": 0.0,
        "remarks": "",
        "dist_lgd": 196,
        "state_lgd": 10,
        "subdt_lgd": 1498,
        "ac_no": null,
        "st_length(shape)": 117859.62964526065,
        "st_area(shape)": 238015237.1519128
      },
      "geometry": {
        "type": "Polygon",
        "coordinates": [
          [
            [
              84.78056139267096,
              24.704584344080644
            ],
            [
              84.78127330663531,
              24.70453683173523
            ],
            [
              84.7820173838801,
              24.705094423087687
            ],
            [
              84.78245810364669,
              24.704843128905562
            ],
            [
              84.7826759630694,
              24.704744343825112
            ],
            [
              84.78328365539278,
              24.704795844349437
            ],
            [
              84.7841774737106,
              24.704961246366405
            ],
            [
              84.78517034835644,
              24.705113301774944
            ],
            [
              84.78585505774076,
              24.705693198354346
            ],
            [
              84.78654134905825,
              24.705848842842393
            ],
            [
              84.78709261460538,
              24.70514627928386
            ],
            [
              84.78817176255286,
              24.704643954220906
            ],
            [
              84.78905136682789,
              24.704646721603606
            ],
            [
              84.79275266295373,
              24.70472127524592
            ],
            [
              84.79349438571415,
              24.70459714292524
            ],
            [
              84.79445780190689,
              24.704649586917792
            ],
            [
              84.79508885671588,
              24.705080430349426
            ],
            [
              84.79550251563288,
              24.705483520308174
            ],
            [
              84.79615873135465,
              24.70578789734139
            ],
            [
              84.79665701606298,
              24.706015118306503
            ],
            [
              84.79723463279068,
              24.70619286037641
            ],
            [
              84.79833129069962,
              24.70632270288812
            ],
            [
              84.80020346599001,
              24.706553915159652
            ],
            [
              84.80142925133117,
              24.706494526276348
            ],
            [
              84.80473541090284,
              24.706481659891757
            ],
            [
              84.80649599118043,
              24.706134870093337
            ],
            [
              84.80735364601982,
              24.70538344386285
            ],
            [
              84.80931106604076,
              24.703827335336484
            ],
            [
              84.81029373223174,
              24.702661025055676
            ],
            [
              84.81109575889721,
              24.70225712209171
            ],
            [
              84.81343475270812,
              24.701789866902978
            ],
            [
              84.81473127678466,
              24.701315246127443
            ],
            [
              84.81599675418664,
              24.7011924006963
            ],
            [
              84.81709926821293,
              24.701042167793556
            ],
            [
              84.81814780696537,
              24.70081946722991
            ],
            [
              84.81864281731447,
              24.70057255108401
            ],
            [
              84.81929288227151,
              24.699779938036365
            ],
            [
              84.81970931608441,
              24.699352234697006
            ],
            [
              84.8199287682201,
              24.69880223870421
            ],
            [
              84.8201236523311,
              24.698170730899054
            ],
            [
              84.82051038334914,
              24.697797119150792
            ],
            [
              84.82105935370073,
              24.69764522212013
            ],
            [
              84.82224364496061,
              24.698154217962315
            ],
            [
              84.82339998334379,
              24.698180026719264
            ],
            [
              84.82344173344492,
              24.69819003829233
            ],
            [
              84.82488614537004,
              24.698536399704114
            ],
            [
              84.82568115080323,
              24.69869208904536
            ],
            [
              84.82655990527202,
              24.69897004076767
            ],
            [
              84.82697550724498,
              24.698822148306892
            ],
            [
              84.82733221566788,
              24.698543318908083
            ],
            [
              84.82766592272795,
              24.697790408021397
            ],
            [
              84.82789001376378,
              24.697289933690513
            ],
            [
              84.82787856383717,
              24.69626960438507
            ],
            [
              84.82763546265329,
              24.695063660851922
            ],
            [
              84.82749932656523,
              24.69443574317052
            ],
            [
              84.82763872084284,
              24.69408407507688
            ],
            [
              84.82794143872053,
              24.693755443958203
            ],
            [
              84.82841209214902,
              24.69335494901378
            ],
            [
              84.8288517941244,
              24.6934058160019
            ],
            [
              84.82962316308583,
              24.693258999178852
            ],
            [
              84.83017244874611,
              24.69303025073952
            ],
            [
              84.83047447581932,
              24.6928550657319
            ],
            [
              84.83047620866952,
              24.692304429741018
            ],
            [
              84.83036926962481,
              24.69179844374435
            ],
            [
              84.83037284132642,
              24.6907195618941
            ],
            [
              84.83107398718545,
              24.69088397297783
            ],
            [
              84.83280777071808,
              24.69106492302485
            ],
            [
              84.83413275611775,
              24.690865504308434
            ],
            [
              84.83490408016343,
              24.690691577267668
            ],
            [
              84.83633365820825,
              24.69027112559807
            ],
            [
              84.83724494516508,
              24.68964170318992
            ],
            [
              84.83776948762917,
              24.689367792051645
            ],
            [
              84.83931353888896,
              24.68866776126542
            ],
            [
              84.84083963282623,
              24.68891116522798
            ],
            [
              84.84166173414333,
              24.68984341083829
            ],
            [
              84.84400100283872,
              24.693813200867453
            ],
            [
              84.8460039988856,
              24.696333046251677
            ],
            [
              84.84671729176392,
              24.697368694061762
            ],
            [
              84.84694663884247,
              24.69823616725582
            ],
            [
              84.84655975061928,
              24.698686491988994
            ],
            [
              84.84589514014117,
              24.699438581329588
            ],
            [
              84.84498157685341,
              24.700772329680422
            ],
            [
              84.84586205069769,
              24.702056737056107
            ],
            [
              84.8468779320963,
              24.70271415539503
            ],
            [
              84.84788064868442,
              24.702879209250124
            ],
            [
              84.8525590621077,
              24.703343187771843
            ],
            [
              84.85393741282515,
              24.70349579602596
            ],
            [
              84.85487138134457,
              24.703475665189973
            ],
            [
              84.85575123984285,
              24.70340122097612
            ],
            [
              84.85669009879071,
              24.703453365962027
            ],
            [
              84.85792517181359,
              24.703582946912405
            ],
            [
              84.85941308465634,
              24.70346047259681
            ],
            [
              84.86012348136617,
              24.705426016901267
            ],
            [
              84.86068340128274,
              24.70654698334335
            ],
            [
              84.86376827166399,
              24.706175783771414
            ],
            [
              84.86801018201261,
              24.70560882936333
            ],
            [
              84.87141085692859,
              24.70540526369957
            ],
            [
              84.8714333219972,
              24.705387543906514
            ],
            [
              84.87223809930406,
              24.704752766748502
            ],
            [
              84.87315009503163,
              24.703874789193275
            ],
            [
              84.87316106885115,
              24.70386899568935
            ],
            [
              84.87317508077294,
              24.70386159772965
            ],
            [
              84.87590711986002,
              24.702419102262578
            ],
            [
              84.8779181207944,
              24.700542485107935
            ],
            [
              84.87983295797594,
              24.699703109334003
            ],
            [
              84.88088814336317,
              24.6988660098155
            ],
            [
              84.88091284433855,
              24.698845777030638
            ],
            [
              84.8809375453139,
              24.698825544242485
            ],
            [
              84.88231622032316,
              24.697194619398307
            ],
            [
              84.88245739416331,
              24.696238079724044
            ],
            [
              84.88268257665223,
              24.695286067278058
            ],
            [
              84.88286519875959,
              24.693665873603052
            ],
            [
              84.88257012374831,
              24.691475720657255
            ],
            [
              84.8822707961125,
              24.690770788264178
            ],
            [
              84.88198647034191,
              24.690002604344617
            ],
            [
              84.88141309725565,
              24.688389705757395
            ],
            [
              84.88036942288046,
              24.687068880977307
            ],
            [
              84.87884727703883,
              24.685467125850987
            ],
            [
              84.87802564374401,
              24.684304968903223
            ],
            [
              84.87802492778673,
              24.684298163997035
            ],
            [
              84.87717866178849,
              24.684651533786624
            ],
            [
              84.87652104289822,
              24.684825901855938
            ],
            [
              84.8759961563794,
              24.685203800938794
            ],
            [
              84.87538772204756,
              24.685455004137967
            ],
            [
              84.87500192707408,
              24.68560299000468
            ],
            [
              84.87442386388369,
              24.68562863893322
            ],
            [
              84.8737907231866,
              24.68587987882234
            ],
            [
              84.87354318791849,
              24.686055271975818
            ],
            [
              84.87271549369044,
              24.686933362863034
            ],
            [
              84.87203256027547,
              24.687283724794078
            ],
            [
              84.87122991287417,
              24.688035548316524
            ],
            [
              84.87084380169371,
              24.688287353064233
            ],
            [
              84.8708201346792,
              24.687957758228045
            ],
            [
              84.87046040073041,
              24.68765444196061
            ],
            [
              84.86994269444567,
              24.68730102763021
            ],
            [
              84.86959843218101,
              24.68678562180732
            ],
            [
              84.86899934212477,
              24.685578888626356
            ],
            [
              84.86900043806943,
              24.68522677192006
            ],
            [
              84.86889290434002,
              24.684820233165087
            ],
            [
              84.86905696455868,
              24.684495671819707
            ],
            [
              84.86946777132462,
              24.684243919813248
            ],
            [
              84.86980012192859,
              24.683815932970965
            ],
            [
              84.86953002277718,
              24.683264559978998
            ],
            [
              84.86900835761698,
              24.682608745780392
            ],
            [
              84.8689953589948,
              24.682017376369974
            ],
            [
              84.86931397076484,
              24.6812237376301
            ],
            [
              84.86920503207034,
              24.679666203387075
            ],
            [
              84.86899137855977,
              24.67845595092749
            ],
            [
              84.86836332771709,
              24.677023421154868
            ],
            [
              84.86725052618416,
              24.675824427371023
            ],
            [
              84.86543575593541,
              24.67479055638027
            ],
            [
              84.86334924441488,
              24.673778595251324
            ],
            [
              84.86191838986402,
              24.673197133055396
            ],
            [
              84.85971610077473,
              24.67291155018762
            ],
            [
              84.85871993110837,
              24.672344726880986
            ],
            [
              84.85817329368159,
              24.671815222758323
            ],
            [
              84.8573738038585,
              24.671560374180117
            ],
            [
              84.85677249765844,
              24.671107390659166
            ],
            [
              84.85528820682293,
              24.670272930908894
            ],
            [
              84.85407953798119,
              24.669764173866444
            ],
            [
              84.85330981293671,
              24.669509380689608
            ],
            [
              84.85262365277327,
              24.669358627148252
            ],
            [
              84.85201661083012,
              24.669153886350646
            ],
            [
              84.85116416621935,
              24.668501607767272
            ],
            [
              84.84993212231561,
              24.667590990672434
            ],
            [
              84.8494391116163,
              24.667287305671408
            ],
            [
              84.84839348699866,
              24.666783417375264
            ],
            [
              84.84645336493683,
              24.66641257529863
            ],
            [
              84.84566803615587,
              24.66637434822629
            ],
            [
              84.84417940735584,
              24.666921076616326
            ],
            [
              84.84299515562185,
              24.66652062934895
            ],
            [
              84.84038311259212,
              24.666188509972066
            ],
            [
              84.8381805944324,
              24.666001936726598
            ],
            [
              84.8360759701808,
              24.66608641089896
            ],
            [
              84.83565359311402,
              24.665367586748022
            ],
            [
              84.83613138725067,
              24.664272028971986
            ],
            [
              84.83609938297205,
              24.66348199912125
            ],
            [
              84.8364283648937,
              24.66258465306628
            ],
            [
              84.83673776264389,
              24.66163301715027
            ],
            [
              84.83708010341215,
              24.659688489293274
            ],
            [
              84.83769769157672,
              24.65813742307903
            ],
            [
              84.83820173897756,
              24.656545423962513
            ],
            [
              84.83838164996942,
              24.655909397164084
            ],
            [
              84.83842165464395,
              24.65576959329596
            ],
            [
              84.83905453662625,
              24.655572759249
            ],
            [
              84.84062532264721,
              24.65555447475899
            ],
            [
              84.8410740823356,
              24.65577685286965
            ],
            [
              84.84183906966524,
              24.655959448316693
            ],
            [
              84.84203096867456,
              24.656181232173132
            ],
            [
              84.8426875571972,
              24.65628229434191
            ],
            [
              84.84342868437457,
              24.656202995309208
            ],
            [
              84.84410083980278,
              24.65608293266846
            ],
            [
              84.8447331540498,
              24.65606665010125
            ],
            [
              84.84562735325328,
              24.656010347704125
            ],
            [
              84.84627969094798,
              24.65591282529231
            ],
            [
              84.847217744107,
              24.656014596326358
            ],
            [
              84.84794912097033,
              24.655930792960707
            ],
            [
              84.84829610063869,
              24.6555300238622
            ],
            [
              84.84929991227315,
              24.65207957213585
            ],
            [
              84.84960604285064,
              24.65056818720582
            ],
            [
              84.84916299734576,
              24.650120143769126
            ],
            [
              84.84905530102128,
              24.649821929776465
            ],
            [
              84.84953588622355,
              24.64932667359371
            ],
            [
              84.84879533217132,
              24.649243484614388
            ],
            [
              84.84835566163699,
              24.64926487093947
            ],
            [
              84.84757636234824,
              24.648942276198497
            ],
            [
              84.8477116414435,
              24.648337762137928
            ],
            [
              84.84758336291922,
              24.646762112071777
            ],
            [
              84.84752210680001,
              24.64585010673706
            ],
            [
              84.84761215661905,
              24.64547114703523
            ],
            [
              84.84854577210055,
              24.645433023774334
            ],
            [
              84.84858131933466,
              24.645121734813284
            ],
            [
              84.84903749820899,
              24.644567738072926
            ],
            [
              84.84904061715964,
              24.643588211293824
            ],
            [
              84.84906684437267,
              24.64310983110382
            ],
            [
              84.8494580948149,
              24.64277224011392
            ],
            [
              84.84961208581754,
              24.64247481936134
            ],
            [
              84.84971377780263,
              24.641567726681448
            ],
            [
              84.84904130526917,
              24.64028850989697
            ],
            [
              84.84811262064024,
              24.638791931242405
            ],
            [
              84.84926653357213,
              24.637801985106673
            ],
            [
              84.85031619881195,
              24.63694262360878
            ],
            [
              84.85114831544617,
              24.636186461732663
            ],
            [
              84.85208272683502,
              24.635850370808285
            ],
            [
              84.8536102203475,
              24.6353984980298
            ],
            [
              84.8542635686469,
              24.634921732645985
            ],
            [
              84.8547437666753,
              24.634543832339048
            ],
            [
              84.85473874419456,
              24.63301818537885
            ],
            [
              84.85506772072634,
              24.632062010166752
            ],
            [
              84.85535263938496,
              24.630947853260956
            ],
            [
              84.8555519261392,
              24.63039317387615
            ],
            [
              84.8557520177839,
              24.629576660855893
            ],
            [
              84.85576435434768,
              24.628786791190237
            ],
            [
              84.85548102301212,
              24.62782908922581
            ],
            [
              84.85546308455422,
              24.627233168177188
            ],
            [
              84.85600096520363,
              24.62578566099986
            ],
            [
              84.85744121074245,
              24.62475566772507
            ],
            [
              84.85786420405356,
              24.623709556385553
            ],
            [
              84.85813701881209,
              24.62330400298371
            ],
            [
              84.85853402026873,
              24.62267767836547
            ],
            [
              84.85890124886195,
              24.62211438106465
            ],
            [
              84.85982734724116,
              24.621227519064437
            ],
            [
              84.86042321324388,
              24.620172813187093
            ],
            [
              84.86072156171605,
              24.619496438988367
            ],
            [
              84.86032710698319,
              24.61931938840605
            ],
            [
              84.85934421621339,
              24.619384568039116
            ],
            [
              84.85835929165778,
              24.620122296087548
            ],
            [
              84.85766683160922,
              24.62048156981948
            ],
            [
              84.85744903417027,
              24.620657112861196
            ],
            [
              84.85676171967165,
              24.620971266312992
            ],
            [
              84.85558029493586,
              24.621351839694906
            ],
            [
              84.85499191100119,
              24.621598567198255
            ],
            [
              84.85449724201187,
              24.62189070336557
            ],
            [
              84.8539828020015,
              24.622155638340338
            ],
            [
              84.85353844226135,
              24.622154437068723
            ],
            [
              84.85319214621092,
              24.62235668171965
            ],
            [
              84.85233412036729,
              24.621970724857462
            ],
            [
              84.85147616638888,
              24.62158927628838
            ],
            [
              84.85095901436465,
              24.621159138336786
            ],
            [
              84.85076820501178,
              24.620598873751096
            ],
            [
              84.85058905758795,
              24.619465429021627
            ],
            [
              84.85019749093874,
              24.618385563300823
            ],
            [
              84.84956295605633,
              24.61762093710839
            ],
            [
              84.84921855006124,
              24.617236390713096
            ],
            [
              84.84853229287974,
              24.617212019699473
            ],
            [
              84.84779127080522,
              24.617322852974667
            ],
            [
              84.84708049231138,
              24.61723061686908
            ],
            [
              84.84612156859335,
              24.617544056180613
            ],
            [
              84.84474214169423,
              24.618077525055675
            ],
            [
              84.84422770797204,
              24.618369511834615
            ],
            [
              84.84321956106801,
              24.618615113333632
            ],
            [
              84.8417257597686,
              24.619414509842525
            ],
            [
              84.8406170940792,
              24.62020593891536
            ],
            [
              84.83958709924919,
              24.621101381279868
            ],
            [
              84.83895360371754,
              24.62153748090284
            ],
            [
              84.83774212674224,
              24.622026181863326
            ],
            [
              84.83700025216652,
              24.622380833689054
            ],
            [
              84.83571523730542,
              24.622733830011768
            ],
            [
              84.83403377255324,
              24.623505598189535
            ],
            [
              84.83255457786031,
              24.624318538952167
            ],
            [
              84.83213800031697,
              24.624858996939967
            ],
            [
              84.83169368818756,
              24.624808169785656
            ],
            [
              84.83112717733174,
              24.624409361973704
            ],
            [
              84.83055753405051,
              24.624944942727378
            ],
            [
              84.82974978062512,
              24.625782218162293
            ],
            [
              84.82830907874215,
              24.62687054780217
            ],
            [
              84.82758470694142,
              24.627884190045474
            ],
            [
              84.8263440005834,
              24.62825985097068
            ],
            [
              84.82584976458206,
              24.628380348657245
            ],
            [
              84.82540565906515,
              24.628270723131358
            ],
            [
              84.82496543786354,
              24.628490674725185
            ],
            [
              84.82459472919695,
              24.628588968183724
            ],
            [
              84.82422439063622,
              24.62856537433103
            ],
            [
              84.82392600623145,
              24.627729415932933
            ],
            [
              84.82348769215317,
              24.62738967001715
            ],
            [
              84.820440545624,
              24.62748023929405
            ],
            [
              84.81983114200997,
              24.628056264401785
            ],
            [
              84.81949861264128,
              24.628533808879986
            ],
            [
              84.81893093397557,
              24.629904447649988
            ],
            [
              84.81785043316532,
              24.631047827754017
            ],
            [
              84.81771534810615,
              24.631566544745027
            ],
            [
              84.81738708124344,
              24.63226080266024
            ],
            [
              84.81643999013433,
              24.63336398060523
            ],
            [
              84.81591729819976,
              24.63313675220229
            ],
            [
              84.81547949436455,
              24.63262995300139
            ],
            [
              84.81515056993508,
              24.632078298313555
            ],
            [
              84.81471318920639,
              24.63147217808869
            ],
            [
              84.81405815027763,
              24.630942133127814
            ],
            [
              84.8129588252706,
              24.630383678657804
            ],
            [
              84.81238449188525,
              24.62940257080224
            ],
            [
              84.81160257760072,
              24.628456869335572
            ],
            [
              84.81105606144648,
              24.628003843732085
            ],
            [
              84.81037513037627,
              24.626440077697822
            ],
            [
              84.80952478782328,
              24.625304614990753
            ],
            [
              84.80936584890006,
              24.624157608803838
            ],
            [
              84.80889001219236,
              24.62326240065304
            ],
            [
              84.80825631274318,
              24.62230358166922
            ],
            [
              84.80771093834767,
              24.62154816827094
            ],
            [
              84.8069438229091,
              24.62061607640208
            ],
            [
              84.80622844593935,
              24.620437938814472
            ],
            [
              84.80471751017417,
              24.620433475837167
            ],
            [
              84.80391791973976,
              24.620331742777676
            ],
            [
              84.8029833969598,
              24.620681087946803
            ],
            [
              84.80229604563027,
              24.620954370768967
            ],
            [
              84.80168659171062,
              24.621530326319007
            ],
            [
              84.80103004990036,
              24.62147874731871
            ],
            [
              84.80043849940432,
              24.62121068398659
            ],
            [
              84.8000300588008,
              24.620807669593574
            ],
            [
              84.79961675292174,
              24.620382143828643
            ],
            [
              84.79926241335625,
              24.620051598736687
            ],
            [
              84.79879627486035,
              24.619219623395743
            ],
            [
              84.79797452119128,
              24.618436213401047
            ],
            [
              84.7968250297672,
              24.618143872346447
            ],
            [
              84.79558121883156,
              24.618000192793875
            ],
            [
              84.79423284130186,
              24.61809540180016
            ],
            [
              84.79357708731415,
              24.617831613801666
            ],
            [
              84.79302350141863,
              24.617978908916466
            ],
            [
              84.79265370005045,
              24.61781980728571
            ],
            [
              84.79250695665553,
              24.61744013781973
            ],
            [
              84.79250812895698,
              24.617119706745267
            ],
            [
              84.7922230512965,
              24.616762211046836
            ],
            [
              84.79144092680619,
              24.615942805339817
            ],
            [
              84.79168648398404,
              24.614945978965583
            ],
            [
              84.79137255782653,
              24.61437630525911
            ],
            [
              84.79081431416627,
              24.613119730693313
            ],
            [
              84.79053203835116,
              24.61198133184072
            ],
            [
              84.79023334223098,
              24.61130340079435
            ],
            [
              84.78972366239327,
              24.610254609975968
            ],
            [
              84.78940088693192,
              24.60941400370556
            ],
            [
              84.78933330487646,
              24.60897595312383
            ],
            [
              84.78916152094301,
              24.608700049393043
            ],
            [
              84.78885810507431,
              24.607981451987445
            ],
            [
              84.7886672822467,
              24.607502368694735
            ],
            [
              84.78875308213614,
              24.606983550227376
            ],
            [
              84.78799738428485,
              24.605726377045027
            ],
            [
              84.7879165502823,
              24.60487750915219
            ],
            [
              84.78772052620921,
              24.604475139631184
            ],
            [
              84.78669466901938,
              24.602828948218857
            ],
            [
              84.78533594469427,
              24.601754933132288
            ],
            [
              84.7848330489336,
              24.601586312642752
            ],
            [
              84.78392302500805,
              24.6020123532119
            ],
            [
              84.7832800064361,
              24.602321853827387
            ],
            [
              84.78209730070272,
              24.60304035632535
            ],
            [
              84.78091928327677,
              24.603844743929
            ],
            [
              84.78025131579444,
              24.604226308693594
            ],
            [
              84.77889833709389,
              24.60426717901243
            ],
            [
              84.77678432634588,
              24.60448179370534
            ],
            [
              84.77571404297366,
              24.604198543168607
            ],
            [
              84.7748557090079,
              24.603992729338096
            ],
            [
              84.77402188916791,
              24.603836541252267
            ],
            [
              84.77338408441787,
              24.60407831375972
            ],
            [
              84.77217774131441,
              24.604503328988706
            ],
            [
              84.77026111558716,
              24.604745456310603
            ],
            [
              84.76890157469343,
              24.605210563374456
            ],
            [
              84.76836014120705,
              24.60477095931799
            ],
            [
              84.76826942124485,
              24.60396725312499
            ],
            [
              84.76872569803554,
              24.603440574218656
            ],
            [
              84.76932050402621,
              24.602837565060078
            ],
            [
              84.7687880096752,
              24.602628263044174
            ],
            [
              84.76734105192457,
              24.602732004222055
            ],
            [
              84.76689835406773,
              24.602283628377577
            ],
            [
              84.7665814643681,
              24.6012489737861
            ],
            [
              84.76606780589202,
              24.601292409742335
            ],
            [
              84.7653068412182,
              24.601470528042555
            ],
            [
              84.76483776612969,
              24.6014690088483
            ],
            [
              84.76469070113787,
              24.601197749885635
            ],
            [
              84.76418463612087,
              24.599286704842118
            ],
            [
              84.76345757386588,
              24.595799589694373
            ],
            [
              84.76301009068352,
              24.594060375882634
            ],
            [
              84.76269272308016,
              24.593133967684455
            ],
            [
              84.76244766806056,
              24.592686285247943
            ],
            [
              84.76198733896963,
              24.59171878826898
            ],
            [
              84.76037695790586,
              24.591979888402587
            ],
            [
              84.75929068721655,
              24.59199889773942
            ],
            [
              84.75735432729911,
              24.592299514759336
            ],
            [
              84.7556599959771,
              24.592560300836173
            ],
            [
              84.75415850959043,
              24.592731471371224
            ],
            [
              84.75331386235631,
              24.592841458863784
            ],
            [
              84.75266957715982,
              24.59346675338645
            ],
            [
              84.7516199586324,
              24.592966769927514
            ],
            [
              84.75151533274958,
              24.591982375659132
            ],
            [
              84.7517623990971,
              24.590656146300283
            ],
            [
              84.75188441726215,
              24.589771804249274
            ],
            [
              84.7517690529184,
              24.588976956892036
            ],
            [
              84.75120458483153,
              24.588171642173684
            ],
            [
              84.750644761933,
              24.588652826084513
            ],
            [
              84.75000002757886,
              24.58881028698887
            ],
            [
              84.74982452462011,
              24.5888531489294
            ],
            [
              84.74785038156182,
              24.589103685794303
            ],
            [
              84.74334652157805,
              24.589111355215586
            ],
            [
              84.74115433494242,
              24.589167145360534
            ],
            [
              84.73584709183713,
              24.589239390943288
            ],
            [
              84.73578981705123,
              24.58997498018107
            ],
            [
              84.73648591437836,
              24.59239226587877
            ],
            [
              84.73713981604001,
              24.594258773819714
            ],
            [
              84.73741893427689,
              24.596029208128158
            ],
            [
              84.73693225220876,
              24.59673166474051
            ],
            [
              84.73653994624608,
              24.597285576173608
            ],
            [
              84.73676738979455,
              24.59964255810992
            ],
            [
              84.73590739035227,
              24.59985176383875
            ],
            [
              84.73559231884276,
              24.599643125774115
            ],
            [
              84.73495426615771,
              24.598706536780032
            ],
            [
              84.73408425409325,
              24.596568464322576
            ],
            [
              84.73328724901023,
              24.59588418566456
            ],
            [
              84.73177765622641,
              24.595630712870875
            ],
            [
              84.73115722040238,
              24.594039702180517
            ],
            [
              84.72980976813747,
              24.59274405460788
            ],
            [
              84.72916225439585,
              24.59293592328433
            ],
            [
              84.72824567276872,
              24.593740719715235
            ],
            [
              84.72731071969575,
              24.59417980789912
            ],
            [
              84.72671726926283,
              24.594439555968595
            ],
            [
              84.72520865025281,
              24.59510690918269
            ],
            [
              84.72449524328846,
              24.595700207795854
            ],
            [
              84.7262804023705,
              24.597376559315293
            ],
            [
              84.72676669367148,
              24.5979876818646
            ],
            [
              84.72712537569308,
              24.599568777260586
            ],
            [
              84.72729357624688,
              24.603072166706077
            ],
            [
              84.72745484001004,
              24.604643565924956
            ],
            [
              84.72725854015414,
              24.606750830325932
            ],
            [
              84.72755764141452,
              24.608440054052693
            ],
            [
              84.72784414739628,
              24.61076574596645
            ],
            [
              84.7279820558604,
              24.612043628256774
            ],
            [
              84.72807511323897,
              24.6134116882137
            ],
            [
              84.72817899172351,
              24.614558516126873
            ],
            [
              84.72763981031355,
              24.61480038388124
            ],
            [
              84.72683446167818,
              24.61492854359648
            ],
            [
              84.72615386927285,
              24.614727507873795
            ],
            [
              84.72453617143111,
              24.613101386904606
            ],
            [
              84.72355261411137,
              24.61214550281489
            ],
            [
              84.72295583272542,
              24.611989970102535
            ],
            [
              84.72112769285026,
              24.61228145739056
            ],
            [
              84.71903153791514,
              24.61289249407457
            ],
            [
              84.71717722292925,
              24.61351792932876
            ],
            [
              84.71786025785387,
              24.615474806300327
            ],
            [
              84.71867164406623,
              24.617427655883287
            ],
            [
              84.71945680935382,
              24.619764149935847
            ],
            [
              84.72041698442503,
              24.62156854262058
            ],
            [
              84.72042280011817,
              24.622543533319586
            ],
            [
              84.71956272342076,
              24.622752642767562
            ],
            [
              84.71768088135963,
              24.62285891187811
            ],
            [
              84.71646592610753,
              24.62290421368215
            ],
            [
              84.71533572061426,
              24.622737710648185
            ],
            [
              84.7141236103267,
              24.622128495805676
            ],
            [
              84.7137198319795,
              24.62185629596207
            ],
            [
              84.71340023924921,
              24.62153011562585
            ],
            [
              84.71356632157554,
              24.620817565695273
            ],
            [
              84.71406843310697,
              24.620015880103793
            ],
            [
              84.71366105341383,
              24.61942763918715
            ],
            [
              84.71275120465977,
              24.618571225246253
            ],
            [
              84.71248919214256,
              24.617491502069413
            ],
            [
              84.7137707125572,
              24.616882178363625
            ],
            [
              84.71334828069315,
              24.615196986270046
            ],
            [
              84.71372771739105,
              24.614232316753117
            ],
            [
              84.71370072661003,
              24.612462804792344
            ],
            [
              84.7138082935771,
              24.610377812818207
            ],
            [
              84.71019245957416,
              24.610744031268048
            ],
            [
              84.70837111096259,
              24.610593081014976
            ],
            [
              84.70674434911963,
              24.609995838039577
            ],
            [
              84.70641768844466,
              24.61017522374067
            ],
            [
              84.7063801945613,
              24.61084763830963
            ],
            [
              84.70660682333781,
              24.61210789860971
            ],
            [
              84.70487327426545,
              24.61220091925977
            ],
            [
              84.70293925086611,
              24.6122752839512
            ],
            [
              84.70276214261793,
              24.611705753253577
            ],
            [
              84.7020165454237,
              24.610570026062724
            ],
            [
              84.7014177994222,
              24.610870275055312
            ],
            [
              84.7005389380539,
              24.61086706130247
            ],
            [
              84.6998591298778,
              24.610503481193025
            ],
            [
              84.6993799720985,
              24.609422900227923
            ],
            [
              84.69926277339495,
              24.60800057078563
            ],
            [
              84.6988158318967,
              24.607457347167237
            ],
            [
              84.69844029388713,
              24.60528927322748
            ],
            [
              84.69699516061483,
              24.60382600102013
            ],
            [
              84.695791987666,
              24.6023409718569
            ],
            [
              84.69463912306803,
              24.60068471663827
            ],
            [
              84.69386427493151,
              24.599494663936706
            ],
            [
              84.69343651605784,
              24.599100347774908
            ],
            [
              84.69218774013359,
              24.599032543853397
            ],
            [
              84.69088885708115,
              24.59912700278484
            ],
            [
              84.69114967933064,
              24.600423460688813
            ],
            [
              84.69171506729235,
              24.60205958932121
            ],
            [
              84.69235666472952,
              24.603240077062836
            ],
            [
              84.69291731407813,
              24.603725138181996
            ],
            [
              84.69350855465541,
              24.604007248784345
            ],
            [
              84.69410886013223,
              24.60559384812077
            ],
            [
              84.69449758810514,
              24.60700357738737
            ],
            [
              84.69482566901658,
              24.607636751209736
            ],
            [
              84.69584497389474,
              24.608245357135793
            ],
            [
              84.6966828199838,
              24.60859151490665
            ],
            [
              84.69701942770392,
              24.60952712661966
            ],
            [
              84.69717666970955,
              24.610818623871072
            ],
            [
              84.69762863189194,
              24.611352948758977
            ],
            [
              84.69882518515544,
              24.61209311059205
            ],
            [
              84.69898608689755,
              24.612567588089636
            ],
            [
              84.69880575998573,
              24.61314026077166
            ],
            [
              84.69711524919865,
              24.614673257141085
            ],
            [
              84.69581124305412,
              24.61590529374423
            ],
            [
              84.69516792893644,
              24.61622787578519
            ],
            [
              84.69445864523924,
              24.614699599309755
            ],
            [
              84.6931536689142,
              24.612789947983135
            ],
            [
              84.69215812088207,
              24.61126052285782
            ],
            [
              84.69162600023024,
              24.609899927024916
            ],
            [
              84.69096894278705,
              24.60886831073813
            ],
            [
              84.69027561227097,
              24.608229207994317
            ],
            [
              84.689527645321,
              24.60766674891329
            ],
            [
              84.68794555579882,
              24.60701986471522
            ],
            [
              84.68678469170322,
              24.607146474074113
            ],
            [
              84.68613675395682,
              24.607396756254577
            ],
            [
              84.68581433692323,
              24.607743163026097
            ],
            [
              84.68552458173507,
              24.608477776152263
            ],
            [
              84.68559449132542,
              24.6094215199725
            ],
            [
              84.68586071694133,
              24.610596036693995
            ],
            [
              84.68572989887976,
              24.611146276904496
            ],
            [
              84.68543620008754,
              24.611686822863728
            ],
            [
              84.68603855192657,
              24.61278598863503
            ],
            [
              84.68787725958273,
              24.613460920099723
            ],
            [
              84.6898437157571,
              24.614289738057643
            ],
            [
              84.6905129866949,
              24.614806874069366
            ],
            [
              84.69100374801273,
              24.61657810462649
            ],
            [
              84.69109541839254,
              24.61818986838829
            ],
            [
              84.69150012559767,
              24.620452862225417
            ],
            [
              84.69193570340762,
              24.622431559751032
            ],
            [
              84.69008256611305,
              24.622745079937175
            ],
            [
              84.68874414461166,
              24.622789775025012
            ],
            [
              84.68747878758393,
              24.620866623986927
            ],
            [
              84.68687247507279,
              24.620620689635736
            ],
            [
              84.68547590831803,
              24.62043489680344
            ],
            [
              84.6849149041349,
              24.619999381322614
            ],
            [
              84.68386546167724,
              24.61837500632809
            ],
            [
              84.68239953510111,
              24.61605388229268
            ],
            [
              84.68170553803509,
              24.61446235380485
            ],
            [
              84.67974090184745,
              24.614342041158103
            ],
            [
              84.6785091400147,
              24.61375065215759
            ],
            [
              84.67704308857272,
              24.612575982934764
            ],
            [
              84.6749858603338,
              24.61004032370504
            ],
            [
              84.67401122957303,
              24.608303255706954
            ],
            [
              84.67318416955558,
              24.606697672194503
            ],
            [
              84.67235301411873,
              24.60489802179805
            ],
            [
              84.67192663326071,
              24.60422375225633
            ],
            [
              84.66820351256504,
              24.604290645952844
            ],
            [
              84.66580927326248,
              24.60422721038901
            ],
            [
              84.66728005882602,
              24.606458248788304
            ],
            [
              84.66739319085627,
              24.607614217603732
            ],
            [
              84.6671536973066,
              24.609215758020365
            ],
            [
              84.66681010608345,
              24.611990438073
            ],
            [
              84.66676970435357,
              24.613236080281947
            ],
            [
              84.66685372018884,
              24.614283676603602
            ],
            [
              84.66719034228197,
              24.6151696944054
            ],
            [
              84.66781543497243,
              24.615596422910148
            ],
            [
              84.66831479586246,
              24.61545389521577
            ],
            [
              84.66922504526514,
              24.615082712061895
            ],
            [
              84.67006263263941,
              24.61442245132369
            ],
            [
              84.67076052120723,
              24.61406405200685
            ],
            [
              84.67116352969819,
              24.614462771948215
            ],
            [
              84.67251438567975,
              24.614910311958674
            ],
            [
              84.67341043631102,
              24.61440375328404
            ],
            [
              84.67485971710498,
              24.613854058252876
            ],
            [
              84.67612367994742,
              24.613881473724827
            ],
            [
              84.67709756959806,
              24.61471118888216
            ],
            [
              84.67762377574203,
              24.61627052171649
            ],
            [
              84.67838643014692,
              24.61793901899071
            ],
            [
              84.67887402759827,
              24.6193085603828
            ],
            [
              84.67901024094145,
              24.62083026207089
            ],
            [
              84.67885991506516,
              24.6224004606825
            ],
            [
              84.67930362981492,
              24.624735804281844
            ],
            [
              84.6785871398325,
              24.625933809901856
            ],
            [
              84.67797220169803,
              24.62758351481082
            ],
            [
              84.67813217458215,
              24.62932649574403
            ],
            [
              84.67864066235546,
              24.631522154111735
            ],
            [
              84.67883326833889,
              24.63369405363358
            ],
            [
              84.67500958394214,
              24.6339819039933
            ],
            [
              84.67303896407641,
              24.634023991057852
            ],
            [
              84.671744691178,
              24.634113806743095
            ],
            [
              84.67022167666552,
              24.63453221929206
            ],
            [
              84.66946956219388,
              24.634840759179312
            ],
            [
              84.6674624698293,
              24.635275376185408
            ],
            [
              84.66559068261114,
              24.635308754307886
            ],
            [
              84.66412489168059,
              24.635104410031236
            ],
            [
              84.66235269438977,
              24.634935025305367
            ],
            [
              84.66079121671176,
              24.63514107073519
            ],
            [
              84.66026864065982,
              24.63599210034563
            ],
            [
              84.65960921435922,
              24.63760096493972
            ],
            [
              84.65818680576868,
              24.637604449911517
            ],
            [
              84.65697047968744,
              24.637911114800605
            ],
            [
              84.65660844335659,
              24.638239120607846
            ],
            [
              84.65637339377261,
              24.638843048291992
            ],
            [
              84.65649460884379,
              24.639335525776733
            ],
            [
              84.65740406233913,
              24.640223867003026
            ],
            [
              84.65700989955874,
              24.64107090925211
            ],
            [
              84.65647053938407,
              24.641280929135966
            ],
            [
              84.65543596584102,
              24.640739682381813
            ],
            [
              84.65486257568672,
              24.64085031679401
            ],
            [
              84.65450018991123,
              24.64124151940721
            ],
            [
              84.65419946270022,
              24.64217020285657
            ],
            [
              84.65354678903557,
              24.642321087218406
            ],
            [
              84.65245394088173,
              24.642610167765667
            ],
            [
              84.65062408791934,
              24.64312644277686
            ],
            [
              84.64949820332262,
              24.64310394822768
            ],
            [
              84.64744638294172,
              24.643547108879904
            ],
            [
              84.64597561534448,
              24.644362653688088
            ],
            [
              84.64455589810655,
              24.644830933207526
            ],
            [
              84.64362515992885,
              24.645301138691714
            ],
            [
              84.64189377130477,
              24.645858371975827
            ],
            [
              84.63954287301969,
              24.646864418824364
            ],
            [
              84.63790803532233,
              24.64788692572579
            ],
            [
              84.63711767328086,
              24.648917352908594
            ],
            [
              84.63688967996342,
              24.65010357384905
            ],
            [
              84.63713604023515,
              24.651507753080818
            ],
            [
              84.63722999323407,
              24.65316892836234
            ],
            [
              84.63742755701955,
              24.653177902597122
            ],
            [
              84.6377240100465,
              24.653259109105566
            ],
            [
              84.637896802788,
              24.65337194985582
            ],
            [
              84.63805989731775,
              24.653575082870105
            ],
            [
              84.63817347760731,
              24.653800815132424
            ],
            [
              84.63821800440101,
              24.654085127294298
            ],
            [
              84.63816858897555,
              24.654495956934497
            ],
            [
              84.63805510211077,
              24.65491570871434
            ],
            [
              84.63809462259337,
              24.65511437094673
            ],
            [
              84.63816377580227,
              24.65531295775235
            ],
            [
              84.6386577773433,
              24.655944906330514
            ],
            [
              84.63873191171042,
              24.656157019791937
            ],
            [
              84.63876155341985,
              24.656450395290598
            ],
            [
              84.63872209761597,
              24.65688828110751
            ],
            [
              84.63857891065125,
              24.65764217702577
            ],
            [
              84.63856912979442,
              24.658093526831546
            ],
            [
              84.63866294714775,
              24.658508866126123
            ],
            [
              84.63866297589384,
              24.65871196220701
            ],
            [
              84.6386531932404,
              24.6589692429474
            ],
            [
              84.63856921243942,
              24.659705023652673
            ],
            [
              84.63842607937363,
              24.660607857743027
            ],
            [
              84.63844096086464,
              24.66069357238908
            ],
            [
              84.63829771461113,
              24.661366228629014
            ],
            [
              84.63827805677775,
              24.662336715825436
            ],
            [
              84.63883162201202,
              24.665031518038287
            ],
            [
              84.63990353941975,
              24.664832816895995
            ],
            [
              84.64178544526128,
              24.66396587292611
            ],
            [
              84.64353389918082,
              24.66332924227972
            ],
            [
              84.64433910318742,
              24.663098882930623
            ],
            [
              84.64482808584098,
              24.663112419950227
            ],
            [
              84.64519359775366,
              24.663220693195953
            ],
            [
              84.64538134115648,
              24.663401188670782
            ],
            [
              84.64544565424261,
              24.66362686560907
            ],
            [
              84.64526784980012,
              24.663911302333155
            ],
            [
              84.64379109762646,
              24.665080626723764
            ],
            [
              84.64306999928664,
              24.665969971746275
            ],
            [
              84.64287744001561,
              24.666565857357316
            ],
            [
              84.64285281899029,
              24.667166182654242
            ],
            [
              84.64309997966092,
              24.668132195303354
            ],
            [
              84.64345082118672,
              24.66914776470119
            ],
            [
              84.64447848758356,
              24.67028064759515
            ],
            [
              84.64473532131316,
              24.67060614960638
            ],
            [
              84.64484334911599,
              24.67074306014682
            ],
            [
              84.64518002690468,
              24.671169749836796
            ],
            [
              84.64561985913578,
              24.67188748424957
            ],
            [
              84.64584232781418,
              24.67281275693731
            ],
            [
              84.64585730183167,
              24.673851037639544
            ],
            [
              84.6455214424082,
              24.674650030024193
            ],
            [
              84.64495357868957,
              24.675625100186576
            ],
            [
              84.6449041587725,
              24.676031327717666
            ],
            [
              84.64520579867188,
              24.677706049909695
            ],
            [
              84.64541837420406,
              24.678753206762373
            ],
            [
              84.64550737658747,
              24.678911212889897
            ],
            [
              84.64575929832914,
              24.67904207559224
            ],
            [
              84.64629775659525,
              24.67893362833806
            ],
            [
              84.6469201911708,
              24.678477620388772
            ],
            [
              84.64743871582077,
              24.67761541421238
            ],
            [
              84.6483475692415,
              24.676762119106048
            ],
            [
              84.64915266904352,
              24.67596758083881
            ],
            [
              84.64994307600075,
              24.676003516927455
            ],
            [
              84.65012581488911,
              24.675809419152316
            ],
            [
              84.64990334171911,
              24.67489308586135
            ],
            [
              84.64996756407541,
              24.674676463214283
            ],
            [
              84.6503033893629,
              24.67434683565966
            ],
            [
              84.65059484596023,
              24.674202370176868
            ],
            [
              84.65104433508061,
              24.674238378608166
            ],
            [
              84.65420137970503,
              24.6756596862366
            ],
            [
              84.6547103013646,
              24.676025269259597
            ],
            [
              84.65540712183557,
              24.676950450845197
            ],
            [
              84.65606444967167,
              24.678128479336742
            ],
            [
              84.65723548988281,
              24.678994893073362
            ],
            [
              84.65756642923347,
              24.67911668128635
            ],
            [
              84.65940401130057,
              24.678376014605536
            ],
            [
              84.66034261872012,
              24.678195224085442
            ],
            [
              84.66136528239913,
              24.678195003692668
            ],
            [
              84.66309448003224,
              24.67889423294651
            ],
            [
              84.66417153310844,
              24.679061018630243
            ],
            [
              84.66434453156417,
              24.679218968861843
            ],
            [
              84.66428532360382,
              24.679512312987836
            ],
            [
              84.66260140465425,
              24.682099285667988
            ],
            [
              84.66257191925169,
              24.682604853944763
            ],
            [
              84.66398974733262,
              24.682225338168163
            ],
            [
              84.66599033140295,
              24.681538670873962
            ],
            [
              84.66705744372221,
              24.68146616928434
            ],
            [
              84.66838137719469,
              24.681231020210177
            ],
            [
              84.67061922160292,
              24.680964101373824
            ],
            [
              84.67162202892091,
              24.680805808078137
            ],
            [
              84.67219994838082,
              24.68065211335375
            ],
            [
              84.6728076146531,
              24.680651968060626
            ],
            [
              84.67380066357212,
              24.680619973368287
            ],
            [
              84.67452676642637,
              24.680466308616268
            ],
            [
              84.67516908431242,
              24.680547298198565
            ],
            [
              84.67544561360467,
              24.680402822757515
            ],
            [
              84.675895088352,
              24.680068578079293
            ],
            [
              84.67601361296889,
              24.680091175344717
            ],
            [
              84.67618175333558,
              24.680474791134934
            ],
            [
              84.67626087514917,
              24.68061917833719
            ],
            [
              84.67639428934191,
              24.680632706925444
            ],
            [
              84.67649797558694,
              24.68056047417284
            ],
            [
              84.67648793332039,
              24.680068458905716
            ],
            [
              84.67667070724306,
              24.680041229374968
            ],
            [
              84.67710555741758,
              24.680415794683277
            ],
            [
              84.67779232394386,
              24.680523909249086
            ],
            [
              84.67801471806212,
              24.680704363361446
            ],
            [
              84.67936583096184,
              24.68022202374854
            ],
            [
              84.67949987397526,
              24.67979081928231
            ],
            [
              84.67954810811612,
              24.679677467773846
            ],
            [
              84.67968170915844,
              24.679515428655847
            ],
            [
              84.67984000578623,
              24.679433566636064
            ],
            [
              84.67998117333816,
              24.67941778666829
            ],
            [
              84.68016026596482,
              24.679493218193816
            ],
            [
              84.6803152190631,
              24.679581276408115
            ],
            [
              84.68056666559596,
              24.679836102882
            ],
            [
              84.68069204435847,
              24.67999022878013
            ],
            [
              84.68080080788152,
              24.680075947250085
            ],
            [
              84.68090942587746,
              24.68008945059331
            ],
            [
              84.681057681137,
              24.68008036809936
            ],
            [
              84.68113666101678,
              24.680035190701897
            ],
            [
              84.68130454266867,
              24.679841003699927
            ],
            [
              84.68135891679448,
              24.67982288765072
            ],
            [
              84.68271728718338,
              24.67935299670526
            ],
            [
              84.68425836232464,
              24.678833248957023
            ],
            [
              84.68527112297599,
              24.678868959746957
            ],
            [
              84.68599729320388,
              24.67878290332947
            ],
            [
              84.68611580434606,
              24.678674518702373
            ],
            [
              84.68620463604954,
              24.678484895782834
            ],
            [
              84.68625869037515,
              24.677893545993744
            ],
            [
              84.68651044503014,
              24.677496213754726
            ],
            [
              84.6869894887234,
              24.677189068186856
            ],
            [
              84.6879526372182,
              24.676827552010202
            ],
            [
              84.68886174216719,
              24.67706641038874
            ],
            [
              84.68983500659041,
              24.677174328687286
            ],
            [
              84.69004746893489,
              24.67724646136699
            ],
            [
              84.69017598820763,
              24.677390852307585
            ],
            [
              84.69046781041926,
              24.6780678198484
            ],
            [
              84.6907297528679,
              24.678284376200583
            ],
            [
              84.69155482401534,
              24.678396862914845
            ],
            [
              84.69330383578867,
              24.678734627732283
            ],
            [
              84.69509721176067,
              24.678878249660464
            ],
            [
              84.69569008996669,
              24.678972765777598
            ],
            [
              84.69571516464123,
              24.679636306230393
            ],
            [
              84.69578474544817,
              24.67977157189049
            ],
            [
              84.6958289147124,
              24.679857436621084
            ],
            [
              84.69635266755732,
              24.68001066460939
            ],
            [
              84.69682684956825,
              24.679865992644444
            ],
            [
              84.69798732199837,
              24.67902583765077
            ],
            [
              84.69848612144135,
              24.678745729766298
            ],
            [
              84.69899984639277,
              24.678650685352586
            ],
            [
              84.69964697026558,
              24.678578142086536
            ],
            [
              84.69996318533042,
              24.67865020865288
            ],
            [
              84.70017077431447,
              24.678817121184185
            ],
            [
              84.70021044661236,
              24.67906988407226
            ],
            [
              84.70008728309534,
              24.679643218321093
            ],
            [
              84.69924299788232,
              24.682145368348067
            ],
            [
              84.69892341413512,
              24.68309245968232
            ],
            [
              84.69838561702906,
              24.68429794932866
            ],
            [
              84.69746226929124,
              24.68518764623841
            ],
            [
              84.69688962833189,
              24.685977862641778
            ],
            [
              84.69689000562431,
              24.686636900303085
            ],
            [
              84.6970880805512,
              24.687431262839514
            ],
            [
              84.69738513634765,
              24.688509956046182
            ],
            [
              84.69798720791233,
              24.69017505912192
            ],
            [
              84.69808736108335,
              24.69045204470356
            ],
            [
              84.69830062203012,
              24.691041841302155
            ],
            [
              84.69873614414446,
              24.692305535661134
            ],
            [
              84.69947303666363,
              24.693523940226886
            ],
            [
              84.70021957439397,
              24.694322538014116
            ],
            [
              84.70112955520035,
              24.695757516595208
            ],
            [
              84.70288047679202,
              24.698740342222465
            ],
            [
              84.70378919816038,
              24.698067290980518
            ],
            [
              84.7050486406803,
              24.69727668603171
            ],
            [
              84.70629848829465,
              24.69695101125583
            ],
            [
              84.70685185410294,
              24.696923627080704
            ],
            [
              84.7075239143097,
              24.697067706312794
            ],
            [
              84.7078551321381,
              24.697333847155686
            ],
            [
              84.70823598188598,
              24.697933993302343
            ],
            [
              84.7084485008243,
              24.69801963985388
            ],
            [
              84.70908587258639,
              24.6980012293719
            ],
            [
              84.70908089591971,
              24.697947064604957
            ],
            [
              84.70911042084813,
              24.697766490183426
            ],
            [
              84.70923877662752,
              24.697603917156112
            ],
            [
              84.70952031402747,
              24.69745931213162
            ],
            [
              84.709757425245,
              24.69737792709873
            ],
            [
              84.70989569842513,
              24.697269515384836
            ],
            [
              84.70996971331631,
              24.69712502668103
            ],
            [
              84.7099697070281,
              24.69711599929407
            ],
            [
              84.71132408710052,
              24.697936765730955
            ],
            [
              84.71300981615536,
              24.699163584235386
            ],
            [
              84.71358307335899,
              24.699303180315958
            ],
            [
              84.71439832412372,
              24.6992801278678
            ],
            [
              84.71645377729162,
              24.69926535017387
            ],
            [
              84.71835621592558,
              24.699462795917977
            ],
            [
              84.7201995112779,
              24.699849839399096
            ],
            [
              84.72050091492035,
              24.699849647609078
            ],
            [
              84.72156777930459,
              24.699329862911323
            ],
            [
              84.72229395132912,
              24.699126267398277
            ],
            [
              84.72262994370327,
              24.699130564335864
            ],
            [
              84.72288568687814,
              24.700568367637274
            ],
            [
              84.72440153283466,
              24.700165424996552
            ],
            [
              84.72544083870262,
              24.700016718644413
            ],
            [
              84.72793763237296,
              24.69988097222107
            ],
            [
              84.72954194531695,
              24.700030645029162
            ],
            [
              84.73050516388037,
              24.700061738631863
            ],
            [
              84.73213899815956,
              24.699760310151067
            ],
            [
              84.73345342386308,
              24.69929796278815
            ],
            [
              84.73451543375151,
              24.699329892292063
            ],
            [
              84.73490401260408,
              24.69996538181778
            ],
            [
              84.73698417842546,
              24.699509778898285
            ],
            [
              84.73706166800018,
              24.699491806082285
            ],
            [
              84.7382968209731,
              24.69920533102581
            ],
            [
              84.74024941434605,
              24.699132301881875
            ],
            [
              84.74034684202849,
              24.69913200399353
            ],
            [
              84.74215188621767,
              24.699126465718464
            ],
            [
              84.74405384155803,
              24.699165730663218
            ],
            [
              84.74545862340607,
              24.699494126340166
            ],
            [
              84.74681474261688,
              24.69975425529467
            ],
            [
              84.74688842063985,
              24.69980004416967
            ],
            [
              84.74693398768262,
              24.700161622666865
            ],
            [
              84.74702998434884,
              24.700433238804802
            ],
            [
              84.74724874927335,
              24.700773769319117
            ],
            [
              84.74746875387294,
              24.70100139116953
            ],
            [
              84.74778734857499,
              24.70125242786424
            ],
            [
              84.74927763566502,
              24.700498123089734
            ],
            [
              84.7500001003424,
              24.701375455230487
            ],
            [
              84.75029293765029,
              24.70194501599107
            ],
            [
              84.75020840079216,
              24.7026759672008
            ],
            [
              84.75020578040646,
              24.702698627288143
            ],
            [
              84.75028601074114,
              24.703683038678257
            ],
            [
              84.75039389661015,
              24.70388198475907
            ],
            [
              84.75076437710464,
              24.703896748847644
            ],
            [
              84.75310372575011,
              24.703475590924526
            ],
            [
              84.75579791791594,
              24.70298474583297
            ],
            [
              84.75770286195124,
              24.702637659842868
            ],
            [
              84.7604177782507,
              24.702154478011796
            ],
            [
              84.76058128959872,
              24.703337732110597
            ],
            [
              84.76104461277447,
              24.703664292798983
            ],
            [
              84.76165200595888,
              24.7037700368226
            ],
            [
              84.7621458404133,
              24.70384384425678
            ],
            [
              84.7627527521007,
              24.70407604208272
            ],
            [
              84.76280564310801,
              24.704428431148326
            ],
            [
              84.76294175404321,
              24.705056300094675
            ],
            [
              84.7631567137042,
              24.70568444089784
            ],
            [
              84.76315420830288,
              24.706338946249943
            ],
            [
              84.76359121892567,
              24.70707168010645
            ],
            [
              84.76395062229443,
              24.707425119149086
            ],
            [
              84.76452866662018,
              24.707426875349206
            ],
            [
              84.7656258617217,
              24.70743040733523
            ],
            [
              84.76565882270609,
              24.707430216372977
            ],
            [
              84.76712822396578,
              24.707421729160508
            ],
            [
              84.77035150137607,
              24.707156626707064
            ],
            [
              84.7720574245585,
              24.70690927264729
            ],
            [
              84.7726361408241,
              24.706762244051454
            ],
            [
              84.77335317877882,
              24.706660685810636
            ],
            [
              84.7741788284413,
              24.706563985633814
            ],
            [
              84.77551481460995,
              24.70615294804203
            ],
            [
              84.77601428778938,
              24.706055100052456
            ],
            [
              84.77656428311873,
              24.70567771223945
            ],
            [
              84.77840964369787,
              24.70515540238786
            ],
            [
              84.7794035388299,
              24.704959881040672
            ],
            [
              84.78011666641821,
              24.704609989102103
            ],
            [
              84.78056139267096,
              24.704584344080644
            ]
          ]
        ]
      }
    }
  ]
}