{
  "type": "FeatureCollection",
  "features": [
    {
      "type": "Feature",
      "properties": {
        "object_id": "10-238-01528",
        "stname": "BIHAR",
        "dtname": "Jamui",
        "sdtname": "Barhat",
        "st_area_sh": 0.0,
        "st_length_": 0.0,
        "remarks": "",
        "dist_lgd": 198,
        "state_lgd": 10,
        "subdt_lgd": 1528,
        "ac_no": null,
        "st_length(shape)": 114104.37581341481,
        "st_area(shape)": 270298087.1382075
      },
      "geometry": {
        "type": "Polygon",
        "coordinates": [
          [
            [
              86.41318269110563,
              25.09855243863733
            ],
            [
              86.41170990140067,
              25.096738304064722
            ],
            [
              86.4110355190489,
              25.09564165377815
            ],
            [
              86.40983538330406,
              25.093710009957192
            ],
            [
              86.40936923941828,
              25.09289313713498
            ],
            [
              86.40842209171531,
              25.091444456343982
            ],
            [
              86.40741060757001,
              25.089995782807865
            ],
            [
              86.40689981741464,
              25.089291788310152
            ],
            [
              86.40624053843773,
              25.088781808730324
            ],
            [
              86.40609461520465,
              25.088704596896346
            ],
            [
              86.40538790428245,
              25.088330653403336
            ],
            [
              86.4035936246053,
              25.088344583243423
            ],
            [
              86.40168538375289,
              25.088403547078784
            ],
            [
              86.39901882825676,
              25.0887244673184
            ],
            [
              86.39566822543473,
              25.089162842633137
            ],
            [
              86.39407725426932,
              25.089352590328172
            ],
            [
              86.39355186738887,
              25.0893527017855
            ],
            [
              86.39319489306466,
              25.089045825224808
            ],
            [
              86.39330876440839,
              25.08825592672393
            ],
            [
              86.3935316966175,
              25.087127464602002
            ],
            [
              86.39363049602737,
              25.085209124351046
            ],
            [
              86.39363035768682,
              25.08439211911767
            ],
            [
              86.39375898475743,
              25.08257757119704
            ],
            [
              86.39387276986291,
              25.081480719963114
            ],
            [
              86.39403597758032,
              25.079287024624993
            ],
            [
              86.39411513442822,
              25.07807281171172
            ],
            [
              86.39429322273834,
              25.076258283219904
            ],
            [
              86.39437237599299,
              25.075265233047208
            ],
            [
              86.39466450902171,
              25.073405563240883
            ],
            [
              86.39485774382581,
              25.072863878051894
            ],
            [
              86.39370287688307,
              25.072426235254962
            ],
            [
              86.39288511263219,
              25.072074217689156
            ],
            [
              86.39227552486352,
              25.071370129887757
            ],
            [
              86.39240427141006,
              25.07069760235882
            ],
            [
              86.39289968600103,
              25.070083645090254
            ],
            [
              86.39373715389938,
              25.0691898697174
            ],
            [
              86.39397484632694,
              25.06845863183264
            ],
            [
              86.39408880660386,
              25.06778604030871
            ],
            [
              86.39391513441169,
              25.066851738606786
            ],
            [
              86.39354338729261,
              25.066174726318117
            ],
            [
              86.39258188540971,
              25.06544364538305
            ],
            [
              86.39144700059214,
              25.064829878229535
            ],
            [
              86.3899850661291,
              25.064712621114154
            ],
            [
              86.38845881139338,
              25.0648301532669
            ],
            [
              86.38741809517045,
              25.064744496182325
            ],
            [
              86.38658548536115,
              25.064261620396753
            ],
            [
              86.3861195714441,
              25.0635303783189
            ],
            [
              86.38574790876665,
              25.06276764526702
            ],
            [
              86.38565362608597,
              25.061991248046336
            ],
            [
              86.38549503840406,
              25.061187854826155
            ],
            [
              86.38546512540341,
              25.05937328531685
            ],
            [
              86.38557899315386,
              25.05751361511406
            ],
            [
              86.38602980818763,
              25.056434777749995
            ],
            [
              86.3863865202038,
              25.056154945972708
            ],
            [
              86.38664427380826,
              25.056376089038817
            ],
            [
              86.38678798359248,
              25.057400672112568
            ],
            [
              86.38721918481033,
              25.057851999991307
            ],
            [
              86.38787823920843,
              25.058158871727368
            ],
            [
              86.38888918526285,
              25.058158790350948
            ],
            [
              86.39030137911033,
              25.057693735346056
            ],
            [
              86.39100994415529,
              25.057472500260435
            ],
            [
              86.39177800012995,
              25.05749045769771
            ],
            [
              86.39264521933217,
              25.057765739909605
            ],
            [
              86.3939285255976,
              25.057196812132005
            ],
            [
              86.39441413238234,
              25.05709295215561
            ],
            [
              86.39583136398191,
              25.05698900339005
            ],
            [
              86.39664889467083,
              25.056681940742703
            ],
            [
              86.39762491961693,
              25.055467571281984
            ],
            [
              86.39820450275677,
              25.054794965406845
            ],
            [
              86.39835302481595,
              25.05412232817168
            ],
            [
              86.39848175070121,
              25.05366643663495
            ],
            [
              86.39795146261261,
              25.05309779337473
            ],
            [
              86.3974510165577,
              25.052894740036347
            ],
            [
              86.3964401423685,
              25.053070978729053
            ],
            [
              86.395191579345,
              25.05358119166453
            ],
            [
              86.39426011982013,
              25.054298949208178
            ],
            [
              86.39373489463647,
              25.05457892519465
            ],
            [
              86.39339792220031,
              25.054578904036134
            ],
            [
              86.39326907234754,
              25.054371304068127
            ],
            [
              86.39346225055783,
              25.054037325214498
            ],
            [
              86.39442345958993,
              25.053156961354894
            ],
            [
              86.39456079672551,
              25.05301382404494
            ],
            [
              86.39431149536952,
              25.053042189802774
            ],
            [
              86.3933253931226,
              25.053049806954895
            ],
            [
              86.39262677063121,
              25.053055204878756
            ],
            [
              86.39233008763556,
              25.05259264434041
            ],
            [
              86.39361750908334,
              25.05163241036851
            ],
            [
              86.39454957227605,
              25.050937206669264
            ],
            [
              86.3946668087088,
              25.050715161036464
            ],
            [
              86.39523621124155,
              25.049636713875678
            ],
            [
              86.39588769463843,
              25.04882835426779
            ],
            [
              86.39745744310527,
              25.048184340083722
            ],
            [
              86.39807146585646,
              25.04761092836669
            ],
            [
              86.39824392262807,
              25.046440711135308
            ],
            [
              86.39936737279038,
              25.04523149199317
            ],
            [
              86.4004951151031,
              25.043954633359945
            ],
            [
              86.400935174608,
              25.042263294013292
            ],
            [
              86.39775096672602,
              25.042454846277987
            ],
            [
              86.39507677375333,
              25.04260643165378
            ],
            [
              86.39321015633963,
              25.0427561742482
            ],
            [
              86.39105929580035,
              25.04377461339093
            ],
            [
              86.38844606879108,
              25.044643133872707
            ],
            [
              86.38562112773394,
              25.044565441709658
            ],
            [
              86.38456320338342,
              25.044839789346277
            ],
            [
              86.38438704195957,
              25.045612894961064
            ],
            [
              86.38457892569751,
              25.046545691844862
            ],
            [
              86.38491331817215,
              25.04734193790335
            ],
            [
              86.38429859832829,
              25.04784759768781
            ],
            [
              86.38257430100502,
              25.047860758177524
            ],
            [
              86.38067291429826,
              25.048010675026106
            ],
            [
              86.37618500569894,
              25.048157543895204
            ],
            [
              86.36346153571263,
              25.048835589997235
            ],
            [
              86.36108013782706,
              25.04905653630183
            ],
            [
              86.35763955794951,
              25.049416199942534
            ],
            [
              86.35423611083256,
              25.049504734835708
            ],
            [
              86.35085428796116,
              25.050346699784512
            ],
            [
              86.34895701823332,
              25.050961018814938
            ],
            [
              86.34584077059756,
              25.05102015527403
            ],
            [
              86.34251491815823,
              25.05147787877067
            ],
            [
              86.33844933721839,
              25.051778527824172
            ],
            [
              86.33730696763787,
              25.049792015226622
            ],
            [
              86.33662007085587,
              25.04831222372636
            ],
            [
              86.33506163577177,
              25.045209452928376
            ],
            [
              86.33407293290206,
              25.043212830695218
            ],
            [
              86.3331024460697,
              25.041035495978434
            ],
            [
              86.33232432357396,
              25.039885800793897
            ],
            [
              86.33159041615653,
              25.03980990186367
            ],
            [
              86.33036329322388,
              25.04000382066817
            ],
            [
              86.32893895235716,
              25.04029850360962
            ],
            [
              86.32628477834061,
              25.040480238646843
            ],
            [
              86.32428893468001,
              25.04059398507414
            ],
            [
              86.32235331856764,
              25.04135716701018
            ],
            [
              86.32061690027626,
              25.041672094253975
            ],
            [
              86.320067549039,
              25.04173924777676
            ],
            [
              86.31960842099558,
              25.04135885091939
            ],
            [
              86.31951529893831,
              25.040335060783125
            ],
            [
              86.31968822283388,
              25.03913333271179
            ],
            [
              86.31940899230756,
              25.03836806068977
            ],
            [
              86.3183005556886,
              25.03623221774385
            ],
            [
              86.31829210972832,
              25.03526190877957
            ],
            [
              86.31772604533518,
              25.03225568986575
            ],
            [
              86.31807997616721,
              25.03078634294551
            ],
            [
              86.31783281459829,
              25.02855851662894
            ],
            [
              86.31689186976234,
              25.027464055978697
            ],
            [
              86.31538898020716,
              25.02725374272969
            ],
            [
              86.31486989321182,
              25.0268106348627
            ],
            [
              86.3151215346791,
              25.0261228091641
            ],
            [
              86.31566785500061,
              25.025703704734546
            ],
            [
              86.31562413130081,
              25.025234630918607
            ],
            [
              86.31530873639781,
              25.024853229706657
            ],
            [
              86.3153342692131,
              25.024361143625313
            ],
            [
              86.31602629896865,
              25.02360694012849
            ],
            [
              86.31569117167211,
              25.023243763301483
            ],
            [
              86.31583502608507,
              25.02269210716669
            ],
            [
              86.31615821387315,
              25.02225198812805
            ],
            [
              86.31602177415456,
              25.021368360669243
            ],
            [
              86.31518648736574,
              25.02101788230022
            ],
            [
              86.31468078706473,
              25.01982093867926
            ],
            [
              86.31306042392153,
              25.017472103353537
            ],
            [
              86.31159693177977,
              25.01549666710073
            ],
            [
              86.31104040030846,
              25.01357355861291
            ],
            [
              86.31332891868186,
              25.01355720007259
            ],
            [
              86.31469911628977,
              25.01333074213187
            ],
            [
              86.31708690119704,
              25.012194292782194
            ],
            [
              86.31952055767599,
              25.010651407630693
            ],
            [
              86.32108563131007,
              25.00947574169984
            ],
            [
              86.3235217204268,
              25.00651096427313
            ],
            [
              86.32426637438998,
              25.005553311019735
            ],
            [
              86.32569885938308,
              25.003958775032945
            ],
            [
              86.32638739199719,
              25.002261350787617
            ],
            [
              86.32967781937329,
              25.00078456506178
            ],
            [
              86.33001679774743,
              25.00048622128683
            ],
            [
              86.33034882675456,
              25.000996011346704
            ],
            [
              86.33073825541338,
              25.00134523202179
            ],
            [
              86.3312350013076,
              25.001508618658708
            ],
            [
              86.33178303112311,
              25.001301497975785
            ],
            [
              86.33249269570597,
              25.000894704982127
            ],
            [
              86.33255783973374,
              25.000485483669706
            ],
            [
              86.33284789406089,
              25.00000003295483
            ],
            [
              86.33331445925654,
              24.999219151395998
            ],
            [
              86.33409747487563,
              24.998063874233516
            ],
            [
              86.33425615508405,
              24.99725145089107
            ],
            [
              86.33422682059843,
              24.996339661189417
            ],
            [
              86.3355598045974,
              24.99424560636027
            ],
            [
              86.33653079807958,
              24.993370195351073
            ],
            [
              86.33727868597778,
              24.993189872403303
            ],
            [
              86.33897213695082,
              24.99437286391973
            ],
            [
              86.34078982492764,
              24.99433716179624
            ],
            [
              86.3439151653107,
              24.9938639542057
            ],
            [
              86.34735752744577,
              24.99279934140007
            ],
            [
              86.34752102801397,
              24.99251949802621
            ],
            [
              86.34728349368994,
              24.991905602135027
            ],
            [
              86.34589212997727,
              24.990402239785947
            ],
            [
              86.34633796834437,
              24.989698164367084
            ],
            [
              86.34732397087832,
              24.988096030253626
            ],
            [
              86.34902811359987,
              24.985722033130312
            ],
            [
              86.34875080906153,
              24.985315722716013
            ],
            [
              86.3479288173389,
              24.984941010372815
            ],
            [
              86.34607673736143,
              24.984466703196937
            ],
            [
              86.34287775758295,
              24.983612928244582
            ],
            [
              86.34203088971347,
              24.983472800759067
            ],
            [
              86.33924798621838,
              24.982596433627865
            ],
            [
              86.33655422973544,
              24.98166144166622
            ],
            [
              86.33613898888525,
              24.979314147815348
            ],
            [
              86.33661491272953,
              24.97780220108566
            ],
            [
              86.3374470347536,
              24.977007937957335
            ],
            [
              86.33889308340916,
              24.976868437288054
            ],
            [
              86.33998771831213,
              24.97613738207608
            ],
            [
              86.34133948967695,
              24.97642662237342
            ],
            [
              86.34217645002714,
              24.976467454125768
            ],
            [
              86.34378584833398,
              24.976305258921872
            ],
            [
              86.3454247796541,
              24.977059445831692
            ],
            [
              86.34575651940368,
              24.977547013119807
            ],
            [
              86.34615753093976,
              24.977799794837505
            ],
            [
              86.34706877926905,
              24.977682649175748
            ],
            [
              86.34758363070783,
              24.978152183064076
            ],
            [
              86.34798954165545,
              24.979063987962874
            ],
            [
              86.35161912257722,
              24.98075729720606
            ],
            [
              86.35220841021707,
              24.98111852161629
            ],
            [
              86.35379277876515,
              24.98327183317966
            ],
            [
              86.35449096737027,
              24.983375715732766
            ],
            [
              86.35508025231516,
              24.983903904055797
            ],
            [
              86.3554168366791,
              24.984955657098965
            ],
            [
              86.35681832709993,
              24.985362145394774
            ],
            [
              86.35736309243767,
              24.985303513889743
            ],
            [
              86.35817044880768,
              24.984441415752194
            ],
            [
              86.3565609867205,
              24.983732590014238
            ],
            [
              86.35319888725944,
              24.98077563799323
            ],
            [
              86.35236713534124,
              24.979570265285833
            ],
            [
              86.3513426058614,
              24.976920556762423
            ],
            [
              86.35081788373428,
              24.975597961981936
            ],
            [
              86.34876341332327,
              24.972826093350196
            ],
            [
              86.34872790561508,
              24.97276942980573
            ],
            [
              86.3463676091555,
              24.969002522026834
            ],
            [
              86.34568949071043,
              24.967544396183996
            ],
            [
              86.34510056239668,
              24.96652417821125
            ],
            [
              86.34423947060299,
              24.96460111536476
            ],
            [
              86.34382395307169,
              24.962691723072744
            ],
            [
              86.34371570518167,
              24.960294866152996
            ],
            [
              86.34272594858813,
              24.95803317804305
            ],
            [
              86.34191940788838,
              24.956191437978845
            ],
            [
              86.34051843040557,
              24.9555094629792
            ],
            [
              86.33884990139346,
              24.955220229711855
            ],
            [
              86.3382410116158,
              24.954782261901908
            ],
            [
              86.33750829985598,
              24.95467373890178
            ],
            [
              86.33669625428018,
              24.95489918828863
            ],
            [
              86.33599337018106,
              24.95443862237439
            ],
            [
              86.33535960515486,
              24.95441587391986
            ],
            [
              86.33484451656082,
              24.954749753960336
            ],
            [
              86.3335029590408,
              24.95420774299865
            ],
            [
              86.33235919258003,
              24.954437649104516
            ],
            [
              86.33098776158522,
              24.954170890610285
            ],
            [
              86.3312365706644,
              24.950884898112093
            ],
            [
              86.32985589600533,
              24.949101558187515
            ],
            [
              86.32883197198996,
              24.94642909367221
            ],
            [
              86.3283922466584,
              24.944221626753983
            ],
            [
              86.32793195709334,
              24.94372500679431
            ],
            [
              86.32680353385761,
              24.942988895248465
            ],
            [
              86.3259128299989,
              24.941801460758647
            ],
            [
              86.32455736565996,
              24.93938158199994
            ],
            [
              86.32375621215695,
              24.93739522226493
            ],
            [
              86.32371217135186,
              24.936158449785626
            ],
            [
              86.32394049524929,
              24.93460578715142
            ],
            [
              86.32319412101232,
              24.9319333389113
            ],
            [
              86.32226413831783,
              24.930253846726877
            ],
            [
              86.3218041919092,
              24.929432185107668
            ],
            [
              86.31903750120836,
              24.928406555910886
            ],
            [
              86.31845358639221,
              24.92799559784256
            ],
            [
              86.31795905574346,
              24.927024951765752
            ],
            [
              86.31843960501313,
              24.926005008278178
            ],
            [
              86.31855389497177,
              24.92509321366127
            ],
            [
              86.31845512071472,
              24.92465079178031
            ],
            [
              86.31772302789416,
              24.923634944290974
            ],
            [
              86.317555441788,
              24.922005410888385
            ],
            [
              86.31791705860562,
              24.921310368332794
            ],
            [
              86.31857572672813,
              24.92067421472752
            ],
            [
              86.31876962538726,
              24.918733351200522
            ],
            [
              86.3184583537514,
              24.91763181587576
            ],
            [
              86.31705782093466,
              24.917040020771044
            ],
            [
              86.3159789164307,
              24.91669648535893
            ],
            [
              86.31274222537657,
              24.915936845798324
            ],
            [
              86.31230696107868,
              24.91537243963169
            ],
            [
              86.31130218195865,
              24.915381079630876
            ],
            [
              86.30941184273323,
              24.91460835090506
            ],
            [
              86.30732356871812,
              24.913948460915318
            ],
            [
              86.3064870197963,
              24.913975169043812
            ],
            [
              86.30478316363735,
              24.916168060034902
            ],
            [
              86.30429737539295,
              24.917418180646337
            ],
            [
              86.30417806385185,
              24.918266677596318
            ],
            [
              86.30432633438275,
              24.918740721680777
            ],
            [
              86.30469700621845,
              24.919702367199875
            ],
            [
              86.3052061317956,
              24.920876199372174
            ],
            [
              86.30509668914623,
              24.92185560590719
            ],
            [
              86.30465592985375,
              24.922306796272785
            ],
            [
              86.30005637144443,
              24.924137178329776
            ],
            [
              86.29804131641318,
              24.924840279737037
            ],
            [
              86.29644223166412,
              24.925150885680917
            ],
            [
              86.29569448929298,
              24.925759883747645
            ],
            [
              86.29425279926318,
              24.927609750164905
            ],
            [
              86.29335592757171,
              24.928922838193422
            ],
            [
              86.29302874407728,
              24.929649308886553
            ],
            [
              86.293037980555,
              24.930660445625474
            ],
            [
              86.29309667467905,
              24.9317527768593
            ],
            [
              86.29284357614436,
              24.93269609268746
            ],
            [
              86.2912784036956,
              24.93393199327893
            ],
            [
              86.29018370591061,
              24.935037213129295
            ],
            [
              86.28915353680739,
              24.935749825255506
            ],
            [
              86.28786572189755,
              24.936746600788194
            ],
            [
              86.28658288634932,
              24.937657647778117
            ],
            [
              86.28605247878475,
              24.938668446752764
            ],
            [
              86.28567071904352,
              24.939458121292997
            ],
            [
              86.28455955334272,
              24.935692936929083
            ],
            [
              86.28322476462834,
              24.933254649804415
            ],
            [
              86.28268687589409,
              24.93098389140202
            ],
            [
              86.28229244811072,
              24.928844133611484
            ],
            [
              86.28082728420422,
              24.92876643503683
            ],
            [
              86.27735665657876,
              24.92943225190625
            ],
            [
              86.27537683976115,
              24.929191679762752
            ],
            [
              86.27129210134959,
              24.93024519229212
            ],
            [
              86.26870753329281,
              24.930825617262393
            ],
            [
              86.26645942563245,
              24.93169514214146
            ],
            [
              86.26452440510312,
              24.931111480763107
            ],
            [
              86.26283588318604,
              24.93158864589803
            ],
            [
              86.26165787923486,
              24.931425308142426
            ],
            [
              86.25813738343304,
              24.932352379324723
            ],
            [
              86.25714743010847,
              24.93223427806367
            ],
            [
              86.25544968339176,
              24.932074905005575
            ],
            [
              86.25398938565914,
              24.93208272597649
            ],
            [
              86.25348791193157,
              24.933544860840065
            ],
            [
              86.25375153602641,
              24.93736372468183
            ],
            [
              86.253438202757,
              24.938821462642046
            ],
            [
              86.2524524912772,
              24.939384859754476
            ],
            [
              86.25161015091675,
              24.94011992333507
            ],
            [
              86.25115288418262,
              24.941970219333648
            ],
            [
              86.25000000880488,
              24.943742888008188
            ],
            [
              86.24754729097393,
              24.94579371724484
            ],
            [
              86.24680561492592,
              24.944294982344005
            ],
            [
              86.2464113425511,
              24.943600941089148
            ],
            [
              86.24685828943923,
              24.9430034451522
            ],
            [
              86.24708657201415,
              24.94206002821578
            ],
            [
              86.24708246132343,
              24.941086571966036
            ],
            [
              86.24746125662423,
              24.93896007702517
            ],
            [
              86.24731690364627,
              24.938143139246804
            ],
            [
              86.24631160080847,
              24.937782873702513
            ],
            [
              86.24620888025234,
              24.938997191363892
            ],
            [
              86.24566915087009,
              24.93892539900737
            ],
            [
              86.24426220677714,
              24.937901874623705
            ],
            [
              86.24306414164903,
              24.937789978311304
            ],
            [
              86.24428402505876,
              24.939942132965395
            ],
            [
              86.24448339625461,
              24.94137736324233
            ],
            [
              86.24406473731474,
              24.94356231393774
            ],
            [
              86.24352621886148,
              24.944727346113602
            ],
            [
              86.24189348232358,
              24.945816446114883
            ],
            [
              86.23994903936523,
              24.947144985061403
            ],
            [
              86.23903421933439,
              24.948314788041632
            ],
            [
              86.23888691089914,
              24.949678050787284
            ],
            [
              86.23902650999263,
              24.95074324123255
            ],
            [
              86.23891406876683,
              24.952318595935633
            ],
            [
              86.23994662918533,
              24.955287934639188
            ],
            [
              86.24055197690582,
              24.956668703069553
            ],
            [
              86.24068678528387,
              24.95782410931318
            ],
            [
              86.2402623178374,
              24.95928693305906
            ],
            [
              86.23250729943186,
              24.963639522180483
            ],
            [
              86.22801393895708,
              24.966743605613754
            ],
            [
              86.22582196612053,
              24.968744714750162
            ],
            [
              86.22648064681944,
              24.968861635203044
            ],
            [
              86.22864455628655,
              24.96884663720137
            ],
            [
              86.22846173205825,
              24.969397387672533
            ],
            [
              86.2269084577954,
              24.97123112793189
            ],
            [
              86.22691914505234,
              24.97222862604747
            ],
            [
              86.22874344462964,
              24.974615158687385
            ],
            [
              86.22965083199982,
              24.976000271230983
            ],
            [
              86.2302561833136,
              24.97738558233852
            ],
            [
              86.2312386339089,
              24.979664316034054
            ],
            [
              86.23207235762915,
              24.981740060379074
            ],
            [
              86.23235574286365,
              24.982981149007387
            ],
            [
              86.23196057486847,
              24.984218189663544
            ],
            [
              86.2305958596787,
              24.986656643278927
            ],
            [
              86.2285764091908,
              24.988021183044616
            ],
            [
              86.22579392341231,
              24.989083895313428
            ],
            [
              86.22259600634077,
              24.9895571669028
            ],
            [
              86.22378050241655,
              24.990199839929915
            ],
            [
              86.2239337433259,
              24.990282984287013
            ],
            [
              86.22473939289691,
              24.990442238028468
            ],
            [
              86.2251347989456,
              24.990622921632127
            ],
            [
              86.22560231725377,
              24.990949462653404
            ],
            [
              86.22606912499454,
              24.991310767038463
            ],
            [
              86.22714915688421,
              24.99170722367074
            ],
            [
              86.22794181412125,
              24.992045198919346
            ],
            [
              86.22886822691083,
              24.992306381070904
            ],
            [
              86.22938848710595,
              24.992599410072017
            ],
            [
              86.23019576532255,
              24.99261234932451
            ],
            [
              86.23097341889772,
              24.992688524138554
            ],
            [
              86.23211737310638,
              24.99252971460357
            ],
            [
              86.23255342792167,
              24.99277317063603
            ],
            [
              86.23315778569876,
              24.992912648376425
            ],
            [
              86.23366307187639,
              24.993065792240465
            ],
            [
              86.23394963894361,
              24.993103956047293
            ],
            [
              86.23433670503323,
              24.993155501959972
            ],
            [
              86.23482725255201,
              24.993416933338054
            ],
            [
              86.23512977280035,
              24.99380039112847
            ],
            [
              86.23545204700177,
              24.994274165638622
            ],
            [
              86.23575471367553,
              24.994842661375376
            ],
            [
              86.23648072041003,
              24.996112113892142
            ],
            [
              86.23693989606414,
              24.996498270399798
            ],
            [
              86.23769328344855,
              24.997075483745807
            ],
            [
              86.23822869193428,
              24.99766638783257
            ],
            [
              86.23838234606868,
              24.99772045411563
            ],
            [
              86.23873397811192,
              24.997711147392398
            ],
            [
              86.23917969161319,
              24.997710807885454
            ],
            [
              86.24019469895102,
              24.997353418106893
            ],
            [
              86.240521675833,
              24.997389313940147
            ],
            [
              86.2405861407344,
              24.99749304208425
            ],
            [
              86.24076466023585,
              24.99770960536329
            ],
            [
              86.24103235100402,
              24.99794404892647
            ],
            [
              86.24142387992399,
              24.998183009014205
            ],
            [
              86.24203334192849,
              24.99853008993059
            ],
            [
              86.24259337772776,
              24.998890733731113
            ],
            [
              86.24307426656058,
              24.99932818465519
            ],
            [
              86.2433666053035,
              24.99942277716965
            ],
            [
              86.2437332113642,
              24.99955793316622
            ],
            [
              86.24515287560156,
              25.000004004379125
            ],
            [
              86.24600755611907,
              25.0004880694003
            ],
            [
              86.24607127362218,
              25.000592652224533
            ],
            [
              86.24612097201694,
              25.000674223134556
            ],
            [
              86.2466623354347,
              25.001516720167004
            ],
            [
              86.24721338987776,
              25.00272139002054
            ],
            [
              86.24795236109847,
              25.003727433366482
            ],
            [
              86.248353949353,
              25.004061066402446
            ],
            [
              86.24934774656865,
              25.004442299364705
            ],
            [
              86.25000000431329,
              25.005502709794886
            ],
            [
              86.25078671021157,
              25.006781612215587
            ],
            [
              86.25216662669256,
              25.008831998006908
            ],
            [
              86.25223045199348,
              25.009436916240304
            ],
            [
              86.25225993020955,
              25.0097077115977
            ],
            [
              86.25238747121695,
              25.010935608984166
            ],
            [
              86.25212952177974,
              25.01296594503694
            ],
            [
              86.25192006519822,
              25.013289950303093
            ],
            [
              86.25150440663143,
              25.013932916810898
            ],
            [
              86.25115741708154,
              25.014330187768028
            ],
            [
              86.25062830937921,
              25.01439184429032
            ],
            [
              86.25036173431863,
              25.014410035156427
            ],
            [
              86.25018337561559,
              25.014384472210278
            ],
            [
              86.2499960427429,
              25.014307416200946
            ],
            [
              86.24946154604717,
              25.014268776245526
            ],
            [
              86.24908007466512,
              25.01438587238451
            ],
            [
              86.24837425307503,
              25.016664692609655
            ],
            [
              86.24841655833504,
              25.018457385386128
            ],
            [
              86.24831740588724,
              25.020254869331623
            ],
            [
              86.24719770978449,
              25.02195453492545
            ],
            [
              86.24657995902484,
              25.02351233693634
            ],
            [
              86.24658069294843,
              25.024252576213694
            ],
            [
              86.2467658716611,
              25.026130153678007
            ],
            [
              86.24698533367827,
              25.027669170062023
            ],
            [
              86.24691744978887,
              25.02914523119871
            ],
            [
              86.24666092867298,
              25.030282864201677
            ],
            [
              86.24633039086925,
              25.031691400381728
            ],
            [
              86.24592588129343,
              25.033411472312235
            ],
            [
              86.24526849686347,
              25.03501891381678
            ],
            [
              86.24449726085271,
              25.03673025633857
            ],
            [
              86.24380065238417,
              25.038811684333695
            ],
            [
              86.24306449828018,
              25.040888569746016
            ],
            [
              86.24284510902655,
              25.042046522021515
            ],
            [
              86.24262571707796,
              25.043204470688295
            ],
            [
              86.24244346597479,
              25.04431050393327
            ],
            [
              86.24266712222604,
              25.04511373676825
            ],
            [
              86.24300360597866,
              25.045706322193727
            ],
            [
              86.2431436389584,
              25.045952933871533
            ],
            [
              86.24332766872581,
              25.046688504660164
            ],
            [
              86.24311063844813,
              25.04769529610676
            ],
            [
              86.24292891106276,
              25.049360952782624
            ],
            [
              86.24289615219932,
              25.051369625073914
            ],
            [
              86.24306346521762,
              25.052761991393858
            ],
            [
              86.24323078182917,
              25.05415435735986
            ],
            [
              86.24334038976855,
              25.05482227038863
            ],
            [
              86.24370764620953,
              25.05539523008974
            ],
            [
              86.2442927611749,
              25.05581451626341
            ],
            [
              86.24598790457392,
              25.056318725941555
            ],
            [
              86.24763400804326,
              25.057080130372263
            ],
            [
              86.25000005372063,
              25.05781318576953
            ],
            [
              86.25219626660535,
              25.05865028187791
            ],
            [
              86.25417783962936,
              25.05927928991925
            ],
            [
              86.26039986593456,
              25.061301822095135
            ],
            [
              86.26370379319278,
              25.06279392235436
            ],
            [
              86.2683206612393,
              25.064756231660517
            ],
            [
              86.26950949707619,
              25.065343923636195
            ],
            [
              86.27197627713457,
              25.066663663196415
            ],
            [
              86.2729715350109,
              25.06756707821375
            ],
            [
              86.2746060331451,
              25.068737214155863
            ],
            [
              86.27675575731553,
              25.07005668037506
            ],
            [
              86.27951439821312,
              25.072310843020745
            ],
            [
              86.28243122704235,
              25.075120195651497
            ],
            [
              86.28323368669575,
              25.0757661446998
            ],
            [
              86.28470884435977,
              25.078046520002278
            ],
            [
              86.28580376043541,
              25.07996989490156
            ],
            [
              86.28637277579423,
              25.080969451618117
            ],
            [
              86.28644131096223,
              25.081089844288307
            ],
            [
              86.28990695383618,
              25.079277330294662
            ],
            [
              86.29273289831147,
              25.07802410768649
            ],
            [
              86.29680747677716,
              25.07697461178525
            ],
            [
              86.29870058191536,
              25.077178718745415
            ],
            [
              86.30074444501946,
              25.07731933728084
            ],
            [
              86.30299731105589,
              25.077474300872737
            ],
            [
              86.30402456961758,
              25.077517456120958
            ],
            [
              86.3072346364033,
              25.077652264100944
            ],
            [
              86.31031704629896,
              25.078123115317613
            ],
            [
              86.31342915719284,
              25.07885565587997
            ],
            [
              86.31484129624307,
              25.07961451923708
            ],
            [
              86.31650581068418,
              25.081194959661314
            ],
            [
              86.31714975721579,
              25.081926511210735
            ],
            [
              86.31804630012385,
              25.08315454880471
            ],
            [
              86.3189561129453,
              25.08419219872129
            ],
            [
              86.31907169557964,
              25.08432402161
            ],
            [
              86.31949292280288,
              25.084649157985233
            ],
            [
              86.3202610524394,
              25.084735217704477
            ],
            [
              86.32054828156497,
              25.085317561304247
            ],
            [
              86.3202604945856,
              25.085931316082004
            ],
            [
              86.32000234212916,
              25.086870125849043
            ],
            [
              86.31942708797065,
              25.08765973959636
            ],
            [
              86.318494905302,
              25.088508038676885
            ],
            [
              86.31823674296409,
              25.08926623365293
            ],
            [
              86.31827398531915,
              25.089435640648734
            ],
            [
              86.31855826976721,
              25.090728767294074
            ],
            [
              86.31868661386848,
              25.0918708197544
            ],
            [
              86.3189389263773,
              25.092922595181395
            ],
            [
              86.31845779859256,
              25.093685184330496
            ],
            [
              86.31820477102482,
              25.094122996811183
            ],
            [
              86.31733710805483,
              25.09464621128366
            ],
            [
              86.31573113322753,
              25.094559794076147
            ],
            [
              86.31563688288622,
              25.094762909317048
            ],
            [
              86.31650387211977,
              25.095611805085458
            ],
            [
              86.31634005893784,
              25.096108273048564
            ],
            [
              86.31605243724846,
              25.096487313815746
            ],
            [
              86.3152839635572,
              25.096753331996805
            ],
            [
              86.31454552324082,
              25.096576986138505
            ],
            [
              86.31390090566768,
              25.09689720891669
            ],
            [
              86.31496063473362,
              25.099091296334468
            ],
            [
              86.31650096427319,
              25.101863285615615
            ],
            [
              86.31710466628012,
              25.104003057115072
            ],
            [
              86.31761962641505,
              25.105230964250822
            ],
            [
              86.31861526607538,
              25.10698719667983
            ],
            [
              86.31992795174214,
              25.10914971869573
            ],
            [
              86.3205372673213,
              25.11005719307247
            ],
            [
              86.32124076407142,
              25.111082131373298
            ],
            [
              86.32220220307225,
              25.111899458608377
            ],
            [
              86.32316869419822,
              25.112396310264984
            ],
            [
              86.32704942520876,
              25.11494334068698
            ],
            [
              86.32965152209168,
              25.116609706894227
            ],
            [
              86.33404804058551,
              25.119535824619263
            ],
            [
              86.33651645108617,
              25.121233711214295
            ],
            [
              86.33995143356117,
              25.124303813393684
            ],
            [
              86.34261327559699,
              25.12649805719139
            ],
            [
              86.34470025603811,
              25.12787524834984
            ],
            [
              86.34848772844744,
              25.13009666576494
            ],
            [
              86.3536041810645,
              25.132742540343106
            ],
            [
              86.35459581334034,
              25.133230178352246
            ],
            [
              86.35644016690804,
              25.134101521348637
            ],
            [
              86.35999009870508,
              25.136124119627222
            ],
            [
              86.36110570208339,
              25.136647830143488
            ],
            [
              86.36241955466177,
              25.13775828887025
            ],
            [
              86.36559775640775,
              25.140128187152563
            ],
            [
              86.36732830241212,
              25.14150046733566
            ],
            [
              86.36915797571143,
              25.142818515162787
            ],
            [
              86.37098772985914,
              25.14383871176109
            ],
            [
              86.3720438737488,
              25.143576971009296
            ],
            [
              86.37347697588449,
              25.143283585719296
            ],
            [
              86.37578774822242,
              25.14309403639308
            ],
            [
              86.3771712310151,
              25.14303529003739
            ],
            [
              86.37886216311205,
              25.14285925003485
            ],
            [
              86.38069188941198,
              25.142583802276125
            ],
            [
              86.38141588122532,
              25.142552238616602
            ],
            [
              86.3840985857353,
              25.14214132723168
            ],
            [
              86.38517454286688,
              25.14205549088991
            ],
            [
              86.38904732109222,
              25.14180691621939
            ],
            [
              86.39137782133213,
              25.141630658945083
            ],
            [
              86.39330670636808,
              25.141296401044162
            ],
            [
              86.39618265825858,
              25.140975553746856
            ],
            [
              86.39783888214792,
              25.14078578940118
            ],
            [
              86.39989664218946,
              25.14050561136203
            ],
            [
              86.40212797560852,
              25.140374296312583
            ],
            [
              86.40526170086648,
              25.139935831382573
            ],
            [
              86.40672445908463,
              25.139804700321577
            ],
            [
              86.40974419981114,
              25.139379680008744
            ],
            [
              86.41117715102986,
              25.139234933335597
            ],
            [
              86.41529258756964,
              25.138750934918217
            ],
            [
              86.41971062161286,
              25.13848781296563
            ],
            [
              86.42034020587975,
              25.13825295269047
            ],
            [
              86.4202597761191,
              25.138141191020363
            ],
            [
              86.42006739201953,
              25.13787386333293
            ],
            [
              86.41911975383641,
              25.136452341968567
            ],
            [
              86.41833102493212,
              25.135373789839967
            ],
            [
              86.41762659662902,
              25.134511849848668
            ],
            [
              86.41683784077527,
              25.133297920880473
            ],
            [
              86.41648559877596,
              25.13266610610238
            ],
            [
              86.41565191997147,
              25.130766117871925
            ],
            [
              86.41520041323497,
              25.129858925766317
            ],
            [
              86.4143024959045,
              25.12810334729338
            ],
            [
              86.41378643892659,
              25.12686221293525
            ],
            [
              86.41313127513203,
              25.124695791292517
            ],
            [
              86.41277406005929,
              25.123847302401153
            ],
            [
              86.41209929143193,
              25.12238509570017
            ],
            [
              86.41253521868649,
              25.121021843600957
            ],
            [
              86.4132585376617,
              25.119441816860096
            ],
            [
              86.41361014724704,
              25.118241139137844
            ],
            [
              86.4139021248672,
              25.116543900708184
            ],
            [
              86.41406043137646,
              25.115316086856993
            ],
            [
              86.41443169160868,
              25.113546644134907
            ],
            [
              86.41444613292519,
              25.112097732943763
            ],
            [
              86.41454499701379,
              25.111352913678484
            ],
            [
              86.41512468076493,
              25.11023792903376
            ],
            [
              86.4155705658444,
              25.10953818566086
            ],
            [
              86.41724054743233,
              25.107502023282564
            ],
            [
              86.41767660494257,
              25.107050487161793
            ],
            [
              86.41759711661635,
              25.106599183644953
            ],
            [
              86.41752202015356,
              25.1063898090867
            ],
            [
              86.41706617724917,
              25.10511886814249
            ],
            [
              86.41658501443015,
              25.103936397331
            ],
            [
              86.41593017672399,
              25.10259150202912
            ],
            [
              86.41528538577602,
              25.1015354446193
            ],
            [
              86.41400091170068,
              25.099649015646985
            ],
            [
              86.41318269110563,
              25.09855243863733
            ]
          ]
        ]
      }
    }
  ]
}