{
  "type": "FeatureCollection",
  "features": [
    {
      "type": "Feature",
      "properties": {
        "object_id": "10-233-01451",
        "stname": "BIHAR",
        "dtname": "Kaimur (Bhabua)",
        "sdtname": "Chand",
        "st_area_sh": 0.0,
        "st_length_": 0.0,
        "remarks": "",
        "dist_lgd": 200,
        "state_lgd": 10,
        "subdt_lgd": 1451,
        "ac_no": null,
        "st_length(shape)": 97099.60209928264,
        "st_area(shape)": 257974481.1925409
      },
      "geometry": {
        "type": "Polygon",
        "coordinates": [
          [
            [
              83.39096043063216,
              25.20437653613558
            ],
            [
              83.39192284071183,
              25.20421393398581
            ],
            [
              83.39312352802226,
              25.204344596705987
            ],
            [
              83.39324320787262,
              25.203839290829087
            ],
            [
              83.39335791015797,
              25.203399051358343
            ],
            [
              83.39366885211211,
              25.202690545288135
            ],
            [
              83.39376386691971,
              25.201822259130754
            ],
            [
              83.39404367596106,
              25.201236648392992
            ],
            [
              83.39470859456131,
              25.200868996842935
            ],
            [
              83.3950820403946,
              25.20048575923572
            ],
            [
              83.3950738594373,
              25.200067817910703
            ],
            [
              83.39498786820671,
              25.199110851657284
            ],
            [
              83.39554762462996,
              25.198520611818005
            ],
            [
              83.39586934906242,
              25.19779144030049
            ],
            [
              83.39640388977561,
              25.19705890820198
            ],
            [
              83.39647537770591,
              25.196129988309174
            ],
            [
              83.39626222276034,
              25.19497119306996
            ],
            [
              83.39596590268411,
              25.19413966707331
            ],
            [
              83.39581920240832,
              25.19349891620617
            ],
            [
              83.39523101430635,
              25.190929818192092
            ],
            [
              83.3956145383388,
              25.19049542138917
            ],
            [
              83.39640774714144,
              25.190390773985744
            ],
            [
              83.39738134214468,
              25.190344394874213
            ],
            [
              83.39811841792012,
              25.190230451186533
            ],
            [
              83.39927931166012,
              25.19002812389808
            ],
            [
              83.40082669207635,
              25.18949323119585
            ],
            [
              83.40162409421474,
              25.189031701401912
            ],
            [
              83.40165451925509,
              25.188297141275207
            ],
            [
              83.40182011110132,
              25.187601182288606
            ],
            [
              83.40232055356294,
              25.187419756898375
            ],
            [
              83.4029090372106,
              25.187155308394566
            ],
            [
              83.40392872387277,
              25.187179531356108
            ],
            [
              83.40468978556464,
              25.187146759065058
            ],
            [
              83.40574248621179,
              25.18713983473364
            ],
            [
              83.40670574070778,
              25.187139413648453
            ],
            [
              83.40766899879708,
              25.18713898606
            ],
            [
              83.40930477433558,
              25.187163339089675
            ],
            [
              83.41031843779376,
              25.18688173361724
            ],
            [
              83.41072216493694,
              25.186630465268962
            ],
            [
              83.41147506004457,
              25.18732165398657
            ],
            [
              83.41210848281264,
              25.187637602763765
            ],
            [
              83.41333072430002,
              25.187138485310026
            ],
            [
              83.41475816525279,
              25.186819499027294
            ],
            [
              83.41535801977534,
              25.186565014680202
            ],
            [
              83.41654426487096,
              25.18651503698557
            ],
            [
              83.41663340379827,
              25.186499134026835
            ],
            [
              83.41717469265588,
              25.186402561897527
            ],
            [
              83.4172154249658,
              25.1856270401647
            ],
            [
              83.41706470383079,
              25.184232684703478
            ],
            [
              83.41688238804895,
              25.182940926712572
            ],
            [
              83.41715345738089,
              25.182487919315417
            ],
            [
              83.41709696862088,
              25.18189747617006
            ],
            [
              83.41743807869719,
              25.18158602108924
            ],
            [
              83.41847730461508,
              25.181467129764847
            ],
            [
              83.42070261483018,
              25.181287937342784
            ],
            [
              83.42189848986561,
              25.181451851301
            ],
            [
              83.4235784831774,
              25.182015690708532
            ],
            [
              83.42465630700809,
              25.18243130312925
            ],
            [
              83.42573413892364,
              25.182846906003096
            ],
            [
              83.42724073762261,
              25.183138264610363
            ],
            [
              83.42898395975395,
              25.183497115248603
            ],
            [
              83.42931915172917,
              25.183993705597437
            ],
            [
              83.43074766886366,
              25.1839931576848
            ],
            [
              83.43177940912031,
              25.183861930906346
            ],
            [
              83.43303923342422,
              25.18365825983774
            ],
            [
              83.43318893766632,
              25.183641185075214
            ],
            [
              83.43391219914935,
              25.183558692249594
            ],
            [
              83.43656084583193,
              25.18321001075976
            ],
            [
              83.44010231010914,
              25.182689417737826
            ],
            [
              83.44196231143079,
              25.18247197762302
            ],
            [
              83.44207312490927,
              25.181891156368327
            ],
            [
              83.44208721767947,
              25.181110659145162
            ],
            [
              83.44272198163229,
              25.18095504491782
            ],
            [
              83.44405708655363,
              25.18093298722317
            ],
            [
              83.44513020321224,
              25.180770073306444
            ],
            [
              83.44620331717594,
              25.180607151042388
            ],
            [
              83.4463795100408,
              25.180585762342265
            ],
            [
              83.44793338527656,
              25.180397112381073
            ],
            [
              83.44986108992622,
              25.180111121650256
            ],
            [
              83.45012960983935,
              25.18136168036001
            ],
            [
              83.4512373808067,
              25.181230775112827
            ],
            [
              83.4533798420981,
              25.180737653737022
            ],
            [
              83.45490732842404,
              25.180303540083965
            ],
            [
              83.45497537131524,
              25.18028942480785
            ],
            [
              83.45567115063879,
              25.180145095751467
            ],
            [
              83.45895431513581,
              25.17937148285229
            ],
            [
              83.45990646375996,
              25.1791136750184
            ],
            [
              83.4612405697547,
              25.178851130327914
            ],
            [
              83.46304079358409,
              25.17844380605819
            ],
            [
              83.46407233082145,
              25.178154323120683
            ],
            [
              83.46461286689086,
              25.177996036148496
            ],
            [
              83.46581794516639,
              25.177715473665987
            ],
            [
              83.46796040825441,
              25.17725373666557
            ],
            [
              83.46886795193146,
              25.1771222530473
            ],
            [
              83.47034600756058,
              25.17697690402324
            ],
            [
              83.4728505932177,
              25.17659605537752
            ],
            [
              83.47412509778998,
              25.17629278482049
            ],
            [
              83.47505698042134,
              25.17615417684309
            ],
            [
              83.47516513039504,
              25.176102368113874
            ],
            [
              83.47532687385856,
              25.176155346719984
            ],
            [
              83.47557762240044,
              25.17645061629852
            ],
            [
              83.47598163430959,
              25.176757218034705
            ],
            [
              83.476613564976,
              25.176607375256744
            ],
            [
              83.47690546623933,
              25.17628912397977
            ],
            [
              83.47695088236516,
              25.17589142415833
            ],
            [
              83.47665517314331,
              25.175638699047056
            ],
            [
              83.47656550780324,
              25.17536862432754
            ],
            [
              83.47628732022099,
              25.1752269779863
            ],
            [
              83.47601187699195,
              25.174965969598997
            ],
            [
              83.47559627142574,
              25.173864598925714
            ],
            [
              83.47547324714758,
              25.173223614604574
            ],
            [
              83.47534508720094,
              25.17255586773259
            ],
            [
              83.47530949505108,
              25.171353909918544
            ],
            [
              83.47533729162089,
              25.17128656575159
            ],
            [
              83.47617441097292,
              25.17124069725742
            ],
            [
              83.4771760891086,
              25.171009752891422
            ],
            [
              83.47896121315635,
              25.17057072568114
            ],
            [
              83.48097946619004,
              25.170081828718118
            ],
            [
              83.4829430477555,
              25.16953876863997
            ],
            [
              83.48428685465699,
              25.169185698168466
            ],
            [
              83.48516955183158,
              25.16897745775464
            ],
            [
              83.48604639738043,
              25.168818228762415
            ],
            [
              83.48619156243538,
              25.169115073056915
            ],
            [
              83.48685387771795,
              25.1705724671621
            ],
            [
              83.48718591570821,
              25.171896238335137
            ],
            [
              83.48867677682175,
              25.166195273009926
            ],
            [
              83.48855354143946,
              25.164763433759
            ],
            [
              83.48825385896913,
              25.162833024172986
            ],
            [
              83.48806185575525,
              25.16100772996784
            ],
            [
              83.48792883143133,
              25.160254877284974
            ],
            [
              83.48779579542932,
              25.15950194596428
            ],
            [
              83.48746122957986,
              25.157932145869182
            ],
            [
              83.48733237882877,
              25.15688824710185
            ],
            [
              83.48862454068626,
              25.156705179867934
            ],
            [
              83.48984638691492,
              25.15658896868268
            ],
            [
              83.49157366933987,
              25.156153816078234
            ],
            [
              83.49279821590423,
              25.155843610038396
            ],
            [
              83.49288008925755,
              25.15532116903065
            ],
            [
              83.49325401928277,
              25.154152397402935
            ],
            [
              83.49348123016757,
              25.15317587416619
            ],
            [
              83.49378942327694,
              25.151744603345264
            ],
            [
              83.49431550455508,
              25.149986605721917
            ],
            [
              83.49440029563644,
              25.147180896988765
            ],
            [
              83.49434891379883,
              25.1462642467826
            ],
            [
              83.49429763436915,
              25.144991167992803
            ],
            [
              83.49424005056281,
              25.14381721089685
            ],
            [
              83.49404319195482,
              25.142673287084992
            ],
            [
              83.4939889543729,
              25.141269248724836
            ],
            [
              83.49407126790071,
              25.140715211279137
            ],
            [
              83.49428816073618,
              25.140456092147843
            ],
            [
              83.49515331830482,
              25.14030396679738
            ],
            [
              83.498004552152,
              25.139297152363284
            ],
            [
              83.49897199189894,
              25.138842065256565
            ],
            [
              83.49811482035315,
              25.138218474101315
            ],
            [
              83.49805290397217,
              25.13814391128285
            ],
            [
              83.49781999866678,
              25.13657688204371
            ],
            [
              83.49740163527264,
              25.13566041814717
            ],
            [
              83.4968100218945,
              25.134380852029743
            ],
            [
              83.4963980715732,
              25.133365165653398
            ],
            [
              83.49579613206089,
              25.132455514817774
            ],
            [
              83.49429406266756,
              25.132424063211175
            ],
            [
              83.49264418268079,
              25.132666084957396
            ],
            [
              83.49102513736612,
              25.132840822162557
            ],
            [
              83.48955372388018,
              25.133084861609422
            ],
            [
              83.48779134787036,
              25.133226242962138
            ],
            [
              83.48661220126213,
              25.133148951028826
            ],
            [
              83.48532353025782,
              25.13310192311806
            ],
            [
              83.4843222599573,
              25.132728910777335
            ],
            [
              83.48409034100207,
              25.13161605106973
            ],
            [
              83.48395356082197,
              25.131127075277973
            ],
            [
              83.48330590694317,
              25.130988440381955
            ],
            [
              83.48256146767731,
              25.13068624221115
            ],
            [
              83.48238411598571,
              25.13025996128788
            ],
            [
              83.48221790879353,
              25.129409600622324
            ],
            [
              83.48209101636976,
              25.128230287793034
            ],
            [
              83.48181543300353,
              25.127739645005093
            ],
            [
              83.48116599057899,
              25.12773188122674
            ],
            [
              83.47964291498106,
              25.128124220617735
            ],
            [
              83.47912039462469,
              25.12825778622346
            ],
            [
              83.47797271510255,
              25.128406413136155
            ],
            [
              83.47729351957747,
              25.128398197206913
            ],
            [
              83.47690674094875,
              25.127707660284717
            ],
            [
              83.47630872976916,
              25.126888263986523
            ],
            [
              83.47581593556386,
              25.12632726360455
            ],
            [
              83.47478852878014,
              25.125367237972767
            ],
            [
              83.47411873771777,
              25.124704871218647
            ],
            [
              83.47359343707559,
              25.12365621906113
            ],
            [
              83.47349927836247,
              25.1229691412829
            ],
            [
              83.47317988595645,
              25.122771256277627
            ],
            [
              83.47192172623078,
              25.123017803014328
            ],
            [
              83.47055175679495,
              25.123456984227143
            ],
            [
              83.46936408966621,
              25.123636647113166
            ],
            [
              83.4673495403865,
              25.124068058837114
            ],
            [
              83.46529890668006,
              25.124598221896758
            ],
            [
              83.46465297217671,
              25.124689661284684
            ],
            [
              83.46416794839864,
              25.12360527212885
            ],
            [
              83.46371516515606,
              25.12268829203514
            ],
            [
              83.46355477455536,
              25.12144544507192
            ],
            [
              83.4630810623633,
              25.119580543754704
            ],
            [
              83.46281437680996,
              25.118142385207964
            ],
            [
              83.46255109227829,
              25.116474050377885
            ],
            [
              83.46246131285218,
              25.11480790762957
            ],
            [
              83.46233063762274,
              25.113908296620064
            ],
            [
              83.46230062131583,
              25.113583018392998
            ],
            [
              83.46235947084841,
              25.113290462301364
            ],
            [
              83.4627173003688,
              25.113231629218667
            ],
            [
              83.46305933391321,
              25.113235759654998
            ],
            [
              83.4635064703459,
              25.113173543621013
            ],
            [
              83.46409737944487,
              25.11311749962732
            ],
            [
              83.4646029944059,
              25.113123583038526
            ],
            [
              83.46492927419519,
              25.112847781092057
            ],
            [
              83.46482714383221,
              25.112372741886787
            ],
            [
              83.46466916161478,
              25.111982744149856
            ],
            [
              83.4643932997708,
              25.1115191446308
            ],
            [
              83.4640941796458,
              25.11094695514365
            ],
            [
              83.46403046304103,
              25.11055355603262
            ],
            [
              83.46413787190458,
              25.110329244952442
            ],
            [
              83.46458949362548,
              25.110298692984248
            ],
            [
              83.46514522918949,
              25.110273817852438
            ],
            [
              83.46520250307705,
              25.110080464185632
            ],
            [
              83.46506579566048,
              25.109938872217064
            ],
            [
              83.46407855884134,
              25.108956787859903
            ],
            [
              83.46301603781149,
              25.10803236313704
            ],
            [
              83.46247130121981,
              25.107308273155326
            ],
            [
              83.46192655205175,
              25.106584157736073
            ],
            [
              83.46168486661276,
              25.106157080156475
            ],
            [
              83.46176141385476,
              25.10566607136265
            ],
            [
              83.46216319884032,
              25.105314461764916
            ],
            [
              83.46259809482893,
              25.10472860323033
            ],
            [
              83.46267676568823,
              25.104436248024445
            ],
            [
              83.46246381466024,
              25.10407721695661
            ],
            [
              83.46188852007757,
              25.10408824908942
            ],
            [
              83.46117498285751,
              25.104061580643357
            ],
            [
              83.45970770970672,
              25.104043755308922
            ],
            [
              83.4581313909619,
              25.10402457718868
            ],
            [
              83.4563369783341,
              25.104002704887016
            ],
            [
              83.45504824714267,
              25.10398701487592
            ],
            [
              83.45350709025472,
              25.10393662021906
            ],
            [
              83.45319163157133,
              25.103472503740353
            ],
            [
              83.4531248553047,
              25.10295274602075
            ],
            [
              83.45299781196394,
              25.10180949870951
            ],
            [
              83.45293985176347,
              25.101023626362295
            ],
            [
              83.45266002565415,
              25.10049674432683
            ],
            [
              83.45194721786612,
              25.100424900742066
            ],
            [
              83.45054596190558,
              25.10063791771028
            ],
            [
              83.44953691399131,
              25.100819620179973
            ],
            [
              83.44860360842856,
              25.10090745818276
            ],
            [
              83.44852652399402,
              25.101425452028547
            ],
            [
              83.44850840766969,
              25.10266622401996
            ],
            [
              83.44859899378297,
              25.103583316087146
            ],
            [
              83.44883468206909,
              25.104759500681666
            ],
            [
              83.44893124108067,
              25.105608967257254
            ],
            [
              83.44866790265007,
              25.106323275060667
            ],
            [
              83.44826530468919,
              25.107067388804364
            ],
            [
              83.44780372514339,
              25.106768481226734
            ],
            [
              83.44734398894055,
              25.106338690641326
            ],
            [
              83.4466019877024,
              25.10655521219481
            ],
            [
              83.44609849635869,
              25.106747540806307
            ],
            [
              83.4453007232161,
              25.107387654072472
            ],
            [
              83.44429634115144,
              25.107244462206413
            ],
            [
              83.44264679264299,
              25.107485951405287
            ],
            [
              83.44200320274253,
              25.107085464237336
            ],
            [
              83.44145517921525,
              25.10558059984751
            ],
            [
              83.44089737662776,
              25.10440052099719
            ],
            [
              83.44049594737506,
              25.10236939467666
            ],
            [
              83.4393714057597,
              25.099621043023845
            ],
            [
              83.43918257898865,
              25.099144877808957
            ],
            [
              83.4389937809637,
              25.098668798597927
            ],
            [
              83.4386513207195,
              25.097685293655076
            ],
            [
              83.43866526077609,
              25.096737881040564
            ],
            [
              83.43878041311743,
              25.09599023400213
            ],
            [
              83.4385397598427,
              25.0954999320131
            ],
            [
              83.43808009370842,
              25.095070110776906
            ],
            [
              83.4378321452153,
              25.09473760718052
            ],
            [
              83.43783941258596,
              25.09425035739656
            ],
            [
              83.43784759623817,
              25.093695410380654
            ],
            [
              83.43831971032733,
              25.09327701698349
            ],
            [
              83.43899918343182,
              25.093253811009497
            ],
            [
              83.4398954272009,
              25.0933279879442
            ],
            [
              83.44032662123223,
              25.093333318196986
            ],
            [
              83.44030056739402,
              25.092746352814967
            ],
            [
              83.44034158267326,
              25.09232271536495
            ],
            [
              83.44074129165219,
              25.091772503363522
            ],
            [
              83.44097041864353,
              25.091026277347687
            ],
            [
              83.440945278392,
              25.090371614344242
            ],
            [
              83.44088440944662,
              25.08945937615849
            ],
            [
              83.44089164357963,
              25.088967615319735
            ],
            [
              83.44107823174897,
              25.088414866999425
            ],
            [
              83.44159090028161,
              25.087933775956625
            ],
            [
              83.44137720095699,
              25.087637804978186
            ],
            [
              83.44094936303156,
              25.087402488201025
            ],
            [
              83.44001901562103,
              25.08729178404615
            ],
            [
              83.43933949310922,
              25.087319508094915
            ],
            [
              83.43862040430069,
              25.087342214034926
            ],
            [
              83.43786858896804,
              25.087558639043227
            ],
            [
              83.43700866498422,
              25.087385579773365
            ],
            [
              83.43683405764583,
              25.0871216988179
            ],
            [
              83.43677126540749,
              25.086340252354503
            ],
            [
              83.43738996927962,
              25.08572966039035
            ],
            [
              83.43840257901398,
              25.08529989839614
            ],
            [
              83.43826833118464,
              25.084991382873646
            ],
            [
              83.43785421233024,
              25.084169494637646
            ],
            [
              83.43789893944826,
              25.08348418096414
            ],
            [
              83.43808795217053,
              25.08276895711705
            ],
            [
              83.43856393440532,
              25.082088972853732
            ],
            [
              83.43846160102306,
              25.081631964979053
            ],
            [
              83.4380049541265,
              25.0810035550082
            ],
            [
              83.43787035685254,
              25.0803837327907
            ],
            [
              83.43770925209114,
              25.079208443166763
            ],
            [
              83.43769324860439,
              25.077935730904265
            ],
            [
              83.43809107201952,
              25.07751640734444
            ],
            [
              83.43902663594692,
              25.07726624419565
            ],
            [
              83.43992945718047,
              25.076884672056757
            ],
            [
              83.44101197470856,
              25.076410611137383
            ],
            [
              83.441773023824,
              25.07589655033937
            ],
            [
              83.44224016124649,
              25.07345649284347
            ],
            [
              83.44296227108931,
              25.070527621823896
            ],
            [
              83.44361160212276,
              25.065468012105455
            ],
            [
              83.44377987903334,
              25.064468253995653
            ],
            [
              83.44384160676809,
              25.063977112923173
            ],
            [
              83.44403366298258,
              25.063049934061226
            ],
            [
              83.44442564106019,
              25.06201231899971
            ],
            [
              83.44526589732918,
              25.060140891083464
            ],
            [
              83.44547040868507,
              25.059380736882968
            ],
            [
              83.44571739598086,
              25.058418075744257
            ],
            [
              83.44590517172301,
              25.057784074077947
            ],
            [
              83.44677143960938,
              25.057176480068296
            ],
            [
              83.44722862908839,
              25.056757920371346
            ],
            [
              83.44745834357789,
              25.055962026805886
            ],
            [
              83.44752386130482,
              25.055213714095316
            ],
            [
              83.44730003796695,
              25.05458823899938
            ],
            [
              83.44678932596499,
              25.05393214177556
            ],
            [
              83.44573724515536,
              25.05267826597423
            ],
            [
              83.44533046104526,
              25.05203715939534
            ],
            [
              83.44516391339158,
              25.05123646624701
            ],
            [
              83.44529638884484,
              25.050820724845124
            ],
            [
              83.44542886429811,
              25.05040498203332
            ],
            [
              83.44576629487504,
              25.049366822886093
            ],
            [
              83.44584427313328,
              25.048781211742487
            ],
            [
              83.44572494093092,
              25.048139039823898
            ],
            [
              83.44534540182508,
              25.047665093102175
            ],
            [
              83.44536656972642,
              25.04724124191275
            ],
            [
              83.44563073909866,
              25.04646382425023
            ],
            [
              83.44483110195188,
              25.044716109705014
            ],
            [
              83.44499118982034,
              25.044323877219124
            ],
            [
              83.44602695991932,
              25.043173656993492
            ],
            [
              83.44633669363941,
              25.042000752331784
            ],
            [
              83.4460430208983,
              25.042028935074985
            ],
            [
              83.44496157775532,
              25.041104428172297
            ],
            [
              83.4437544513209,
              25.0411643710544
            ],
            [
              83.44301509562126,
              25.04063673660553
            ],
            [
              83.44246481642432,
              25.039210889954894
            ],
            [
              83.44260729282162,
              25.038158287025922
            ],
            [
              83.44316417463594,
              25.037057509023462
            ],
            [
              83.44367993337313,
              25.036006352655708
            ],
            [
              83.44398857114857,
              25.03478494799594
            ],
            [
              83.44308792563461,
              25.03461071619433
            ],
            [
              83.44231223487834,
              25.03431703292192
            ],
            [
              83.44163647630756,
              25.034127934137377
            ],
            [
              83.44112049568645,
              25.03417578878135
            ],
            [
              83.44038838939116,
              25.03416556020379
            ],
            [
              83.43936791580481,
              25.036379847887975
            ],
            [
              83.43860741555999,
              25.037098406899958
            ],
            [
              83.4372943427193,
              25.038778952817186
            ],
            [
              83.43643644443645,
              25.040371748980778
            ],
            [
              83.43519706938167,
              25.0415755061149
            ],
            [
              83.43375688313165,
              25.043019066715946
            ],
            [
              83.43206679994265,
              25.043555285290754
            ],
            [
              83.4285372060036,
              25.04406773117542
            ],
            [
              83.42423588826861,
              25.04435731937974
            ],
            [
              83.42371077267937,
              25.043863708223743
            ],
            [
              83.42308323207976,
              25.043527803633076
            ],
            [
              83.42245559625876,
              25.043191875334088
            ],
            [
              83.42111329942524,
              25.042739634036057
            ],
            [
              83.41993474390844,
              25.043053357279362
            ],
            [
              83.41841820175762,
              25.042377050994876
            ],
            [
              83.41742526243304,
              25.041845970129497
            ],
            [
              83.41614248707194,
              25.041145323071643
            ],
            [
              83.4146471460601,
              25.040409488703272
            ],
            [
              83.41387171401864,
              25.039911520391794
            ],
            [
              83.41258815173332,
              25.03959786887227
            ],
            [
              83.4114833362233,
              25.039259361986115
            ],
            [
              83.41142072274967,
              25.038477979700023
            ],
            [
              83.41146417336165,
              25.037891951113295
            ],
            [
              83.41190299588636,
              25.037373992908044
            ],
            [
              83.41255390885303,
              25.036926305118733
            ],
            [
              83.41330602242634,
              25.036335501238607
            ],
            [
              83.41346330485618,
              25.03608921613311
            ],
            [
              83.41347016978156,
              25.035629129374602
            ],
            [
              83.41344963070092,
              25.034685770236887
            ],
            [
              83.41331971634453,
              25.0337682142628
            ],
            [
              83.41303824362329,
              25.033376737089835
            ],
            [
              83.41257653561838,
              25.033109306640107
            ],
            [
              83.41175569643427,
              25.032999890712347
            ],
            [
              83.41046368369709,
              25.032920751328348
            ],
            [
              83.40924950908098,
              25.032937304259644
            ],
            [
              83.40729048287233,
              25.032737118394245
            ],
            [
              83.4058615049021,
              25.03253886204065
            ],
            [
              83.4049494912082,
              25.032234275200366
            ],
            [
              83.40433245011765,
              25.031752843884824
            ],
            [
              83.40355392876994,
              25.031138593862398
            ],
            [
              83.40312976585233,
              25.030677589126658
            ],
            [
              83.40266657742386,
              25.030509424357206
            ],
            [
              83.40198871499867,
              25.030451320675127
            ],
            [
              83.40162909962748,
              25.030640905355142
            ],
            [
              83.40145529628127,
              25.03132454892508
            ],
            [
              83.40144581995332,
              25.03194712135016
            ],
            [
              83.40117030575738,
              25.032480702344195
            ],
            [
              83.4009391764213,
              25.03236276802035
            ],
            [
              83.40070804798353,
              25.032244832769244
            ],
            [
              83.3995544800047,
              25.031531079324402
            ],
            [
              83.39819869496716,
              25.030756200892494
            ],
            [
              83.39748550629346,
              25.030413407773704
            ],
            [
              83.39706535615024,
              25.029690700770534
            ],
            [
              83.39647782112348,
              25.028573429203966
            ],
            [
              83.39552468075925,
              25.02738840087956
            ],
            [
              83.39421337939633,
              25.02662300838338
            ],
            [
              83.3916469231723,
              25.025643431961836
            ],
            [
              83.39094895195949,
              25.024623952601964
            ],
            [
              83.39043332976618,
              25.023020189313122
            ],
            [
              83.38999448927515,
              25.021250469390633
            ],
            [
              83.38954708604287,
              25.020040133383585
            ],
            [
              83.38898641962626,
              25.01944653995064
            ],
            [
              83.38554345831491,
              25.01747669776319
            ],
            [
              83.38424674379553,
              25.017059146300365
            ],
            [
              83.38406683999021,
              25.017111702150196
            ],
            [
              83.38307044305012,
              25.017337555615853
            ],
            [
              83.38195793885956,
              25.017609679962167
            ],
            [
              83.38099493409518,
              25.017518956718433
            ],
            [
              83.38080034283496,
              25.017286383723143
            ],
            [
              83.38065749812839,
              25.016255823403867
            ],
            [
              83.38061466286238,
              25.015492683966627
            ],
            [
              83.38037342208946,
              25.015065553339568
            ],
            [
              83.37923386693075,
              25.01442850361243
            ],
            [
              83.37774246862466,
              25.01379158408581
            ],
            [
              83.37676702399025,
              25.013111520795878
            ],
            [
              83.37542367522956,
              25.01272373627561
            ],
            [
              83.37542204658395,
              25.012723311333282
            ],
            [
              83.37461227733905,
              25.01244817469008
            ],
            [
              83.37330773669693,
              25.012233185751793
            ],
            [
              83.37138128879037,
              25.011866004237326
            ],
            [
              83.36911382602888,
              25.011449233115624
            ],
            [
              83.36772281265922,
              25.01105717188503
            ],
            [
              83.36734906139871,
              25.010880969707443
            ],
            [
              83.36697531103657,
              25.01070476727705
            ],
            [
              83.36520668185406,
              25.010215751374645
            ],
            [
              83.36354384456759,
              25.009957466355058
            ],
            [
              83.3598201031361,
              25.010171948847365
            ],
            [
              83.35623920641117,
              25.010126432659717
            ],
            [
              83.35398778037417,
              25.00981903208204
            ],
            [
              83.34981052357315,
              25.00924859321219
            ],
            [
              83.34888423924268,
              25.00923037797293
            ],
            [
              83.34767073297314,
              25.00903147715349
            ],
            [
              83.34687089999362,
              25.00919877015066
            ],
            [
              83.34663539855704,
              25.009248026606343
            ],
            [
              83.34502048369608,
              25.00997439686189
            ],
            [
              83.34440392589912,
              25.010455751596666
            ],
            [
              83.34425750320273,
              25.010570066403645
            ],
            [
              83.34414384386142,
              25.010606656041734
            ],
            [
              83.34327662915076,
              25.010885833823547
            ],
            [
              83.34262777332609,
              25.011025382179653
            ],
            [
              83.34183010798135,
              25.011196929263953
            ],
            [
              83.34149482886954,
              25.0112291992296
            ],
            [
              83.34117540412416,
              25.01124614584263
            ],
            [
              83.34041427775361,
              25.011295987611362
            ],
            [
              83.34014097970146,
              25.01131388505495
            ],
            [
              83.33981212803552,
              25.011460594335457
            ],
            [
              83.33958117297263,
              25.011561983162675
            ],
            [
              83.3391420396308,
              25.011884631005795
            ],
            [
              83.33851102255106,
              25.012342621820984
            ],
            [
              83.33743262829012,
              25.013077216166245
            ],
            [
              83.33727237243669,
              25.013186380400352
            ],
            [
              83.3357959993521,
              25.01382247109828
            ],
            [
              83.33523677473154,
              25.01381240037984
            ],
            [
              83.33503320391173,
              25.013808732231755
            ],
            [
              83.33411826979484,
              25.01409717972468
            ],
            [
              83.33355722069595,
              25.014097025867933
            ],
            [
              83.332819092095,
              25.01411036093011
            ],
            [
              83.33245756690552,
              25.0140064620261
            ],
            [
              83.33178892838167,
              25.013812130112395
            ],
            [
              83.3307239495612,
              25.013554512859567
            ],
            [
              83.32987206460086,
              25.013346625290325
            ],
            [
              83.32915881304505,
              25.01310720300438
            ],
            [
              83.32886659108311,
              25.013025837353915
            ],
            [
              83.32821274511706,
              25.01295344996483
            ],
            [
              83.32773233328962,
              25.01289012795801
            ],
            [
              83.32752641696861,
              25.012825499343997
            ],
            [
              83.32727164217762,
              25.01274553532794
            ],
            [
              83.32658307003764,
              25.012912281912925
            ],
            [
              83.32658283018745,
              25.01291244472583
            ],
            [
              83.32589256831638,
              25.013370451245237
            ],
            [
              83.32426795165036,
              25.01444840805756
            ],
            [
              83.32376467769895,
              25.01478233108024
            ],
            [
              83.3218710156053,
              25.016038745783295
            ],
            [
              83.32021588676227,
              25.017261371663988
            ],
            [
              83.32021802385434,
              25.017275586354998
            ],
            [
              83.32068015676238,
              25.020348919061938
            ],
            [
              83.32101121738557,
              25.022438891130342
            ],
            [
              83.32141151386271,
              25.02467340962224
            ],
            [
              83.3240218896193,
              25.02471598436865
            ],
            [
              83.3245340676718,
              25.024724332611758
            ],
            [
              83.32479964739902,
              25.024728661390505
            ],
            [
              83.32479936712465,
              25.025473678727955
            ],
            [
              83.32483379236295,
              25.02603339864615
            ],
            [
              83.32407073012295,
              25.02639871611282
            ],
            [
              83.3238837188471,
              25.026468525856167
            ],
            [
              83.32383102457086,
              25.026505906823154
            ],
            [
              83.32381663894992,
              25.02658890206895
            ],
            [
              83.32381797564307,
              25.02669656471762
            ],
            [
              83.32392601242903,
              25.028881215036
            ],
            [
              83.32395047535081,
              25.029414145989367
            ],
            [
              83.32408804155682,
              25.032411014041802
            ],
            [
              83.32412095043892,
              25.033519639307574
            ],
            [
              83.32413113374098,
              25.03386270211039
            ],
            [
              83.32415961842031,
              25.03482226864114
            ],
            [
              83.3241613342025,
              25.03488008131202
            ],
            [
              83.32426977612869,
              25.0362703217437
            ],
            [
              83.3243446201649,
              25.03733406692314
            ],
            [
              83.32435761878706,
              25.037348812395408
            ],
            [
              83.32584523608408,
              25.039036122388143
            ],
            [
              83.3282621246099,
              25.041921123106654
            ],
            [
              83.32974312940813,
              25.0436261253858
            ],
            [
              83.33025822878193,
              25.04421912004568
            ],
            [
              83.33026243828736,
              25.044223383841874
            ],
            [
              83.33159064863891,
              25.045569013101986
            ],
            [
              83.33270019737218,
              25.046742865124756
            ],
            [
              83.3326999341658,
              25.04674364722512
            ],
            [
              83.3327137574414,
              25.04675827274542
            ],
            [
              83.3327778567285,
              25.046814010195842
            ],
            [
              83.33387949040579,
              25.04777176228133
            ],
            [
              83.3338933136814,
              25.047783780157328
            ],
            [
              83.33421467070293,
              25.04806316065081
            ],
            [
              83.33426011108327,
              25.04812264438594
            ],
            [
              83.33525967458476,
              25.049431088008614
            ],
            [
              83.3356866564157,
              25.050842727093492
            ],
            [
              83.33571360497592,
              25.05093182411456
            ],
            [
              83.33817928908968,
              25.05077930012491
            ],
            [
              83.34126135942213,
              25.050513558038887
            ],
            [
              83.34297088664549,
              25.050649239661336
            ],
            [
              83.34335238677362,
              25.050879522825817
            ],
            [
              83.34335159895109,
              25.050887073379684
            ],
            [
              83.34311402779612,
              25.053163471735257
            ],
            [
              83.34275158273181,
              25.056805919987323
            ],
            [
              83.34275113087921,
              25.05929299195741
            ],
            [
              83.34275102487801,
              25.05987075712609
            ],
            [
              83.34123951508938,
              25.06018651322184
            ],
            [
              83.34008738531331,
              25.060409712681295
            ],
            [
              83.33893525104567,
              25.060632901969196
            ],
            [
              83.33804032241017,
              25.060772566259725
            ],
            [
              83.33723043638429,
              25.060898951681978
            ],
            [
              83.33617494017997,
              25.061110806242375
            ],
            [
              83.33593696837637,
              25.061458359387686
            ],
            [
              83.33594034783846,
              25.061483240374084
            ],
            [
              83.33601114586264,
              25.062004538029402
            ],
            [
              83.33602335486566,
              25.062017803598845
            ],
            [
              83.3377351970475,
              25.06387803119893
            ],
            [
              83.3377380491985,
              25.063883405861514
            ],
            [
              83.33875565895573,
              25.06580113225901
            ],
            [
              83.33928919714906,
              25.066733996015948
            ],
            [
              83.33960767327349,
              25.067290826931558
            ],
            [
              83.33980566196212,
              25.06813490003159
            ],
            [
              83.339816169556,
              25.06814363101185
            ],
            [
              83.34042501082463,
              25.068649551604796
            ],
            [
              83.34042414844195,
              25.068654704733106
            ],
            [
              83.34020671841395,
              25.06995402416344
            ],
            [
              83.34058807660828,
              25.071263027216904
            ],
            [
              83.34058726093798,
              25.071276488693695
            ],
            [
              83.34051339876038,
              25.072495281609328
            ],
            [
              83.34015135434467,
              25.073984801295044
            ],
            [
              83.3405475068934,
              25.075492414696058
            ],
            [
              83.3411120935579,
              25.077121931681027
            ],
            [
              83.34105731159693,
              25.07833166603947
            ],
            [
              83.34101756743382,
              25.07914410416365
            ],
            [
              83.3412553155569,
              25.079690313781672
            ],
            [
              83.34141863466547,
              25.08071039702304
            ],
            [
              83.3413094758837,
              25.081536386293294
            ],
            [
              83.34192876455913,
              25.082845507170543
            ],
            [
              83.34201714530835,
              25.08302749072035
            ],
            [
              83.34231023504282,
              25.08363098534335
            ],
            [
              83.34231823633705,
              25.083638172642498
            ],
            [
              83.34338053188978,
              25.084592599750145
            ],
            [
              83.34405450371148,
              25.08513886072081
            ],
            [
              83.3440549699371,
              25.085146360348094
            ],
            [
              83.3441089541941,
              25.086014527372285
            ],
            [
              83.34410885807435,
              25.08614991990751
            ],
            [
              83.34411977080843,
              25.086150918168165
            ],
            [
              83.34554127838875,
              25.086280987314954
            ],
            [
              83.34681510832625,
              25.086312825853177
            ],
            [
              83.34726597815724,
              25.08679580831918
            ],
            [
              83.347265575712,
              25.086799923376873
            ],
            [
              83.34712209499818,
              25.0882672637431
            ],
            [
              83.34729202840218,
              25.089442140965314
            ],
            [
              83.3473003351236,
              25.08949957397281
            ],
            [
              83.34730076541665,
              25.089515020148227
            ],
            [
              83.34733483312547,
              25.090740837904317
            ],
            [
              83.347369330229,
              25.09198210226127
            ],
            [
              83.34726189172102,
              25.09322794559721
            ],
            [
              83.34724516419213,
              25.093421924666597
            ],
            [
              83.34735399239383,
              25.094563898296958
            ],
            [
              83.34742325968878,
              25.09533128266287
            ],
            [
              83.34743209012802,
              25.09533093366393
            ],
            [
              83.34833538207879,
              25.09529526661786
            ],
            [
              83.34833422055713,
              25.095312009622045
            ],
            [
              83.34806213163736,
              25.099235690325465
            ],
            [
              83.34818580988905,
              25.10059883639937
            ],
            [
              83.34896873028671,
              25.102503752277062
            ],
            [
              83.34897562755147,
              25.102512873711806
            ],
            [
              83.34994513611848,
              25.103794800687933
            ],
            [
              83.34995453878457,
              25.103810794144643
            ],
            [
              83.35035659056976,
              25.104494640378963
            ],
            [
              83.35069351719179,
              25.105067706052825
            ],
            [
              83.35069351180191,
              25.105067794719176
            ],
            [
              83.35059909617061,
              25.10690483424382
            ],
            [
              83.35059934769889,
              25.106929998832317
            ],
            [
              83.35061377643896,
              25.108371788677275
            ],
            [
              83.34994448214495,
              25.108669611288793
            ],
            [
              83.34968657942017,
              25.10917961207661
            ],
            [
              83.34979551901297,
              25.110438916368942
            ],
            [
              83.34994402041092,
              25.111978123186976
            ],
            [
              83.35008755322701,
              25.113278127121916
            ],
            [
              83.35009595337324,
              25.113288381629562
            ],
            [
              83.35030569202576,
              25.113544456912575
            ],
            [
              83.35112220672012,
              25.11336197134153
            ],
            [
              83.35141987426928,
              25.11329544436327
            ],
            [
              83.35255647576734,
              25.11322866438193
            ],
            [
              83.35377600613919,
              25.113066324616693
            ],
            [
              83.35546654657068,
              25.11296716712631
            ],
            [
              83.35582852720601,
              25.112384919357233
            ],
            [
              83.35595739772003,
              25.111888423926683
            ],
            [
              83.35657220559881,
              25.111540894389897
            ],
            [
              83.35777184637192,
              25.11185694994413
            ],
            [
              83.35852045741396,
              25.112055615596812
            ],
            [
              83.35953671341004,
              25.111757736161017
            ],
            [
              83.36011673582605,
              25.111599796612676
            ],
            [
              83.36069675824207,
              25.111441855233466
            ],
            [
              83.36169817227304,
              25.111310998614307
            ],
            [
              83.36328456921703,
              25.11118010362472
            ],
            [
              83.36361179223738,
              25.11147806987607
            ],
            [
              83.36361357898646,
              25.111488563677238
            ],
            [
              83.3638992477384,
              25.113166222219483
            ],
            [
              83.3645734746816,
              25.115829237796454
            ],
            [
              83.36484608731921,
              25.116822259697685
            ],
            [
              83.3650022504482,
              25.117474512629677
            ],
            [
              83.36515841088226,
              25.11812676614754
            ],
            [
              83.36511868378712,
              25.11910627005986
            ],
            [
              83.36554014277571,
              25.120347474258494
            ],
            [
              83.36604579366937,
              25.124269947366844
            ],
            [
              83.3660606715671,
              25.125113999106947
            ],
            [
              83.36606863333547,
              25.12511371200529
            ],
            [
              83.3670622293285,
              25.125077870650056
            ],
            [
              83.36736957442824,
              25.125226853598388
            ],
            [
              83.36737138722847,
              25.125241076097023
            ],
            [
              83.3676422382698,
              25.12736634627146
            ],
            [
              83.36788026576893,
              25.12885579727434
            ],
            [
              83.36816790542461,
              25.129889457392153
            ],
            [
              83.36758775185454,
              25.130088095356655
            ],
            [
              83.36582760456496,
              25.130403967938168
            ],
            [
              83.36426576666251,
              25.13060256684166
            ],
            [
              83.3641912981221,
              25.13196117396789
            ],
            [
              83.36190550074566,
              25.132683347401937
            ],
            [
              83.36191153922103,
              25.132700369116492
            ],
            [
              83.36241618130661,
              25.134123241877273
            ],
            [
              83.36250545228626,
              25.134439172336588
            ],
            [
              83.36250796128085,
              25.13443826880796
            ],
            [
              83.36314511475233,
              25.134209003282916
            ],
            [
              83.36314794085219,
              25.134227840791105
            ],
            [
              83.36337808024486,
              25.13576172696832
            ],
            [
              83.3637945248375,
              25.137887649278692
            ],
            [
              83.36380942788809,
              25.1388310769224
            ],
            [
              83.36322921592755,
              25.138849093170784
            ],
            [
              83.36359111391786,
              25.140984098181477
            ],
            [
              83.36362582661705,
              25.141751384670336
            ],
            [
              83.36275309894549,
              25.14180105624224
            ],
            [
              83.36290180156603,
              25.14412106801245
            ],
            [
              83.36290243487832,
              25.144134378348344
            ],
            [
              83.36304554728287,
              25.147140670165353
            ],
            [
              83.3634818203888,
              25.148846925069392
            ],
            [
              83.3636305194161,
              25.150408660948052
            ],
            [
              83.36306525632018,
              25.150525996914013
            ],
            [
              83.36341231773527,
              25.153473392399185
            ],
            [
              83.3617360443471,
              25.153744209209375
            ],
            [
              83.36173606770329,
              25.1543941703539
            ],
            [
              83.3598316887083,
              25.154809322384214
            ],
            [
              83.3578661658835,
              25.155382204090444
            ],
            [
              83.35774877044892,
              25.156136209753456
            ],
            [
              83.35649407911855,
              25.156167744693406
            ],
            [
              83.35496653619873,
              25.156533241395053
            ],
            [
              83.35293813040572,
              25.15694829507871
            ],
            [
              83.35131297295383,
              25.15701087016177
            ],
            [
              83.35130152841714,
              25.157011310052496
            ],
            [
              83.35143004409662,
              25.16060423831102
            ],
            [
              83.35153277812745,
              25.16160114201107
            ],
            [
              83.35153278890725,
              25.161601247710966
            ],
            [
              83.35161332197414,
              25.162382699174156
            ],
            [
              83.35163313341943,
              25.162960409082324
            ],
            [
              83.35163828795253,
              25.16296070991714
            ],
            [
              83.35248610893451,
              25.16301012405774
            ],
            [
              83.35249082868303,
              25.16302660979765
            ],
            [
              83.35303145188898,
              25.164914965172276
            ],
            [
              83.35433540323628,
              25.169203051384716
            ],
            [
              83.35477167724054,
              25.1709589273485
            ],
            [
              83.35520795932963,
              25.172714801601806
            ],
            [
              83.35564433574183,
              25.174208783665303
            ],
            [
              83.35604596801377,
              25.176113637634224
            ],
            [
              83.3563731847459,
              25.177634718209195
            ],
            [
              83.35586220863925,
              25.177910025856562
            ],
            [
              83.35440887644339,
              25.178207826823485
            ],
            [
              83.3529704383149,
              25.178641036610582
            ],
            [
              83.35296645428663,
              25.17865210428154
            ],
            [
              83.35288107570706,
              25.178889228930807
            ],
            [
              83.35318832917864,
              25.18127252634644
            ],
            [
              83.35353041931693,
              25.183330782319473
            ],
            [
              83.35184387908339,
              25.183461500775547
            ],
            [
              83.35144208241974,
              25.183628461920545
            ],
            [
              83.35136758782816,
              25.18409340208534
            ],
            [
              83.350247896217,
              25.18406880212539
            ],
            [
              83.34971572076797,
              25.18405710736722
            ],
            [
              83.34978512281019,
              25.184887568165394
            ],
            [
              83.34978878164834,
              25.184898398709088
            ],
            [
              83.35000323915108,
              25.18553307111576
            ],
            [
              83.35040495137308,
              25.186327473311273
            ],
            [
              83.35116883826652,
              25.186476532685944
            ],
            [
              83.3514764043518,
              25.18652625026516
            ],
            [
              83.35147954037046,
              25.18654254179127
            ],
            [
              83.35184321433006,
              25.188431036082672
            ],
            [
              83.35184464534635,
              25.188434199878458
            ],
            [
              83.35194732996982,
              25.188661257289517
            ],
            [
              83.35202070975213,
              25.188668677400752
            ],
            [
              83.35275099785729,
              25.188742523253207
            ],
            [
              83.35354964775557,
              25.188593702390857
            ],
            [
              83.35380256123732,
              25.188860003610113
            ],
            [
              83.35380493368798,
              25.188874955987323
            ],
            [
              83.35393146678565,
              25.189672456259494
            ],
            [
              83.35398604932061,
              25.189952295380586
            ],
            [
              83.35398760160943,
              25.1899571223037
            ],
            [
              83.35440259811787,
              25.191247748350502
            ],
            [
              83.35440501728092,
              25.191260077276414
            ],
            [
              83.35447411838753,
              25.191612408300962
            ],
            [
              83.35479921060401,
              25.19326992831692
            ],
            [
              83.35522072079658,
              25.195734430074857
            ],
            [
              83.3553049531258,
              25.196384400651464
            ],
            [
              83.3553064802618,
              25.196386432761713
            ],
            [
              83.35601426197582,
              25.197327774112072
            ],
            [
              83.35659960960487,
              25.198587132168768
            ],
            [
              83.35724936284649,
              25.19966141885297
            ],
            [
              83.35874261976686,
              25.19939976621877
            ],
            [
              83.35972491136037,
              25.199083886154867
            ],
            [
              83.36260734459567,
              25.198366317107514
            ],
            [
              83.36339115612209,
              25.198217316175587
            ],
            [
              83.3634606857251,
              25.19684516696369
            ],
            [
              83.36472074718425,
              25.196664716121365
            ],
            [
              83.36497376217561,
              25.196533763915607
            ],
            [
              83.36500731784471,
              25.19648159400807
            ],
            [
              83.36548467899345,
              25.19573943315692
            ],
            [
              83.36630321669381,
              25.195355729898903
            ],
            [
              83.36828267688024,
              25.196001157058227
            ],
            [
              83.36881379591051,
              25.196450259701606
            ],
            [
              83.36926488403213,
              25.196831686807315
            ],
            [
              83.37045059193518,
              25.198528771816548
            ],
            [
              83.37137837555389,
              25.199472079895287
            ],
            [
              83.37174771608635,
              25.199715181341936
            ],
            [
              83.37268812732299,
              25.200334155003706
            ],
            [
              83.37503474693236,
              25.200713194897595
            ],
            [
              83.37776325833529,
              25.200532497001433
            ],
            [
              83.38015456374013,
              25.20105586999242
            ],
            [
              83.38193563908095,
              25.201750781604133
            ],
            [
              83.38317105795521,
              25.202581191669545
            ],
            [
              83.38353331257666,
              25.203276296961846
            ],
            [
              83.38353221124213,
              25.203286764988107
            ],
            [
              83.3832806838609,
              25.205677541395282
            ],
            [
              83.38307737265423,
              25.20684208184066
            ],
            [
              83.3825665816005,
              25.20872886421109
            ],
            [
              83.38234846436133,
              25.209938501990305
            ],
            [
              83.38235126081679,
              25.20995493667998
            ],
            [
              83.38247752980978,
              25.210696848326496
            ],
            [
              83.38278124212248,
              25.210962485146727
            ],
            [
              83.38325663685907,
              25.21137827999708
            ],
            [
              83.38504281642727,
              25.2119242249236
            ],
            [
              83.38622368780086,
              25.212154273300907
            ],
            [
              83.3878757848298,
              25.211756895386728
            ],
            [
              83.38865965295008,
              25.211278314069776
            ],
            [
              83.38933589122125,
              25.210509023617476
            ],
            [
              83.38971125675428,
              25.210082000870838
            ],
            [
              83.39021703431038,
              25.208294565039516
            ],
            [
              83.39023637144517,
              25.20569464232873
            ],
            [
              83.39038013512832,
              25.20495897084187
            ],
            [
              83.39096043063216,
              25.20437653613558
            ]
          ]
        ]
      }
    }
  ]
}