{
  "type": "FeatureCollection",
  "features": [
    {
      "type": "Feature",
      "properties": {
        "object_id": "10-217-01218",
        "stname": "BIHAR",
        "dtname": "Gopalganj",
        "sdtname": "Pach Deuri",
        "st_area_sh": 0.0,
        "st_length_": 0.0,
        "remarks": "",
        "dist_lgd": 197,
        "state_lgd": 10,
        "subdt_lgd": 1218,
        "ac_no": null,
        "st_length(shape)": 53698.212932643866,
        "st_area(shape)": 118295317.11973979
      },
      "geometry": {
        "type": "Polygon",
        "coordinates": [
          [
            [
              84.15691052968843,
              26.62593523801779
            ],
            [
              84.15831650809244,
              26.625295699043928
            ],
            [
              84.15832157728559,
              26.625293528386894
            ],
            [
              84.15953404240773,
              26.624774181245517
            ],
            [
              84.16029358504844,
              26.624505153948338
            ],
            [
              84.16129917085556,
              26.624232012733202
            ],
            [
              84.16238859013997,
              26.624019184179417
            ],
            [
              84.16320331089868,
              26.623954245215778
            ],
            [
              84.16402204712674,
              26.623929982235012
            ],
            [
              84.16614035182181,
              26.623922609300948
            ],
            [
              84.16654280695057,
              26.62388552137151
            ],
            [
              84.16720612385467,
              26.623650626321478
            ],
            [
              84.16805638106773,
              26.623162311971
            ],
            [
              84.1686651181318,
              26.622901510757696
            ],
            [
              84.16927385429756,
              26.622640705737066
            ],
            [
              84.16970842060447,
              26.622726050725916
            ],
            [
              84.16993126298206,
              26.622881065356538
            ],
            [
              84.16993541319864,
              26.622883952399324
            ],
            [
              84.17010109218147,
              26.623085744063367
            ],
            [
              84.17022863857875,
              26.62320557493622
            ],
            [
              84.17039571893339,
              26.623278285623584
            ],
            [
              84.17040244731488,
              26.623281215219
            ],
            [
              84.17092408103406,
              26.623296109737126
            ],
            [
              84.1717762471671,
              26.623137130913232
            ],
            [
              84.17361643255188,
              26.622822736636255
            ],
            [
              84.17362104540088,
              26.622821949625546
            ],
            [
              84.1744319537095,
              26.624269748621238
            ],
            [
              84.1744335940332,
              26.624272677388202
            ],
            [
              84.17448119755677,
              26.624272673372886
            ],
            [
              84.17488532984015,
              26.624272633219793
            ],
            [
              84.17606839040809,
              26.624129227948945
            ],
            [
              84.17695401429388,
              26.62403855005955
            ],
            [
              84.17727165498509,
              26.624184706736568
            ],
            [
              84.1774629907507,
              26.624278427311573
            ],
            [
              84.17756275315458,
              26.624327292815032
            ],
            [
              84.17756922910947,
              26.62433046490815
            ],
            [
              84.1778352328415,
              26.624331235044163
            ],
            [
              84.17824736013092,
              26.62410483410604
            ],
            [
              84.17918315223038,
              26.62401513834428
            ],
            [
              84.18027701098892,
              26.62382481368195
            ],
            [
              84.18209451031952,
              26.62359920597367
            ],
            [
              84.18327088382847,
              26.62352327519101
            ],
            [
              84.18388662865007,
              26.623589610932594
            ],
            [
              84.18538914001451,
              26.623723130337783
            ],
            [
              84.18653556908181,
              26.623845075012454
            ],
            [
              84.18740784220584,
              26.623889404992156
            ],
            [
              84.18801101869828,
              26.624059235369657
            ],
            [
              84.18822698357408,
              26.624169392332433
            ],
            [
              84.18822755759753,
              26.624166792015497
            ],
            [
              84.18834294439917,
              26.623643578611276
            ],
            [
              84.18884427619292,
              26.62264297120713
            ],
            [
              84.18936527210826,
              26.621863801847425
            ],
            [
              84.19041507119705,
              26.62039583813028
            ],
            [
              84.1912095412343,
              26.619310787216357
            ],
            [
              84.19150668506568,
              26.618653500383317
            ],
            [
              84.19180173043254,
              26.6176713609475
            ],
            [
              84.19221699913051,
              26.616082571154767
            ],
            [
              84.19235550317765,
              26.615528582009226
            ],
            [
              84.19258636481578,
              26.61470757735847
            ],
            [
              84.19285942481436,
              26.61215958482843
            ],
            [
              84.1931061390223,
              26.610689266947507
            ],
            [
              84.19355733943334,
              26.608654562112406
            ],
            [
              84.19387657193923,
              26.60709093605057
            ],
            [
              84.19388400998976,
              26.606991833712314
            ],
            [
              84.19388764277679,
              26.606843034265975
            ],
            [
              84.19392411617395,
              26.606171571766552
            ],
            [
              84.19394573323295,
              26.604669739676485
            ],
            [
              84.19373854579581,
              26.603289709888607
            ],
            [
              84.19367671385649,
              26.60191705788706
            ],
            [
              84.19335240497094,
              26.60060689664855
            ],
            [
              84.19337939305703,
              26.59991269095321
            ],
            [
              84.19355547183586,
              26.599072555116376
            ],
            [
              84.19385330916661,
              26.598383692928365
            ],
            [
              84.19424422184228,
              26.59779591538484
            ],
            [
              84.19465204170994,
              26.597321251124786
            ],
            [
              84.19554011709812,
              26.596504173835594
            ],
            [
              84.19626829416235,
              26.59586439233934
            ],
            [
              84.19676756881412,
              26.595350922371946
            ],
            [
              84.19723763923602,
              26.594827059820172
            ],
            [
              84.19756709097655,
              26.59445990437354
            ],
            [
              84.19845168539304,
              26.593372061004267
            ],
            [
              84.19927541355914,
              26.592310078742802
            ],
            [
              84.19988946685307,
              26.591203364037177
            ],
            [
              84.20009183932024,
              26.590517116613533
            ],
            [
              84.20056935857245,
              26.58945282325936
            ],
            [
              84.2011778477015,
              26.588161026905883
            ],
            [
              84.2016935866758,
              26.58704485070927
            ],
            [
              84.20179756217838,
              26.586819821946147
            ],
            [
              84.20202066237245,
              26.585899391041533
            ],
            [
              84.20218396800625,
              26.58454920715593
            ],
            [
              84.20217984114582,
              26.583687465800153
            ],
            [
              84.20204495910592,
              26.583044207258276
            ],
            [
              84.20179191177523,
              26.5823083976589
            ],
            [
              84.20152444917916,
              26.581752757143754
            ],
            [
              84.20139833020487,
              26.581515065026238
            ],
            [
              84.2009487503546,
              26.580667742181156
            ],
            [
              84.20054024776735,
              26.57992887172297
            ],
            [
              84.2002187595918,
              26.579119533758288
            ],
            [
              84.20001247765647,
              26.578524494329365
            ],
            [
              84.19981014830842,
              26.57776712327326
            ],
            [
              84.1996936170531,
              26.576989064638106
            ],
            [
              84.19959920771001,
              26.576332886778278
            ],
            [
              84.19964422318722,
              26.57572023433426
            ],
            [
              84.19980498299553,
              26.575299333247127
            ],
            [
              84.20021647876928,
              26.57459436985076
            ],
            [
              84.20028140720139,
              26.574483135979715
            ],
            [
              84.20055826887028,
              26.574032938656444
            ],
            [
              84.20110211702813,
              26.573538366790807
            ],
            [
              84.20176283510612,
              26.572982932786527
            ],
            [
              84.20223679523318,
              26.572473448827047
            ],
            [
              84.2027388950865,
              26.571838197752097
            ],
            [
              84.2032413156384,
              26.57118941813773
            ],
            [
              84.20367374575154,
              26.57053023914989
            ],
            [
              84.20396803922851,
              26.569981127315973
            ],
            [
              84.2041280067227,
              26.56959178377838
            ],
            [
              84.20439724618643,
              26.568834658166473
            ],
            [
              84.20460584487687,
              26.56830190699214
            ],
            [
              84.20489977543444,
              26.5679738398496
            ],
            [
              84.20503420472346,
              26.567809560871293
            ],
            [
              84.2052650025812,
              26.567602060352915
            ],
            [
              84.20551673388003,
              26.567358877741963
            ],
            [
              84.20574470563785,
              26.567061095264243
            ],
            [
              84.2059914198458,
              26.5668178142859
            ],
            [
              84.2063797417802,
              26.566527686641802
            ],
            [
              84.20690379915402,
              26.566019167065228
            ],
            [
              84.20733213833937,
              26.565526811939066
            ],
            [
              84.20787788643403,
              26.56495104403659
            ],
            [
              84.2083816050515,
              26.564497846819336
            ],
            [
              84.20855999789053,
              26.56433734485027
            ],
            [
              84.20894874203309,
              26.564029172693918
            ],
            [
              84.20926717503838,
              26.56372413330784
            ],
            [
              84.20956293726083,
              26.563319397750938
            ],
            [
              84.20995148287574,
              26.56260519919085
            ],
            [
              84.2103597527993,
              26.56190491922311
            ],
            [
              84.21086079264063,
              26.561251927639596
            ],
            [
              84.2111782204311,
              26.560838229871973
            ],
            [
              84.21184274467095,
              26.560120407276727
            ],
            [
              84.21279307510495,
              26.55920065291689
            ],
            [
              84.21351317721314,
              26.558258341850042
            ],
            [
              84.21451464963458,
              26.556699594334717
            ],
            [
              84.21573885214423,
              26.5546420001817
            ],
            [
              84.21589040691582,
              26.554205046217035
            ],
            [
              84.21702822473277,
              26.550924452930808
            ],
            [
              84.21794872660777,
              26.54808030277219
            ],
            [
              84.21811393217841,
              26.547569837001678
            ],
            [
              84.21945024892707,
              26.544716668993757
            ],
            [
              84.2198294799108,
              26.54395866464575
            ],
            [
              84.22007059312294,
              26.54319796392875
            ],
            [
              84.22071010197709,
              26.541701853222445
            ],
            [
              84.22078135634543,
              26.541535155400553
            ],
            [
              84.22082517167338,
              26.540963867072918
            ],
            [
              84.22096217733065,
              26.53974157219243
            ],
            [
              84.22077304872568,
              26.538512916149877
            ],
            [
              84.21986971275744,
              26.535898075187664
            ],
            [
              84.21868555265158,
              26.533966215733038
            ],
            [
              84.21829450612692,
              26.533584013704278
            ],
            [
              84.2163610845988,
              26.531694276388848
            ],
            [
              84.21495176805522,
              26.53093878119811
            ],
            [
              84.21357686597015,
              26.530005598066257
            ],
            [
              84.21254593419727,
              26.529305860053636
            ],
            [
              84.211650644439,
              26.52786829815944
            ],
            [
              84.21153611642681,
              26.52656858671803
            ],
            [
              84.21170424601371,
              26.524498348992967
            ],
            [
              84.21208609378984,
              26.522689407015196
            ],
            [
              84.21227596440325,
              26.52203542614974
            ],
            [
              84.2126457648731,
              26.52076166728465
            ],
            [
              84.21287759489512,
              26.519353812055677
            ],
            [
              84.21331488399561,
              26.517992168943252
            ],
            [
              84.21362716623617,
              26.51688495681857
            ],
            [
              84.21393254672036,
              26.515664742198076
            ],
            [
              84.21394812799898,
              26.515413936904025
            ],
            [
              84.21384887583817,
              26.51459841460279
            ],
            [
              84.21344263700544,
              26.5127778031988
            ],
            [
              84.21311458394177,
              26.511920647685574
            ],
            [
              84.21270151611627,
              26.51137571902223
            ],
            [
              84.21142997418778,
              26.510476704910207
            ],
            [
              84.2101044048832,
              26.50982707815677
            ],
            [
              84.20863618221314,
              26.509369745091767
            ],
            [
              84.20749841110856,
              26.508722071114583
            ],
            [
              84.20661458205673,
              26.508066538002108
            ],
            [
              84.20496531561928,
              26.508609217854207
            ],
            [
              84.2031511319704,
              26.50692177800664
            ],
            [
              84.20231542117672,
              26.505667509921718
            ],
            [
              84.20162446041638,
              26.50364344084099
            ],
            [
              84.20123969131895,
              26.50058983877107
            ],
            [
              84.2011443809656,
              26.500327247897037
            ],
            [
              84.20102571261826,
              26.50000034660749
            ],
            [
              84.20061551491006,
              26.498870330919836
            ],
            [
              84.19992969071652,
              26.49699928905438
            ],
            [
              84.19973007697556,
              26.49440025017771
            ],
            [
              84.1992860792565,
              26.492982263275145
            ],
            [
              84.19891366558747,
              26.491153954386707
            ],
            [
              84.19830308877367,
              26.48984264217171
            ],
            [
              84.19792257589405,
              26.488627281199037
            ],
            [
              84.19772349126077,
              26.48809265729936
            ],
            [
              84.19752441920393,
              26.48755812176807
            ],
            [
              84.19713473272866,
              26.48793032625369
            ],
            [
              84.19531475225122,
              26.488811088821215
            ],
            [
              84.19320764685278,
              26.489518647294165
            ],
            [
              84.19097997856007,
              26.49022940133886
            ],
            [
              84.18920006923254,
              26.491109018288338
            ],
            [
              84.18768215984582,
              26.491402912000876
            ],
            [
              84.18435606216642,
              26.492938766216337
            ],
            [
              84.1826515915598,
              26.4936715683001
            ],
            [
              84.18184943463865,
              26.493729154780823
            ],
            [
              84.18131897407348,
              26.49349013375447
            ],
            [
              84.18087715207402,
              26.49350193535796
            ],
            [
              84.18044496899759,
              26.493802822373024
            ],
            [
              84.18001278232789,
              26.494103706992583
            ],
            [
              84.17901833293533,
              26.494419785901034
            ],
            [
              84.1785364631422,
              26.494432648652328
            ],
            [
              84.17797181179897,
              26.494375314167495
            ],
            [
              84.17771533380223,
              26.49391166064892
            ],
            [
              84.17757225014377,
              26.493227857899
            ],
            [
              84.17755079837478,
              26.492576966237642
            ],
            [
              84.17730147635756,
              26.49233033790404
            ],
            [
              84.17697553433482,
              26.49219422284754
            ],
            [
              84.17614525295875,
              26.492614465706342
            ],
            [
              84.17578621340766,
              26.49269644801491
            ],
            [
              84.17483796976006,
              26.493192235925658
            ],
            [
              84.17352461933993,
              26.49358919032579
            ],
            [
              84.17304275224177,
              26.493602034678553
            ],
            [
              84.17274614560293,
              26.49313944411996
            ],
            [
              84.17248978977705,
              26.49267577998858
            ],
            [
              84.1725132726369,
              26.49216850086251
            ],
            [
              84.1724942256579,
              26.49158985718642
            ],
            [
              84.17228149202224,
              26.491233683336194
            ],
            [
              84.17135910997331,
              26.491294421087144
            ],
            [
              84.17094326365863,
              26.49087115921781
            ],
            [
              84.17048004019584,
              26.490232127708097
            ],
            [
              84.16943246803065,
              26.490151377785367
            ],
            [
              84.1682136949386,
              26.490980108808877
            ],
            [
              84.16722885302798,
              26.491585387794572
            ],
            [
              84.16502018320523,
              26.491644165228056
            ],
            [
              84.16425733476426,
              26.49289498131519
            ],
            [
              84.16362319783556,
              26.49316521975448
            ],
            [
              84.16291222081402,
              26.49354596926121
            ],
            [
              84.1622000553214,
              26.493890681702396
            ],
            [
              84.16119369336987,
              26.49384503033095
            ],
            [
              84.15962872573697,
              26.493922775613868
            ],
            [
              84.15754994332116,
              26.49426752390784
            ],
            [
              84.15589298281328,
              26.49521635080573
            ],
            [
              84.15592618095293,
              26.496228862783926
            ],
            [
              84.15573837915963,
              26.496631936867843
            ],
            [
              84.15487269517821,
              26.497197811706986
            ],
            [
              84.15472622217618,
              26.497635944254768
            ],
            [
              84.15490825319209,
              26.498282572085177
            ],
            [
              84.15485521935268,
              26.499116403365623
            ],
            [
              84.1542363322242,
              26.49985659682767
            ],
            [
              84.15407668093695,
              26.500000364294017
            ],
            [
              84.15371441194243,
              26.500326584654022
            ],
            [
              84.15346646794087,
              26.500370607099406
            ],
            [
              84.15307591638796,
              26.50063093401089
            ],
            [
              84.15126316016205,
              26.50206821867882
            ],
            [
              84.1515741856595,
              26.503256898847138
            ],
            [
              84.15111951595485,
              26.50410128306422
            ],
            [
              84.150777005405,
              26.504689411675844
            ],
            [
              84.14976052393177,
              26.505302123638465
            ],
            [
              84.15112322420033,
              26.50743950517073
            ],
            [
              84.15274356937724,
              26.509764526230985
            ],
            [
              84.15340154489866,
              26.510567988793696
            ],
            [
              84.15387329696674,
              26.511380251952673
            ],
            [
              84.1544451042895,
              26.51250873224672
            ],
            [
              84.15544052116762,
              26.514318170618388
            ],
            [
              84.1573074314321,
              26.51721811999276
            ],
            [
              84.15868307822055,
              26.51940871062681
            ],
            [
              84.15735885728718,
              26.519805063239968
            ],
            [
              84.15587348128678,
              26.52038618277067
            ],
            [
              84.15536068339675,
              26.521061908204928
            ],
            [
              84.15505230074285,
              26.521852636210113
            ],
            [
              84.15406009085028,
              26.522179889258847
            ],
            [
              84.15256876171452,
              26.52258063217099
            ],
            [
              84.15109704369969,
              26.522559393213538
            ],
            [
              84.15057939311048,
              26.523084811908866
            ],
            [
              84.15084272794782,
              26.52398070676735
            ],
            [
              84.15146839735668,
              26.524717038695016
            ],
            [
              84.1527123529211,
              26.525948117070985
            ],
            [
              84.15382168785536,
              26.527152579955512
            ],
            [
              84.1541164978636,
              26.527987465943465
            ],
            [
              84.15302301100759,
              26.528287311817497
            ],
            [
              84.15134698375783,
              26.529174363632315
            ],
            [
              84.14876894555486,
              26.530085386854864
            ],
            [
              84.14724704495332,
              26.53057713304719
            ],
            [
              84.1470564556877,
              26.529859903855563
            ],
            [
              84.1467764472204,
              26.529476050155104
            ],
            [
              84.14635200402843,
              26.529788307276537
            ],
            [
              84.14492151509191,
              26.531029970050227
            ],
            [
              84.14408931671099,
              26.532165537207508
            ],
            [
              84.14396748090395,
              26.533149826218708
            ],
            [
              84.14416278812146,
              26.534196192153413
            ],
            [
              84.1447168052083,
              26.535124232167675
            ],
            [
              84.14514777106756,
              26.535983030765053
            ],
            [
              84.14541190540551,
              26.536825545293468
            ],
            [
              84.14438614074213,
              26.537153708807725
            ],
            [
              84.14342818361135,
              26.537510063348925
            ],
            [
              84.14282787184631,
              26.537556026870526
            ],
            [
              84.1422048560608,
              26.53793368780491
            ],
            [
              84.14154065611277,
              26.538071585842015
            ],
            [
              84.140905940669,
              26.53808836961612
            ],
            [
              84.14041756707321,
              26.538492545686623
            ],
            [
              84.14054238618532,
              26.539241692067574
            ],
            [
              84.14083123227839,
              26.54091935067719
            ],
            [
              84.14117719864714,
              26.54331794915674
            ],
            [
              84.141063180878,
              26.543922807675926
            ],
            [
              84.13946049208802,
              26.54399525611775
            ],
            [
              84.1373636077209,
              26.54429151136113
            ],
            [
              84.13681340577907,
              26.543824439829134
            ],
            [
              84.13648315094466,
              26.543953587339985
            ],
            [
              84.13506718057972,
              26.54462299416977
            ],
            [
              84.13394999706486,
              26.54522424480085
            ],
            [
              84.13183818898592,
              26.546092574952663
            ],
            [
              84.13168789814392,
              26.54723646701204
            ],
            [
              84.13102000881504,
              26.547761812095743
            ],
            [
              84.13093347140875,
              26.54881579619685
            ],
            [
              84.12996844543501,
              26.548877491108012
            ],
            [
              84.12952550593137,
              26.548889169695254
            ],
            [
              84.12913474507096,
              26.54926212125377
            ],
            [
              84.12910381068585,
              26.55078611471741
            ],
            [
              84.129043347779,
              26.551404175129875
            ],
            [
              84.1289427238908,
              26.55202338533218
            ],
            [
              84.1288763572559,
              26.55246027529074
            ],
            [
              84.12946009061235,
              26.5530614422422
            ],
            [
              84.13116868718109,
              26.554793380173592
            ],
            [
              84.13148709772847,
              26.55590916915375
            ],
            [
              84.13139593220187,
              26.55681818978323
            ],
            [
              84.13100623225183,
              26.557227359691428
            ],
            [
              84.13052782187084,
              26.557385052829552
            ],
            [
              84.13017730912846,
              26.55775694180741
            ],
            [
              84.12930564506219,
              26.55821515316381
            ],
            [
              84.12952921417686,
              26.5613643297945
            ],
            [
              84.12980981912553,
              26.56255360436982
            ],
            [
              84.12989497941446,
              26.563929444119374
            ],
            [
              84.1299457746522,
              26.56548750998786
            ],
            [
              84.12869753412386,
              26.565520413069713
            ],
            [
              84.12793718389773,
              26.565685526121282
            ],
            [
              84.12689738395636,
              26.565930490365954
            ],
            [
              84.127131802923,
              26.56693975212146
            ],
            [
              84.12804357766503,
              26.567713504983953
            ],
            [
              84.12902173880485,
              26.56805036911494
            ],
            [
              84.12973581321748,
              26.56893815306445
            ],
            [
              84.13026163218757,
              26.568996874022435
            ],
            [
              84.13158454517387,
              26.568780667847683
            ],
            [
              84.13232827566893,
              26.569341261076932
            ],
            [
              84.13342355825719,
              26.57079918126696
            ],
            [
              84.1338842071484,
              26.571330988042508
            ],
            [
              84.13497377285816,
              26.571374725351344
            ],
            [
              84.13595197981209,
              26.57171154497339
            ],
            [
              84.13601118597585,
              26.572290282113
            ],
            [
              84.13562037391146,
              26.5726632410881
            ],
            [
              84.13504001193228,
              26.57340384318889
            ],
            [
              84.13446082584778,
              26.574180656785156
            ],
            [
              84.1346704207699,
              26.575662026180204
            ],
            [
              84.13515356886566,
              26.57688227024134
            ],
            [
              84.13521276963951,
              26.577460912968142
            ],
            [
              84.13500068279082,
              26.578373110337182
            ],
            [
              84.13495808737501,
              26.579534735314244
            ],
            [
              84.13428719767306,
              26.579860159186428
            ],
            [
              84.13298940966692,
              26.580432747133823
            ],
            [
              84.13216418490757,
              26.580813473059635
            ],
            [
              84.13126847114451,
              26.581483164314434
            ],
            [
              84.13202451125393,
              26.582647733367903
            ],
            [
              84.13244064772448,
              26.58317510365639
            ],
            [
              84.1327957760108,
              26.584278487394112
            ],
            [
              84.13197626992657,
              26.58483844564911
            ],
            [
              84.13094464465429,
              26.585009249816324
            ],
            [
              84.13039719784541,
              26.585346671206388
            ],
            [
              84.13013799076681,
              26.585963693683983
            ],
            [
              84.12964560978654,
              26.586766339773526
            ],
            [
              84.12933376592387,
              26.586989914625846
            ],
            [
              84.12852007193949,
              26.587729178131582
            ],
            [
              84.12850765362901,
              26.58873563062322
            ],
            [
              84.1290121726454,
              26.589375116990418
            ],
            [
              84.12896705026866,
              26.59046421133058
            ],
            [
              84.1297625282157,
              26.591572640980985
            ],
            [
              84.1300520561301,
              26.5918880883263
            ],
            [
              84.13059825158578,
              26.593955387029283
            ],
            [
              84.13080081808907,
              26.596498416089574
            ],
            [
              84.13132706375892,
              26.59917650623504
            ],
            [
              84.13161427940976,
              26.60064052700331
            ],
            [
              84.1310263778704,
              26.602199189001634
            ],
            [
              84.13089261513133,
              26.60299237104991
            ],
            [
              84.13091484034979,
              26.60367371880149
            ],
            [
              84.13101331007796,
              26.604245426194314
            ],
            [
              84.13112113935308,
              26.605103991946116
            ],
            [
              84.13141888685232,
              26.60567035176341
            ],
            [
              84.13152555101252,
              26.60649307023603
            ],
            [
              84.13220441595757,
              26.606511047965448
            ],
            [
              84.13285638174978,
              26.606924558253866
            ],
            [
              84.13330418563068,
              26.607199943945343
            ],
            [
              84.1333979850177,
              26.607628174012724
            ],
            [
              84.13342139691065,
              26.608345363900717
            ],
            [
              84.13324669704575,
              26.60910374702388
            ],
            [
              84.1333146671734,
              26.60996335816911
            ],
            [
              84.13391028164781,
              26.609875802986338
            ],
            [
              84.13545455658813,
              26.609512078765114
            ],
            [
              84.13720630642646,
              26.609394088854298
            ],
            [
              84.13791461994316,
              26.609088191255385
            ],
            [
              84.13820423589245,
              26.608183260819576
            ],
            [
              84.13872360406049,
              26.608205422020948
            ],
            [
              84.1396522940793,
              26.608539841835245
            ],
            [
              84.14019404197602,
              26.609243339229778
            ],
            [
              84.14025257799655,
              26.609816094221422
            ],
            [
              84.14034757573617,
              26.61028016275327
            ],
            [
              84.14048479878569,
              26.61081496100563
            ],
            [
              84.1414908175808,
              26.611075482985658
            ],
            [
              84.14300928661795,
              26.61114306923265
            ],
            [
              84.14313820114944,
              26.611426673061327
            ],
            [
              84.14260123318834,
              26.61208692168353
            ],
            [
              84.14222015976,
              26.61385576899434
            ],
            [
              84.14257428372983,
              26.61492316111043
            ],
            [
              84.1430691566367,
              26.615412533835322
            ],
            [
              84.14321930464654,
              26.616341809798627
            ],
            [
              84.14357344209111,
              26.61740910562408
            ],
            [
              84.1443813958408,
              26.61771072208273
            ],
            [
              84.146289248621,
              26.61748087714761
            ],
            [
              84.14883271336365,
              26.61716224776454
            ],
            [
              84.14995138987851,
              26.617204473774123
            ],
            [
              84.15055643396846,
              26.617403801884436
            ],
            [
              84.15108897143857,
              26.619040747202675
            ],
            [
              84.15116529679666,
              26.620151351019544
            ],
            [
              84.15139399169831,
              26.621042568838615
            ],
            [
              84.15179162377234,
              26.622216503103036
            ],
            [
              84.15194184095246,
              26.623145673970765
            ],
            [
              84.15192195225207,
              26.623756371635896
            ],
            [
              84.1515045204109,
              26.62441347574323
            ],
            [
              84.15140614141256,
              26.625062127919794
            ],
            [
              84.15187061173694,
              26.62583937626148
            ],
            [
              84.1532274819393,
              26.625839303986904
            ],
            [
              84.15531605419511,
              26.626250610679307
            ],
            [
              84.15656152072582,
              26.626504688374872
            ],
            [
              84.15662136559175,
              26.626949229829936
            ],
            [
              84.15662376858512,
              26.62696707425014
            ],
            [
              84.15666171611767,
              26.626830531961918
            ],
            [
              84.15675224114547,
              26.626504801604398
            ],
            [
              84.15691052968843,
              26.62593523801779
            ]
          ]
        ]
      }
    }
  ]
}