{
  "type": "FeatureCollection",
  "features": [
    {
      "type": "Feature",
      "properties": {
        "object_id": "10-203-01027",
        "stname": "BIHAR",
        "dtname": "Pashchim Champaran",
        "sdtname": "Majhaulia",
        "st_area_sh": 0.0,
        "st_length_": 0.0,
        "remarks": "",
        "dist_lgd": 211,
        "state_lgd": 10,
        "subdt_lgd": 1027,
        "ac_no": null,
        "st_length(shape)": 123374.4030721297,
        "st_area(shape)": 371511179.15939575
      },
      "geometry": {
        "type": "Polygon",
        "coordinates": [
          [
            [
              84.61515962009014,
              26.901961997774027
            ],
            [
              84.61858960344058,
              26.900641714010465
            ],
            [
              84.62045417359377,
              26.90112383427804
            ],
            [
              84.62230567325956,
              26.901253965284592
            ],
            [
              84.62423540091525,
              26.90089246701996
            ],
            [
              84.62636209318012,
              26.901335071676417
            ],
            [
              84.62881335484198,
              26.90169860092332
            ],
            [
              84.62883238475297,
              26.9015822237856
            ],
            [
              84.62892387816464,
              26.901022688017257
            ],
            [
              84.62929014196723,
              26.90038063089812
            ],
            [
              84.6296048532523,
              26.8997377073255
            ],
            [
              84.62990821881534,
              26.89905906607858
            ],
            [
              84.63060466019722,
              26.89788394533771
            ],
            [
              84.63137041468812,
              26.896631243691917
            ],
            [
              84.63176159596006,
              26.896032811118282
            ],
            [
              84.63261268591138,
              26.894841232074025
            ],
            [
              84.63403783616019,
              26.89319415662507
            ],
            [
              84.63456987326866,
              26.892844216625377
            ],
            [
              84.63716943690247,
              26.89113433415484
            ],
            [
              84.63840130114316,
              26.89044373483666
            ],
            [
              84.63903770002979,
              26.88994409189801
            ],
            [
              84.63983091691723,
              26.888759157037835
            ],
            [
              84.63980999515427,
              26.888041936950174
            ],
            [
              84.63950611665322,
              26.88671628101812
            ],
            [
              84.63952077626033,
              26.885296253143018
            ],
            [
              84.63952086070199,
              26.88459163997907
            ],
            [
              84.63975278504708,
              26.88394216303072
            ],
            [
              84.64015774467885,
              26.88337440496618
            ],
            [
              84.64079160582477,
              26.882939055642925
            ],
            [
              84.6415201215539,
              26.882574547005454
            ],
            [
              84.6435661424113,
              26.881746910640608
            ],
            [
              84.64599507824343,
              26.881366873188167
            ],
            [
              84.64827094743934,
              26.88071850827501
            ],
            [
              84.64957696940336,
              26.880346419016853
            ],
            [
              84.65177907523632,
              26.879663727103544
            ],
            [
              84.65306153978035,
              26.87925872172252
            ],
            [
              84.65563878566925,
              26.878444777187973
            ],
            [
              84.6600219102822,
              26.877490457128278
            ],
            [
              84.66155984940482,
              26.87797865127364
            ],
            [
              84.66247121810834,
              26.87837682882319
            ],
            [
              84.66365495331104,
              26.87889398968216
            ],
            [
              84.66497308726004,
              26.879550169337094
            ],
            [
              84.66636534928797,
              26.880244876762195
            ],
            [
              84.66709458995753,
              26.88039872731647
            ],
            [
              84.66863730272756,
              26.880252543975217
            ],
            [
              84.66999043593835,
              26.879610637235388
            ],
            [
              84.6706894042811,
              26.87921168360194
            ],
            [
              84.67122319310442,
              26.87875029633229
            ],
            [
              84.67258166859622,
              26.87703373188153
            ],
            [
              84.67342180269432,
              26.875913145978508
            ],
            [
              84.67383196087663,
              26.875478962640234
            ],
            [
              84.67396304124627,
              26.875308251048526
            ],
            [
              84.67396519989789,
              26.87543936532399
            ],
            [
              84.67433704044177,
              26.875794473836145
            ],
            [
              84.67433631190806,
              26.87648405690605
            ],
            [
              84.67445588396058,
              26.877184223846204
            ],
            [
              84.6749065148397,
              26.87773191627235
            ],
            [
              84.67500609937717,
              26.87841859975297
            ],
            [
              84.67479445539792,
              26.879813513664548
            ],
            [
              84.67499993693433,
              26.881186987376278
            ],
            [
              84.67590845618173,
              26.883140290777465
            ],
            [
              84.6759607731656,
              26.88380597160722
            ],
            [
              84.67584491474845,
              26.88520985679647
            ],
            [
              84.67545465874123,
              26.886571134602562
            ],
            [
              84.67547555265642,
              26.887953856175216
            ],
            [
              84.67598161318186,
              26.888374353605787
            ],
            [
              84.67752016495548,
              26.888035944774042
            ],
            [
              84.67825207990965,
              26.888154588841118
            ],
            [
              84.68057093798345,
              26.89014494521188
            ],
            [
              84.68085521793995,
              26.889890707215137
            ],
            [
              84.68124879591709,
              26.889838512270394
            ],
            [
              84.6813740641868,
              26.889897823358282
            ],
            [
              84.68176214896597,
              26.890081573043485
            ],
            [
              84.68233436412385,
              26.89064596289129
            ],
            [
              84.68306265168088,
              26.89170022735472
            ],
            [
              84.68404662402229,
              26.893295630361635
            ],
            [
              84.68451174832023,
              26.893930450834645
            ],
            [
              84.68484558743263,
              26.894093851779328
            ],
            [
              84.68546712369286,
              26.89396867730011
            ],
            [
              84.6860292381937,
              26.893549233387063
            ],
            [
              84.68643257187479,
              26.893018893934943
            ],
            [
              84.68656303869507,
              26.89278199083803
            ],
            [
              84.68656551355372,
              26.89277749709479
            ],
            [
              84.68664682725658,
              26.892629845202677
            ],
            [
              84.68645160268409,
              26.892085185302104
            ],
            [
              84.68553022495169,
              26.891614355065933
            ],
            [
              84.68465925168987,
              26.89113983424324
            ],
            [
              84.68406726820582,
              26.890557079759233
            ],
            [
              84.6840733722582,
              26.89001120728548
            ],
            [
              84.68432968316833,
              26.88978077788903
            ],
            [
              84.68478371776406,
              26.889725052057038
            ],
            [
              84.68576452534072,
              26.890241982323687
            ],
            [
              84.68668577730898,
              26.89096548972249
            ],
            [
              84.68727357284716,
              26.89150755600758
            ],
            [
              84.68774084501692,
              26.89179045075203
            ],
            [
              84.68802850982543,
              26.891750040350708
            ],
            [
              84.68820926703025,
              26.891522877688395
            ],
            [
              84.68802889520268,
              26.890495660304417
            ],
            [
              84.68731586642905,
              26.889184474647823
            ],
            [
              84.68721084528751,
              26.88841117264476
            ],
            [
              84.6871225489799,
              26.88780509392311
            ],
            [
              84.68669701163992,
              26.886462517635895
            ],
            [
              84.68649504341461,
              26.88575530939301
            ],
            [
              84.68646775708784,
              26.885118645046482
            ],
            [
              84.68673101197513,
              26.884793567632745
            ],
            [
              84.68732139555961,
              26.884712994196356
            ],
            [
              84.68807401398612,
              26.884820072893987
            ],
            [
              84.68859032069568,
              26.88467059663184
            ],
            [
              84.68883199715151,
              26.884169187097843
            ],
            [
              84.68879904515025,
              26.88331584521633
            ],
            [
              84.68864637736603,
              26.88241090906073
            ],
            [
              84.68846127411184,
              26.88112190592713
            ],
            [
              84.68841494260275,
              26.879442615306353
            ],
            [
              84.6884901935758,
              26.878464700719952
            ],
            [
              84.6888740904091,
              26.87764976410003
            ],
            [
              84.68971819955233,
              26.876472354981736
            ],
            [
              84.69053144437905,
              26.87582236102356
            ],
            [
              84.69158856473743,
              26.875550859093767
            ],
            [
              84.6922343186794,
              26.875466654837155
            ],
            [
              84.69314656683356,
              26.875391311181236
            ],
            [
              84.69460460440493,
              26.875446700327817
            ],
            [
              84.69530796910273,
              26.87549878733503
            ],
            [
              84.69605825190948,
              26.87547041689039
            ],
            [
              84.69694461690537,
              26.875430724217694
            ],
            [
              84.69784305436036,
              26.875291955203906
            ],
            [
              84.69858345839395,
              26.875254385087924
            ],
            [
              84.69930154558094,
              26.875076568901846
            ],
            [
              84.70003838240454,
              26.874966738148313
            ],
            [
              84.70061956993547,
              26.8750890049541
            ],
            [
              84.70134166989682,
              26.87471270719623
            ],
            [
              84.7020447390489,
              26.874281948802018
            ],
            [
              84.70252574735768,
              26.873635501635377
            ],
            [
              84.70254354837333,
              26.873004080884577
            ],
            [
              84.70239081680873,
              26.871101951749264
            ],
            [
              84.70240116180753,
              26.869595038967557
            ],
            [
              84.7024912915766,
              26.868870037304642
            ],
            [
              84.70261525818754,
              26.868213269182323
            ],
            [
              84.70296282086252,
              26.86769550333494
            ],
            [
              84.70345385077663,
              26.86704921163916
            ],
            [
              84.70385600137647,
              26.86656842768821
            ],
            [
              84.70441534098138,
              26.866027026325508
            ],
            [
              84.7056325177672,
              26.865297767395894
            ],
            [
              84.70806339665525,
              26.863918409324246
            ],
            [
              84.70847749035683,
              26.86368343263784
            ],
            [
              84.70972397557708,
              26.862995221197785
            ],
            [
              84.71021479798036,
              26.862606097973313
            ],
            [
              84.7117686911824,
              26.861891261962437
            ],
            [
              84.71307109832573,
              26.861172338349427
            ],
            [
              84.71428495583653,
              26.860352700329788
            ],
            [
              84.71467190873845,
              26.85962346091553
            ],
            [
              84.71527864435606,
              26.85922265764544
            ],
            [
              84.71600911392089,
              26.8589231203321
            ],
            [
              84.71662517494951,
              26.858558559115053
            ],
            [
              84.71772172056907,
              26.857565527129257
            ],
            [
              84.71821081371539,
              26.857009392648134
            ],
            [
              84.71882760866757,
              26.855855187171148
            ],
            [
              84.71881236605381,
              26.855110419044998
            ],
            [
              84.71828769872394,
              26.85468230927321
            ],
            [
              84.71747380172032,
              26.85462855691019
            ],
            [
              84.7167241971416,
              26.854629985872226
            ],
            [
              84.71590092262471,
              26.854792660622596
            ],
            [
              84.71516952959175,
              26.854889132612197
            ],
            [
              84.71431240924993,
              26.854983568074687
            ],
            [
              84.71348568340576,
              26.85531763911182
            ],
            [
              84.71263019170954,
              26.855330869151516
            ],
            [
              84.71186876440336,
              26.855169640158827
            ],
            [
              84.71095270918903,
              26.854942730975992
            ],
            [
              84.71089198397412,
              26.85421076385456
            ],
            [
              84.71147546400569,
              26.853714842175012
            ],
            [
              84.71284999508653,
              26.85290683686284
            ],
            [
              84.71529472779292,
              26.851412210107544
            ],
            [
              84.71694791986815,
              26.850252198611056
            ],
            [
              84.71832212755548,
              26.84870412064609
            ],
            [
              84.71954239544418,
              26.847054274728503
            ],
            [
              84.71829134588398,
              26.8462263928443
            ],
            [
              84.71705938462524,
              26.845200269166867
            ],
            [
              84.71580017566731,
              26.844530164398012
            ],
            [
              84.71567816918035,
              26.84334146822305
            ],
            [
              84.71573379106613,
              26.842074421664908
            ],
            [
              84.71687651637947,
              26.84102798717564
            ],
            [
              84.71725840098654,
              26.840922910927503
            ],
            [
              84.71786789083883,
              26.84075520664812
            ],
            [
              84.71870845972155,
              26.840728162046474
            ],
            [
              84.71906966061917,
              26.84102728663558
            ],
            [
              84.71907112577139,
              26.841455976265014
            ],
            [
              84.71873658507477,
              26.8418341207575
            ],
            [
              84.7182241572906,
              26.84280501331529
            ],
            [
              84.71846868769411,
              26.843905439735266
            ],
            [
              84.71880296069281,
              26.84479523816152
            ],
            [
              84.71942899391935,
              26.845685229969117
            ],
            [
              84.72017922911542,
              26.845900382895298
            ],
            [
              84.72075415359221,
              26.84632929532283
            ],
            [
              84.72156311614994,
              26.846626608164534
            ],
            [
              84.72273201477743,
              26.846785323023703
            ],
            [
              84.7233168306038,
              26.84722340915197
            ],
            [
              84.72349551898854,
              26.847343605245
            ],
            [
              84.72460759468272,
              26.848331648744658
            ],
            [
              84.72539493299494,
              26.848705302025976
            ],
            [
              84.7262675187327,
              26.8488411726533
            ],
            [
              84.72680429355599,
              26.84841211425635
            ],
            [
              84.72776018635827,
              26.846392445152535
            ],
            [
              84.72881416800303,
              26.844748862981568
            ],
            [
              84.72832911997043,
              26.844100325018623
            ],
            [
              84.72790881891022,
              26.84348441305561
            ],
            [
              84.72829587422008,
              26.84299428184261
            ],
            [
              84.72898513985945,
              26.843239995340568
            ],
            [
              84.72950127499081,
              26.843591218199105
            ],
            [
              84.73016117290695,
              26.84404853133392
            ],
            [
              84.73064211474038,
              26.844399185818514
            ],
            [
              84.73154627895532,
              26.8447160196284
            ],
            [
              84.73259136817707,
              26.844019843617716
            ],
            [
              84.73367272687842,
              26.843017404871283
            ],
            [
              84.7338218894364,
              26.842347464318532
            ],
            [
              84.73381741492798,
              26.841056876834745
            ],
            [
              84.73379066489545,
              26.840379602633394
            ],
            [
              84.73210590332619,
              26.83809193202756
            ],
            [
              84.7317139791475,
              26.837314042811755
            ],
            [
              84.73146851000453,
              26.83650691677471
            ],
            [
              84.73240001624178,
              26.836205998360096
            ],
            [
              84.73335989037736,
              26.835995772691675
            ],
            [
              84.73387295866033,
              26.835994971122798
            ],
            [
              84.73477626139089,
              26.83534162487852
            ],
            [
              84.73522252016953,
              26.83515925634073
            ],
            [
              84.73570648663055,
              26.834345768031888
            ],
            [
              84.73495269410596,
              26.833300378733288
            ],
            [
              84.73423150773125,
              26.832891743692667
            ],
            [
              84.73276273978381,
              26.832895277105013
            ],
            [
              84.73219472514819,
              26.833382520626444
            ],
            [
              84.73135393078834,
              26.833675870760842
            ],
            [
              84.73027034696005,
              26.833784827791636
            ],
            [
              84.72966857094113,
              26.83394663472467
            ],
            [
              84.72816908420425,
              26.83397669970814
            ],
            [
              84.72718004177138,
              26.83413678617204
            ],
            [
              84.72642932417997,
              26.833948738880984
            ],
            [
              84.72519610527988,
              26.83349121421744
            ],
            [
              84.7250766428218,
              26.832925257398955
            ],
            [
              84.72501990612676,
              26.831737615343457
            ],
            [
              84.72543281135722,
              26.83095911975611
            ],
            [
              84.72552557768168,
              26.82958887677086
            ],
            [
              84.72588678576585,
              26.8283763678679
            ],
            [
              84.72612279205559,
              26.82638122019842
            ],
            [
              84.72603358485634,
              26.82455230931386
            ],
            [
              84.72524694543337,
              26.82415160392952
            ],
            [
              84.72449816910135,
              26.82412151068551
            ],
            [
              84.72399167468964,
              26.82455105312854
            ],
            [
              84.7235086002557,
              26.82506670360484
            ],
            [
              84.72303280576885,
              26.82546966318062
            ],
            [
              84.7224955000412,
              26.82593028892157
            ],
            [
              84.72170788055628,
              26.826332733981403
            ],
            [
              84.72116824729376,
              26.826657948928727
            ],
            [
              84.72044986456106,
              26.826867475267946
            ],
            [
              84.71984763579121,
              26.82655093221583
            ],
            [
              84.7194913558647,
              26.82600822674991
            ],
            [
              84.7195511540182,
              26.825282714184247
            ],
            [
              84.72017896680735,
              26.82482355763617
            ],
            [
              84.72080855197252,
              26.824526871358074
            ],
            [
              84.72146983509083,
              26.8241539808297
            ],
            [
              84.72225195958117,
              26.823774008854322
            ],
            [
              84.72326898723009,
              26.822964636281235
            ],
            [
              84.72426864595299,
              26.82196051204926
            ],
            [
              84.72429032769067,
              26.82193873312765
            ],
            [
              84.72548723758537,
              26.82118638173089
            ],
            [
              84.72606739385036,
              26.821111191931756
            ],
            [
              84.72635451338144,
              26.821073979813026
            ],
            [
              84.72861048219887,
              26.8211824198596
            ],
            [
              84.73019868026499,
              26.821234986392785
            ],
            [
              84.73163650125088,
              26.82126256314981
            ],
            [
              84.73220713896711,
              26.821398056247904
            ],
            [
              84.73281252262024,
              26.821556666974153
            ],
            [
              84.73356182716165,
              26.821559649992047
            ],
            [
              84.73553950059899,
              26.82150107668561
            ],
            [
              84.74091048007205,
              26.82100937766038
            ],
            [
              84.74126705374765,
              26.820527742375113
            ],
            [
              84.74100318890429,
              26.81912471005108
            ],
            [
              84.74123855739023,
              26.818668211010234
            ],
            [
              84.74276888868067,
              26.818340676278932
            ],
            [
              84.74289051697689,
              26.817025019386385
            ],
            [
              84.7436107915616,
              26.81696882319225
            ],
            [
              84.74447666059596,
              26.81667128097227
            ],
            [
              84.74435925707652,
              26.81599707181713
            ],
            [
              84.7440893339949,
              26.815406165642464
            ],
            [
              84.74387966990253,
              26.814058149177022
            ],
            [
              84.74360292860791,
              26.811526832666306
            ],
            [
              84.74369644412732,
              26.80841490702435
            ],
            [
              84.74372095915142,
              26.807598475833128
            ],
            [
              84.74317567997733,
              26.80643913728959
            ],
            [
              84.74146344343507,
              26.80428200132475
            ],
            [
              84.74077179456522,
              26.803151904243972
            ],
            [
              84.739567928117,
              26.80148116995617
            ],
            [
              84.73924491190714,
              26.800781112071014
            ],
            [
              84.73831200878965,
              26.79939446126182
            ],
            [
              84.73737912723166,
              26.79800780472663
            ],
            [
              84.73524263344873,
              26.795451248342047
            ],
            [
              84.73368384712333,
              26.79418992401848
            ],
            [
              84.732964699026,
              26.79394376817342
            ],
            [
              84.73263161180347,
              26.79451149690738
            ],
            [
              84.73257453015538,
              26.79510620933712
            ],
            [
              84.73263602163321,
              26.7958066029404
            ],
            [
              84.73287955221178,
              26.796961143683117
            ],
            [
              84.73278566838314,
              26.797636488377165
            ],
            [
              84.73239796538797,
              26.79836735694146
            ],
            [
              84.73179829502007,
              26.799497791154995
            ],
            [
              84.73065587782884,
              26.800305231310887
            ],
            [
              84.72923314584479,
              26.79978605722908
            ],
            [
              84.72888649675646,
              26.799266091771507
            ],
            [
              84.7266239792206,
              26.796734465894527
            ],
            [
              84.72621209357798,
              26.796208933635928
            ],
            [
              84.72542065804976,
              26.795050093691447
            ],
            [
              84.72515114639651,
              26.794445627109546
            ],
            [
              84.72472841359686,
              26.793960528781387
            ],
            [
              84.7238557910282,
              26.792588297326677
            ],
            [
              84.72363142241292,
              26.79224175491375
            ],
            [
              84.72320924477212,
              26.79172958766004
            ],
            [
              84.72241158032568,
              26.79063380428401
            ],
            [
              84.72149670370098,
              26.78961735163355
            ],
            [
              84.72089752291488,
              26.78840292365314
            ],
            [
              84.71860280616603,
              26.78423270214619
            ],
            [
              84.71813282108408,
              26.78309705478176
            ],
            [
              84.71666158726123,
              26.779991440159282
            ],
            [
              84.71648189366171,
              26.779424507317167
            ],
            [
              84.71620644683937,
              26.778116011358847
            ],
            [
              84.71666008437975,
              26.776801223966473
            ],
            [
              84.71721346995096,
              26.775776828794104
            ],
            [
              84.71713847589612,
              26.775504883311342
            ],
            [
              84.71742052803071,
              26.773970735315682
            ],
            [
              84.71747858255426,
              26.771571127067887
            ],
            [
              84.71754038484919,
              26.770994547892087
            ],
            [
              84.71753803036482,
              26.77035827610896
            ],
            [
              84.71776753464853,
              26.769942329848373
            ],
            [
              84.71755514416928,
              26.769753903398783
            ],
            [
              84.71746043658554,
              26.76921089966785
            ],
            [
              84.71854327481213,
              26.768605648226835
            ],
            [
              84.71873680785694,
              26.76797704268703
            ],
            [
              84.71873811760065,
              26.76740851392627
            ],
            [
              84.71898983272976,
              26.76638376132473
            ],
            [
              84.71966976667,
              26.766317998721657
            ],
            [
              84.72126950988417,
              26.766005318646776
            ],
            [
              84.72191345461918,
              26.76597957721293
            ],
            [
              84.72216705441377,
              26.765866336169715
            ],
            [
              84.72218519139938,
              26.76571320909456
            ],
            [
              84.72218434877963,
              26.765707730985564
            ],
            [
              84.7220739637975,
              26.76498944995646
            ],
            [
              84.72169766940647,
              26.764198255663107
            ],
            [
              84.71999085419696,
              26.76056094773628
            ],
            [
              84.71952138474799,
              26.759402752132132
            ],
            [
              84.71805764377292,
              26.756184470114878
            ],
            [
              84.71802477082342,
              26.755565754382157
            ],
            [
              84.71848512866045,
              26.75491436965905
            ],
            [
              84.71911988273176,
              26.75459067764836
            ],
            [
              84.71979320866477,
              26.75434882528924
            ],
            [
              84.72117635997911,
              26.754050700941832
            ],
            [
              84.72332325355808,
              26.753764836676748
            ],
            [
              84.72542392162919,
              26.753780522720174
            ],
            [
              84.72545345374417,
              26.7533072043313
            ],
            [
              84.72565014616383,
              26.752768881189912
            ],
            [
              84.72646467288644,
              26.752754877932702
            ],
            [
              84.726475909014,
              26.75143294567586
            ],
            [
              84.72613039090461,
              26.75086336109762
            ],
            [
              84.72534916203459,
              26.75097265678122
            ],
            [
              84.72339263943063,
              26.75104050909306
            ],
            [
              84.72326093203692,
              26.75083985108099
            ],
            [
              84.72312088558246,
              26.750553324167416
            ],
            [
              84.72307354526528,
              26.750388220054365
            ],
            [
              84.72305979385492,
              26.75034026368235
            ],
            [
              84.72279333557533,
              26.75000786064459
            ],
            [
              84.72279136556993,
              26.75000540277552
            ],
            [
              84.7223886948455,
              26.746223334714635
            ],
            [
              84.72237277490204,
              26.745079317285608
            ],
            [
              84.72234837126904,
              26.744624463339697
            ],
            [
              84.72457321436016,
              26.744221040150585
            ],
            [
              84.72640527088993,
              26.743663746371805
            ],
            [
              84.72784462619833,
              26.74323150788861
            ],
            [
              84.7273940698794,
              26.741999742620674
            ],
            [
              84.72502907343423,
              26.742207377199737
            ],
            [
              84.72186587085857,
              26.741818793189328
            ],
            [
              84.72077980139187,
              26.742072193069507
            ],
            [
              84.71941753500958,
              26.7410951458123
            ],
            [
              84.71785469907887,
              26.741257693049647
            ],
            [
              84.71638835119285,
              26.74122160194648
            ],
            [
              84.71282705930066,
              26.740950615060818
            ],
            [
              84.71261701611928,
              26.74073316195408
            ],
            [
              84.71186637398638,
              26.740030844231015
            ],
            [
              84.70935126726064,
              26.73745615986689
            ],
            [
              84.70759407542835,
              26.737766364083065
            ],
            [
              84.70717031315937,
              26.737644959171117
            ],
            [
              84.70624341258457,
              26.736406890909464
            ],
            [
              84.70529733657177,
              26.736092143714995
            ],
            [
              84.70475351536338,
              26.73583894632248
            ],
            [
              84.70450992190273,
              26.73572552923349
            ],
            [
              84.70387271812561,
              26.734805949611182
            ],
            [
              84.70311580036216,
              26.732691494082797
            ],
            [
              84.70285105696644,
              26.73155580165176
            ],
            [
              84.70181788030368,
              26.729789996637102
            ],
            [
              84.70191287714496,
              26.728893082069142
            ],
            [
              84.70315670874189,
              26.726421599751855
            ],
            [
              84.70363561589119,
              26.725210223130624
            ],
            [
              84.70378610975243,
              26.72380488216601
            ],
            [
              84.70363925766135,
              26.722892919352585
            ],
            [
              84.70254732668742,
              26.72020298630552
            ],
            [
              84.70168162743465,
              26.718499427748625
            ],
            [
              84.70112309900841,
              26.71701381517593
            ],
            [
              84.70083810758622,
              26.715068532180506
            ],
            [
              84.69998598367401,
              26.715176693131472
            ],
            [
              84.69940679040297,
              26.71670383682721
            ],
            [
              84.69914261474256,
              26.716804890877487
            ],
            [
              84.69745579603128,
              26.717290755168438
            ],
            [
              84.69717749615963,
              26.717503188298338
            ],
            [
              84.69727675640527,
              26.718928712708745
            ],
            [
              84.69724223055563,
              26.72004137104645
            ],
            [
              84.69710634869081,
              26.720576739067674
            ],
            [
              84.69671902208977,
              26.72073737305449
            ],
            [
              84.6964500727819,
              26.720553956971827
            ],
            [
              84.69627134397295,
              26.72009738894422
            ],
            [
              84.695620943046,
              26.71741888670814
            ],
            [
              84.69483223300634,
              26.715358415141473
            ],
            [
              84.69344777284667,
              26.713964830114282
            ],
            [
              84.69077859786317,
              26.71362937263381
            ],
            [
              84.69094216580504,
              26.711785058216822
            ],
            [
              84.69064782471739,
              26.711414654096178
            ],
            [
              84.69030392716871,
              26.71135579526801
            ],
            [
              84.68989117914344,
              26.71133243276082
            ],
            [
              84.68867479557004,
              26.709033392239718
            ],
            [
              84.68876042388123,
              26.70743718965448
            ],
            [
              84.68863461662232,
              26.706636285326987
            ],
            [
              84.68768166220939,
              26.706083343907736
            ],
            [
              84.68606716775994,
              26.705370343019304
            ],
            [
              84.6845862923191,
              26.70462963308205
            ],
            [
              84.68275431304446,
              26.70316662672288
            ],
            [
              84.68155014835556,
              26.70189299626975
            ],
            [
              84.68044660126665,
              26.700337531800248
            ],
            [
              84.67983383166528,
              26.699088271615548
            ],
            [
              84.67956530456563,
              26.69838481569559
            ],
            [
              84.67873867484118,
              26.698598551304705
            ],
            [
              84.67466371279482,
              26.69991429603811
            ],
            [
              84.67313649416683,
              26.700362707063004
            ],
            [
              84.67208604379944,
              26.700549085692177
            ],
            [
              84.67167929562194,
              26.700621525615727
            ],
            [
              84.67141232530265,
              26.69919755123006
            ],
            [
              84.67120840593654,
              26.698661891681244
            ],
            [
              84.67011428127665,
              26.697425533331753
            ],
            [
              84.66923028334155,
              26.696419612885133
            ],
            [
              84.66816805426419,
              26.695568647640393
            ],
            [
              84.66746871671377,
              26.695014045763003
            ],
            [
              84.66623936775589,
              26.6940775151936
            ],
            [
              84.66440392817076,
              26.692451916324682
            ],
            [
              84.6636588358297,
              26.690689764955216
            ],
            [
              84.66315765764784,
              26.689475304213342
            ],
            [
              84.66246889686164,
              26.688894799029107
            ],
            [
              84.659456911291,
              26.689739489612677
            ],
            [
              84.659606022645,
              26.687328657258654
            ],
            [
              84.6592510353942,
              26.686039630342957
            ],
            [
              84.65688017474689,
              26.681942396981096
            ],
            [
              84.65645668376914,
              26.681277252190803
            ],
            [
              84.65433073890259,
              26.679591710172843
            ],
            [
              84.65238391181543,
              26.67871111601548
            ],
            [
              84.64768216285603,
              26.678789230309768
            ],
            [
              84.64434365135773,
              26.67913950504131
            ],
            [
              84.64323948892286,
              26.679255336758793
            ],
            [
              84.64211122379062,
              26.67999368804828
            ],
            [
              84.64091710136829,
              26.680651853927035
            ],
            [
              84.64091591110054,
              26.680653110901076
            ],
            [
              84.63992100356718,
              26.68170379830436
            ],
            [
              84.639277183698,
              26.682892982937954
            ],
            [
              84.63893013306273,
              26.68388581529684
            ],
            [
              84.63891220897784,
              26.68524700404134
            ],
            [
              84.64006029094527,
              26.68780063925285
            ],
            [
              84.64008560097838,
              26.68889346670082
            ],
            [
              84.63952087597333,
              26.690169850916526
            ],
            [
              84.63800586365339,
              26.691676057336092
            ],
            [
              84.63673876389403,
              26.692226007631618
            ],
            [
              84.63647007240262,
              26.69220338038063
            ],
            [
              84.6359996696041,
              26.69216376402047
            ],
            [
              84.63330506600987,
              26.691647010877187
            ],
            [
              84.63173734683727,
              26.691135717026736
            ],
            [
              84.63073771596216,
              26.691060804706524
            ],
            [
              84.62985701484412,
              26.691064018285378
            ],
            [
              84.6285119026905,
              26.691068918110133
            ],
            [
              84.62721511091604,
              26.691341422675624
            ],
            [
              84.62608597441799,
              26.691611082216763
            ],
            [
              84.62608328037042,
              26.691611725892564
            ],
            [
              84.62519286307429,
              26.69182893496097
            ],
            [
              84.62415620004991,
              26.692126622817604
            ],
            [
              84.622652467875,
              26.69255175591878
            ],
            [
              84.6190398983498,
              26.692880566720103
            ],
            [
              84.61586204964172,
              26.69283887592709
            ],
            [
              84.61407494930036,
              26.692606885238032
            ],
            [
              84.61039513279131,
              26.6926939476134
            ],
            [
              84.61007210490334,
              26.692701587378217
            ],
            [
              84.6093615968024,
              26.692605759216544
            ],
            [
              84.60951880557037,
              26.692022200891245
            ],
            [
              84.61031981264797,
              26.691434255031304
            ],
            [
              84.61132200282333,
              26.690398153818844
            ],
            [
              84.61122208321427,
              26.688955408712665
            ],
            [
              84.61085788104529,
              26.688484528668543
            ],
            [
              84.61047873090996,
              26.687988886849574
            ],
            [
              84.6095687294423,
              26.68760312433564
            ],
            [
              84.60903858059254,
              26.68755419923199
            ],
            [
              84.60701785000532,
              26.68822359334725
            ],
            [
              84.60590380610233,
              26.68914802137935
            ],
            [
              84.60565231555202,
              26.68947955961597
            ],
            [
              84.60505142527197,
              26.69053855520152
            ],
            [
              84.60394154056875,
              26.69307952274964
            ],
            [
              84.60301357908362,
              26.693664650310286
            ],
            [
              84.60028640167887,
              26.69465209992749
            ],
            [
              84.5990207248509,
              26.694323421043894
            ],
            [
              84.59832509644436,
              26.69405246374306
            ],
            [
              84.59808375326348,
              26.69491917780859
            ],
            [
              84.5978723554226,
              26.695865820918296
            ],
            [
              84.59763301997641,
              26.69731776883337
            ],
            [
              84.59744267415421,
              26.69898206962311
            ],
            [
              84.59712789280057,
              26.700438157380503
            ],
            [
              84.5967929280991,
              26.701023204617467
            ],
            [
              84.59630031176023,
              26.70194606662964
            ],
            [
              84.59567488489648,
              26.7032337050418
            ],
            [
              84.59533390687253,
              26.703994813202613
            ],
            [
              84.59488443482012,
              26.704394349676374
            ],
            [
              84.59436460222307,
              26.70480256694602
            ],
            [
              84.59381454490999,
              26.705210659168735
            ],
            [
              84.59316925629533,
              26.705591271077477
            ],
            [
              84.59255985807118,
              26.705832106030723
            ],
            [
              84.59213188989006,
              26.705983545863674
            ],
            [
              84.59091845458741,
              26.706415647387676
            ],
            [
              84.59004323319262,
              26.706574007859523
            ],
            [
              84.58896244761641,
              26.70665926681612
            ],
            [
              84.58656894583069,
              26.706972967932217
            ],
            [
              84.58480294422039,
              26.707375367629556
            ],
            [
              84.58338760177787,
              26.707946331139766
            ],
            [
              84.58235374778535,
              26.708609350209947
            ],
            [
              84.5823006124363,
              26.709096433913917
            ],
            [
              84.58244797566876,
              26.70968372369119
            ],
            [
              84.58300686701436,
              26.711211559755053
            ],
            [
              84.58346297492176,
              26.712274160923926
            ],
            [
              84.58386982820214,
              26.713156055662648
            ],
            [
              84.58412152177173,
              26.71394239815984
            ],
            [
              84.58411981856594,
              26.71424022321937
            ],
            [
              84.58396322334731,
              26.71437938274932
            ],
            [
              84.58347674340014,
              26.71421467709227
            ],
            [
              84.58296055886146,
              26.713982120891202
            ],
            [
              84.58239800957604,
              26.71393434817249
            ],
            [
              84.58129205590052,
              26.714019365703688
            ],
            [
              84.58016022625324,
              26.71422159322771
            ],
            [
              84.57908194068845,
              26.7147173552286
            ],
            [
              84.577011185618,
              26.715655203783644
            ],
            [
              84.57452348738991,
              26.716550357877953
            ],
            [
              84.57259243022762,
              26.71678935780906
            ],
            [
              84.57047895757046,
              26.717275677933763
            ],
            [
              84.56818214056044,
              26.717345898993923
            ],
            [
              84.56565692060121,
              26.71692304419472
            ],
            [
              84.56346454711603,
              26.717165213658276
            ],
            [
              84.5623932630206,
              26.717317898197894
            ],
            [
              84.56023149244218,
              26.71747440920719
            ],
            [
              84.55876504035156,
              26.71734087592635
            ],
            [
              84.55891864867188,
              26.714372392800104
            ],
            [
              84.55855579667076,
              26.713711868347286
            ],
            [
              84.55520521091671,
              26.713528459400425
            ],
            [
              84.55514795319881,
              26.714683404602006
            ],
            [
              84.55271616341903,
              26.7146308352746
            ],
            [
              84.5529829666517,
              26.71619805489432
            ],
            [
              84.55315709698466,
              26.71731343761653
            ],
            [
              84.55415708269436,
              26.718969940598978
            ],
            [
              84.55478928914353,
              26.720787056600997
            ],
            [
              84.55533329181159,
              26.722233712089114
            ],
            [
              84.55633654020237,
              26.72335324808186
            ],
            [
              84.55577978505053,
              26.72483518015471
            ],
            [
              84.55517523323736,
              26.725906199144905
            ],
            [
              84.55457218430564,
              26.72672898414406
            ],
            [
              84.55433424843467,
              26.727842430334476
            ],
            [
              84.55475076938416,
              26.72876954473121
            ],
            [
              84.55529838417799,
              26.72963857804239
            ],
            [
              84.55625320888335,
              26.731294888790416
            ],
            [
              84.55720833272773,
              26.732910524637408
            ],
            [
              84.55757575984859,
              26.733656826261925
            ],
            [
              84.55802932282882,
              26.73427726580395
            ],
            [
              84.55594970138651,
              26.734104659121172
            ],
            [
              84.55392812009471,
              26.734297813991
            ],
            [
              84.55268574287027,
              26.734458674107906
            ],
            [
              84.55144085395625,
              26.735030146803638
            ],
            [
              84.55111390941367,
              26.735894934781733
            ],
            [
              84.55133905417331,
              26.736473643976232
            ],
            [
              84.5515641998313,
              26.737052352633075
            ],
            [
              84.55239018995526,
              26.737593404885196
            ],
            [
              84.55321492333616,
              26.73834202078762
            ],
            [
              84.554127387086,
              26.739542313283362
            ],
            [
              84.5546681351578,
              26.740709190157816
            ],
            [
              84.55475632905743,
              26.74190994622962
            ],
            [
              84.55437561136192,
              26.74335207573306
            ],
            [
              84.55377219501929,
              26.744220026147765
            ],
            [
              84.55344105803925,
              26.74577069622656
            ],
            [
              84.55375718327255,
              26.746683772796235
            ],
            [
              84.5546707339839,
              26.747717103623565
            ],
            [
              84.55544652984305,
              26.74908819115846
            ],
            [
              84.55603940894743,
              26.74995749276828
            ],
            [
              84.55604585256295,
              26.75000032660193
            ],
            [
              84.5560928272658,
              26.750312367267828
            ],
            [
              84.55609288026639,
              26.750312360048262
            ],
            [
              84.55609357107086,
              26.75031730705786
            ],
            [
              84.55629389717582,
              26.751921630887193
            ],
            [
              84.55666355661022,
              26.75229346976235
            ],
            [
              84.55689972818995,
              26.753152023660004
            ],
            [
              84.55651938060036,
              26.75370073363849
            ],
            [
              84.55719282600928,
              26.754552288623103
            ],
            [
              84.55868408956806,
              26.755660643180672
            ],
            [
              84.56037886106456,
              26.75720313192772
            ],
            [
              84.56177496878018,
              26.75825682114446
            ],
            [
              84.56327729868495,
              26.75838597977319
            ],
            [
              84.56402645590268,
              26.7583580267789
            ],
            [
              84.56474418376354,
              26.758546510632694
            ],
            [
              84.565317813768,
              26.75928484827841
            ],
            [
              84.56534621041244,
              26.760417570292642
            ],
            [
              84.56715274221173,
              26.760119486731288
            ],
            [
              84.56869500223087,
              26.759449999625545
            ],
            [
              84.56910415519839,
              26.759118065194865
            ],
            [
              84.56866965177353,
              26.757798290864557
            ],
            [
              84.569249022911,
              26.757588984260888
            ],
            [
              84.57170588377201,
              26.75781287985117
            ],
            [
              84.57218479720956,
              26.757571442630105
            ],
            [
              84.5728103067183,
              26.755521315162
            ],
            [
              84.57472253968382,
              26.755164867886137
            ],
            [
              84.57601929462737,
              26.754345254937615
            ],
            [
              84.57675332421572,
              26.7543217304004
            ],
            [
              84.5784183974089,
              26.754970323057
            ],
            [
              84.58080746780534,
              26.754737959255888
            ],
            [
              84.58220383962569,
              26.754929545381582
            ],
            [
              84.5840807418511,
              26.754599955248217
            ],
            [
              84.58514419982379,
              26.754113083176073
            ],
            [
              84.58758173792306,
              26.750726598157712
            ],
            [
              84.5882112620028,
              26.75051749992989
            ],
            [
              84.58867798799686,
              26.75043310969656
            ],
            [
              84.59029605324956,
              26.75042984324573
            ],
            [
              84.59032880582481,
              26.75035547771782
            ],
            [
              84.59034928022677,
              26.75031292798777
            ],
            [
              84.59044074758731,
              26.750122692965867
            ],
            [
              84.59449109938811,
              26.75023079412089
            ],
            [
              84.59520080709015,
              26.750071567886177
            ],
            [
              84.59544280783778,
              26.750000373128156
            ],
            [
              84.59547270287212,
              26.749991578063238
            ],
            [
              84.59579553223243,
              26.74979906592227
            ],
            [
              84.59645171561486,
              26.749314752298666
            ],
            [
              84.59723357420386,
              26.748826476224792
            ],
            [
              84.59794425028973,
              26.748491326884384
            ],
            [
              84.59878041563093,
              26.748183771876324
            ],
            [
              84.59912834122532,
              26.747991344914816
            ],
            [
              84.59968972809075,
              26.74738027522699
            ],
            [
              84.59998192489986,
              26.747264265720585
            ],
            [
              84.60017826877319,
              26.747220058298232
            ],
            [
              84.60040799134754,
              26.74747374134852
            ],
            [
              84.6007650851477,
              26.74831922228641
            ],
            [
              84.60117134464167,
              26.749372531008653
            ],
            [
              84.6015813608902,
              26.75000016616658
            ],
            [
              84.6017856970746,
              26.75031294082254
            ],
            [
              84.60178928494584,
              26.750318443738966
            ],
            [
              84.60239218655384,
              26.75212626170051
            ],
            [
              84.60228012621371,
              26.753289975681575
            ],
            [
              84.60159542311763,
              26.754356236315367
            ],
            [
              84.60178816923828,
              26.754939304238835
            ],
            [
              84.6036835004017,
              26.75755162216421
            ],
            [
              84.60486609833728,
              26.76000278597824
            ],
            [
              84.60596806528957,
              26.760711769298872
            ],
            [
              84.60736281115925,
              26.761209957967377
            ],
            [
              84.60704018661485,
              26.766718321321214
            ],
            [
              84.60845314223367,
              26.767559534931888
            ],
            [
              84.61586179362187,
              26.767854608125404
            ],
            [
              84.61666313756771,
              26.77022268915537
            ],
            [
              84.61673914761717,
              26.771021747880756
            ],
            [
              84.61698137474026,
              26.77356338139036
            ],
            [
              84.61678920713469,
              26.774677101139837
            ],
            [
              84.61718416761903,
              26.77688547431685
            ],
            [
              84.6164682238123,
              26.777247804966706
            ],
            [
              84.6139672844169,
              26.77674478569231
            ],
            [
              84.61163781095136,
              26.777930058142697
            ],
            [
              84.6109184023426,
              26.77890610061684
            ],
            [
              84.61083269767462,
              26.781631206702237
            ],
            [
              84.60968591556943,
              26.782605262210293
            ],
            [
              84.60626594484114,
              26.784548138796435
            ],
            [
              84.60304713744769,
              26.786464890887785
            ],
            [
              84.60140643015828,
              26.78762160203249
            ],
            [
              84.60127846873931,
              26.78890706765779
            ],
            [
              84.60190652856515,
              26.792524428697476
            ],
            [
              84.60251409332777,
              26.793565077365063
            ],
            [
              84.60201832569888,
              26.794086262129422
            ],
            [
              84.60180814597356,
              26.795678230191793
            ],
            [
              84.60046607102392,
              26.797355252203854
            ],
            [
              84.59895645308727,
              26.799279637062444
            ],
            [
              84.59888030020569,
              26.800285593101275
            ],
            [
              84.59758073084033,
              26.801538578951526
            ],
            [
              84.59597135139813,
              26.802447131627524
            ],
            [
              84.59378677708625,
              26.803682485325787
            ],
            [
              84.58862312069594,
              26.80956532267001
            ],
            [
              84.57534116270759,
              26.821420066154992
            ],
            [
              84.57415792427324,
              26.822474797856614
            ],
            [
              84.57387164826017,
              26.824102460204553
            ],
            [
              84.57108108662729,
              26.82646264323137
            ],
            [
              84.56632679430858,
              26.82914718728215
            ],
            [
              84.56615204862963,
              26.82976458004828
            ],
            [
              84.5680164831372,
              26.834254428693548
            ],
            [
              84.56659688088361,
              26.835276409641608
            ],
            [
              84.56650578542558,
              26.83787959295196
            ],
            [
              84.56653226326858,
              26.84100685074198
            ],
            [
              84.56590647438378,
              26.842172578079552
            ],
            [
              84.56483707315718,
              26.842659240657923
            ],
            [
              84.56441175590443,
              26.844782515846934
            ],
            [
              84.55962458255141,
              26.847746524835397
            ],
            [
              84.55862025977554,
              26.849095292967345
            ],
            [
              84.55853808189337,
              26.851035287781507
            ],
            [
              84.56006375002919,
              26.854147302619523
            ],
            [
              84.55936900017495,
              26.855050827637722
            ],
            [
              84.55881147786187,
              26.856546286298332
            ],
            [
              84.56048795426926,
              26.85803004620525
            ],
            [
              84.56319601193152,
              26.85867046382044
            ],
            [
              84.56389123879114,
              26.859341654917092
            ],
            [
              84.56425594671167,
              26.859785606775013
            ],
            [
              84.56399435101274,
              26.863109993649264
            ],
            [
              84.5627064848989,
              26.8663978709282
            ],
            [
              84.56293942793354,
              26.86698104086294
            ],
            [
              84.56569486633714,
              26.867314860108767
            ],
            [
              84.56735999792083,
              26.87072521922619
            ],
            [
              84.57068406989926,
              26.871066146351392
            ],
            [
              84.57343709273306,
              26.872658688297072
            ],
            [
              84.57741195910053,
              26.87102611718045
            ],
            [
              84.57901522371063,
              26.871358603913148
            ],
            [
              84.58314946288762,
              26.86997481389254
            ],
            [
              84.58468932170997,
              26.873398033050368
            ],
            [
              84.5858240223729,
              26.878145921383368
            ],
            [
              84.58548869475209,
              26.880405071648205
            ],
            [
              84.58611053015132,
              26.883359108621136
            ],
            [
              84.58797363066068,
              26.88576844773831
            ],
            [
              84.58860101225848,
              26.888641269934503
            ],
            [
              84.58877142176956,
              26.892224967207394
            ],
            [
              84.59261678790399,
              26.892184245306098
            ],
            [
              84.59681913465089,
              26.901810712871438
            ],
            [
              84.60061196461258,
              26.91100640797379
            ],
            [
              84.60254032503238,
              26.910036085739797
            ],
            [
              84.60530688008764,
              26.906844937087605
            ],
            [
              84.60785607069187,
              26.90556147660191
            ],
            [
              84.61189276720204,
              26.90468636588468
            ],
            [
              84.61515962009014,
              26.901961997774027
            ]
          ]
        ]
      }
    }
  ]
}