{
  "type": "FeatureCollection",
  "features": [
    {
      "type": "Feature",
      "properties": {
        "object_id": "10-232-01437",
        "stname": "BIHAR",
        "dtname": "Buxar",
        "sdtname": "Barhampur",
        "st_area_sh": 0.0,
        "st_length_": 0.0,
        "remarks": "",
        "dist_lgd": 194,
        "state_lgd": 10,
        "subdt_lgd": 1437,
        "ac_no": null,
        "st_length(shape)": 133928.15369382405,
        "st_area(shape)": 240152233.65370417
      },
      "geometry": {
        "type": "Polygon",
        "coordinates": [
          [
            [
              84.39181947342915,
              25.740866287720234
            ],
            [
              84.39083741270265,
              25.738627803077613
            ],
            [
              84.39011963723108,
              25.73691286065039
            ],
            [
              84.38782255431973,
              25.73760362261205
            ],
            [
              84.38692036280516,
              25.735681047771735
            ],
            [
              84.38620274723371,
              25.734940897245874
            ],
            [
              84.3843937926781,
              25.732774704298993
            ],
            [
              84.38394028269848,
              25.732300812795227
            ],
            [
              84.38318285020037,
              25.731551631182242
            ],
            [
              84.38247027327931,
              25.73087923781565
            ],
            [
              84.38201678216433,
              25.730434669816393
            ],
            [
              84.38156329464262,
              25.72999010096402
            ],
            [
              84.38117465739955,
              25.729484700709577
            ],
            [
              84.37980933584701,
              25.728135283724246
            ],
            [
              84.37892233214895,
              25.727313814143947
            ],
            [
              84.37854867790652,
              25.72694828213234
            ],
            [
              84.37704383541391,
              25.725567273740108
            ],
            [
              84.37602810583057,
              25.724363759749785
            ],
            [
              84.3759277720982,
              25.72424487564538
            ],
            [
              84.37489634176032,
              25.723193278656346
            ],
            [
              84.37429342577927,
              25.72230868115337
            ],
            [
              84.372958184314,
              25.720205413692256
            ],
            [
              84.37191691742377,
              25.718743109767473
            ],
            [
              84.37103508083524,
              25.717501972903207
            ],
            [
              84.37023295894838,
              25.71628790119729
            ],
            [
              84.36902239106811,
              25.714527609851775
            ],
            [
              84.36811571336702,
              25.71332707024913
            ],
            [
              84.36725885623157,
              25.712031679087954
            ],
            [
              84.36693507016552,
              25.711210217263723
            ],
            [
              84.3664220216455,
              25.71034815284886
            ],
            [
              84.36504212492746,
              25.708628541929105
            ],
            [
              84.3637022113244,
              25.706854684965325
            ],
            [
              84.36325892596935,
              25.7058978563643
            ],
            [
              84.3627458226521,
              25.704941027355847
            ],
            [
              84.36153556469064,
              25.702729389602208
            ],
            [
              84.36071869067017,
              25.701420434213453
            ],
            [
              84.3600413771156,
              25.700463510123953
            ],
            [
              84.35981716840048,
              25.700111474145302
            ],
            [
              84.35956826230326,
              25.69919524873925
            ],
            [
              84.35902543732652,
              25.697841165628727
            ],
            [
              84.35820374474288,
              25.6959996819462
            ],
            [
              84.3576460068341,
              25.694604986917955
            ],
            [
              84.35717801960537,
              25.69314261207458
            ],
            [
              84.35690922660437,
              25.69206394721829
            ],
            [
              84.35671005663114,
              25.690980678608376
            ],
            [
              84.35658556720077,
              25.690773030356976
            ],
            [
              84.35654143297084,
              25.686720089158207
            ],
            [
              84.35694488972113,
              25.686300379183564
            ],
            [
              84.35712945937604,
              25.684477043797337
            ],
            [
              84.35563531941176,
              25.683673506606727
            ],
            [
              84.35512233736709,
              25.683411703607415
            ],
            [
              84.35372792477234,
              25.682368922306896
            ],
            [
              84.35171561678924,
              25.682707068340854
            ],
            [
              84.34908068917763,
              25.682760793743075
            ],
            [
              84.3473176061937,
              25.6823678488156
            ],
            [
              84.34348236317418,
              25.682367051388066
            ],
            [
              84.34391486066097,
              25.685707010816596
            ],
            [
              84.34242556441268,
              25.685819471610298
            ],
            [
              84.34239594336452,
              25.684668623634654
            ],
            [
              84.3419327935636,
              25.684361571801418
            ],
            [
              84.33824675442456,
              25.685118942872045
            ],
            [
              84.3366677173777,
              25.685312637843715
            ],
            [
              84.33525816098391,
              25.68509565933286
            ],
            [
              84.33536291712247,
              25.684657829021504
            ],
            [
              84.33548761855528,
              25.684057657839467
            ],
            [
              84.33564233719326,
              25.683249759121804
            ],
            [
              84.33580687801062,
              25.68262243113095
            ],
            [
              84.33591666381642,
              25.68187778203462
            ],
            [
              84.33604632125464,
              25.681376874610308
            ],
            [
              84.33620598421999,
              25.680699915841867
            ],
            [
              84.33634059766362,
              25.680302786658526
            ],
            [
              84.33656489800691,
              25.679576201213003
            ],
            [
              84.3366619160576,
              25.67927061861916
            ],
            [
              84.33681420115951,
              25.678790962640885
            ],
            [
              84.33712837076044,
              25.677771017027055
            ],
            [
              84.33732777160068,
              25.676999304818516
            ],
            [
              84.33752227931758,
              25.6762907633038
            ],
            [
              84.33758059974247,
              25.67601911860541
            ],
            [
              84.33758207567446,
              25.67601995817535
            ],
            [
              84.34016649461093,
              25.677676938769455
            ],
            [
              84.34164706731947,
              25.676984246116575
            ],
            [
              84.343010781786,
              25.67634620392839
            ],
            [
              84.34563078568577,
              25.675660706700505
            ],
            [
              84.34771767180376,
              25.675300080219078
            ],
            [
              84.34864908371792,
              25.675097098816515
            ],
            [
              84.34878335310681,
              25.67598625716851
            ],
            [
              84.34945075375218,
              25.676072118370545
            ],
            [
              84.3495858001838,
              25.67297151433995
            ],
            [
              84.34940714593505,
              25.67010552116753
            ],
            [
              84.34949731972159,
              25.667686420091787
            ],
            [
              84.34945278933463,
              25.666458770607235
            ],
            [
              84.349582373111,
              25.665853977595308
            ],
            [
              84.34918400801173,
              25.6653303737005
            ],
            [
              84.34838734159358,
              25.664928575647284
            ],
            [
              84.34754108008693,
              25.66343448499836
            ],
            [
              84.3460774370282,
              25.661461887966357
            ],
            [
              84.34487752406555,
              25.660292628172744
            ],
            [
              84.34341863129805,
              25.659335495193435
            ],
            [
              84.34261707534978,
              25.658689926828366
            ],
            [
              84.3415510374156,
              25.659980542651095
            ],
            [
              84.34314930469776,
              25.661068556222194
            ],
            [
              84.34408028182727,
              25.662075281311704
            ],
            [
              84.34404028523758,
              25.662720683985683
            ],
            [
              84.34412475112879,
              25.663402194169542
            ],
            [
              84.34452806235203,
              25.6639664176558
            ],
            [
              84.34346186811096,
              25.665455666195072
            ],
            [
              84.342794480042,
              25.66582108096877
            ],
            [
              84.34163912621236,
              25.66578017575112
            ],
            [
              84.34070803769174,
              25.664814131640224
            ],
            [
              84.33950804567733,
              25.664367031940646
            ],
            [
              84.33848736008858,
              25.663482184398728
            ],
            [
              84.3381339736356,
              25.662877254023915
            ],
            [
              84.33835334132966,
              25.662155173646525
            ],
            [
              84.33782059365376,
              25.661789449665164
            ],
            [
              84.3369790635737,
              25.66155002034684
            ],
            [
              84.33622193919776,
              25.66207340359664
            ],
            [
              84.3357686502037,
              25.662326013898717
            ],
            [
              84.33461791101968,
              25.663399891382905
            ],
            [
              84.3341547755918,
              25.663539693283745
            ],
            [
              84.33179971181877,
              25.66206766518918
            ],
            [
              84.3311622825645,
              25.661968199685585
            ],
            [
              84.33071905290502,
              25.662166652072187
            ],
            [
              84.33014138587166,
              25.66198588617249
            ],
            [
              84.3297631026106,
              25.661606717212685
            ],
            [
              84.32945453310711,
              25.66118235038394
            ],
            [
              84.32873698580762,
              25.66102909066881
            ],
            [
              84.32860793563053,
              25.661001527121826
            ],
            [
              84.32798557022528,
              25.660820837188954
            ],
            [
              84.32752259739246,
              25.66031512788924
            ],
            [
              84.32725388973142,
              25.65979149967371
            ],
            [
              84.32721741902918,
              25.659181552123247
            ],
            [
              84.32720936383605,
              25.65904682778561
            ],
            [
              84.32716501760375,
              25.657977110398637
            ],
            [
              84.32719016414349,
              25.65733622794086
            ],
            [
              84.32721054691726,
              25.65621246716916
            ],
            [
              84.32728049693182,
              25.655567081910178
            ],
            [
              84.3272807260022,
              25.65502546029942
            ],
            [
              84.32805750461829,
              25.655124963983223
            ],
            [
              84.328520582554,
              25.65510258232183
            ],
            [
              84.32989988279068,
              25.655405411350596
            ],
            [
              84.33058712722068,
              25.65518444217522
            ],
            [
              84.33145368975447,
              25.654922983912886
            ],
            [
              84.3317873545937,
              25.654805726111405
            ],
            [
              84.3322507442448,
              25.654214635914016
            ],
            [
              84.33251482109058,
              25.65353317931095
            ],
            [
              84.3330928860776,
              25.65248620681015
            ],
            [
              84.33358078176965,
              25.652806817783897
            ],
            [
              84.33380516655458,
              25.651881611787907
            ],
            [
              84.33424875284524,
              25.650550353393598
            ],
            [
              84.3352247697065,
              25.6504287573091
            ],
            [
              84.33584725099442,
              25.650270920615903
            ],
            [
              84.33598663000065,
              25.649842594874627
            ],
            [
              84.3362011656568,
              25.64918329281642
            ],
            [
              84.3365600309347,
              25.648217579915805
            ],
            [
              84.33828900129406,
              25.644490018706286
            ],
            [
              84.33853039837385,
              25.643821852609335
            ],
            [
              84.33917596995784,
              25.64203492283673
            ],
            [
              84.33975395589312,
              25.64062243473136
            ],
            [
              84.34064061733305,
              25.639422042046323
            ],
            [
              84.34252473662343,
              25.640972826693368
            ],
            [
              84.34440890532116,
              25.64252359119318
            ],
            [
              84.34449451297108,
              25.642572201927955
            ],
            [
              84.34547429826497,
              25.643128551086072
            ],
            [
              84.34605178473694,
              25.643611560702322
            ],
            [
              84.34688464966779,
              25.64268045984601
            ],
            [
              84.34813860707456,
              25.641278560071605
            ],
            [
              84.34920572119047,
              25.63941745903331
            ],
            [
              84.34933404283385,
              25.63919365893054
            ],
            [
              84.34959299658755,
              25.6387378551303
            ],
            [
              84.34978225095664,
              25.63858896173904
            ],
            [
              84.34915997178966,
              25.638146486112955
            ],
            [
              84.34804968464121,
              25.637902607687494
            ],
            [
              84.34714015299247,
              25.63746373994467
            ],
            [
              84.34680513079881,
              25.637302082922144
            ],
            [
              84.34565021714369,
              25.63625476312107
            ],
            [
              84.34509777570183,
              25.635437772658957
            ],
            [
              84.3444556275974,
              25.634891499986836
            ],
            [
              84.34369901526112,
              25.63422790225026
            ],
            [
              84.34321126419783,
              25.63384416065992
            ],
            [
              84.34210117827203,
              25.633139831021474
            ],
            [
              84.34111056827899,
              25.63235879709959
            ],
            [
              84.34000062698192,
              25.631491929631025
            ],
            [
              84.33926880724917,
              25.63117132133297
            ],
            [
              84.33809403274142,
              25.63072423730056
            ],
            [
              84.33749159735905,
              25.630647374898
            ],
            [
              84.33701384544318,
              25.63020938193438
            ],
            [
              84.33695656167417,
              25.63009592594188
            ],
            [
              84.33677002740372,
              25.629726472790523
            ],
            [
              84.33643665361865,
              25.62904033021251
            ],
            [
              84.33622768841556,
              25.628516725940845
            ],
            [
              84.3364818020465,
              25.627948055911933
            ],
            [
              84.33735293520844,
              25.62840865523403
            ],
            [
              84.33788308765148,
              25.62850134362289
            ],
            [
              84.3384132400945,
              25.628594031129868
            ],
            [
              84.33926961124135,
              25.628594207695947
            ],
            [
              84.33972759842433,
              25.62868007061413
            ],
            [
              84.34030004265261,
              25.628937492151948
            ],
            [
              84.34093232456031,
              25.629113608887693
            ],
            [
              84.34156960559253,
              25.629082168919584
            ],
            [
              84.3421870113991,
              25.628707713711204
            ],
            [
              84.34274965590593,
              25.628405446262047
            ],
            [
              84.34324261629956,
              25.628148293287214
            ],
            [
              84.34336717400194,
              25.627787243734844
            ],
            [
              84.34322301595839,
              25.626825890209787
            ],
            [
              84.34321804288496,
              25.62678528102396
            ],
            [
              84.34312874136258,
              25.625765183919246
            ],
            [
              84.34324831341512,
              25.62546288310472
            ],
            [
              84.34386580725656,
              25.6249033340884
            ],
            [
              84.34500599662591,
              25.624100156894308
            ],
            [
              84.34624082620535,
              25.623382797287597
            ],
            [
              84.34723165987887,
              25.622949677219253
            ],
            [
              84.3483369559876,
              25.6224895719924
            ],
            [
              84.34822250433221,
              25.622051714349737
            ],
            [
              84.34818778264983,
              25.621532731181137
            ],
            [
              84.34791918009168,
              25.6203230268948
            ],
            [
              84.34763077057983,
              25.61909987893244
            ],
            [
              84.34748159275047,
              25.6184860476327
            ],
            [
              84.34732745981403,
              25.617357656393846
            ],
            [
              84.34720814198474,
              25.61678443522342
            ],
            [
              84.34702911044356,
              25.616080362206723
            ],
            [
              84.34643669756483,
              25.615908698388484
            ],
            [
              84.3461782998683,
              25.614071723355995
            ],
            [
              84.34594963730596,
              25.612844064268856
            ],
            [
              84.34578567320705,
              25.61160286876521
            ],
            [
              84.34567134911242,
              25.610925779779453
            ],
            [
              84.34555216423378,
              25.609887721834315
            ],
            [
              84.34568677408417,
              25.608912842746278
            ],
            [
              84.34597066507015,
              25.608010253362817
            ],
            [
              84.34592903444494,
              25.607791622650687
            ],
            [
              84.34581166056992,
              25.60717523902837
            ],
            [
              84.34536869501511,
              25.606701269225166
            ],
            [
              84.34490095661972,
              25.606141480056078
            ],
            [
              84.34477183008582,
              25.60506281179235
            ],
            [
              84.3442343303221,
              25.604588746123703
            ],
            [
              84.34337825022938,
              25.60424560395906
            ],
            [
              84.34223854235705,
              25.603857140370604
            ],
            [
              84.3417558964195,
              25.603324503219937
            ],
            [
              84.34131300632319,
              25.602915950768597
            ],
            [
              84.34087011712518,
              25.602507396111186
            ],
            [
              84.34059657742621,
              25.602241831878345
            ],
            [
              84.34058640670058,
              25.602231958199308
            ],
            [
              84.34045717326717,
              25.601712879241404
            ],
            [
              84.34036278278869,
              25.6010674627007
            ],
            [
              84.33961149386882,
              25.600105972797525
            ],
            [
              84.33936397297374,
              25.59966864885017
            ],
            [
              84.33904432903945,
              25.59910388573609
            ],
            [
              84.33876073539584,
              25.5987562526272
            ],
            [
              84.33763602399887,
              25.598340775684147
            ],
            [
              84.33742705430423,
              25.59818274539001
            ],
            [
              84.33747695931152,
              25.597767457648807
            ],
            [
              84.33761644521726,
              25.597176297383957
            ],
            [
              84.3374522780991,
              25.59684671937642
            ],
            [
              84.33743750171098,
              25.5963548123171
            ],
            [
              84.33742270196666,
              25.596097532043185
            ],
            [
              84.3371539287286,
              25.59591242088956
            ],
            [
              84.3359496400722,
              25.59549232506443
            ],
            [
              84.33574068744552,
              25.595248562921597
            ],
            [
              84.33557670268536,
              25.594287202853685
            ],
            [
              84.33544749170983,
              25.59381324272846
            ],
            [
              84.33508435314613,
              25.593109049816327
            ],
            [
              84.33509956431881,
              25.59242303727858
            ],
            [
              84.33522413369928,
              25.59177312916703
            ],
            [
              84.33531382778544,
              25.591502322681077
            ],
            [
              84.3352492901205,
              25.591114188766277
            ],
            [
              84.33466710456128,
              25.590653717940533
            ],
            [
              84.3333483381983,
              25.590251640231315
            ],
            [
              84.33301998240239,
              25.590052893323268
            ],
            [
              84.33295532256653,
              25.58987691428572
            ],
            [
              84.33298520232952,
              25.589691832395346
            ],
            [
              84.33331879440523,
              25.589448218042218
            ],
            [
              84.33369707317473,
              25.589132414078524
            ],
            [
              84.33378677175251,
              25.588830024666297
            ],
            [
              84.33378691638129,
              25.588482505105226
            ],
            [
              84.33357800058553,
              25.58808072716904
            ],
            [
              84.3332496501795,
              25.587864022355138
            ],
            [
              84.33283662637143,
              25.587593070904823
            ],
            [
              84.3325034780635,
              25.586843759179498
            ],
            [
              84.33202094890693,
              25.586256862609595
            ],
            [
              84.33194141207169,
              25.58606096186577
            ],
            [
              84.33184687157456,
              25.58582810478202
            ],
            [
              84.33178748395112,
              25.585024679627356
            ],
            [
              84.33164837623612,
              25.58432953312723
            ],
            [
              84.33133503308522,
              25.583643479972167
            ],
            [
              84.33114619283946,
              25.582835526268962
            ],
            [
              84.3310519622611,
              25.582176483170418
            ],
            [
              84.33077824379741,
              25.582063556863798
            ],
            [
              84.33013124209548,
              25.58223493382765
            ],
            [
              84.32982766363173,
              25.582189682962987
            ],
            [
              84.3297182461352,
              25.581959463009294
            ],
            [
              84.32994238657834,
              25.581589413813244
            ],
            [
              84.33007703236134,
              25.58084024761378
            ],
            [
              84.33023673395424,
              25.579549455637363
            ],
            [
              84.33028665872448,
              25.57905755605637
            ],
            [
              84.33014242073088,
              25.57880025965364
            ],
            [
              84.32983885484353,
              25.57872793704963
            ],
            [
              84.32977928126886,
              25.578556381665415
            ],
            [
              84.32979424630317,
              25.578299105252594
            ],
            [
              84.33018753322612,
              25.577897580776206
            ],
            [
              84.33045148610438,
              25.57737863607232
            ],
            [
              84.33076533321012,
              25.576530225307373
            ],
            [
              84.33084540094971,
              25.57536575999151
            ],
            [
              84.33102963014315,
              25.574964116285752
            ],
            [
              84.33182126509736,
              25.574016583178828
            ],
            [
              84.33221456819003,
              25.573344144901867
            ],
            [
              84.33266778531885,
              25.572495743630224
            ],
            [
              84.33301616725738,
              25.572112251972356
            ],
            [
              84.33344423155826,
              25.571832545812196
            ],
            [
              84.33372803630596,
              25.571462493671685
            ],
            [
              84.33369832362963,
              25.571160092027863
            ],
            [
              84.33341481981753,
              25.570686114044364
            ],
            [
              84.33324074697674,
              25.570325040068507
            ],
            [
              84.3333055379666,
              25.570167034359034
            ],
            [
              84.33361904640748,
              25.57014008271582
            ],
            [
              84.33388281692775,
              25.570036330177526
            ],
            [
              84.33394253243624,
              25.569864875785143
            ],
            [
              84.33394745969558,
              25.569730292200767
            ],
            [
              84.3340078049231,
              25.568082066983216
            ],
            [
              84.33405270990754,
              25.56776613533365
            ],
            [
              84.33391343330926,
              25.567680303223487
            ],
            [
              84.33381891616833,
              25.567666758243146
            ],
            [
              84.33364469780044,
              25.56772539831328
            ],
            [
              84.3334506877502,
              25.567725381295944
            ],
            [
              84.33338095333131,
              25.5676530892779
            ],
            [
              84.33330150632759,
              25.56725141564876
            ],
            [
              84.33326685022226,
              25.566687222370085
            ],
            [
              84.33303318943372,
              25.566317030344482
            ],
            [
              84.3329188141351,
              25.565987545627035
            ],
            [
              84.332929071099,
              25.565080347170657
            ],
            [
              84.3328497893853,
              25.564146068105156
            ],
            [
              84.33297428869717,
              25.56381660820977
            ],
            [
              84.33319509998387,
              25.563423633273146
            ],
            [
              84.33324813921318,
              25.56332923802628
            ],
            [
              84.33332786828794,
              25.5629817246587
            ],
            [
              84.33326336386064,
              25.562435577164727
            ],
            [
              84.33323865929202,
              25.56184882187552
            ],
            [
              84.33326891365246,
              25.560873945195276
            ],
            [
              84.33302038574594,
              25.560097572293696
            ],
            [
              84.33246336289615,
              25.559275958337846
            ],
            [
              84.33216509437405,
              25.55855823665715
            ],
            [
              84.33214892020737,
              25.558040009642507
            ],
            [
              84.3321453727603,
              25.557926362804654
            ],
            [
              84.33214066019833,
              25.557389335403982
            ],
            [
              84.33212590536978,
              25.556816118626948
            ],
            [
              84.33185737288022,
              25.556238274005512
            ],
            [
              84.33141981608175,
              25.555692089285852
            ],
            [
              84.33081792777338,
              25.555100581002577
            ],
            [
              84.33023092095603,
              25.554843149650967
            ],
            [
              84.33002701775959,
              25.554599384150503
            ],
            [
              84.3297286037104,
              25.5543826819478
            ],
            [
              84.32917134101044,
              25.554179392947923
            ],
            [
              84.32843820883906,
              25.553973112263694
            ],
            [
              84.32804706080479,
              25.553863052638075
            ],
            [
              84.32776356956911,
              25.553677932090547
            ],
            [
              84.3274850954243,
              25.553231021112047
            ],
            [
              84.32702247562939,
              25.5528427420447
            ],
            [
              84.32570928870268,
              25.552020827099874
            ],
            [
              84.3254855012974,
              25.55179059128887
            ],
            [
              84.32547074736716,
              25.551388925256852
            ],
            [
              84.32584421386171,
              25.55063979300097
            ],
            [
              84.32593903283659,
              25.549935741639455
            ],
            [
              84.32608354571465,
              25.549488977989743
            ],
            [
              84.32630252623484,
              25.549285964354233
            ],
            [
              84.32638711519525,
              25.549078328238355
            ],
            [
              84.32620825343564,
              25.548491555355948
            ],
            [
              84.32626825011684,
              25.54778298833005
            ],
            [
              84.32644789700399,
              25.546564392053835
            ],
            [
              84.32649284690419,
              25.546018255641794
            ],
            [
              84.32652054465933,
              25.545454160135474
            ],
            [
              84.32652298178871,
              25.545404529213123
            ],
            [
              84.32647843343545,
              25.544682319362735
            ],
            [
              84.32632970835701,
              25.543495265889376
            ],
            [
              84.32634512883718,
              25.54219994102974
            ],
            [
              84.32608701141501,
              25.54088644468445
            ],
            [
              84.32582860024377,
              25.54019128191018
            ],
            [
              84.32569435421107,
              25.539961058230933
            ],
            [
              84.3255552716489,
              25.53949611591618
            ],
            [
              84.32576942013115,
              25.538904971883618
            ],
            [
              84.32589889610966,
              25.53847615963204
            ],
            [
              84.32611814432782,
              25.537686394791553
            ],
            [
              84.32622287621186,
              25.537068163603642
            ],
            [
              84.32625816113787,
              25.53593076363828
            ],
            [
              84.32609455456844,
              25.534527037004224
            ],
            [
              84.32602043996424,
              25.533299383120973
            ],
            [
              84.32606539794928,
              25.532631419345893
            ],
            [
              84.32631942534196,
              25.53196799520951
            ],
            [
              84.32730442535603,
              25.531765246961843
            ],
            [
              84.32795126176794,
              25.531512643649652
            ],
            [
              84.32800127906467,
              25.530844681273113
            ],
            [
              84.32827010530332,
              25.530212927210723
            ],
            [
              84.32845935967242,
              25.52959461129552
            ],
            [
              84.32889762344504,
              25.528443895026097
            ],
            [
              84.32903714708003,
              25.527771427167174
            ],
            [
              84.32893785359673,
              25.52722527325714
            ],
            [
              84.3286099909759,
              25.526011038402086
            ],
            [
              84.32837175506762,
              25.52471559360521
            ],
            [
              84.3280440766014,
              25.522905578949587
            ],
            [
              84.327945070579,
              25.52171401668456
            ],
            [
              84.32802491733304,
              25.521037031377922
            ],
            [
              84.32804990217606,
              25.520847527144245
            ],
            [
              84.32814479930433,
              25.51988167868224
            ],
            [
              84.32806072687521,
              25.51854564097243
            ],
            [
              84.32813062299084,
              25.517877677747165
            ],
            [
              84.32818574092171,
              25.516862192648052
            ],
            [
              84.32870308159217,
              25.516821725313445
            ],
            [
              84.33050860368508,
              25.516704930398305
            ],
            [
              84.33311499900661,
              25.516502617644647
            ],
            [
              84.33542801443784,
              25.516313693195322
            ],
            [
              84.3381388227415,
              25.51611129384833
            ],
            [
              84.34037714056187,
              25.515962894791176
            ],
            [
              84.34185446765734,
              25.51581879225724
            ],
            [
              84.34316989318575,
              25.515779722217005
            ],
            [
              84.34336152809038,
              25.51577402867349
            ],
            [
              84.34375455360357,
              25.51562963892478
            ],
            [
              84.34378438665418,
              25.515534883387126
            ],
            [
              84.34373972780814,
              25.51501580726697
            ],
            [
              84.34359084103295,
              25.513828755306232
            ],
            [
              84.34336765280395,
              25.511237976262965
            ],
            [
              84.34330846191158,
              25.50947327910897
            ],
            [
              84.3432954093905,
              25.508776563343808
            ],
            [
              84.34327413009807,
              25.5076408093857
            ],
            [
              84.3432298521377,
              25.505785778861096
            ],
            [
              84.3435035104143,
              25.505375080030877
            ],
            [
              84.34296642387557,
              25.505104177188045
            ],
            [
              84.34277251264005,
              25.505022871352818
            ],
            [
              84.3425786014045,
              25.50465269568551
            ],
            [
              84.34241452142288,
              25.504530870231523
            ],
            [
              84.34203654897888,
              25.504435935671623
            ],
            [
              84.3415243314005,
              25.504273410605276
            ],
            [
              84.34089278880633,
              25.504110702893854
            ],
            [
              84.34080359418346,
              25.502968862018946
            ],
            [
              84.340595277564,
              25.500982889872567
            ],
            [
              84.34052276196101,
              25.50045157582491
            ],
            [
              84.34050100656148,
              25.499972261314063
            ],
            [
              84.34028927005575,
              25.493606181232753
            ],
            [
              84.34302923408025,
              25.49255707387095
            ],
            [
              84.3463300962867,
              25.49216132421821
            ],
            [
              84.35189454682077,
              25.49284619977436
            ],
            [
              84.35323070456764,
              25.492611642060897
            ],
            [
              84.35361497240517,
              25.492544182875413
            ],
            [
              84.35359136288285,
              25.488806685360384
            ],
            [
              84.3535897899328,
              25.48855765603644
            ],
            [
              84.35329908702202,
              25.4864061377639
            ],
            [
              84.35213636521043,
              25.478161847081168
            ],
            [
              84.35196061431667,
              25.475548006062038
            ],
            [
              84.35198524163019,
              25.47442419108228
            ],
            [
              84.35469760132432,
              25.473962091283436
            ],
            [
              84.36079292295368,
              25.47314266840308
            ],
            [
              84.36187137830002,
              25.472869860059486
            ],
            [
              84.36278489936697,
              25.472760786019187
            ],
            [
              84.36339531628063,
              25.472687899088715
            ],
            [
              84.3637820751464,
              25.472116746378855
            ],
            [
              84.3639014971803,
              25.471760170324238
            ],
            [
              84.36388653484092,
              25.471520934178443
            ],
            [
              84.36375229509643,
              25.471390103053135
            ],
            [
              84.3636379584254,
              25.47133588693567
            ],
            [
              84.36306116185955,
              25.471362877808044
            ],
            [
              84.36256894796594,
              25.471299700131148
            ],
            [
              84.36235021538074,
              25.471191353756335
            ],
            [
              84.3622209433198,
              25.471024332141138
            ],
            [
              84.36213151603326,
              25.470758037027412
            ],
            [
              84.36214639033773,
              25.470559405903856
            ],
            [
              84.36229061934819,
              25.470469228628005
            ],
            [
              84.36244977566369,
              25.47044212969134
            ],
            [
              84.36265356567243,
              25.470396972082415
            ],
            [
              84.36275304780192,
              25.470252565102907
            ],
            [
              84.36275311158232,
              25.47008110110442
            ],
            [
              84.3626238080803,
              25.469751549177452
            ],
            [
              84.36239017693617,
              25.469209942361076
            ],
            [
              84.3623902263435,
              25.468961681028475
            ],
            [
              84.36240125316364,
              25.468920980206747
            ],
            [
              84.36246482963122,
              25.46868633201654
            ],
            [
              84.36259413313323,
              25.468528383841925
            ],
            [
              84.36286757491581,
              25.468343425262624
            ],
            [
              84.36341955013206,
              25.468059061141496
            ],
            [
              84.36395650012682,
              25.46772966425758
            ],
            [
              84.36404603970277,
              25.467598794134567
            ],
            [
              84.36403118785616,
              25.467413705983894
            ],
            [
              84.36395659624654,
              25.467255700988485
            ],
            [
              84.36382733137211,
              25.467111243198307
            ],
            [
              84.36362351441393,
              25.467002986319116
            ],
            [
              84.36346435720012,
              25.46699389874171
            ],
            [
              84.36269869433735,
              25.46699385089101
            ],
            [
              84.36223132964112,
              25.46682228492395
            ],
            [
              84.36201757821419,
              25.466727473861855
            ],
            [
              84.36191317511357,
              25.46661008361318
            ],
            [
              84.36185855574766,
              25.466411555940745
            ],
            [
              84.36185882793721,
              25.46641025585526
            ],
            [
              84.36191327931813,
              25.46614974780176
            ],
            [
              84.36213209903988,
              25.465748033634444
            ],
            [
              84.36246525363605,
              25.46494471238861
            ],
            [
              84.36248021507711,
              25.46470547160966
            ],
            [
              84.36237579490847,
              25.464506862122892
            ],
            [
              84.3622167167464,
              25.464389480251054
            ],
            [
              84.36204273283879,
              25.46429926590814
            ],
            [
              84.36181399391967,
              25.464299214001127
            ],
            [
              84.3615654031311,
              25.464443645970203
            ],
            [
              84.36121740656984,
              25.464615076640698
            ],
            [
              84.36086928783764,
              25.46466467607781
            ],
            [
              84.36065057501543,
              25.464587913934803
            ],
            [
              84.36042190167332,
              25.464416395632643
            ],
            [
              84.36017331986791,
              25.464100488674884
            ],
            [
              84.36002920224858,
              25.463694232267805
            ],
            [
              84.36000439706862,
              25.463414389321304
            ],
            [
              84.35986518155578,
              25.463175172264183
            ],
            [
              84.3596763565814,
              25.46289977675489
            ],
            [
              84.35959679279668,
              25.462687623677688
            ],
            [
              84.35966641941769,
              25.46238529500139
            ],
            [
              84.35994494925808,
              25.46181662389408
            ],
            [
              84.35997482722445,
              25.461581895340114
            ],
            [
              84.35994497081764,
              25.461396806854754
            ],
            [
              84.35983063324828,
              25.461293043012752
            ],
            [
              84.35972625080888,
              25.46125236068442
            ],
            [
              84.35956719779962,
              25.461238848298976
            ],
            [
              84.35934842029873,
              25.46130647428541
            ],
            [
              84.35918929003432,
              25.461410278669142
            ],
            [
              84.35899039674223,
              25.46151408864077
            ],
            [
              84.3587717072762,
              25.46152756936378
            ],
            [
              84.358597636232,
              25.461477958900666
            ],
            [
              84.35840874208735,
              25.461347043046093
            ],
            [
              84.35829440182303,
              25.461211602913057
            ],
            [
              84.35823482824831,
              25.46103554592253
            ],
            [
              84.35826460560338,
              25.460787369105464
            ],
            [
              84.35875691202348,
              25.45997049734548
            ],
            [
              84.35885428221373,
              25.45981036160836
            ],
            [
              84.35891611235643,
              25.45970867600217
            ],
            [
              84.35893099115248,
              25.459537208331486
            ],
            [
              84.3588714247643,
              25.459406274143923
            ],
            [
              84.35874218055112,
              25.45929790975816
            ],
            [
              84.35843888415839,
              25.459221157168724
            ],
            [
              84.35765561072279,
              25.45908356365323
            ],
            [
              84.35753905161974,
              25.459063087883187
            ],
            [
              84.35715125879307,
              25.458954758876043
            ],
            [
              84.3569325432759,
              25.458778632074804
            ],
            [
              84.35686302265606,
              25.458566569062082
            ],
            [
              84.35687301461694,
              25.45827769733059
            ],
            [
              84.35696251736198,
              25.457912104736113
            ],
            [
              84.35734045656832,
              25.457384033685678
            ],
            [
              84.35746477801374,
              25.45720352872939
            ],
            [
              84.35748969278815,
              25.45699587368242
            ],
            [
              84.35736043599853,
              25.456806378751008
            ],
            [
              84.35716657956024,
              25.45667094972961
            ],
            [
              84.35688814134802,
              25.456580563324785
            ],
            [
              84.35678872659214,
              25.456508381170213
            ],
            [
              84.35663967542527,
              25.456219531265
            ],
            [
              84.35645580106639,
              25.455718430137104
            ],
            [
              84.35616258197452,
              25.455194874635286
            ],
            [
              84.35597369321971,
              25.45502334537824
            ],
            [
              84.35575986543601,
              25.454910477006536
            ],
            [
              84.35545171005587,
              25.454829208598703
            ],
            [
              84.35503403836452,
              25.454878803958216
            ],
            [
              84.35441261619033,
              25.45505918992346
            ],
            [
              84.35406462591726,
              25.455126825060194
            ],
            [
              84.35381602165396,
              25.455113316853623
            ],
            [
              84.35364205930591,
              25.45502300390114
            ],
            [
              84.35349789407586,
              25.45478378314101
            ],
            [
              84.35335389144088,
              25.454264717959866
            ],
            [
              84.35314024871012,
              25.45330779521617
            ],
            [
              84.35296634205761,
              25.45288348812495
            ],
            [
              84.35273272079495,
              25.45263525313024
            ],
            [
              84.35260347837841,
              25.45245017684181
            ],
            [
              84.35263335814136,
              25.452161302597684
            ],
            [
              84.35273290674621,
              25.451804738782613
            ],
            [
              84.3527179758479,
              25.451646723025373
            ],
            [
              84.3525887379229,
              25.45149783474349
            ],
            [
              84.35240981597617,
              25.451443619396315
            ],
            [
              84.35222086344102,
              25.451443548827676
            ],
            [
              84.3520071641164,
              25.451493207228257
            ],
            [
              84.35184803834358,
              25.451565419157646
            ],
            [
              84.35163425727227,
              25.45172779079889
            ],
            [
              84.35146023743206,
              25.451935459801067
            ],
            [
              84.35125638723619,
              25.4520436840011
            ],
            [
              84.35103761422687,
              25.452066265846128
            ],
            [
              84.3508636617603,
              25.452003022880138
            ],
            [
              84.35071952078476,
              25.45188562962324
            ],
            [
              84.35051571999622,
              25.451583242177133
            ],
            [
              84.35037156824094,
              25.451366581145873
            ],
            [
              84.35005347479883,
              25.451163382141324
            ],
            [
              84.34957625378728,
              25.451009831660084
            ],
            [
              84.34922825812433,
              25.450942090384594
            ],
            [
              84.34896981820697,
              25.450860804697133
            ],
            [
              84.34873621760552,
              25.450666619836344
            ],
            [
              84.34853242669848,
              25.450400328336787
            ],
            [
              84.348246884609,
              25.44989369531623
            ],
            [
              84.34821440242666,
              25.449836060272876
            ],
            [
              84.34794600917596,
              25.449596847050273
            ],
            [
              84.347558346605,
              25.44937560108291
            ],
            [
              84.34698670996215,
              25.449194887008286
            ],
            [
              84.34672329427643,
              25.448991768697923
            ],
            [
              84.34655918824372,
              25.448928519249915
            ],
            [
              84.34625096818488,
              25.44899171110626
            ],
            [
              84.34570908464255,
              25.449194706933266
            ],
            [
              84.34557490239028,
              25.4491946258184
            ],
            [
              84.34545552257721,
              25.4491269492246
            ],
            [
              84.34540094543212,
              25.44899149939605
            ],
            [
              84.3453263879585,
              25.448847022925985
            ],
            [
              84.34520710875675,
              25.448779347759118
            ],
            [
              84.34507292470781,
              25.44875219364642
            ],
            [
              84.34492870018894,
              25.448725128754273
            ],
            [
              84.34483923876645,
              25.448630288022557
            ],
            [
              84.34483932769966,
              25.448499436064246
            ],
            [
              84.3448841401576,
              25.448278247294613
            ],
            [
              84.34491402531047,
              25.44786303421187
            ],
            [
              84.34489165636158,
              25.4477772583067
            ],
            [
              84.33902256196183,
              25.449947586903953
            ],
            [
              84.3383353777189,
              25.44943331421684
            ],
            [
              84.3379582739458,
              25.44934524469342
            ],
            [
              84.33727182542312,
              25.449399610236693
            ],
            [
              84.33708285132838,
              25.44939844705132
            ],
            [
              84.33683237767096,
              25.44899525015421
            ],
            [
              84.33624083076818,
              25.44833714199553
            ],
            [
              84.33599330358489,
              25.448191212771867
            ],
            [
              84.3356799307896,
              25.448220871858783
            ],
            [
              84.33495025982704,
              25.448726318714133
            ],
            [
              84.33466125922372,
              25.449469162860026
            ],
            [
              84.33465828939339,
              25.449866277021833
            ],
            [
              84.33431162233873,
              25.45034702421784
            ],
            [
              84.33406097530646,
              25.45062979412712
            ],
            [
              84.33387091065696,
              25.450773033905627
            ],
            [
              84.33305049996922,
              25.450795027913976
            ],
            [
              84.33242413077274,
              25.450791066316036
            ],
            [
              84.33208092672349,
              25.45082053901191
            ],
            [
              84.33173270109182,
              25.450845453918273
            ],
            [
              84.3314181730631,
              25.451014907752388
            ],
            [
              84.33067813464383,
              25.451583509850913
            ],
            [
              84.33020112293974,
              25.452207841102144
            ],
            [
              84.32963115895996,
              25.45263302415713
            ],
            [
              84.32906715440377,
              25.452913756832068
            ],
            [
              84.32849912719172,
              25.453081715289287
            ],
            [
              84.32796813662057,
              25.452965594925733
            ],
            [
              84.32734047474838,
              25.452474199982685
            ],
            [
              84.32615888112933,
              25.45161383160847
            ],
            [
              84.32506396864696,
              25.45112403719639
            ],
            [
              84.32337707717215,
              25.45003023268389
            ],
            [
              84.32391365436608,
              25.451373951110337
            ],
            [
              84.32418371219501,
              25.453113288231318
            ],
            [
              84.32473514303214,
              25.455111521058537
            ],
            [
              84.3249307359139,
              25.456195877111693
            ],
            [
              84.32511432101528,
              25.45688307610369
            ],
            [
              84.32521769464657,
              25.459618703095575
            ],
            [
              84.3250391688569,
              25.46021775122229
            ],
            [
              84.32431500995693,
              25.460637449903285
            ],
            [
              84.32314644280778,
              25.461316105707365
            ],
            [
              84.32280055279583,
              25.461684007605484
            ],
            [
              84.32267412839433,
              25.461967530312585
            ],
            [
              84.3226370755838,
              25.46225160225085
            ],
            [
              84.32235780912491,
              25.46236720187639
            ],
            [
              84.3220097469866,
              25.46236492766414
            ],
            [
              84.32185655638287,
              25.462246642614094
            ],
            [
              84.32179278767582,
              25.462133416038924
            ],
            [
              84.32163372029352,
              25.462132415188947
            ],
            [
              84.32147917592866,
              25.462190123017407
            ],
            [
              84.32116485990231,
              25.462328056870426
            ],
            [
              84.32090949042662,
              25.462556610190035
            ],
            [
              84.32078195480909,
              25.46298453698572
            ],
            [
              84.32080735916534,
              25.463553312876414
            ],
            [
              84.32080520141201,
              25.463837609786957
            ],
            [
              84.32031599687458,
              25.464091824245454
            ],
            [
              84.31928079271422,
              25.464225149168882
            ],
            [
              84.3168937022047,
              25.46429572163283
            ],
            [
              84.31476063279959,
              25.464313709842795
            ],
            [
              84.31347322123331,
              25.46427391095506
            ],
            [
              84.31245332795865,
              25.4643531769993
            ],
            [
              84.31194984919134,
              25.464521486895745
            ],
            [
              84.31129419491663,
              25.46380421073988
            ],
            [
              84.3103927463088,
              25.46271533265435
            ],
            [
              84.31008222117293,
              25.46237029769234
            ],
            [
              84.30967613774877,
              25.462169161139165
            ],
            [
              84.30901491841082,
              25.46216487467995
            ],
            [
              84.3081961992508,
              25.462588411798176
            ],
            [
              84.30753775660538,
              25.46286846024093
            ],
            [
              84.30630889094114,
              25.46297337604587
            ],
            [
              84.3049915187635,
              25.46293783719281
            ],
            [
              84.30387841090504,
              25.462872037811593
            ],
            [
              84.3027769928234,
              25.463207903988156
            ],
            [
              84.30290642837775,
              25.462554358691
            ],
            [
              84.30361233979937,
              25.46064982361181
            ],
            [
              84.3040627883205,
              25.458996460701005
            ],
            [
              84.30410253607687,
              25.45836943292061
            ],
            [
              84.30019319372451,
              25.458574323040242
            ],
            [
              84.29808844730202,
              25.458786314663932
            ],
            [
              84.29770970140856,
              25.458896707218848
            ],
            [
              84.29661015272102,
              25.45900689609076
            ],
            [
              84.29295588429865,
              25.45901016880917
            ],
            [
              84.29088110208079,
              25.459199780310726
            ],
            [
              84.28852235791003,
              25.459468660775514
            ],
            [
              84.287596564958,
              25.459607038974788
            ],
            [
              84.28630718158969,
              25.459824234272475
            ],
            [
              84.2859284177299,
              25.459934504213834
            ],
            [
              84.28631809073048,
              25.46218914487761
            ],
            [
              84.28683711843703,
              25.46444453325452
            ],
            [
              84.28752606158126,
              25.466588325260997
            ],
            [
              84.28798387718601,
              25.468414580866664
            ],
            [
              84.28822661994208,
              25.469156344875795
            ],
            [
              84.28833095387245,
              25.4697843529141
            ],
            [
              84.2882988947966,
              25.47006845992219
            ],
            [
              84.2881384709582,
              25.47023890206996
            ],
            [
              84.2878882569139,
              25.470435857374213
            ],
            [
              84.28750988112634,
              25.470491982192645
            ],
            [
              84.28647692724576,
              25.47034078963817
            ],
            [
              84.28553543443752,
              25.469937452850086
            ],
            [
              84.28462687296927,
              25.469759979628318
            ],
            [
              84.28365290336853,
              25.46969488793552
            ],
            [
              84.28277778797494,
              25.469689120028004
            ],
            [
              84.28202093399189,
              25.469828598367137
            ],
            [
              84.28182947515708,
              25.470138737806593
            ],
            [
              84.28169626937348,
              25.471252550216928
            ],
            [
              84.28164822028556,
              25.47353132210805
            ],
            [
              84.2816578619035,
              25.474185793112408
            ],
            [
              84.28200017212903,
              25.47553296335765
            ],
            [
              84.28224038972084,
              25.476572568023325
            ],
            [
              84.2827125810651,
              25.47722108625057
            ],
            [
              84.28301929015763,
              25.47742613970545
            ],
            [
              84.2838728576625,
              25.47763488104337
            ],
            [
              84.28479220071078,
              25.47769964000151
            ],
            [
              84.28553158425818,
              25.47789403020039
            ],
            [
              84.28561896787747,
              25.47877911572874
            ],
            [
              84.2855649449929,
              25.48057502909623
            ],
            [
              84.28537902966171,
              25.482058585803657
            ],
            [
              84.28513183305846,
              25.4825037742905
            ],
            [
              84.28494497180125,
              25.482854577160982
            ],
            [
              84.28486292597142,
              25.483169890733283
            ],
            [
              84.28512126976902,
              25.483816938866564
            ],
            [
              84.28554362976783,
              25.484487725366673
            ],
            [
              84.28441763916992,
              25.484751022148806
            ],
            [
              84.28220945623404,
              25.485404458998268
            ],
            [
              84.28155753715426,
              25.485472350348825
            ],
            [
              84.27861450895978,
              25.485971893861787
            ],
            [
              84.27665051686421,
              25.48655461875196
            ],
            [
              84.27587156522348,
              25.48695560821567
            ],
            [
              84.27536429287073,
              25.486956784012257
            ],
            [
              84.27368524009508,
              25.48735180235112
            ],
            [
              84.27127485177866,
              25.487782490386714
            ],
            [
              84.26914731330078,
              25.4882873064048
            ],
            [
              84.26685948842673,
              25.488935343024497
            ],
            [
              84.26612021357548,
              25.48934108196724
            ],
            [
              84.26648306198335,
              25.492416919695213
            ],
            [
              84.26665192908709,
              25.49427296995924
            ],
            [
              84.2670726658302,
              25.4975748103298
            ],
            [
              84.26725958278293,
              25.499652066975862
            ],
            [
              84.2674126009101,
              25.500415740754597
            ],
            [
              84.26750069509677,
              25.50167498229647
            ],
            [
              84.26759340662397,
              25.504370141163974
            ],
            [
              84.26774172027402,
              25.508189619253983
            ],
            [
              84.2678981349313,
              25.511616456993373
            ],
            [
              84.26806667055668,
              25.513549282013944
            ],
            [
              84.26827267221763,
              25.515148513079588
            ],
            [
              84.26826542281329,
              25.516046591262594
            ],
            [
              84.26793160526046,
              25.51673949025156
            ],
            [
              84.2669705112127,
              25.517486827011467
            ],
            [
              84.26553623138568,
              25.51832127832868
            ],
            [
              84.26518308927446,
              25.51891922324332
            ],
            [
              84.26511279340852,
              25.520814225005577
            ],
            [
              84.26516268494107,
              25.523224650138626
            ],
            [
              84.26523288378897,
              25.526185741307852
            ],
            [
              84.26539701677117,
              25.52801472274746
            ],
            [
              84.26570020895932,
              25.529266929739897
            ],
            [
              84.26618186495344,
              25.530597002846363
            ],
            [
              84.26690570405319,
              25.531509047857597
            ],
            [
              84.26710938985731,
              25.533369806399733
            ],
            [
              84.26307907857219,
              25.53400615115253
            ],
            [
              84.26183250711367,
              25.53433168470926
            ],
            [
              84.26203157467894,
              25.537352377357525
            ],
            [
              84.26121738033297,
              25.538344312861536
            ],
            [
              84.26007890135597,
              25.538833049106774
            ],
            [
              84.25846554866524,
              25.538989078697327
            ],
            [
              84.25787710005187,
              25.539152069017174
            ],
            [
              84.25783566256443,
              25.539946110320844
            ],
            [
              84.25793547437566,
              25.541111184172575
            ],
            [
              84.2538001087113,
              25.54118236638144
            ],
            [
              84.25083283139405,
              25.541396853775854
            ],
            [
              84.24896128402604,
              25.541483342598475
            ],
            [
              84.24789350066526,
              25.5418325936646
            ],
            [
              84.24698048175658,
              25.54213313299931
            ],
            [
              84.24754710130857,
              25.543996492155813
            ],
            [
              84.24757785603063,
              25.546271325231658
            ],
            [
              84.24773028216804,
              25.548844904845307
            ],
            [
              84.24763157797956,
              25.551701096624136
            ],
            [
              84.24768471602356,
              25.554291930606528
            ],
            [
              84.24765306029127,
              25.558078288730425
            ],
            [
              84.24763247629484,
              25.56060088235215
            ],
            [
              84.24747212611832,
              25.561926631274922
            ],
            [
              84.24576298876379,
              25.56516868436401
            ],
            [
              84.24729354014153,
              25.56604134461935
            ],
            [
              84.24439817475937,
              25.566504056770036
            ],
            [
              84.24248108100986,
              25.56723534799488
            ],
            [
              84.24049196842569,
              25.56585847867551
            ],
            [
              84.2355811302957,
              25.565742802815574
            ],
            [
              84.23375950769791,
              25.566348286658336
            ],
            [
              84.23161866696732,
              25.566455061782296
            ],
            [
              84.2301400543827,
              25.567108053818945
            ],
            [
              84.23017824985028,
              25.567884617093018
            ],
            [
              84.22926388796024,
              25.568902652179396
            ],
            [
              84.22889861859267,
              25.56971689979528
            ],
            [
              84.22909899679996,
              25.57249841524263
            ],
            [
              84.22890935974853,
              25.573724573701927
            ],
            [
              84.228541947899,
              25.57421387872358
            ],
            [
              84.22808436136462,
              25.5753525019153
            ],
            [
              84.22950124262123,
              25.578467496068484
            ],
            [
              84.22994158060385,
              25.58053308830291
            ],
            [
              84.2308349030516,
              25.58260180323611
            ],
            [
              84.23007111137959,
              25.58639190564527
            ],
            [
              84.23077061691492,
              25.590187811355317
            ],
            [
              84.23138181536287,
              25.593247464360708
            ],
            [
              84.23155398736857,
              25.594074499369647
            ],
            [
              84.2325478887888,
              25.595439920632657
            ],
            [
              84.23543861886407,
              25.596191382141438
            ],
            [
              84.23613039439637,
              25.596796450287663
            ],
            [
              84.23664112166969,
              25.597030271975623
            ],
            [
              84.23988165391997,
              25.595856951814135
            ],
            [
              84.24127833655741,
              25.595501196321315
            ],
            [
              84.2416767726236,
              25.596068124983354
            ],
            [
              84.24188914513654,
              25.596868364996954
            ],
            [
              84.2460782839538,
              25.596839350239932
            ],
            [
              84.24610557477213,
              25.596839159854373
            ],
            [
              84.24731625314517,
              25.59730782420304
            ],
            [
              84.24760551695486,
              25.59784236930916
            ],
            [
              84.24749092426394,
              25.59844181401927
            ],
            [
              84.24729709208015,
              25.599604846062647
            ],
            [
              84.24707420299016,
              25.600068139756782
            ],
            [
              84.2464837331674,
              25.600429622225185
            ],
            [
              84.24567517035993,
              25.60069026492116
            ],
            [
              84.24537735908032,
              25.601184604767035
            ],
            [
              84.24539991577711,
              25.602651426816845
            ],
            [
              84.24458847656412,
              25.603241553862226
            ],
            [
              84.24226937055525,
              25.604358134250642
            ],
            [
              84.24248052135944,
              25.605289227638966
            ],
            [
              84.24298012569291,
              25.606858743885223
            ],
            [
              84.24352106420754,
              25.608256991625968
            ],
            [
              84.24343905880188,
              25.609122989994795
            ],
            [
              84.2431420847521,
              25.609518052277554
            ],
            [
              84.2427318394332,
              25.610345509400123
            ],
            [
              84.24294749798345,
              25.610748664973567
            ],
            [
              84.24290187165188,
              25.612043613636757
            ],
            [
              84.24318719724737,
              25.613042923157483
            ],
            [
              84.2455031537628,
              25.612328014788446
            ],
            [
              84.2469762048775,
              25.611805699773832
            ],
            [
              84.24788896596971,
              25.611595418722967
            ],
            [
              84.24907109857796,
              25.611323723133523
            ],
            [
              84.2505764800597,
              25.61109933332231
            ],
            [
              84.2521177142028,
              25.610744226670583
            ],
            [
              84.25377242982077,
              25.610525386293283
            ],
            [
              84.25454400180145,
              25.6105305892997
            ],
            [
              84.25490214303723,
              25.61116487240277
            ],
            [
              84.25445755602333,
              25.611956104893125
            ],
            [
              84.25375392183098,
              25.612750104114635
            ],
            [
              84.25326828001197,
              25.61368101630387
            ],
            [
              84.25171723357103,
              25.61520038215118
            ],
            [
              84.25219529989724,
              25.616990671650488
            ],
            [
              84.25276875293359,
              25.618677905994026
            ],
            [
              84.25362994983017,
              25.623494554668607
            ],
            [
              84.25602746618694,
              25.625573275382724
            ],
            [
              84.25817432113836,
              25.627271142970894
            ],
            [
              84.26093047280429,
              25.626933294142155
            ],
            [
              84.26312366016312,
              25.62664573574302
            ],
            [
              84.26543008914666,
              25.62650777294191
            ],
            [
              84.27048436936292,
              25.62643790094076
            ],
            [
              84.27787333866324,
              25.627647015223076
            ],
            [
              84.28370273830724,
              25.629012393996586
            ],
            [
              84.28746061931281,
              25.62979984823608
            ],
            [
              84.28924850657837,
              25.630371208114735
            ],
            [
              84.29149008168997,
              25.631505149087044
            ],
            [
              84.29277271062571,
              25.63238005968066
            ],
            [
              84.29422376289742,
              25.63335525996801
            ],
            [
              84.29658698966142,
              25.634860011326506
            ],
            [
              84.30049352837177,
              25.63764729819251
            ],
            [
              84.30241374825847,
              25.639771754819648
            ],
            [
              84.30438674416813,
              25.642149286657567
            ],
            [
              84.30441334418201,
              25.642555660108115
            ],
            [
              84.30401416610744,
              25.64329319904258
            ],
            [
              84.30324862900882,
              25.64438032336332
            ],
            [
              84.30174686504272,
              25.645999703224074
            ],
            [
              84.30126323994148,
              25.646709649167253
            ],
            [
              84.30094963178762,
              25.647316839920666
            ],
            [
              84.30077884408578,
              25.6481325610973
            ],
            [
              84.30088256356849,
              25.648868782036157
            ],
            [
              84.30118017721874,
              25.64963793678235
            ],
            [
              84.30187932432628,
              25.650021549859854
            ],
            [
              84.30280151503403,
              25.65053745105385
            ],
            [
              84.30347516525883,
              25.651002135232265
            ],
            [
              84.30363844034994,
              25.651765890386823
            ],
            [
              84.30374049166117,
              25.652705155742268
            ],
            [
              84.30356473627582,
              25.653520831174408
            ],
            [
              84.30294123989162,
              25.654279487330005
            ],
            [
              84.3017263996239,
              25.655494573354495
            ],
            [
              84.3009602103484,
              25.656658475132684
            ],
            [
              84.3009557969254,
              25.657217978148502
            ],
            [
              84.30128878712986,
              25.657296867228588
            ],
            [
              84.30193664312962,
              25.657251409148543
            ],
            [
              84.3031736906495,
              25.657002194688534
            ],
            [
              84.30407457601365,
              25.65706222418925
            ],
            [
              84.30449229980726,
              25.657141613793172
            ],
            [
              84.30513632628899,
              25.65757903180553
            ],
            [
              84.30543922023647,
              25.658316634159423
            ],
            [
              84.30591250662707,
              25.65892891167854
            ],
            [
              84.3064153296242,
              25.658959171296047
            ],
            [
              84.30762841188894,
              25.658583443793997
            ],
            [
              84.30833261201992,
              25.658335240236344
            ],
            [
              84.30883742209048,
              25.65810839375742
            ],
            [
              84.30979796008107,
              25.657554971204636
            ],
            [
              84.31044774566206,
              25.657256799598844
            ],
            [
              84.31084678090454,
              25.65718266934702
            ],
            [
              84.31161976413851,
              25.658306778880917
            ],
            [
              84.31211782786129,
              25.6595825930132
            ],
            [
              84.31394681394941,
              25.65941832219479
            ],
            [
              84.31549187042403,
              25.659274803669625
            ],
            [
              84.31720719806916,
              25.659005935629075
            ],
            [
              84.32012108042423,
              25.65894789337474
            ],
            [
              84.32235921229338,
              25.660613800352866
            ],
            [
              84.32366584690844,
              25.662305406038065
            ],
            [
              84.32486543917254,
              25.663684843885854
            ],
            [
              84.32561359297209,
              25.664835812716547
            ],
            [
              84.3268333272615,
              25.66682920068274
            ],
            [
              84.3291635229725,
              25.675318951629755
            ],
            [
              84.32931875275193,
              25.677152026665787
            ],
            [
              84.33014519922003,
              25.679142888387666
            ],
            [
              84.33153170214871,
              25.68149375492475
            ],
            [
              84.33353293390435,
              25.684254553101493
            ],
            [
              84.33475451513,
              25.686044810604976
            ],
            [
              84.33687660442736,
              25.687989553611757
            ],
            [
              84.33887874258315,
              25.69065100820387
            ],
            [
              84.33926049513786,
              25.692187739928833
            ],
            [
              84.33970221472936,
              25.693715799143845
            ],
            [
              84.34007826657529,
              25.69601054190869
            ],
            [
              84.34051374557052,
              25.697692053814905
            ],
            [
              84.34067306178615,
              25.699015231901594
            ],
            [
              84.34122669888565,
              25.700241599718083
            ],
            [
              84.3415515530486,
              25.70141239564864
            ],
            [
              84.34154461086806,
              25.702328421868177
            ],
            [
              84.34153875025916,
              25.70309104277465
            ],
            [
              84.34197860584644,
              25.70421296203577
            ],
            [
              84.34342192272523,
              25.70702426078423
            ],
            [
              84.34403124459256,
              25.708147238083644
            ],
            [
              84.34463428813436,
              25.71008236886522
            ],
            [
              84.3449028421835,
              25.71146038996472
            ],
            [
              84.34584901701102,
              25.712838161199535
            ],
            [
              84.34718638029696,
              25.71452959681206
            ],
            [
              84.3477370754139,
              25.71549870338978
            ],
            [
              84.3500108443487,
              25.71923116095051
            ],
            [
              84.35084510885474,
              25.72091509320782
            ],
            [
              84.34908697379134,
              25.721486350687865
            ],
            [
              84.34809316399928,
              25.72178250095834
            ],
            [
              84.3468076739294,
              25.721774526085337
            ],
            [
              84.3455214032235,
              25.72186589637629
            ],
            [
              84.34456303915591,
              25.722090052733865
            ],
            [
              84.34360837524895,
              25.722485700724018
            ],
            [
              84.34257894006937,
              25.72287643497348
            ],
            [
              84.34139977279987,
              25.72330227506421
            ],
            [
              84.34025492297087,
              25.72379609962402
            ],
            [
              84.3392596462299,
              25.724286294913227
            ],
            [
              84.33801061698078,
              25.72471166380857
            ],
            [
              84.33690544214461,
              25.72523722165647
            ],
            [
              84.33655650774215,
              25.727198080225243
            ],
            [
              84.33544416794327,
              25.728653174922226
            ],
            [
              84.33418163701543,
              25.730842847852223
            ],
            [
              84.33387507883988,
              25.732469989805896
            ],
            [
              84.33381856313044,
              25.735294488241436
            ],
            [
              84.3339477363767,
              25.737289872051075
            ],
            [
              84.33603881133888,
              25.73753768530547
            ],
            [
              84.33647481495022,
              25.737874342675266
            ],
            [
              84.33717016128578,
              25.738176517018502
            ],
            [
              84.33845477639659,
              25.7383154170881
            ],
            [
              84.33870636396495,
              25.739002613717
            ],
            [
              84.34005372100846,
              25.741019337067957
            ],
            [
              84.33985341017483,
              25.743111913901554
            ],
            [
              84.34050864493634,
              25.743449990922322
            ],
            [
              84.34132142084248,
              25.743387353361307
            ],
            [
              84.34242629294639,
              25.742929446225972
            ],
            [
              84.34359687232175,
              25.743004375957888
            ],
            [
              84.34425660225293,
              25.743405556943138
            ],
            [
              84.34425377974632,
              25.743476642077503
            ],
            [
              84.34422074869332,
              25.74430875437212
            ],
            [
              84.34505591061632,
              25.74432147906051
            ],
            [
              84.34775285611853,
              25.74416865729155
            ],
            [
              84.34792395643406,
              25.74415896123819
            ],
            [
              84.34838979489261,
              25.744132558645408
            ],
            [
              84.35162404881737,
              25.743826148966125
            ],
            [
              84.3548383646344,
              25.743510731790586
            ],
            [
              84.35583236127607,
              25.743407956899556
            ],
            [
              84.3571583267377,
              25.743270846973033
            ],
            [
              84.35810757110856,
              25.74317268488146
            ],
            [
              84.36149125528924,
              25.742875081237734
            ],
            [
              84.36464084569343,
              25.74250647128346
            ],
            [
              84.36480517810158,
              25.74248724640123
            ],
            [
              84.36517805260635,
              25.742555185255128
            ],
            [
              84.3651929781148,
              25.742510513856864
            ],
            [
              84.36531268760957,
              25.742313171218083
            ],
            [
              84.36524867276411,
              25.742257126933165
            ],
            [
              84.36541939309227,
              25.742137267877215
            ],
            [
              84.36546181603156,
              25.742107483335786
            ],
            [
              84.36862248356152,
              25.739887757825088
            ],
            [
              84.37028934440212,
              25.73873541538121
            ],
            [
              84.3719712547187,
              25.73757262718688
            ],
            [
              84.37405920893357,
              25.73616895418179
            ],
            [
              84.37487494209364,
              25.735579194272297
            ],
            [
              84.37522027425176,
              25.735329520604694
            ],
            [
              84.37652258976692,
              25.736743629272755
            ],
            [
              84.37689951836859,
              25.737152906385706
            ],
            [
              84.3755645832288,
              25.738332137391588
            ],
            [
              84.37548939244292,
              25.738398557343825
            ],
            [
              84.37549318063844,
              25.738556527310855
            ],
            [
              84.37550930180454,
              25.739228964642415
            ],
            [
              84.37488638034215,
              25.739364376710657
            ],
            [
              84.37468704418058,
              25.739802157084235
            ],
            [
              84.37298283857697,
              25.741201301944844
            ],
            [
              84.37255919039406,
              25.7414314428776
            ],
            [
              84.37203329866044,
              25.741829862632706
            ],
            [
              84.37176689607638,
              25.742031688849792
            ],
            [
              84.3729129568344,
              25.74344436567242
            ],
            [
              84.37373526296739,
              25.744288351659268
            ],
            [
              84.37486708273319,
              25.743331215720897
            ],
            [
              84.3752402357157,
              25.743015649155538
            ],
            [
              84.37633152529253,
              25.742252923327538
            ],
            [
              84.37704916691513,
              25.741616470633854
            ],
            [
              84.37667944729363,
              25.74119737503831
            ],
            [
              84.3762767693827,
              25.740740915977074
            ],
            [
              84.37652116683552,
              25.740485987036806
            ],
            [
              84.37709889585261,
              25.739883358314078
            ],
            [
              84.37782648541867,
              25.73927857491519
            ],
            [
              84.37879821911265,
              25.74060549738556
            ],
            [
              84.37962056117826,
              25.742284377136926
            ],
            [
              84.37995943983941,
              25.742306991637438
            ],
            [
              84.38155919113838,
              25.744500340651285
            ],
            [
              84.38286282538041,
              25.74617271735891
            ],
            [
              84.38293473192563,
              25.746264961375623
            ],
            [
              84.38297464137875,
              25.746289499244597
            ],
            [
              84.38495313587627,
              25.747505981655006
            ],
            [
              84.38578525610374,
              25.74684248676576
            ],
            [
              84.3871706792574,
              25.746115732249347
            ],
            [
              84.38947792840281,
              25.746043338699593
            ],
            [
              84.39170049516301,
              25.745162978790887
            ],
            [
              84.39265219103625,
              25.74472953739324
            ],
            [
              84.39363384841919,
              25.744201418180996
            ],
            [
              84.39336184034778,
              25.74370155875185
            ],
            [
              84.39246243271228,
              25.742048712067366
            ],
            [
              84.39181947342915,
              25.740866287720234
            ]
          ]
        ]
      }
    }
  ]
}