{
  "type": "FeatureCollection",
  "features": [
    {
      "type": "Feature",
      "properties": {
        "object_id": "10-236-01494",
        "stname": "BIHAR",
        "dtname": "Gaya",
        "sdtname": "Manpur",
        "st_area_sh": 0.0,
        "st_length_": 0.0,
        "remarks": "",
        "dist_lgd": 196,
        "state_lgd": 10,
        "subdt_lgd": 1494,
        "ac_no": null,
        "st_length(shape)": 77081.78707553667,
        "st_area(shape)": 161226183.41058797
      },
      "geometry": {
        "type": "Polygon",
        "coordinates": [
          [
            [
              85.05862628211143,
              24.882189240082525
            ],
            [
              85.06170649562623,
              24.8818611899639
            ],
            [
              85.06436954320114,
              24.884193166107835
            ],
            [
              85.06578091688675,
              24.88559499100664
            ],
            [
              85.06767975956463,
              24.88607653791583
            ],
            [
              85.07161098308069,
              24.88650818578259
            ],
            [
              85.07485095478222,
              24.886651568264533
            ],
            [
              85.07530263938517,
              24.886238529194777
            ],
            [
              85.07542949677466,
              24.88320744570939
            ],
            [
              85.07547944130782,
              24.88201406688761
            ],
            [
              85.07546023083545,
              24.878764429708514
            ],
            [
              85.07538355243943,
              24.876529485340164
            ],
            [
              85.07488915294472,
              24.87431453685635
            ],
            [
              85.07533744640747,
              24.874117233064634
            ],
            [
              85.08088575601256,
              24.87162469465904
            ],
            [
              85.08103132890267,
              24.871207699048835
            ],
            [
              85.08008959265098,
              24.866423034404054
            ],
            [
              85.07940842532383,
              24.864586484873154
            ],
            [
              85.07879231219295,
              24.863042708056266
            ],
            [
              85.07893788238813,
              24.862625712838007
            ],
            [
              85.07978715055607,
              24.862585866273918
            ],
            [
              85.08051476168168,
              24.862315975722094
            ],
            [
              85.08221212302114,
              24.862312400868504
            ],
            [
              85.08389518318127,
              24.862334008925206
            ],
            [
              85.0854405172353,
              24.86226498229234
            ],
            [
              85.08618792363653,
              24.862515731301766
            ],
            [
              85.08626512664867,
              24.86292289568483
            ],
            [
              85.08695877786327,
              24.86576232694322
            ],
            [
              85.08790192536829,
              24.86595211069351
            ],
            [
              85.08972570122778,
              24.8658739128437
            ],
            [
              85.09174889499549,
              24.865493609646357
            ],
            [
              85.09253903874637,
              24.86568140919191
            ],
            [
              85.09286795329442,
              24.866459886931185
            ],
            [
              85.093196872334,
              24.867238363843374
            ],
            [
              85.09468496394149,
              24.869999058194317
            ],
            [
              85.09614870491657,
              24.873444855372743
            ],
            [
              85.09643529893326,
              24.874717814049326
            ],
            [
              85.09608120101456,
              24.876033372753117
            ],
            [
              85.09407476082686,
              24.877124750825473
            ],
            [
              85.09343589157321,
              24.8779543300932
            ],
            [
              85.09342577474649,
              24.880298856739653
            ],
            [
              85.0934195682862,
              24.881736639891287
            ],
            [
              85.09351702830799,
              24.882639089055015
            ],
            [
              85.09383864224772,
              24.88344285698462
            ],
            [
              85.09422759390111,
              24.883485905166516
            ],
            [
              85.09452286294845,
              24.883286586050016
            ],
            [
              85.09507458394147,
              24.882697058807242
            ],
            [
              85.09628628729222,
              24.882623670652876
            ],
            [
              85.09711594883078,
              24.882964271835405
            ],
            [
              85.09749984656236,
              24.88333726602611
            ],
            [
              85.09844314678095,
              24.883526991820492
            ],
            [
              85.09911811483431,
              24.883065949036418
            ],
            [
              85.09912370594864,
              24.880882817993825
            ],
            [
              85.09935285000795,
              24.87863906808108
            ],
            [
              85.09992309695706,
              24.877745123127326
            ],
            [
              85.10224151305975,
              24.877178046912764
            ],
            [
              85.10300048257533,
              24.87667997286311
            ],
            [
              85.10284022492526,
              24.874418570764025
            ],
            [
              85.10324558610397,
              24.87429679064435
            ],
            [
              85.10401127681448,
              24.874268439893832
            ],
            [
              85.10455652005597,
              24.874097662893693
            ],
            [
              85.10505154028654,
              24.87357083839923
            ],
            [
              85.10670675985936,
              24.873604535615783
            ],
            [
              85.10837570029989,
              24.87365108188289
            ],
            [
              85.10976642081876,
              24.873694087022407
            ],
            [
              85.11019901622193,
              24.873610713206926
            ],
            [
              85.11012210336561,
              24.872264269764614
            ],
            [
              85.10986010432313,
              24.871194732374857
            ],
            [
              85.1099114888557,
              24.870560727188966
            ],
            [
              85.1099825770357,
              24.869546177812982
            ],
            [
              85.11092713040412,
              24.868733082073796
            ],
            [
              85.11254342058582,
              24.867661916679367
            ],
            [
              85.11380056072365,
              24.867335091285312
            ],
            [
              85.11529128529322,
              24.867201601201376
            ],
            [
              85.11793342278331,
              24.866371798158223
            ],
            [
              85.1188883543882,
              24.865787254858564
            ],
            [
              85.11938339617834,
              24.865484220395135
            ],
            [
              85.11984327700995,
              24.86520270471978
            ],
            [
              85.12119544543013,
              24.86318881885751
            ],
            [
              85.12214831540145,
              24.861817250045323
            ],
            [
              85.12271966009183,
              24.860834366106875
            ],
            [
              85.12257281339065,
              24.86051815690806
            ],
            [
              85.12242599992715,
              24.85909170840062
            ],
            [
              85.12247481976956,
              24.85862267384515
            ],
            [
              85.12197791936511,
              24.858105117786298
            ],
            [
              85.12115270987711,
              24.857129401625397
            ],
            [
              85.12096034104891,
              24.85659660514072
            ],
            [
              85.12042809463296,
              24.85460097780148
            ],
            [
              85.12003901362218,
              24.85300279495326
            ],
            [
              85.12001427940912,
              24.85300277620545
            ],
            [
              85.11931175733108,
              24.853002136335107
            ],
            [
              85.11760998436525,
              24.853000621839396
            ],
            [
              85.1165418039491,
              24.85260242375837
            ],
            [
              85.11552361028696,
              24.851712299327204
            ],
            [
              85.11443131280039,
              24.850804078995335
            ],
            [
              85.11433395518652,
              24.849336976377742
            ],
            [
              85.11448358486847,
              24.84823118238287
            ],
            [
              85.1139004381119,
              24.847698059005875
            ],
            [
              85.11254086487881,
              24.846988080182413
            ],
            [
              85.11176508518938,
              24.846233607974593
            ],
            [
              85.1112814376303,
              24.84512271831149
            ],
            [
              85.11069827111076,
              24.844679770234876
            ],
            [
              85.10914501661088,
              24.84467831514516
            ],
            [
              85.10831923309944,
              24.844320954376354
            ],
            [
              85.10797887221804,
              24.84347660573608
            ],
            [
              85.10753920617529,
              24.842988640385634
            ],
            [
              85.10647128896554,
              24.842500086989066
            ],
            [
              85.10579423322746,
              24.841921677701038
            ],
            [
              85.10547874310305,
              24.841014137118083
            ],
            [
              85.10392789339316,
              24.838972364341203
            ],
            [
              85.1039783400846,
              24.838132770255694
            ],
            [
              85.10509749899478,
              24.837068614111914
            ],
            [
              85.10572662062928,
              24.836225167371225
            ],
            [
              85.1056830936605,
              24.83538103416049
            ],
            [
              85.10509986515724,
              24.834983204934947
            ],
            [
              85.10465979217766,
              24.834847420903824
            ],
            [
              85.10252310974849,
              24.834714398763516
            ],
            [
              85.10164847944517,
              24.834050014748257
            ],
            [
              85.10165000568284,
              24.832763502098103
            ],
            [
              85.10116593501726,
              24.83218523400724
            ],
            [
              85.0998071388269,
              24.83102833671314
            ],
            [
              85.09878899906367,
              24.830363796768108
            ],
            [
              85.09657837181192,
              24.830117801669243
            ],
            [
              85.09507515616832,
              24.82975962109163
            ],
            [
              85.09459113221511,
              24.829140706306827
            ],
            [
              85.09673901124596,
              24.828140843734648
            ],
            [
              85.09912424493783,
              24.827168298406672
            ],
            [
              85.1006277992463,
              24.827214969766796
            ],
            [
              85.10089555289652,
              24.82670516705829
            ],
            [
              85.10080521292166,
              24.823599540272884
            ],
            [
              85.10051798559272,
              24.81978500613493
            ],
            [
              85.10037417879045,
              24.81605646524422
            ],
            [
              85.10031672164655,
              24.814440441709444
            ],
            [
              85.10047530663356,
              24.814196790995435
            ],
            [
              85.10125187594217,
              24.814062142011505
            ],
            [
              85.10309638671505,
              24.81419939775565
            ],
            [
              85.10309696792503,
              24.814206269752617
            ],
            [
              85.10421396459033,
              24.814376525231403
            ],
            [
              85.10557394296362,
              24.814423010613094
            ],
            [
              85.10615744904628,
              24.814423601760318
            ],
            [
              85.10649917985849,
              24.814067299276495
            ],
            [
              85.10650036743128,
              24.812961437322215
            ],
            [
              85.10650088216593,
              24.812514538607438
            ],
            [
              85.10808433802566,
              24.811784761695808
            ],
            [
              85.10920468900024,
              24.809393506911547
            ],
            [
              85.11056521714247,
              24.80895242226186
            ],
            [
              85.11255407730003,
              24.80815527586353
            ],
            [
              85.11343052759013,
              24.807181065928283
            ],
            [
              85.11323859713977,
              24.80633686688082
            ],
            [
              85.11304650139941,
              24.805627999634158
            ],
            [
              85.11372454169103,
              24.80509591191123
            ],
            [
              85.11537713818326,
              24.804298540114075
            ],
            [
              85.11505813923935,
              24.80205931585214
            ],
            [
              85.1146053676749,
              24.79999605588334
            ],
            [
              85.11430461171777,
              24.799219396986707
            ],
            [
              85.11505180431995,
              24.79873705777435
            ],
            [
              85.11558125428044,
              24.798408040228615
            ],
            [
              85.1153902293319,
              24.796764836239603
            ],
            [
              85.11541641073084,
              24.795424235733478
            ],
            [
              85.11381919986749,
              24.795431767695643
            ],
            [
              85.11172747811831,
              24.795470500697686
            ],
            [
              85.11170315623198,
              24.79507324709525
            ],
            [
              85.11063624783029,
              24.794092761779854
            ],
            [
              85.10874288218068,
              24.793648612640517
            ],
            [
              85.10808569358343,
              24.79318304729877
            ],
            [
              85.10803717826988,
              24.792429252883625
            ],
            [
              85.10779597612454,
              24.791499160066103
            ],
            [
              85.10706476275462,
              24.790965751723252
            ],
            [
              85.10561162459481,
              24.79038658802955
            ],
            [
              85.1055110590971,
              24.78970628027329
            ],
            [
              85.10687405311472,
              24.789101342020345
            ],
            [
              85.10789303370109,
              24.788750248227526
            ],
            [
              85.10857610276166,
              24.78812800671611
            ],
            [
              85.10886998211528,
              24.7861782736027
            ],
            [
              85.10949878215293,
              24.785424984685477
            ],
            [
              85.10998929733235,
              24.78453624677202
            ],
            [
              85.10955031131424,
              24.783605980600225
            ],
            [
              85.10921487499725,
              24.782896970378406
            ],
            [
              85.10955176209342,
              24.782319536395867
            ],
            [
              85.11047728105929,
              24.781431126946092
            ],
            [
              85.11072050082079,
              24.780591756314784
            ],
            [
              85.11111291098806,
              24.778949108289705
            ],
            [
              85.11189202432551,
              24.776422071318137
            ],
            [
              85.11179429660575,
              24.775311545915432
            ],
            [
              85.11104445307517,
              24.773911529829256
            ],
            [
              85.1117224816887,
              24.77324862573509
            ],
            [
              85.11206475059173,
              24.772228815812127
            ],
            [
              85.11177430190416,
              24.77107741686391
            ],
            [
              85.1111918477487,
              24.770232790216706
            ],
            [
              85.11121735900444,
              24.76954447710625
            ],
            [
              85.1112428711585,
              24.768856165074368
            ],
            [
              85.11087962479695,
              24.768745216900747
            ],
            [
              85.11051638113037,
              24.768634267812335
            ],
            [
              85.10978719256308,
              24.768590713124762
            ],
            [
              85.10905800579245,
              24.768547156790532
            ],
            [
              85.10873044859882,
              24.768579562822094
            ],
            [
              85.10840289410015,
              24.768611968029543
            ],
            [
              85.10807533780485,
              24.76864437159718
            ],
            [
              85.10774778061123,
              24.768676775156333
            ],
            [
              85.10366892885969,
              24.76889404991324
            ],
            [
              85.10240811371402,
              24.769068878270225
            ],
            [
              85.10129051966905,
              24.769293402851506
            ],
            [
              85.10094940420286,
              24.769247935643104
            ],
            [
              85.10100004942196,
              24.768227845709855
            ],
            [
              85.10124351083024,
              24.76720801086346
            ],
            [
              85.10085423937662,
              24.766187452279553
            ],
            [
              85.10034617920138,
              24.7652344749511
            ],
            [
              85.09966477112575,
              24.76452518197719
            ],
            [
              85.0990378746182,
              24.763811320249516
            ],
            [
              85.09655877596232,
              24.765718203828804
            ],
            [
              85.09412831299423,
              24.768243422734642
            ],
            [
              85.0922766651064,
              24.7703269261981
            ],
            [
              85.09184247968518,
              24.769617821365333
            ],
            [
              85.09155160968776,
              24.769039681227426
            ],
            [
              85.09077538802715,
              24.76903886065951
            ],
            [
              85.09019195830128,
              24.76908335729288
            ],
            [
              85.08912488281295,
              24.768504477294236
            ],
            [
              85.08826113020939,
              24.76797740094566
            ],
            [
              85.08825050313955,
              24.76797091628272
            ],
            [
              85.08614601273695,
              24.766763413124817
            ],
            [
              85.08463435921784,
              24.765980833091955
            ],
            [
              85.0820406579896,
              24.76470050264324
            ],
            [
              85.07994630507496,
              24.76338913098543
            ],
            [
              85.07858863357532,
              24.762114646184084
            ],
            [
              85.07705285040939,
              24.760355000636284
            ],
            [
              85.07961103584461,
              24.759141169166146
            ],
            [
              85.08111036986787,
              24.758018833020966
            ],
            [
              85.08169963235491,
              24.757288233848097
            ],
            [
              85.08159507384572,
              24.75416457533038
            ],
            [
              85.0818086105753,
              24.753433547237414
            ],
            [
              85.08293062522978,
              24.753484459013453
            ],
            [
              85.08362689503343,
              24.75402235363611
            ],
            [
              85.08517359722164,
              24.7544167798241
            ],
            [
              85.086587588598,
              24.75429194167795
            ],
            [
              85.08851064985596,
              24.75414955860667
            ],
            [
              85.09000480329496,
              24.753126517190626
            ],
            [
              85.09144835104078,
              24.75297910105714
            ],
            [
              85.09280747870947,
              24.75320171806532
            ],
            [
              85.09416651564828,
              24.753424305306762
            ],
            [
              85.0950782832038,
              24.75166936695533
            ],
            [
              85.09520579726177,
              24.750492888316003
            ],
            [
              85.09524784111198,
              24.750000355606364
            ],
            [
              85.09537722636068,
              24.74848465076252
            ],
            [
              85.09647498829911,
              24.746837326820796
            ],
            [
              85.0950135011971,
              24.73978170532434
            ],
            [
              85.0945642896561,
              24.737466004900778
            ],
            [
              85.09083732956096,
              24.738778766238138
            ],
            [
              85.08231562511155,
              24.74072202073006
            ],
            [
              85.08197934886975,
              24.741376491119322
            ],
            [
              85.0818496950248,
              24.744630957256373
            ],
            [
              85.08012944640853,
              24.744901357842835
            ],
            [
              85.0783649189336,
              24.74481953472544
            ],
            [
              85.07609013759752,
              24.747653505200997
            ],
            [
              85.07441376180142,
              24.749300550742213
            ],
            [
              85.07416176100803,
              24.74922372079372
            ],
            [
              85.07403865857643,
              24.748036531869733
            ],
            [
              85.07282831168173,
              24.746384051700947
            ],
            [
              85.07249308916381,
              24.744311999150817
            ],
            [
              85.07304292998292,
              24.7414007016286
            ],
            [
              85.07195086426167,
              24.740863156233814
            ],
            [
              85.06913870173948,
              24.740212185642953
            ],
            [
              85.0680073374195,
              24.73921418522476
            ],
            [
              85.06730131281016,
              24.737597874884678
            ],
            [
              85.06591791715408,
              24.73644627982766
            ],
            [
              85.0650778782774,
              24.73602615562601
            ],
            [
              85.06478166240572,
              24.73533538238472
            ],
            [
              85.06385736784357,
              24.735529162221248
            ],
            [
              85.06288405940292,
              24.734869737110976
            ],
            [
              85.06205933859844,
              24.733415843747533
            ],
            [
              85.06069064656693,
              24.732720189907553
            ],
            [
              85.05760278120256,
              24.730728093934044
            ],
            [
              85.05453348132018,
              24.731015646092274
            ],
            [
              85.05146409609785,
              24.731370759137562
            ],
            [
              85.05103902139024,
              24.73154202820859
            ],
            [
              85.04801405067215,
              24.73192417436457
            ],
            [
              85.04963904193568,
              24.73370356674394
            ],
            [
              85.0498510892585,
              24.734516145918885
            ],
            [
              85.05107629338967,
              24.735270578265744
            ],
            [
              85.05350745614537,
              24.736242231007626
            ],
            [
              85.05454511180817,
              24.7366354889684
            ],
            [
              85.05409999568656,
              24.737190470109972
            ],
            [
              85.05263137955443,
              24.738313756370577
            ],
            [
              85.05117296918223,
              24.738926887808393
            ],
            [
              85.04914128184348,
              24.73952174160465
            ],
            [
              85.04639129082378,
              24.742418259154988
            ],
            [
              85.04644514123179,
              24.743271391611312
            ],
            [
              85.04591595268109,
              24.743749593834362
            ],
            [
              85.04467030199574,
              24.743920513810924
            ],
            [
              85.04424503415032,
              24.74419107584671
            ],
            [
              85.04437289675462,
              24.745121013168514
            ],
            [
              85.0437843412417,
              24.745698522215744
            ],
            [
              85.04331917921456,
              24.746546885711442
            ],
            [
              85.04355099935508,
              24.747318839778796
            ],
            [
              85.04322946806039,
              24.747765553980642
            ],
            [
              85.04311109076718,
              24.74778232221143
            ],
            [
              85.04284875575478,
              24.74781955022098
            ],
            [
              85.04249315764955,
              24.747358867808504
            ],
            [
              85.04090673016285,
              24.74702851319333
            ],
            [
              85.04065499527077,
              24.746522792866852
            ],
            [
              85.03819825568232,
              24.746656775195074
            ],
            [
              85.0370560388154,
              24.747251974625357
            ],
            [
              85.03629528344904,
              24.74667378913747
            ],
            [
              85.03574662571117,
              24.746578670931097
            ],
            [
              85.03513368812483,
              24.746686567336837
            ],
            [
              85.03530141706312,
              24.747111024222775
            ],
            [
              85.03491549902043,
              24.747593812870523
            ],
            [
              85.03387742474271,
              24.74765183522915
            ],
            [
              85.03322579312379,
              24.74659067084674
            ],
            [
              85.02983937177646,
              24.747279214749682
            ],
            [
              85.0292453598965,
              24.748456923864378
            ],
            [
              85.02865218794139,
              24.750000332764003
            ],
            [
              85.02846377709032,
              24.75049056737734
            ],
            [
              85.02556429203429,
              24.751233700355442
            ],
            [
              85.0240611365778,
              24.751493261873204
            ],
            [
              85.02198500778532,
              24.751490126795684
            ],
            [
              85.01847525403765,
              24.751615608150345
            ],
            [
              85.0145397752021,
              24.752002194934615
            ],
            [
              85.01474867572647,
              24.753970573282366
            ],
            [
              85.01488579996133,
              24.757238899662227
            ],
            [
              85.01409613770745,
              24.75919662634581
            ],
            [
              85.01287675016775,
              24.760959658070178
            ],
            [
              85.01139774591765,
              24.763986167181734
            ],
            [
              85.01201921839751,
              24.76732285204439
            ],
            [
              85.01291512799331,
              24.769346556119395
            ],
            [
              85.01203402532836,
              24.772541000050428
            ],
            [
              85.01090923667628,
              24.77644816235543
            ],
            [
              85.01112182208996,
              24.77900339682865
            ],
            [
              85.01190018982574,
              24.78047165619272
            ],
            [
              85.012089453178,
              24.78238132930063
            ],
            [
              85.01169651659802,
              24.78357691665337
            ],
            [
              85.01057650338997,
              24.78491117609484
            ],
            [
              85.00984301099419,
              24.785799266212017
            ],
            [
              85.01073484403523,
              24.79004374538832
            ],
            [
              85.01141366855607,
              24.791863909367066
            ],
            [
              85.01194532927046,
              24.793110614032276
            ],
            [
              85.01252620059444,
              24.794488186079313
            ],
            [
              85.01374099055653,
              24.79533426071817
            ],
            [
              85.0140558518602,
              24.79620137670695
            ],
            [
              85.01405353600342,
              24.797402141332796
            ],
            [
              85.0150246696228,
              24.799001556374073
            ],
            [
              85.01521328528973,
              24.801267831732385
            ],
            [
              85.01506696500131,
              24.802820379385228
            ],
            [
              85.0161329202905,
              24.803977571082438
            ],
            [
              85.01817299609738,
              24.805181380266166
            ],
            [
              85.01955630641348,
              24.80591479537213
            ],
            [
              85.02013955827294,
              24.80609627277713
            ],
            [
              85.02076903833527,
              24.808006616332566
            ],
            [
              85.02130182014709,
              24.81138378508267
            ],
            [
              85.02315172171001,
              24.811242144279685
            ],
            [
              85.02363010873479,
              24.811947036185188
            ],
            [
              85.02473421008419,
              24.814011592649468
            ],
            [
              85.02569048017885,
              24.81576885477651
            ],
            [
              85.02674313860521,
              24.818934698761485
            ],
            [
              85.02769973119506,
              24.823328110159537
            ],
            [
              85.02750259410934,
              24.825702083134228
            ],
            [
              85.02653450937204,
              24.827718319002923
            ],
            [
              85.02451107665246,
              24.83070345433316
            ],
            [
              85.0237271222939,
              24.832918769720155
            ],
            [
              85.0241072282367,
              24.835207659915454
            ],
            [
              85.02382089203651,
              24.837613167052766
            ],
            [
              85.02367815333112,
              24.839937538777832
            ],
            [
              85.02383800494269,
              24.841714769758518
            ],
            [
              85.0238381298085,
              24.841716202872814
            ],
            [
              85.02402209669384,
              24.843950899391235
            ],
            [
              85.02352399883512,
              24.8458233847533
            ],
            [
              85.02340277657741,
              24.847177321316618
            ],
            [
              85.0233150138691,
              24.84916780909127
            ],
            [
              85.02314977865404,
              24.850286984194646
            ],
            [
              85.02152042067995,
              24.851250493101485
            ],
            [
              85.01996410831481,
              24.852841416284843
            ],
            [
              85.01985992799636,
              24.852981230912967
            ],
            [
              85.02117577303804,
              24.855718639824353
            ],
            [
              85.02243910436478,
              24.857449333864377
            ],
            [
              85.02348290091088,
              24.858850240318215
            ],
            [
              85.02452672171144,
              24.86025113986833
            ],
            [
              85.02612624483835,
              24.862167346980883
            ],
            [
              85.02729493685332,
              24.864304188783738
            ],
            [
              85.02868735159487,
              24.86868913712229
            ],
            [
              85.0299885271479,
              24.871494189661153
            ],
            [
              85.02999112956729,
              24.87187266917887
            ],
            [
              85.03013570892071,
              24.872225687919176
            ],
            [
              85.03105971781858,
              24.87439412216789
            ],
            [
              85.03107683970788,
              24.874434302327547
            ],
            [
              85.03170726659451,
              24.876082737084257
            ],
            [
              85.03374717890797,
              24.881014796261322
            ],
            [
              85.0348444925871,
              24.884528194658284
            ],
            [
              85.03478738937942,
              24.886080844680155
            ],
            [
              85.03518469626329,
              24.88813517696563
            ],
            [
              85.03573099592354,
              24.889824194036485
            ],
            [
              85.03753091522405,
              24.890648238148295
            ],
            [
              85.04010878364542,
              24.891171633370178
            ],
            [
              85.04234879119689,
              24.89031255229729
            ],
            [
              85.04323144794725,
              24.890300529624472
            ],
            [
              85.04373620861047,
              24.890269232696475
            ],
            [
              85.04411731797146,
              24.890183681309125
            ],
            [
              85.04466166199933,
              24.890071107728186
            ],
            [
              85.04529517280233,
              24.89002181173229
            ],
            [
              85.04594350401082,
              24.889936416630103
            ],
            [
              85.0478736071623,
              24.889689134343516
            ],
            [
              85.04838825019193,
              24.88963980478508
            ],
            [
              85.04885343827029,
              24.88956328509616
            ],
            [
              85.04934347015607,
              24.889423622668335
            ],
            [
              85.04976419522106,
              24.889247754045048
            ],
            [
              85.05039286679963,
              24.88888248977378
            ],
            [
              85.05125434217395,
              24.88815617096995
            ],
            [
              85.05164556027677,
              24.88774112496265
            ],
            [
              85.05219009384919,
              24.887344150303715
            ],
            [
              85.05285356436522,
              24.886721582788134
            ],
            [
              85.0535368211737,
              24.886099000725707
            ],
            [
              85.05399235685428,
              24.88565228625912
            ],
            [
              85.05461124488104,
              24.885056754640523
            ],
            [
              85.05492811571608,
              24.884768022684398
            ],
            [
              85.0552746049043,
              24.884483829123834
            ],
            [
              85.05542816022403,
              24.884303376903322
            ],
            [
              85.05547967770727,
              24.883201774664844
            ],
            [
              85.05541091526551,
              24.882261609834284
            ],
            [
              85.05862628211143,
              24.882189240082525
            ]
          ]
        ]
      }
    }
  ]
}