{
  "type": "FeatureCollection",
  "features": [
    {
      "type": "Feature",
      "properties": {
        "object_id": "10-216-01199",
        "stname": "BIHAR",
        "dtname": "Muzaffarpur",
        "sdtname": "Sahebganj",
        "st_area_sh": 0.0,
        "st_length_": 0.0,
        "remarks": "",
        "dist_lgd": 208,
        "state_lgd": 10,
        "subdt_lgd": 1199,
        "ac_no": null,
        "st_length(shape)": 80060.99972290538,
        "st_area(shape)": 253055918.70266867
      },
      "geometry": {
        "type": "Polygon",
        "coordinates": [
          [
            [
              85.0053181735519,
              26.331428489697522
            ],
            [
              85.00624026813988,
              26.33084713431418
            ],
            [
              85.0068312392226,
              26.330865734839694
            ],
            [
              85.00727307469678,
              26.32981907363811
            ],
            [
              85.00758410468582,
              26.329209984911053
            ],
            [
              85.0080600662593,
              26.328989325049477
            ],
            [
              85.0090568674413,
              26.32880514267386
            ],
            [
              85.01008738509083,
              26.32868879689563
            ],
            [
              85.01116050713932,
              26.328567633109216
            ],
            [
              85.01262806505608,
              26.328460454298984
            ],
            [
              85.01376484801385,
              26.328366547158296
            ],
            [
              85.01405105126337,
              26.32763118308076
            ],
            [
              85.01460389784539,
              26.325474465256857
            ],
            [
              85.01504602527203,
              26.323917802739143
            ],
            [
              85.01533233542106,
              26.323051557115257
            ],
            [
              85.01558333638955,
              26.32237030872522
            ],
            [
              85.01647052244564,
              26.32149089572201
            ],
            [
              85.01799892235823,
              26.320305152153743
            ],
            [
              85.01976259643365,
              26.319223372789047
            ],
            [
              85.02106490386396,
              26.318890420616114
            ],
            [
              85.02213659579455,
              26.31877830423885
            ],
            [
              85.0229676811628,
              26.318968488386634
            ],
            [
              85.0239637295566,
              26.31969565185369
            ],
            [
              85.02454876726685,
              26.32063937003527
            ],
            [
              85.0246733725799,
              26.32138854465556
            ],
            [
              85.02483807689059,
              26.321952783616066
            ],
            [
              85.02499762217666,
              26.322756236684242
            ],
            [
              85.02526279496705,
              26.323225823361053
            ],
            [
              85.02558304077257,
              26.323519343053047
            ],
            [
              85.02591835761362,
              26.323745283931974
            ],
            [
              85.02644382803739,
              26.324151749348164
            ],
            [
              85.02683430862339,
              26.324314451863163
            ],
            [
              85.02735999464282,
              26.324436682103
            ],
            [
              85.02773565392496,
              26.32442795097329
            ],
            [
              85.02960860086819,
              26.323462504901137
            ],
            [
              85.02962438157276,
              26.323454370324846
            ],
            [
              85.03038510280312,
              26.324005495232296
            ],
            [
              85.0315554171755,
              26.32318335406464
            ],
            [
              85.0314786507446,
              26.321760618803822
            ],
            [
              85.03232126778614,
              26.321048851288367
            ],
            [
              85.03404017162444,
              26.320374565638495
            ],
            [
              85.0345616634098,
              26.320045864142255
            ],
            [
              85.0349378679693,
              26.319689906013444
            ],
            [
              85.03531461241631,
              26.31907218224117
            ],
            [
              85.03575736866365,
              26.317917519711628
            ],
            [
              85.03607201706667,
              26.315670576658423
            ],
            [
              85.03634418683478,
              26.31199293690471
            ],
            [
              85.03667026001158,
              26.308920148969328
            ],
            [
              85.03706883621494,
              26.30729153478365
            ],
            [
              85.03767762268635,
              26.30569037735952
            ],
            [
              85.03838579516756,
              26.30454057108245
            ],
            [
              85.03933917178868,
              26.303404760049006
            ],
            [
              85.03933941433381,
              26.303287407092007
            ],
            [
              85.03915438833475,
              26.303156240611184
            ],
            [
              85.03655175605591,
              26.30255669231056
            ],
            [
              85.03637178757191,
              26.30239848508528
            ],
            [
              85.03615218002766,
              26.30204156112545
            ],
            [
              85.03608823435246,
              26.301423210948723
            ],
            [
              85.03633538334503,
              26.300430738957413
            ],
            [
              85.0378817253088,
              26.298086348073138
            ],
            [
              85.03864483965108,
              26.29694562318561
            ],
            [
              85.03919750387513,
              26.29591301098054
            ],
            [
              85.03948464855908,
              26.294938659190137
            ],
            [
              85.0395306000808,
              26.294442297843794
            ],
            [
              85.03939608185858,
              26.294063028597982
            ],
            [
              85.03873628455375,
              26.29350236176802
            ],
            [
              85.03808621061354,
              26.2930321263071
            ],
            [
              85.03727134163279,
              26.292376500986293
            ],
            [
              85.03685183019175,
              26.291798230769945
            ],
            [
              85.03658764734477,
              26.291143440104822
            ],
            [
              85.03625871842372,
              26.290326083389157
            ],
            [
              85.03630492955857,
              26.28973049815186
            ],
            [
              85.03672607144188,
              26.289410717343493
            ],
            [
              85.03790813667648,
              26.28910551667262
            ],
            [
              85.03867931429673,
              26.288984839837457
            ],
            [
              85.03912016970895,
              26.288827505676647
            ],
            [
              85.03927576420436,
              26.28864725024648
            ],
            [
              85.03945216368177,
              26.28797512223525
            ],
            [
              85.03936451955106,
              26.28662105095204
            ],
            [
              85.03906259039418,
              26.28471163480685
            ],
            [
              85.03885402673805,
              26.283768079155433
            ],
            [
              85.03874640677039,
              26.28237341484099
            ],
            [
              85.03861661458484,
              26.282156618945656
            ],
            [
              85.03775695560402,
              26.281379107683286
            ],
            [
              85.03674398115368,
              26.27962661140142
            ],
            [
              85.03633566900928,
              26.278421017086533
            ],
            [
              85.03616103292478,
              26.278082334326523
            ],
            [
              85.03589604788226,
              26.27790588017983
            ],
            [
              85.03481973411955,
              26.277922346624386
            ],
            [
              85.03248159909803,
              26.278117420209703
            ],
            [
              85.03066865332761,
              26.278493704141567
            ],
            [
              85.02901586908752,
              26.278947000631614
            ],
            [
              85.02825454688424,
              26.279176011870383
            ],
            [
              85.02708765868634,
              26.27937278772419
            ],
            [
              85.02653149911754,
              26.279647188714588
            ],
            [
              85.02529851288105,
              26.280444041897372
            ],
            [
              85.02492298744791,
              26.280461457622785
            ],
            [
              85.02271569743742,
              26.28024141374319
            ],
            [
              85.02283885107295,
              26.278729797207372
            ],
            [
              85.02330467066692,
              26.27600920286943
            ],
            [
              85.02337197963453,
              26.274835862754443
            ],
            [
              85.02303247574594,
              26.271838701025047
            ],
            [
              85.02279626823355,
              26.269753375782805
            ],
            [
              85.02264128279589,
              26.26451357626328
            ],
            [
              85.022592205137,
              26.26142211576148
            ],
            [
              85.0223534823418,
              26.260622981838765
            ],
            [
              85.02179937362678,
              26.259868410968796
            ],
            [
              85.02138952266829,
              26.259578963605623
            ],
            [
              85.01821901319612,
              26.258183844281586
            ],
            [
              85.01713899927272,
              26.257645044280764
            ],
            [
              85.0163494735628,
              26.257007447113594
            ],
            [
              85.01555527930829,
              26.256207364393802
            ],
            [
              85.01414824268889,
              26.253998234298994
            ],
            [
              85.01200255464903,
              26.25086267439487
            ],
            [
              85.01164439095535,
              26.25036140731436
            ],
            [
              85.01138643073836,
              26.250000373857326
            ],
            [
              85.0107498899179,
              26.249109485401753
            ],
            [
              85.0109519901956,
              26.24817570661927
            ],
            [
              85.01128349099332,
              26.247616609961792
            ],
            [
              85.01214619705956,
              26.24666577465025
            ],
            [
              85.01342435597844,
              26.245693130811926
            ],
            [
              85.01513327414402,
              26.244554134017154
            ],
            [
              85.01624054564805,
              26.24387899272582
            ],
            [
              85.01650628258045,
              26.24364026822202
            ],
            [
              85.01659215164014,
              26.243261251134502
            ],
            [
              85.01621948015465,
              26.241911311381212
            ],
            [
              85.01565136311109,
              26.24075503632906
            ],
            [
              85.01526750490534,
              26.239987232599002
            ],
            [
              85.01729717372963,
              26.238519261862216
            ],
            [
              85.01904075967867,
              26.23747058671878
            ],
            [
              85.0211595036499,
              26.236476558193992
            ],
            [
              85.02423919973509,
              26.23543897707311
            ],
            [
              85.02436935483999,
              26.235416566038673
            ],
            [
              85.02449966804835,
              26.235276890396044
            ],
            [
              85.02439008256684,
              26.23500144099258
            ],
            [
              85.02300997384637,
              26.231894367651577
            ],
            [
              85.02170382072833,
              26.2294146423837
            ],
            [
              85.02078047478714,
              26.228181069938856
            ],
            [
              85.02016237188789,
              26.22698866978625
            ],
            [
              85.01909575364205,
              26.224847843281303
            ],
            [
              85.01868236242302,
              26.223894881231473
            ],
            [
              85.01850368930964,
              26.22317708827168
            ],
            [
              85.01839560401467,
              26.222161479727326
            ],
            [
              85.01834373978171,
              26.22055923498773
            ],
            [
              85.01814419790598,
              26.220261082110177
            ],
            [
              85.01776911624054,
              26.220161213313215
            ],
            [
              85.01704334306802,
              26.220281913316093
            ],
            [
              85.01675810730404,
              26.22028141286432
            ],
            [
              85.01641924840584,
              26.21961294115669
            ],
            [
              85.01437032060016,
              26.220859640331742
            ],
            [
              85.01263284409339,
              26.221466105915997
            ],
            [
              85.01098084498084,
              26.221846978251058
            ],
            [
              85.00932976125155,
              26.22180358377568
            ],
            [
              85.00784522966752,
              26.221074465038896
            ],
            [
              85.00708596101296,
              26.220423322686564
            ],
            [
              85.0039912181468,
              26.221681690245216
            ],
            [
              85.00332864594606,
              26.22027251110838
            ],
            [
              85.00192403298128,
              26.21728245284855
            ],
            [
              85.00141425163396,
              26.21701087670869
            ],
            [
              85.00069350633207,
              26.217126922670488
            ],
            [
              85.00001725009459,
              26.21750487009516
            ],
            [
              85.00000001591587,
              26.21750483866508
            ],
            [
              84.99895654725489,
              26.217503027002532
            ],
            [
              84.99836256861259,
              26.21681599305313
            ],
            [
              84.99831430931893,
              26.21598097390044
            ],
            [
              84.99717376960662,
              26.21355997578
            ],
            [
              84.99701300979832,
              26.211555946037972
            ],
            [
              84.99556958332506,
              26.21044774784807
            ],
            [
              84.99457989680015,
              26.207693029772813
            ],
            [
              84.99330424867254,
              26.20538464622891
            ],
            [
              84.99242186411165,
              26.203961453396825
            ],
            [
              84.99197675876982,
              26.203910979655973
            ],
            [
              84.9908090800545,
              26.204811477619085
            ],
            [
              84.9888047643825,
              26.2062069191082
            ],
            [
              84.98697191733523,
              26.20700686799969
            ],
            [
              84.98475049682534,
              26.207052490864363
            ],
            [
              84.9836413271811,
              26.20640053177322
            ],
            [
              84.98353968460331,
              26.20269062605758
            ],
            [
              84.9832073663387,
              26.201462531636473
            ],
            [
              84.98209777268964,
              26.201009107775544
            ],
            [
              84.98166717513969,
              26.196797653205795
            ],
            [
              84.98183860064533,
              26.194045082725737
            ],
            [
              84.98267195695463,
              26.192742409727412
            ],
            [
              84.98395639599565,
              26.191043351721884
            ],
            [
              84.98573320074554,
              26.190622403993434
            ],
            [
              84.98587381313868,
              26.19037220516848
            ],
            [
              84.98601442373516,
              26.190122005000042
            ],
            [
              84.98551611926389,
              26.189268113922438
            ],
            [
              84.98341277421325,
              26.18595618610236
            ],
            [
              84.98214469439188,
              26.182695437917904
            ],
            [
              84.97998101399517,
              26.177406624076173
            ],
            [
              84.97920475730031,
              26.177829384266456
            ],
            [
              84.97714910560472,
              26.177825541233425
            ],
            [
              84.97465464036756,
              26.1772205283921
            ],
            [
              84.97248699390892,
              26.178019683976892
            ],
            [
              84.97181859793017,
              26.179372290922643
            ],
            [
              84.97053127889035,
              26.18222198732444
            ],
            [
              84.9687466129834,
              26.185977918238112
            ],
            [
              84.96636170717663,
              26.185521893198906
            ],
            [
              84.96441936717436,
              26.186167961195125
            ],
            [
              84.96397504336684,
              26.185819533688587
            ],
            [
              84.96370235167751,
              26.182763730909688
            ],
            [
              84.96238525168938,
              26.17729581173719
            ],
            [
              84.96155706877784,
              26.176468251758436
            ],
            [
              84.9598902887856,
              26.176965883727288
            ],
            [
              84.95810896371314,
              26.177260130293142
            ],
            [
              84.9573848892548,
              26.178766034131723
            ],
            [
              84.95721865421486,
              26.179266597177886
            ],
            [
              84.956327508385,
              26.179562647769878
            ],
            [
              84.95477712669741,
              26.17950979091876
            ],
            [
              84.95250170935407,
              26.179356216824665
            ],
            [
              84.95127583867296,
              26.179502611233605
            ],
            [
              84.95110989828042,
              26.17985423228797
            ],
            [
              84.9512723792608,
              26.180856486783696
            ],
            [
              84.95215688743903,
              26.183164473791667
            ],
            [
              84.95237383956328,
              26.184414986128033
            ],
            [
              84.94726897162012,
              26.183551405402184
            ],
            [
              84.94571976133564,
              26.18299752422653
            ],
            [
              84.9448955013669,
              26.18066706960769
            ],
            [
              84.94589595869209,
              26.178715085925614
            ],
            [
              84.94645727818391,
              26.176360513314943
            ],
            [
              84.94613131011002,
              26.174757694692396
            ],
            [
              84.94502428833762,
              26.173500759703977
            ],
            [
              84.94335991583033,
              26.173045858872626
            ],
            [
              84.93780462721384,
              26.17438788091533
            ],
            [
              84.93141649342944,
              26.176630325210496
            ],
            [
              84.93124037332807,
              26.178881911832836
            ],
            [
              84.92968666697561,
              26.18003383821735
            ],
            [
              84.92546336163484,
              26.180674213750308
            ],
            [
              84.92202301082769,
              26.180341479397747
            ],
            [
              84.91969277469249,
              26.18013310295957
            ],
            [
              84.91863962039609,
              26.179331835205485
            ],
            [
              84.91825639370602,
              26.178776058828337
            ],
            [
              84.91783967872043,
              26.178171703920256
            ],
            [
              84.91774520200369,
              26.178574103953515
            ],
            [
              84.91697236878832,
              26.179371372702263
            ],
            [
              84.91656754839543,
              26.179786572039664
            ],
            [
              84.91538989119394,
              26.180716786768954
            ],
            [
              84.9142858114041,
              26.181530721690184
            ],
            [
              84.91273996980192,
              26.182809662349836
            ],
            [
              84.911783166108,
              26.183855964319005
            ],
            [
              84.91119437972804,
              26.18486906225714
            ],
            [
              84.91066079661896,
              26.185848931234084
            ],
            [
              84.90999841396274,
              26.18711115333602
            ],
            [
              84.909391219306,
              26.188738640384805
            ],
            [
              84.90882089510178,
              26.190233255745692
            ],
            [
              84.90790081812992,
              26.192325804011276
            ],
            [
              84.90739033609667,
              26.193247209878358
            ],
            [
              84.90736030900999,
              26.193301406629974
            ],
            [
              84.90699912518035,
              26.1939533246077
            ],
            [
              84.9064654163071,
              26.19470075518756
            ],
            [
              84.90541640144755,
              26.195697193670558
            ],
            [
              84.90379674617681,
              26.197042461932554
            ],
            [
              84.90335500502573,
              26.197507445318603
            ],
            [
              84.90228739324316,
              26.198271441246593
            ],
            [
              84.90182724561191,
              26.19883606590479
            ],
            [
              84.90171686242644,
              26.199334309224913
            ],
            [
              84.90153288296469,
              26.20014801573828
            ],
            [
              84.90140414270637,
              26.2010447553478
            ],
            [
              84.90109122266198,
              26.202090981384092
            ],
            [
              84.90037345078366,
              26.203685213310532
            ],
            [
              84.90024461799887,
              26.204781329649062
            ],
            [
              84.90000546401237,
              26.20619282416517
            ],
            [
              84.89982138124432,
              26.20717260159796
            ],
            [
              84.89939808789592,
              26.207604442611093
            ],
            [
              84.89906671196402,
              26.207737334611952
            ],
            [
              84.89834871101533,
              26.20785356310413
            ],
            [
              84.897686051678,
              26.208102736257654
            ],
            [
              84.89680243462857,
              26.209082475853574
            ],
            [
              84.89612133108183,
              26.210178538146863
            ],
            [
              84.89545866455799,
              26.21173951666354
            ],
            [
              84.89512732815196,
              26.212569828167066
            ],
            [
              84.89463032174629,
              26.213914982867184
            ],
            [
              84.89387544405685,
              26.215359703281187
            ],
            [
              84.89358092600106,
              26.216472333926397
            ],
            [
              84.89352188872058,
              26.216455674218796
            ],
            [
              84.89392785805872,
              26.21669981622455
            ],
            [
              84.89439994340181,
              26.216699804135974
            ],
            [
              84.89460439906215,
              26.21669979930052
            ],
            [
              84.89595749544199,
              26.21650443802721
            ],
            [
              84.89690470602703,
              26.21638237212182
            ],
            [
              84.89784476242914,
              26.21617557527464
            ],
            [
              84.89801421343779,
              26.216138297146372
            ],
            [
              84.8983660431104,
              26.21613820769044
            ],
            [
              84.89871780990094,
              26.2164311859272
            ],
            [
              84.89885316625133,
              26.21740750608833
            ],
            [
              84.8990427476072,
              26.21909179585688
            ],
            [
              84.89934046815698,
              26.219653224122105
            ],
            [
              84.90061253380327,
              26.220873606169942
            ],
            [
              84.90153510270176,
              26.221832235671304
            ],
            [
              84.90185759160052,
              26.222167324683724
            ],
            [
              84.90321084428726,
              26.22333886866488
            ],
            [
              84.90415818872127,
              26.224339668257844
            ],
            [
              84.90532202174886,
              26.22526707893296
            ],
            [
              84.9058362829945,
              26.225804121622634
            ],
            [
              84.90610707384869,
              26.22653636717725
            ],
            [
              84.90624152739223,
              26.22712630292825
            ],
            [
              84.9065131824257,
              26.228318217369054
            ],
            [
              84.90683821176013,
              26.230051316800868
            ],
            [
              84.90681754332205,
              26.230847279014696
            ],
            [
              84.90678433530096,
              26.232126121948173
            ],
            [
              84.90686570290278,
              26.233908112916403
            ],
            [
              84.9068165470904,
              26.234052263116336
            ],
            [
              84.90664926730977,
              26.234542816767352
            ],
            [
              84.90637866959337,
              26.235055424108687
            ],
            [
              84.90578328957926,
              26.23544605016968
            ],
            [
              84.90442993268796,
              26.235739060351445
            ],
            [
              84.90234583583893,
              26.23566604034099
            ],
            [
              84.8992061062416,
              26.235324472298075
            ],
            [
              84.89644533364188,
              26.23515364761139
            ],
            [
              84.8941447041818,
              26.234885178381997
            ],
            [
              84.8907343598001,
              26.234152883063484
            ],
            [
              84.8881580481591,
              26.233748741219408
            ],
            [
              84.88762179076542,
              26.233664612981272
            ],
            [
              84.88648497007841,
              26.23361575967218
            ],
            [
              84.88532107327045,
              26.233542402314335
            ],
            [
              84.88486099840273,
              26.233371540360324
            ],
            [
              84.88402202043639,
              26.233029743177745
            ],
            [
              84.8836701745941,
              26.232834477017136
            ],
            [
              84.88336264444143,
              26.232874038247544
            ],
            [
              84.88329119603698,
              26.232883229124585
            ],
            [
              84.88206857995215,
              26.233717127767736
            ],
            [
              84.88117994491355,
              26.234323217692836
            ],
            [
              84.87874385040692,
              26.236007307633407
            ],
            [
              84.87703848417999,
              26.237129920792793
            ],
            [
              84.87625350125042,
              26.237715641856223
            ],
            [
              84.87625342040205,
              26.238155013709992
            ],
            [
              84.87628040040327,
              26.238740914125696
            ],
            [
              84.87674047706761,
              26.23908266228758
            ],
            [
              84.87717354857789,
              26.239302432053652
            ],
            [
              84.87763366207315,
              26.239400120980072
            ],
            [
              84.87787714863428,
              26.239693084936953
            ],
            [
              84.87822906005358,
              26.239741877678533
            ],
            [
              84.87860802333935,
              26.239375794640203
            ],
            [
              84.87887873514178,
              26.23932699207596
            ],
            [
              84.87944708574733,
              26.239741993705916
            ],
            [
              84.87879716721568,
              26.24137725339782
            ],
            [
              84.87779538218047,
              26.243769353936745
            ],
            [
              84.8766852046265,
              26.245966058813185
            ],
            [
              84.87535849176655,
              26.24838239580339
            ],
            [
              84.8745484494338,
              26.250000074146413
            ],
            [
              84.8728097072008,
              26.25387346532892
            ],
            [
              84.8718186336771,
              26.256971209249674
            ],
            [
              84.87464020156031,
              26.25897339611878
            ],
            [
              84.87610775857873,
              26.26019571777185
            ],
            [
              84.87743950380091,
              26.261665852382464
            ],
            [
              84.87798328189015,
              26.263806311710795
            ],
            [
              84.8785201528332,
              26.264967646727136
            ],
            [
              84.8790726203262,
              26.26597098871925
            ],
            [
              84.8809428588488,
              26.271287427166826
            ],
            [
              84.88056944625319,
              26.2737776189524
            ],
            [
              84.88101035466597,
              26.27528159136997
            ],
            [
              84.88089028674342,
              26.2783907166372
            ],
            [
              84.88177126544089,
              26.28160163262375
            ],
            [
              84.8848658573901,
              26.287729101136964
            ],
            [
              84.88596068363421,
              26.2930480413384
            ],
            [
              84.88596355914142,
              26.29305617321703
            ],
            [
              84.88805512817702,
              26.298969813985345
            ],
            [
              84.88805857860604,
              26.298977934979337
            ],
            [
              84.88937734407065,
              26.302080279776163
            ],
            [
              84.89069962823625,
              26.305190736192305
            ],
            [
              84.89313307091616,
              26.310111426033647
            ],
            [
              84.89313581796428,
              26.31011954463655
            ],
            [
              84.89357463689575,
              26.31141662788205
            ],
            [
              84.89590980208693,
              26.3125281435975
            ],
            [
              84.89735054259748,
              26.314634681684026
            ],
            [
              84.89678608888366,
              26.315838289071902
            ],
            [
              84.89611674428397,
              26.31693773092385
            ],
            [
              84.89711496929569,
              26.31804584725111
            ],
            [
              84.89999821101478,
              26.321762502916215
            ],
            [
              84.90143801458245,
              26.32427524305382
            ],
            [
              84.90220917782968,
              26.325978501204528
            ],
            [
              84.90332590859367,
              26.325981215354737
            ],
            [
              84.90521901912174,
              26.32428443716132
            ],
            [
              84.90744930330857,
              26.323685035221136
            ],
            [
              84.90967337205191,
              26.323491757325527
            ],
            [
              84.91300993600271,
              26.324803814078578
            ],
            [
              84.91301734440884,
              26.32480549524237
            ],
            [
              84.91656825896284,
              26.325610959106317
            ],
            [
              84.91659707242557,
              26.3256223688789
            ],
            [
              84.91912456512246,
              26.326623248981367
            ],
            [
              84.92067698868068,
              26.328431992962134
            ],
            [
              84.92802697109768,
              26.32734307386778
            ],
            [
              84.93269903073697,
              26.327556588064958
            ],
            [
              84.93804267627254,
              26.32756831970017
            ],
            [
              84.9406047675826,
              26.326468172004116
            ],
            [
              84.94060892318909,
              26.326469411925107
            ],
            [
              84.94471815865849,
              26.32769544816723
            ],
            [
              84.9492873198752,
              26.327005619347204
            ],
            [
              84.94928755343717,
              26.32700558472621
            ],
            [
              84.95919197531462,
              26.325618107223093
            ],
            [
              84.96319978380193,
              26.32502588610425
            ],
            [
              84.96320379118637,
              26.325025138921745
            ],
            [
              84.96798965838903,
              26.324132883651675
            ],
            [
              84.96799652960262,
              26.324132353051418
            ],
            [
              84.97054920836513,
              26.323934836729133
            ],
            [
              84.9776721218311,
              26.323248996842906
            ],
            [
              84.98012147457301,
              26.323050575616357
            ],
            [
              84.98012745375955,
              26.323057592648915
            ],
            [
              84.98311822022484,
              26.32656717079745
            ],
            [
              84.98956525923738,
              26.33029318380465
            ],
            [
              84.99379001086578,
              26.331302659140956
            ],
            [
              84.99690912682223,
              26.331809152665738
            ],
            [
              85.00000421823476,
              26.332951674281308
            ],
            [
              85.00044888699534,
              26.332746668667852
            ],
            [
              85.00180153331925,
              26.33230565989373
            ],
            [
              85.00298371713147,
              26.332049372808953
            ],
            [
              85.00428117815083,
              26.33171200204964
            ],
            [
              85.0053181735519,
              26.331428489697522
            ]
          ]
        ]
      }
    }
  ]
}