{
  "type": "FeatureCollection",
  "features": [
    {
      "type": "Feature",
      "properties": {
        "object_id": "10-222-01319",
        "stname": "BIHAR",
        "dtname": "Begusarai",
        "sdtname": "Balia",
        "st_area_sh": 0.0,
        "st_length_": 0.0,
        "remarks": "",
        "dist_lgd": 191,
        "state_lgd": 10,
        "subdt_lgd": 1319,
        "ac_no": null,
        "st_length(shape)": 95726.56851828664,
        "st_area(shape)": 181873531.04775092
      },
      "geometry": {
        "type": "Polygon",
        "coordinates": [
          [
            [
              86.29187468921154,
              25.462433520611754
            ],
            [
              86.29364874511668,
              25.462335198255794
            ],
            [
              86.29541714972038,
              25.46271972128723
            ],
            [
              86.29847147738192,
              25.463478727700345
            ],
            [
              86.299725503959,
              25.46360965177934
            ],
            [
              86.30134022927545,
              25.46347174291601
            ],
            [
              86.30300186371775,
              25.463017490990776
            ],
            [
              86.30516315729072,
              25.462270959025716
            ],
            [
              86.30732201822592,
              25.461253463736227
            ],
            [
              86.30867735230918,
              25.46103159601658
            ],
            [
              86.30851906017296,
              25.46055889596581
            ],
            [
              86.30826921713287,
              25.459843116957767
            ],
            [
              86.30800073315234,
              25.459271901642197
            ],
            [
              86.307751715664,
              25.458650884626163
            ],
            [
              86.30766798728963,
              25.458177636661286
            ],
            [
              86.30768498790637,
              25.457843548954646
            ],
            [
              86.30782128299623,
              25.45750865977205
            ],
            [
              86.30822996524653,
              25.45706338282212
            ],
            [
              86.30906688696918,
              25.456678252859245
            ],
            [
              86.31027702635303,
              25.456344633051
            ],
            [
              86.31191332381275,
              25.455854366359095
            ],
            [
              86.31254360157904,
              25.455723507653065
            ],
            [
              86.31365946636707,
              25.455408530114028
            ],
            [
              86.31516752033683,
              25.455032063182717
            ],
            [
              86.3160961681348,
              25.45491244070444
            ],
            [
              86.31704948816208,
              25.45477467192963
            ],
            [
              86.31800654158769,
              25.454496900101724
            ],
            [
              86.31844243829953,
              25.454317738887436
            ],
            [
              86.31931970066664,
              25.454004515358896
            ],
            [
              86.32005746724657,
              25.453665186786896
            ],
            [
              86.3208291892459,
              25.45323078330348
            ],
            [
              86.32158149505868,
              25.452855295076827
            ],
            [
              86.32136086523163,
              25.452085093780656
            ],
            [
              86.32116598740886,
              25.451400622818216
            ],
            [
              86.32076200424581,
              25.45013986268415
            ],
            [
              86.32075296000754,
              25.449115520942737
            ],
            [
              86.32144756343634,
              25.448952522814785
            ],
            [
              86.32268950228294,
              25.44885767496183
            ],
            [
              86.32226155655968,
              25.447682926236176
            ],
            [
              86.32076010880053,
              25.447675770191736
            ],
            [
              86.32167674522489,
              25.446766532962304
            ],
            [
              86.32213827356671,
              25.446113248814736
            ],
            [
              86.32264679996761,
              25.445716922090444
            ],
            [
              86.32341595098858,
              25.445557874642603
            ],
            [
              86.32420566983632,
              25.445484400168368
            ],
            [
              86.32482511212363,
              25.445258763864377
            ],
            [
              86.325482278263,
              25.444807168761486
            ],
            [
              86.32638253480644,
              25.444304104930165
            ],
            [
              86.3266982737642,
              25.44403106085743
            ],
            [
              86.32673373925164,
              25.443552402396453
            ],
            [
              86.3265300911767,
              25.44077390071382
            ],
            [
              86.32681225110912,
              25.440636453222528
            ],
            [
              86.32778842607387,
              25.440286250037854
            ],
            [
              86.32915898480455,
              25.440122808394936
            ],
            [
              86.33184214476036,
              25.43999024202711
            ],
            [
              86.33344359028199,
              25.440082195977052
            ],
            [
              86.33430711920505,
              25.439922369625723
            ],
            [
              86.33571742120053,
              25.43975853486228
            ],
            [
              86.3375895973892,
              25.43954614630883
            ],
            [
              86.33922646527911,
              25.4391594701057
            ],
            [
              86.3405770311048,
              25.438977948140135
            ],
            [
              86.34231034481854,
              25.438811623273143
            ],
            [
              86.34327906286813,
              25.438745744184295
            ],
            [
              86.34550341008924,
              25.43899993700192
            ],
            [
              86.34757977064704,
              25.439381580940275
            ],
            [
              86.34965537931497,
              25.43968648539564
            ],
            [
              86.35100296183563,
              25.439735035661343
            ],
            [
              86.35170196700933,
              25.440072794051115
            ],
            [
              86.3523856702805,
              25.440907094902684
            ],
            [
              86.35321813815598,
              25.443342355943997
            ],
            [
              86.35336506031565,
              25.444189706352986
            ],
            [
              86.35352710022322,
              25.445059467667743
            ],
            [
              86.35383031666593,
              25.445603305203818
            ],
            [
              86.35421028157323,
              25.44583961019961
            ],
            [
              86.35487416261932,
              25.446141483188956
            ],
            [
              86.35562717181297,
              25.44639308412893
            ],
            [
              86.35630853676946,
              25.446424027736793
            ],
            [
              86.35689012764396,
              25.446419627153407
            ],
            [
              86.35812986561812,
              25.446085423263405
            ],
            [
              86.35818813034743,
              25.444306831311863
            ],
            [
              86.35815177912116,
              25.442510928175228
            ],
            [
              86.35804232299705,
              25.44086901614202
            ],
            [
              86.3584661777925,
              25.43937659277997
            ],
            [
              86.35867023010928,
              25.437777466685883
            ],
            [
              86.35891552767404,
              25.435789898730917
            ],
            [
              86.35929217959458,
              25.43295738372188
            ],
            [
              86.35958569243557,
              25.431894634136462
            ],
            [
              86.35994663012681,
              25.4311473242595
            ],
            [
              86.36065547095457,
              25.43038823002918
            ],
            [
              86.3616802106402,
              25.429392207662094
            ],
            [
              86.3621635940946,
              25.428445295723577
            ],
            [
              86.36227866109598,
              25.427442555187643
            ],
            [
              86.36230902415258,
              25.42696399469489
            ],
            [
              86.36222980532094,
              25.42645455415532
            ],
            [
              86.36183145010313,
              25.426371861369013
            ],
            [
              86.3613445326764,
              25.426389076394706
            ],
            [
              86.36082075467866,
              25.426736049625838
            ],
            [
              86.36044525170337,
              25.426978089382487
            ],
            [
              86.35982499644072,
              25.427086537210783
            ],
            [
              86.35899465128425,
              25.42705665711463
            ],
            [
              86.3582034609961,
              25.426963348901314
            ],
            [
              86.35726407114393,
              25.42697045100799
            ],
            [
              86.35678019720936,
              25.427863198061853
            ],
            [
              86.35620864321156,
              25.4289596377451
            ],
            [
              86.35581165163634,
              25.429571792128957
            ],
            [
              86.3549830698728,
              25.429745049968805
            ],
            [
              86.35262827110276,
              25.42988456485589
            ],
            [
              86.34967720657974,
              25.430042106985727
            ],
            [
              86.34870775011503,
              25.430022289091145
            ],
            [
              86.34795149530827,
              25.42994214535593
            ],
            [
              86.34749679775582,
              25.429674797178123
            ],
            [
              86.34708067925163,
              25.429285273328585
            ],
            [
              86.34675790379025,
              25.428773175903565
            ],
            [
              86.34646947990534,
              25.428211211990547
            ],
            [
              86.34623439798202,
              25.42749542485384
            ],
            [
              86.34617510198674,
              25.42698138568777
            ],
            [
              86.34622434134239,
              25.42638524136846
            ],
            [
              86.34651161089216,
              25.425724260967197
            ],
            [
              86.34722149915555,
              25.425069106212273
            ],
            [
              86.34776464393254,
              25.42467237193358
            ],
            [
              86.34806084363451,
              25.42444899834937
            ],
            [
              86.34845498036374,
              25.424067023149714
            ],
            [
              86.34859943215639,
              25.423555972873288
            ],
            [
              86.34855636063345,
              25.423195214209322
            ],
            [
              86.34849894301543,
              25.422888753275483
            ],
            [
              86.34817868822675,
              25.422652014634032
            ],
            [
              86.34736754635612,
              25.422536161879282
            ],
            [
              86.34702441596875,
              25.422525242211478
            ],
            [
              86.34674472101344,
              25.422373901793403
            ],
            [
              86.34662774239715,
              25.422081395294022
            ],
            [
              86.34649206355157,
              25.421910893080835
            ],
            [
              86.34617307628578,
              25.421814041037482
            ],
            [
              86.34555103607066,
              25.421732907696164
            ],
            [
              86.34523220960328,
              25.421649497696357
            ],
            [
              86.34500237384121,
              25.42151131603612
            ],
            [
              86.34484136160629,
              25.421300392234098
            ],
            [
              86.34479849130601,
              25.420957773226924
            ],
            [
              86.34485536903652,
              25.420650410884367
            ],
            [
              86.34502092944172,
              25.42027015018665
            ],
            [
              86.34535563363173,
              25.419911066043266
            ],
            [
              86.34569156042888,
              25.419682937253278
            ],
            [
              86.34618164531526,
              25.419458170261898
            ],
            [
              86.34670826827752,
              25.41943615268219
            ],
            [
              86.34708069362465,
              25.41940183828797
            ],
            [
              86.34728769331387,
              25.419210766170167
            ],
            [
              86.3473789127394,
              25.418853536869896
            ],
            [
              86.3472271495587,
              25.418561257121656
            ],
            [
              86.34654399066659,
              25.418309154245346
            ],
            [
              86.34582400264448,
              25.417836159119755
            ],
            [
              86.34538910755415,
              25.41756412525047
            ],
            [
              86.34529256561056,
              25.417325596021456
            ],
            [
              86.3451557459046,
              25.417037860271638
            ],
            [
              86.34474252356884,
              25.416955181309564
            ],
            [
              86.34355377037696,
              25.416860196296007
            ],
            [
              86.34302528071552,
              25.416674622846244
            ],
            [
              86.34260931941647,
              25.416285079702742
            ],
            [
              86.34239636299858,
              25.415826335714392
            ],
            [
              86.34235075373499,
              25.415176766242244
            ],
            [
              86.34243860537653,
              25.414440479203606
            ],
            [
              86.34247400259196,
              25.41396180867337
            ],
            [
              86.34245031491622,
              25.413533277651204
            ],
            [
              86.34220505687738,
              25.41334560407203
            ],
            [
              86.34152815744618,
              25.41323325894258
            ],
            [
              86.34088647287243,
              25.41317032420364
            ],
            [
              86.34066247526138,
              25.41258074717659
            ],
            [
              86.34032337291973,
              25.41244794766173
            ],
            [
              86.33981609338048,
              25.412415534003287
            ],
            [
              86.33936501244538,
              25.412540755119675
            ],
            [
              86.33895392630338,
              25.41269723021447
            ],
            [
              86.33867555995637,
              25.413245347854758
            ],
            [
              86.33821068089854,
              25.414052138618132
            ],
            [
              86.33802778300837,
              25.414721369040365
            ],
            [
              86.33799795175443,
              25.41526770786665
            ],
            [
              86.33781125219397,
              25.415508238773402
            ],
            [
              86.33745489501233,
              25.415682371205623
            ],
            [
              86.33672090764486,
              25.415859314794545
            ],
            [
              86.33632968235544,
              25.416015615195064
            ],
            [
              86.33602719803973,
              25.41608555626655
            ],
            [
              86.33576375181129,
              25.416087570902427
            ],
            [
              86.33547911522365,
              25.41593622889385
            ],
            [
              86.33540035722771,
              25.41545835620402
            ],
            [
              86.33532115636238,
              25.41494899523782
            ],
            [
              86.33515035518583,
              25.41474269780743
            ],
            [
              86.33500704874521,
              25.414274372810368
            ],
            [
              86.33524574189597,
              25.41374004532122
            ],
            [
              86.33598546500657,
              25.41253868768382
            ],
            [
              86.33614980729624,
              25.412022965999196
            ],
            [
              86.33659994320364,
              25.411780420735365
            ],
            [
              86.33714579909612,
              25.41169067329793
            ],
            [
              86.33756169032661,
              25.411520648911882
            ],
            [
              86.33778227883111,
              25.411176009304324
            ],
            [
              86.33801081742592,
              25.410619242381834
            ],
            [
              86.33869091755449,
              25.4105284222089
            ],
            [
              86.33912337192214,
              25.410543261257278
            ],
            [
              86.33933749974318,
              25.409481114108598
            ],
            [
              86.33969100118051,
              25.409000121897254
            ],
            [
              86.34032620171456,
              25.408345556234682
            ],
            [
              86.34055201661742,
              25.408036995724114
            ],
            [
              86.34069788056166,
              25.407674863129714
            ],
            [
              86.34072162033968,
              25.406997763279172
            ],
            [
              86.34039497493607,
              25.406047922230368
            ],
            [
              86.33989316434027,
              25.404954983298474
            ],
            [
              86.3396269180631,
              25.404631997105916
            ],
            [
              86.33917381142705,
              25.404531589207622
            ],
            [
              86.33891056821787,
              25.404551566279295
            ],
            [
              86.33852080089419,
              25.404861391825705
            ],
            [
              86.3380729880301,
              25.405361071053203
            ],
            [
              86.33779297057964,
              25.405724172151867
            ],
            [
              86.33766005764683,
              25.40586061188903
            ],
            [
              86.33739716118734,
              25.405912171617736
            ],
            [
              86.3371747329331,
              25.406053745118083
            ],
            [
              86.33719805140124,
              25.406428122290556
            ],
            [
              86.33738436827937,
              25.406702049203375
            ],
            [
              86.33770978029611,
              25.406970379852208
            ],
            [
              86.33790045220677,
              25.407176599697408
            ],
            [
              86.33790211588665,
              25.407361618138776
            ],
            [
              86.33775127437741,
              25.407723767090715
            ],
            [
              86.33726877396695,
              25.408223754974347
            ],
            [
              86.3369317997342,
              25.408330118085118
            ],
            [
              86.33660742796658,
              25.408179020317192
            ],
            [
              86.33620755369762,
              25.407374133640396
            ],
            [
              86.33603132939172,
              25.406558632881808
            ],
            [
              86.3360582339345,
              25.405682868966082
            ],
            [
              86.33547578157562,
              25.405569862676337
            ],
            [
              86.33558663098673,
              25.405176367629924
            ],
            [
              86.33584493615678,
              25.404610370371948
            ],
            [
              86.33610615007173,
              25.404369282173505
            ],
            [
              86.3362142003324,
              25.40422851571344
            ],
            [
              86.3362920339619,
              25.404042921203995
            ],
            [
              86.33617404923248,
              25.403633073596364
            ],
            [
              86.33569923211266,
              25.403329755219186
            ],
            [
              86.33504187283548,
              25.403176600632307
            ],
            [
              86.334390635577,
              25.403140841272222
            ],
            [
              86.33371404067468,
              25.403060050786454
            ],
            [
              86.33318500932914,
              25.402806754305296
            ],
            [
              86.3327499417623,
              25.40250299971793
            ],
            [
              86.33223371230787,
              25.4020103797711
            ],
            [
              86.33185809075496,
              25.40168825721258
            ],
            [
              86.33188309625925,
              25.401701608303835
            ],
            [
              86.33533267096769,
              25.39512328591935
            ],
            [
              86.33707520409122,
              25.39272304365539
            ],
            [
              86.33793089431511,
              25.391723839776265
            ],
            [
              86.33900950686663,
              25.390655260219166
            ],
            [
              86.34076942059427,
              25.389103315973728
            ],
            [
              86.34245638213766,
              25.388269443026644
            ],
            [
              86.3439738809943,
              25.387387116351565
            ],
            [
              86.34517005427045,
              25.386696750370398
            ],
            [
              86.34614175832,
              25.38589975823934
            ],
            [
              86.34715097871081,
              25.384867765989792
            ],
            [
              86.34778701467805,
              25.384316949145543
            ],
            [
              86.34842145972893,
              25.384140793607482
            ],
            [
              86.34959055868072,
              25.384303514161083
            ],
            [
              86.35004208787511,
              25.384232411140623
            ],
            [
              86.35037737507177,
              25.3839546309356
            ],
            [
              86.35010971394802,
              25.383478229595145
            ],
            [
              86.34946887109571,
              25.38293696537416
            ],
            [
              86.35354817919138,
              25.380212184266732
            ],
            [
              86.35496841924885,
              25.379037157820168
            ],
            [
              86.35601983261019,
              25.378826184107588
            ],
            [
              86.36008754435386,
              25.379206203710073
            ],
            [
              86.36167360622623,
              25.379329702944972
            ],
            [
              86.36474819269408,
              25.378142040623136
            ],
            [
              86.36631543755621,
              25.376762788188426
            ],
            [
              86.3678000850229,
              25.374494992313803
            ],
            [
              86.3686770940651,
              25.37154587391976
            ],
            [
              86.36940007078219,
              25.368051761694677
            ],
            [
              86.37009613576996,
              25.363177820283973
            ],
            [
              86.37009632711116,
              25.363176496356626
            ],
            [
              86.37009625075433,
              25.36317640300797
            ],
            [
              86.36949494185936,
              25.36243496164447
            ],
            [
              86.36861572835141,
              25.3618661680815
            ],
            [
              86.36786065842253,
              25.361469026317796
            ],
            [
              86.3667827393704,
              25.361004028134076
            ],
            [
              86.36584388671075,
              25.360593261650344
            ],
            [
              86.36471132044494,
              25.35976716408241
            ],
            [
              86.36403087177004,
              25.359302235656774
            ],
            [
              86.36405567695,
              25.358968222215584
            ],
            [
              86.36439846777421,
              25.35873807628609
            ],
            [
              86.36587386439008,
              25.35821914478351
            ],
            [
              86.36766223225436,
              25.357447430680285
            ],
            [
              86.36893394037114,
              25.356779407237582
            ],
            [
              86.36950522307777,
              25.356314536322248
            ],
            [
              86.37010132982896,
              25.35579549700368
            ],
            [
              86.37018580560164,
              25.355411890391412
            ],
            [
              86.36964429486018,
              25.355100463768537
            ],
            [
              86.36919226440583,
              25.35512751638747
            ],
            [
              86.3686259951968,
              25.355565316622105
            ],
            [
              86.36731957617745,
              25.356106855270802
            ],
            [
              86.36675328540885,
              25.356337041115594
            ],
            [
              86.36592871731798,
              25.355953316890492
            ],
            [
              86.36502468066382,
              25.355334909315662
            ],
            [
              86.36313718460627,
              25.35410703383138
            ],
            [
              86.36143350002551,
              25.353253877064255
            ],
            [
              86.35990366730006,
              25.352247219087268
            ],
            [
              86.35820011117838,
              25.351190844121973
            ],
            [
              86.3568690307095,
              25.35049557415975
            ],
            [
              86.35491206523609,
              25.349822834619648
            ],
            [
              86.35281602528535,
              25.349181608681235
            ],
            [
              86.35066039738686,
              25.34848166322733
            ],
            [
              86.34921513565547,
              25.34796678825746
            ],
            [
              86.34796365310731,
              25.346806639379587
            ],
            [
              86.3474571757636,
              25.346188167980667
            ],
            [
              86.34663273164021,
              25.345750156003792
            ],
            [
              86.34560963676988,
              25.345443098212264
            ],
            [
              86.34459149431169,
              25.345158541643855
            ],
            [
              86.34354356012545,
              25.344797177664912
            ],
            [
              86.34223729741291,
              25.344539676188198
            ],
            [
              86.34096090098863,
              25.344255024943184
            ],
            [
              86.34022591020297,
              25.343893774360676
            ],
            [
              86.33956552719657,
              25.343189432115523
            ],
            [
              86.33885548442295,
              25.342390406698268
            ],
            [
              86.33843348734351,
              25.341744832757524
            ],
            [
              86.33854290214514,
              25.341487599196665
            ],
            [
              86.33936738040447,
              25.34148777780872
            ],
            [
              86.33979448889787,
              25.341357037773264
            ],
            [
              86.3399635132068,
              25.34097337562085
            ],
            [
              86.34004810126889,
              25.340327997900772
            ],
            [
              86.34033147841853,
              25.33939824472043
            ],
            [
              86.34010308355417,
              25.339168032319304
            ],
            [
              86.33933826331115,
              25.33909109692461
            ],
            [
              86.33863299328665,
              25.339063822320476
            ],
            [
              86.3382355687235,
              25.339474450845728
            ],
            [
              86.33800698700956,
              25.339736205201614
            ],
            [
              86.33763942064981,
              25.33973608829023
            ],
            [
              86.3369838319521,
              25.339708847118764
            ],
            [
              86.33644739040375,
              25.339735781397813
            ],
            [
              86.33590620934399,
              25.339374567657565
            ],
            [
              86.33556849310283,
              25.339112702102433
            ],
            [
              86.33471928512203,
              25.338986057108205
            ],
            [
              86.33349745416476,
              25.33911210536408
            ],
            [
              86.33225070304317,
              25.33921554483939
            ],
            [
              86.33151072930261,
              25.339138681733026
            ],
            [
              86.33120293324859,
              25.338804520044565
            ],
            [
              86.33046286428662,
              25.338853985304425
            ],
            [
              86.3301500780912,
              25.3384702202233
            ],
            [
              86.32930106055326,
              25.337643969092912
            ],
            [
              86.32800013563015,
              25.336817549127872
            ],
            [
              86.32746012417688,
              25.336629610183195
            ],
            [
              86.32726028406044,
              25.336560059895927
            ],
            [
              86.3267485138431,
              25.33687134427195
            ],
            [
              86.32632629398147,
              25.337178159139285
            ],
            [
              86.32516399258144,
              25.33735832165939
            ],
            [
              86.32332129281215,
              25.33761490798489
            ],
            [
              86.32198519794738,
              25.337668635386912
            ],
            [
              86.32093735628757,
              25.33756438512558
            ],
            [
              86.31922403637711,
              25.337107854098104
            ],
            [
              86.31613560687073,
              25.335536008215392
            ],
            [
              86.31466085614353,
              25.334736478393374
            ],
            [
              86.31446240572085,
              25.334298580033643
            ],
            [
              86.31452242396162,
              25.333522255015097
            ],
            [
              86.31477604980736,
              25.332931049346602
            ],
            [
              86.31531779590743,
              25.33197446328362
            ],
            [
              86.31630692907015,
              25.330404083684645
            ],
            [
              86.31744508375535,
              25.32853142389641
            ],
            [
              86.31877704457318,
              25.326446715139532
            ],
            [
              86.32096354666967,
              25.323378290284786
            ],
            [
              86.32169885815391,
              25.322579605837877
            ],
            [
              86.32175266903607,
              25.32233254164921
            ],
            [
              86.3217833851306,
              25.322191512338915
            ],
            [
              86.32144588179014,
              25.321780614868917
            ],
            [
              86.32065161656875,
              25.32116199282952
            ],
            [
              86.31935601236708,
              25.320118886031125
            ],
            [
              86.31688883166007,
              25.31828542862643
            ],
            [
              86.3153848389737,
              25.31694422602255
            ],
            [
              86.31382607869945,
              25.315860385649867
            ],
            [
              86.3119594576925,
              25.31483045014423
            ],
            [
              86.31000368518175,
              25.31362000865171
            ],
            [
              86.30957668268955,
              25.313515966681774
            ],
            [
              86.30940776258521,
              25.313696415342704
            ],
            [
              86.30849760660735,
              25.316309396096614
            ],
            [
              86.30779078339569,
              25.319324180104807
            ],
            [
              86.30665186604082,
              25.32241991460036
            ],
            [
              86.30591568768234,
              25.324608729284858
            ],
            [
              86.30506532806136,
              25.326517514369634
            ],
            [
              86.30392699730635,
              25.328426197095357
            ],
            [
              86.30316255974564,
              25.32783001679953
            ],
            [
              86.30214496615811,
              25.326904294849108
            ],
            [
              86.30081150695038,
              25.32569098838807
            ],
            [
              86.30080981182942,
              25.325689445628043
            ],
            [
              86.30083971944018,
              25.325481801317842
            ],
            [
              86.30126699591854,
              25.325301506629618
            ],
            [
              86.30180340782248,
              25.3250445198757
            ],
            [
              86.30239979664466,
              25.32427299931698
            ],
            [
              86.30299613785613,
              25.323681988824614
            ],
            [
              86.30399037883956,
              25.321980869795812
            ],
            [
              86.30494994036141,
              25.319927669029365
            ],
            [
              86.30642659641535,
              25.316809425269035
            ],
            [
              86.30841483044718,
              25.31330336659706
            ],
            [
              86.3086982543092,
              25.312658036249502
            ],
            [
              86.3085593307488,
              25.312296896004998
            ],
            [
              86.30830139298973,
              25.31193564830255
            ],
            [
              86.30762149228717,
              25.311267375218314
            ],
            [
              86.30700107622604,
              25.310621594689763
            ],
            [
              86.30664871744577,
              25.310269381280747
            ],
            [
              86.30629635956376,
              25.309917167659886
            ],
            [
              86.30465364723463,
              25.308499079171444
            ],
            [
              86.30252935886146,
              25.30687316468622
            ],
            [
              86.30068795176787,
              25.305662602272257
            ],
            [
              86.29844962586266,
              25.304036631048156
            ],
            [
              86.29765565169541,
              25.30339070802937
            ],
            [
              86.29683673670263,
              25.302799023092078
            ],
            [
              86.29513429179697,
              25.301868362060468
            ],
            [
              86.29476698325371,
              25.301637958105502
            ],
            [
              86.29581564597368,
              25.30016706014133
            ],
            [
              86.2962678767523,
              25.29952183688068
            ],
            [
              86.29626802856761,
              25.29923747287457
            ],
            [
              86.29593047941307,
              25.299083881842073
            ],
            [
              86.29534949939297,
              25.29914675660829
            ],
            [
              86.29407338144644,
              25.299430436992708
            ],
            [
              86.29268343707193,
              25.29899185869875
            ],
            [
              86.29013685966683,
              25.29829530782683
            ],
            [
              86.28823568406416,
              25.297599120864135
            ],
            [
              86.28710395143494,
              25.297160561933755
            ],
            [
              86.28628011996258,
              25.2966952208169
            ],
            [
              86.2855159474049,
              25.296153136150618
            ],
            [
              86.28461270216651,
              25.295647035152104
            ],
            [
              86.28373434115979,
              25.29509133684355
            ],
            [
              86.28285598913622,
              25.29453563517574
            ],
            [
              86.28107416280385,
              25.293712972253513
            ],
            [
              86.27940164886519,
              25.2928859446783
            ],
            [
              86.2784635678584,
              25.292551302865554
            ],
            [
              86.27744615213726,
              25.292162444733595
            ],
            [
              86.27589833334315,
              25.29134221127108
            ],
            [
              86.27568937712324,
              25.291231477058453
            ],
            [
              86.27393248083665,
              25.290408850197384
            ],
            [
              86.27197720509427,
              25.289527340658083
            ],
            [
              86.27029961657253,
              25.288921338373363
            ],
            [
              86.26836897083864,
              25.28819775304418
            ],
            [
              86.26632934778267,
              25.287266444657003
            ],
            [
              86.26443348840986,
              25.286597073047783
            ],
            [
              86.26196676584361,
              25.285872988128226
            ],
            [
              86.26086493723187,
              25.285614895937226
            ],
            [
              86.26084342797074,
              25.285583807158943
            ],
            [
              86.26072118432855,
              25.285407112281284
            ],
            [
              86.26050875073014,
              25.286386371875462
            ],
            [
              86.26016103174828,
              25.287120414198284
            ],
            [
              86.25981307291624,
              25.287876759230706
            ],
            [
              86.259460777018,
              25.289346561985372
            ],
            [
              86.25895286865806,
              25.29219820524411
            ],
            [
              86.25870261598622,
              25.293021860391406
            ],
            [
              86.257301509146,
              25.297563438290382
            ],
            [
              86.25660150863894,
              25.299744868886012
            ],
            [
              86.25667035462399,
              25.300525609240772
            ],
            [
              86.25653856458528,
              25.302018817149698
            ],
            [
              86.25625979130149,
              25.30348906892692
            ],
            [
              86.25583334756138,
              25.305047613352485
            ],
            [
              86.25510373229436,
              25.308031761089534
            ],
            [
              86.25495160170267,
              25.308833598995662
            ],
            [
              86.25482451614111,
              25.309568830730793
            ],
            [
              86.25488466284096,
              25.311754177867908
            ],
            [
              86.25482109086495,
              25.314139640600857
            ],
            [
              86.25488928107985,
              25.315009434343942
            ],
            [
              86.25488928557142,
              25.315009505804394
            ],
            [
              86.25488969430488,
              25.315009657657846
            ],
            [
              86.25488983264543,
              25.31500971206522
            ],
            [
              86.25572137795113,
              25.315325885167752
            ],
            [
              86.2564810481526,
              25.315463455842405
            ],
            [
              86.25728915461588,
              25.315690486254606
            ],
            [
              86.2579724967643,
              25.31627366787354
            ],
            [
              86.25873207713425,
              25.316411226915204
            ],
            [
              86.25953992308612,
              25.316682852760618
            ],
            [
              86.26029920072382,
              25.316887316789767
            ],
            [
              86.26056821291374,
              25.31702249261769
            ],
            [
              86.26068918184656,
              25.317290666754392
            ],
            [
              86.2607534185759,
              25.31751447808791
            ],
            [
              86.26088143209714,
              25.31796049981356
            ],
            [
              86.26080267230459,
              25.318807410861922
            ],
            [
              86.26069991312094,
              25.319564983260875
            ],
            [
              86.26015120956896,
              25.321033794353554
            ],
            [
              86.25990144288568,
              25.321768322733945
            ],
            [
              86.26002115866868,
              25.32225944525438
            ],
            [
              86.26036001038037,
              25.32301923310928
            ],
            [
              86.26072425387187,
              25.3236230146124
            ],
            [
              86.26159914468664,
              25.324987531627208
            ],
            [
              86.26291180609893,
              25.326978494343347
            ],
            [
              86.26322682011624,
              25.327626722614607
            ],
            [
              86.26332099859232,
              25.32831827611514
            ],
            [
              86.2636038502275,
              25.32996667630698
            ],
            [
              86.26370010111694,
              25.330527606794334
            ],
            [
              86.26398033955299,
              25.332870087973834
            ],
            [
              86.26434976003546,
              25.33668475885682
            ],
            [
              86.26435572035736,
              25.336764371007416
            ],
            [
              86.2644633079857,
              25.338201498693323
            ],
            [
              86.26443431396159,
              25.33893713505681
            ],
            [
              86.2635426956179,
              25.340315023233664
            ],
            [
              86.26338675886437,
              25.34176359022945
            ],
            [
              86.26338203372597,
              25.342543955803162
            ],
            [
              86.26349965912928,
              25.34336945416329
            ],
            [
              86.26349889017139,
              25.34338914096329
            ],
            [
              86.26341262225971,
              25.3455986633137
            ],
            [
              86.26332953618076,
              25.347159027391694
            ],
            [
              86.26336457856168,
              25.349478065175358
            ],
            [
              86.26335512289499,
              25.35103879485123
            ],
            [
              86.26349824607934,
              25.35170837701436
            ],
            [
              86.26359467393688,
              25.35199872905474
            ],
            [
              86.26362073316494,
              25.35205484488457
            ],
            [
              86.2641032218973,
              25.35309383339447
            ],
            [
              86.26426128136987,
              25.355368875810917
            ],
            [
              86.26428437795414,
              25.35559194620054
            ],
            [
              86.26445458444599,
              25.35586036121073
            ],
            [
              86.26467337901488,
              25.35619593129199
            ],
            [
              86.26476711641817,
              25.356932179070345
            ],
            [
              86.2649052620375,
              25.35842664118414
            ],
            [
              86.26499846314653,
              25.359252104192173
            ],
            [
              86.26528339527992,
              25.361573548200962
            ],
            [
              86.26530241620776,
              25.36172852271187
            ],
            [
              86.26548087462378,
              25.364694831801312
            ],
            [
              86.26553602130076,
              25.365649504024535
            ],
            [
              86.26556977100597,
              25.366233746857485
            ],
            [
              86.2656633826451,
              25.366992296694605
            ],
            [
              86.26569605616864,
              25.367805641833773
            ],
            [
              86.26576826993767,
              25.36960328085419
            ],
            [
              86.2657699929064,
              25.369646162934913
            ],
            [
              86.26615352412539,
              25.371164150865145
            ],
            [
              86.26641929609208,
              25.37185673464445
            ],
            [
              86.26754119486391,
              25.373021707089666
            ],
            [
              86.26758191639402,
              25.373145703702257
            ],
            [
              86.26804727425395,
              25.374562693756687
            ],
            [
              86.26779286597557,
              25.376055287792905
            ],
            [
              86.26781217166935,
              25.37692498868544
            ],
            [
              86.26697667018314,
              25.377099175173864
            ],
            [
              86.26614210743642,
              25.37711732005877
            ],
            [
              86.26439848375816,
              25.377309173074323
            ],
            [
              86.26275255186704,
              25.377568499098317
            ],
            [
              86.26152391617147,
              25.377807597958803
            ],
            [
              86.26122858963194,
              25.377939942124915
            ],
            [
              86.26137132204911,
              25.378676434841626
            ],
            [
              86.2616347413281,
              25.379770225320197
            ],
            [
              86.2615849602883,
              25.379881497808377
            ],
            [
              86.26084861933475,
              25.37987780090129
            ],
            [
              86.25996480016437,
              25.37991796691797
            ],
            [
              86.25950015466849,
              25.379648065703336
            ],
            [
              86.25864510674003,
              25.378997110818887
            ],
            [
              86.2583032609435,
              25.3787056110706
            ],
            [
              86.25764081720186,
              25.378679966214325
            ],
            [
              86.25587469431898,
              25.3785149144029
            ],
            [
              86.2552633063265,
              25.37815512972844
            ],
            [
              86.25396931639737,
              25.3770560181597
            ],
            [
              86.25362971728735,
              25.376385251817297
            ],
            [
              86.25365879036322,
              25.375649624140262
            ],
            [
              86.25339321961914,
              25.37493480508478
            ],
            [
              86.25300486444709,
              25.37424166673581
            ],
            [
              86.25261600442187,
              25.373615348169977
            ],
            [
              86.25205470918458,
              25.37309967524339
            ],
            [
              86.25105323586479,
              25.372336499914713
            ],
            [
              86.25075928913753,
              25.372245877389126
            ],
            [
              86.25024356992617,
              25.37228776911087
            ],
            [
              86.25000001329647,
              25.372286525638312
            ],
            [
              86.24822011295207,
              25.372220196259793
            ],
            [
              86.24668545807013,
              25.372300842617204
            ],
            [
              86.24084001810843,
              25.372403549176585
            ],
            [
              86.2401563929907,
              25.372687630107347
            ],
            [
              86.24007987988468,
              25.373240330282265
            ],
            [
              86.23977714314235,
              25.374920267649628
            ],
            [
              86.24281992655418,
              25.3751351611349
            ],
            [
              86.24284027878525,
              25.375776855698398
            ],
            [
              86.24282262329666,
              25.378608794952935
            ],
            [
              86.24281268972626,
              25.38020174773568
            ],
            [
              86.24288009211865,
              25.38110926076087
            ],
            [
              86.24302234573378,
              25.381729459941933
            ],
            [
              86.24333713966385,
              25.38201868883723
            ],
            [
              86.24416344419818,
              25.382310635084337
            ],
            [
              86.24508720516104,
              25.382580863914836
            ],
            [
              86.24641222200174,
              25.38302530822727
            ],
            [
              86.24770297889415,
              25.383357055755145
            ],
            [
              86.25000002587286,
              25.3836534836119
            ],
            [
              86.25024643285698,
              25.383770416601944
            ],
            [
              86.2507840377236,
              25.38415224022327
            ],
            [
              86.25088046019125,
              25.384442598722472
            ],
            [
              86.25082860224654,
              25.384888243004347
            ],
            [
              86.2506769863895,
              25.385600940934104
            ],
            [
              86.25023280092255,
              25.385977762716518
            ],
            [
              86.25000003036445,
              25.38611482940141
            ],
            [
              86.24830333557493,
              25.386314312319666
            ],
            [
              86.24804196625145,
              25.386360098763685
            ],
            [
              86.24699656172102,
              25.386379763142116
            ],
            [
              86.24662365397859,
              25.386172976988007
            ],
            [
              86.2463820386082,
              25.38586200702462
            ],
            [
              86.24555305260274,
              25.38601262388024
            ],
            [
              86.24494466318669,
              25.385921006886264
            ],
            [
              86.24428794171341,
              25.38578489195938
            ],
            [
              86.24362860344769,
              25.386069112659712
            ],
            [
              86.24267594997035,
              25.38650668798458
            ],
            [
              86.24133293897619,
              25.38705295331095
            ],
            [
              86.24040749187553,
              25.387048178050932
            ],
            [
              86.23963015001577,
              25.3867122140117
            ],
            [
              86.23863539160277,
              25.38610972704025
            ],
            [
              86.23788116339526,
              25.385973079121847
            ],
            [
              86.23632271124313,
              25.385920749617128
            ],
            [
              86.23505646488327,
              25.38589204827941
            ],
            [
              86.2344216380484,
              25.386132106171644
            ],
            [
              86.23468673897356,
              25.386575962009836
            ],
            [
              86.23507398742119,
              25.38697629267257
            ],
            [
              86.2362170846371,
              25.387225593766864
            ],
            [
              86.2374600646311,
              25.387099300267433
            ],
            [
              86.2379464457636,
              25.38721243909629
            ],
            [
              86.23813530577229,
              25.38816482980934
            ],
            [
              86.2381819319288,
              25.388496927605537
            ],
            [
              86.23865995423756,
              25.389959662214874
            ],
            [
              86.23918423978348,
              25.39179882726085
            ],
            [
              86.23929838601165,
              25.393016225131934
            ],
            [
              86.23963630706874,
              25.39350478522455
            ],
            [
              86.24019588203227,
              25.39361829459678
            ],
            [
              86.24204780210958,
              25.393495107805524
            ],
            [
              86.24346026365501,
              25.39352450362279
            ],
            [
              86.24539497965546,
              25.39576903486811
            ],
            [
              86.24604983173467,
              25.396214868617932
            ],
            [
              86.24999636883135,
              25.39677307021119
            ],
            [
              86.25000002677119,
              25.396781389725295
            ],
            [
              86.25034866472957,
              25.397572577604038
            ],
            [
              86.25037593309003,
              25.39819561520574
            ],
            [
              86.2506150430591,
              25.399867223660255
            ],
            [
              86.25076610375729,
              25.400632481703777
            ],
            [
              86.2511079360791,
              25.40080408109084
            ],
            [
              86.25285189393063,
              25.401067781611196
            ],
            [
              86.25319076899852,
              25.401720664016086
            ],
            [
              86.25343540001332,
              25.402486396370996
            ],
            [
              86.25336365516483,
              25.40401492040211
            ],
            [
              86.25319367415017,
              25.406335607926554
            ],
            [
              86.25314885720063,
              25.408543782029557
            ],
            [
              86.2529209869524,
              25.410127927060646
            ],
            [
              86.25292096000292,
              25.410128129913605
            ],
            [
              86.25310309163018,
              25.410921808107073
            ],
            [
              86.25372500608113,
              25.41117979613011
            ],
            [
              86.25462757219319,
              25.411410940765418
            ],
            [
              86.25618345875685,
              25.411871770621158
            ],
            [
              86.2570234482262,
              25.412159112999277
            ],
            [
              86.25786334337245,
              25.412446539077976
            ],
            [
              86.2578280638363,
              25.41312587780242
            ],
            [
              86.25767367757496,
              25.414120999252393
            ],
            [
              86.25766565202619,
              25.414172729897658
            ],
            [
              86.25709616415352,
              25.41552888260043
            ],
            [
              86.25636929683293,
              25.417138976627662
            ],
            [
              86.25589820861984,
              25.417702871273953
            ],
            [
              86.2555817051958,
              25.418465755728455
            ],
            [
              86.25485706210388,
              25.419707784767386
            ],
            [
              86.2544790743885,
              25.420328764874444
            ],
            [
              86.25363373006175,
              25.42091901474995
            ],
            [
              86.25310271343942,
              25.421086264089205
            ],
            [
              86.2528024335894,
              25.421068666977188
            ],
            [
              86.25257291672925,
              25.42105521580115
            ],
            [
              86.25216903238088,
              25.420826685940405
            ],
            [
              86.25164762773208,
              25.419436650039206
            ],
            [
              86.25149364481429,
              25.419124418145174
            ],
            [
              86.2511531590671,
              25.418726353153144
            ],
            [
              86.25031208892449,
              25.41860882685776
            ],
            [
              86.24999996388912,
              25.418572652602542
            ],
            [
              86.24762752580017,
              25.418766048637192
            ],
            [
              86.24561234769972,
              25.418538274676827
            ],
            [
              86.24462133076986,
              25.41850212230701
            ],
            [
              86.24424780768146,
              25.418096377378316
            ],
            [
              86.24373902795567,
              25.417472490020515
            ],
            [
              86.24326571461563,
              25.416631338804315
            ],
            [
              86.24316417264916,
              25.416475499248225
            ],
            [
              86.24323800877562,
              25.41560619123869
            ],
            [
              86.24323994105181,
              25.415296015190904
            ],
            [
              86.24323994823831,
              25.415295567310803
            ],
            [
              86.2430357998018,
              25.415139197821166
            ],
            [
              86.2417696405785,
              25.415381181348092
            ],
            [
              86.23827485905169,
              25.416729812877843
            ],
            [
              86.2370069148759,
              25.417251315684148
            ],
            [
              86.23652660725305,
              25.417528392874065
            ],
            [
              86.23720802610846,
              25.417873629337357
            ],
            [
              86.23788788728517,
              25.418467361401333
            ],
            [
              86.23825885286993,
              25.419276934232425
            ],
            [
              86.23832247784658,
              25.42002269664647
            ],
            [
              86.23773320188482,
              25.421324306377944
            ],
            [
              86.23748986624065,
              25.421975376147117
            ],
            [
              86.2373500201105,
              25.422471663697777
            ],
            [
              86.23738070476395,
              25.42303096564182
            ],
            [
              86.23724046786664,
              25.423589288971314
            ],
            [
              86.23692890966821,
              25.42420893961783
            ],
            [
              86.23644485517232,
              25.4250762019401
            ],
            [
              86.23609957331982,
              25.425633547906134
            ],
            [
              86.23592649132077,
              25.42597434684648
            ],
            [
              86.23588934688208,
              25.42644010405622
            ],
            [
              86.23615907323267,
              25.427031711325718
            ],
            [
              86.23700521885665,
              25.428371744285432
            ],
            [
              86.2380913026964,
              25.429653416697146
            ],
            [
              86.23880359035994,
              25.43055749603704
            ],
            [
              86.23937759855512,
              25.431709183618235
            ],
            [
              86.23988339856909,
              25.43282945068143
            ],
            [
              86.24051908329507,
              25.433933774349253
            ],
            [
              86.24107002634702,
              25.434788156303927
            ],
            [
              86.24168601101881,
              25.435404838632145
            ],
            [
              86.24230368182839,
              25.435768775686643
            ],
            [
              86.24285075134485,
              25.43597368966535
            ],
            [
              86.2435662738417,
              25.435941345609358
            ],
            [
              86.2443682160655,
              25.436068100673957
            ],
            [
              86.24532668793094,
              25.436115830615105
            ],
            [
              86.2465568112366,
              25.43607356435621
            ],
            [
              86.24758494565569,
              25.43627316016596
            ],
            [
              86.24889481420577,
              25.436010936832606
            ],
            [
              86.2498786526982,
              25.43581397224738
            ],
            [
              86.25000002587286,
              25.435792735633846
            ],
            [
              86.25049856121115,
              25.435772617715404
            ],
            [
              86.25139177136951,
              25.435582755150868
            ],
            [
              86.25185797813737,
              25.435196294184507
            ],
            [
              86.2522554790573,
              25.434388321791747
            ],
            [
              86.25222508006809,
              25.43354575210783
            ],
            [
              86.25229857932634,
              25.43318970835462
            ],
            [
              86.25262047623535,
              25.433061765014546
            ],
            [
              86.25344046830814,
              25.43316309832525
            ],
            [
              86.25429526111508,
              25.433426692388025
            ],
            [
              86.25511535739247,
              25.43352801565677
            ],
            [
              86.25589975372215,
              25.43362915468573
            ],
            [
              86.25771825197933,
              25.433832771866363
            ],
            [
              86.25846715227888,
              25.433901389994254
            ],
            [
              86.25928784863086,
              25.43390552981195
            ],
            [
              86.26018063658105,
              25.433780446086136
            ],
            [
              86.26100212524713,
              25.433654908739793
            ],
            [
              86.26178780976093,
              25.433529277968425
            ],
            [
              86.26261008175793,
              25.433274242881094
            ],
            [
              86.26343254868935,
              25.43298669690813
            ],
            [
              86.26418302193898,
              25.432796129836497
            ],
            [
              86.26482639534542,
              25.43260493292529
            ],
            [
              86.26507599494208,
              25.432638510181366
            ],
            [
              86.26518053817989,
              25.433060286092246
            ],
            [
              86.26567060689663,
              25.434617989265288
            ],
            [
              86.26580879114351,
              25.43536393338774
            ],
            [
              86.26598287117083,
              25.436077638389065
            ],
            [
              86.26594265629055,
              25.43682259999509
            ],
            [
              86.26594743981943,
              25.436931300179726
            ],
            [
              86.26597403624001,
              25.437535592209322
            ],
            [
              86.26636164131882,
              25.43834761663858
            ],
            [
              86.26692873607959,
              25.438966029730828
            ],
            [
              86.26756812186453,
              25.439455217324635
            ],
            [
              86.26813513128533,
              25.440106133974858
            ],
            [
              86.26855992571859,
              25.440658995024208
            ],
            [
              86.26880504272197,
              25.441437885987476
            ],
            [
              86.26912186055634,
              25.4421522980567
            ],
            [
              86.2692957770903,
              25.44289832612439
            ],
            [
              86.26979150519333,
              25.44354888022343
            ],
            [
              86.27028752884209,
              25.44413450861734
            ],
            [
              86.27103416089551,
              25.444591888332315
            ],
            [
              86.27178118910602,
              25.444984338899236
            ],
            [
              86.27238609126216,
              25.445279009175295
            ],
            [
              86.27244791511663,
              25.445384607097747
            ],
            [
              86.27263338308684,
              25.445701397064873
            ],
            [
              86.27280751880973,
              25.44641509434956
            ],
            [
              86.27315122861046,
              25.448619956371896
            ],
            [
              86.27321796894448,
              25.449397957118315
            ],
            [
              86.2737085901251,
              25.450890798937245
            ],
            [
              86.27395434403401,
              25.451572431400418
            ],
            [
              86.2744401259902,
              25.453875335276674
            ],
            [
              86.27457867585143,
              25.454588854329387
            ],
            [
              86.27453830915583,
              25.45536623412651
            ],
            [
              86.27434958030116,
              25.457082642288988
            ],
            [
              86.27462678332982,
              25.45847726201446
            ],
            [
              86.27494445456377,
              25.459061992922113
            ],
            [
              86.27547569127331,
              25.459745030942027
            ],
            [
              86.27561454207017,
              25.460393805353956
            ],
            [
              86.27582345427265,
              25.461269578835356
            ],
            [
              86.27621216607585,
              25.461919584332186
            ],
            [
              86.2767076192944,
              25.46263485867652
            ],
            [
              86.27673896690455,
              25.463347757248876
            ],
            [
              86.27602416216162,
              25.46368683791513
            ],
            [
              86.27608063115869,
              25.463808372238958
            ],
            [
              86.2768707183157,
              25.465508779043155
            ],
            [
              86.27778647888263,
              25.467370745119258
            ],
            [
              86.27859473895786,
              25.468867918674388
            ],
            [
              86.27878557975177,
              25.469678892372468
            ],
            [
              86.2787366700778,
              25.470360738768044
            ],
            [
              86.27879821186129,
              25.471159074309863
            ],
            [
              86.27901734779,
              25.471793958873803
            ],
            [
              86.27928292212734,
              25.472031295126655
            ],
            [
              86.27967689985475,
              25.47216384810563
            ],
            [
              86.28048012666942,
              25.47190102089955
            ],
            [
              86.2811474859923,
              25.4714404677128
            ],
            [
              86.28158384084493,
              25.47012865292664
            ],
            [
              86.28208404076145,
              25.46931282023695
            ],
            [
              86.28305977555168,
              25.467708309997814
            ],
            [
              86.28395355075037,
              25.46640227529285
            ],
            [
              86.2847920696776,
              25.46561565282487
            ],
            [
              86.28605301238403,
              25.46480794538277
            ],
            [
              86.2872799089412,
              25.464086176915522
            ],
            [
              86.28870625125438,
              25.463439773653416
            ],
            [
              86.29019295855801,
              25.462869675203724
            ],
            [
              86.29187468921154,
              25.462433520611754
            ]
          ]
        ]
      }
    }
  ]
}