{
  "type": "FeatureCollection",
  "features": [
    {
      "type": "Feature",
      "properties": {
        "object_id": "10-234-01468",
        "stname": "BIHAR",
        "dtname": "Rohtas",
        "sdtname": "Chenari",
        "st_area_sh": 0.0,
        "st_length_": 0.0,
        "remarks": "",
        "dist_lgd": 215,
        "state_lgd": 10,
        "subdt_lgd": 1468,
        "ac_no": null,
        "st_length(shape)": 121720.69626398994,
        "st_area(shape)": 292642418.8385522
      },
      "geometry": {
        "type": "Polygon",
        "coordinates": [
          [
            [
              83.83772524015112,
              25.031680321843567
            ],
            [
              83.83862533679444,
              25.031391018703943
            ],
            [
              83.83952073435049,
              25.03151235135248
            ],
            [
              83.8410182663533,
              25.032266638936125
            ],
            [
              83.84199712099257,
              25.03201864290412
            ],
            [
              83.84337758364921,
              25.0321806636383
            ],
            [
              83.84399160909537,
              25.031775780701068
            ],
            [
              83.84525651696546,
              25.031643308725975
            ],
            [
              83.84610860494509,
              25.031651400920623
            ],
            [
              83.84676550338648,
              25.031395817705985
            ],
            [
              83.8477819381473,
              25.031333231248972
            ],
            [
              83.84851349467368,
              25.031484556884834
            ],
            [
              83.85000811882989,
              25.032500542816965
            ],
            [
              83.85188207907274,
              25.030649799353615
            ],
            [
              83.85287353078718,
              25.029287167295397
            ],
            [
              83.85051145117181,
              25.029188264279256
            ],
            [
              83.85039458843816,
              25.029002120396633
            ],
            [
              83.8492042317535,
              25.026062049024777
            ],
            [
              83.84835541903144,
              25.023590014757403
            ],
            [
              83.84869333110534,
              25.022627490224345
            ],
            [
              83.84914595624439,
              25.022035981757256
            ],
            [
              83.84907929496212,
              25.020925228298033
            ],
            [
              83.84933851192216,
              25.019478991716973
            ],
            [
              83.84963874326318,
              25.018335619791984
            ],
            [
              83.84931029044921,
              25.01672140267098
            ],
            [
              83.84895513431512,
              25.015716179677185
            ],
            [
              83.85014839076152,
              25.014463822990262
            ],
            [
              83.85129224795214,
              25.01406836292802
            ],
            [
              83.85324178705308,
              25.012953963639415
            ],
            [
              83.85422844176394,
              25.01200204609173
            ],
            [
              83.8531064073465,
              25.010470603686677
            ],
            [
              83.85210377699664,
              25.008899710871695
            ],
            [
              83.85138484988488,
              25.008080638001587
            ],
            [
              83.85085869943644,
              25.00774178692612
            ],
            [
              83.85071578196633,
              25.005921733387307
            ],
            [
              83.85021564223696,
              25.00328602027434
            ],
            [
              83.85003491737146,
              25.001316709394874
            ],
            [
              83.85115525217635,
              25.001232443287346
            ],
            [
              83.85209805113504,
              25.000650069058448
            ],
            [
              83.85252056474576,
              25.00044560186221
            ],
            [
              83.85313065826591,
              25.000009921621974
            ],
            [
              83.85495530279631,
              24.999842043762573
            ],
            [
              83.85761172709263,
              24.999275735991247
            ],
            [
              83.85908722521819,
              24.998878841332107
            ],
            [
              83.86306849118375,
              24.998099139697317
            ],
            [
              83.86313217365256,
              24.996840633068352
            ],
            [
              83.86302211655553,
              24.995607650285386
            ],
            [
              83.86268639187932,
              24.994191983909648
            ],
            [
              83.86248422602463,
              24.99234881803953
            ],
            [
              83.8606888189618,
              24.992124406988516
            ],
            [
              83.86040362901191,
              24.989296674254504
            ],
            [
              83.85986780640286,
              24.988059677366284
            ],
            [
              83.8606253233426,
              24.987200264359643
            ],
            [
              83.8626587893456,
              24.98518391471751
            ],
            [
              83.86432167603938,
              24.98351605829341
            ],
            [
              83.86501013678829,
              24.982633390686765
            ],
            [
              83.86488507243612,
              24.982298275327388
            ],
            [
              83.86485212582478,
              24.980817754859746
            ],
            [
              83.86416595667816,
              24.979741814754153
            ],
            [
              83.86350188429088,
              24.97889618735418
            ],
            [
              83.86298489576001,
              24.97818740701104
            ],
            [
              83.86272606866878,
              24.976975536045547
            ],
            [
              83.86276188539749,
              24.975996561238745
            ],
            [
              83.86320427692884,
              24.97540497320248
            ],
            [
              83.86401261066588,
              24.975304187266094
            ],
            [
              83.86397006914896,
              24.976012313233223
            ],
            [
              83.86442300690173,
              24.97668438179467
            ],
            [
              83.8649316267274,
              24.976373294258764
            ],
            [
              83.86536482040854,
              24.975285107080374
            ],
            [
              83.86492899825689,
              24.973963291122793
            ],
            [
              83.86475993532042,
              24.971813547878266
            ],
            [
              83.86565135872968,
              24.971366076320095
            ],
            [
              83.86677754605864,
              24.97074024077502
            ],
            [
              83.86713195569276,
              24.97003950480489
            ],
            [
              83.86763702178317,
              24.9700441783511
            ],
            [
              83.86848220441316,
              24.97019191574123
            ],
            [
              83.86853039363825,
              24.969420656987115
            ],
            [
              83.86869263476846,
              24.968645897360727
            ],
            [
              83.86779978842779,
              24.96833073805744
            ],
            [
              83.86800035977285,
              24.96766469820349
            ],
            [
              83.86889851336022,
              24.96661698073032
            ],
            [
              83.86894896005163,
              24.966085003811987
            ],
            [
              83.86880026192264,
              24.96565940514835
            ],
            [
              83.86818362956555,
              24.96544157769611
            ],
            [
              83.86729501878145,
              24.96564541902781
            ],
            [
              83.86640461496003,
              24.96556492673134
            ],
            [
              83.86625737120349,
              24.96499940413672
            ],
            [
              83.86647456766954,
              24.96373786717181
            ],
            [
              83.8665466817256,
              24.96348576182504
            ],
            [
              83.86627899724564,
              24.96306359824793
            ],
            [
              83.86597757743353,
              24.962564369206056
            ],
            [
              83.86563163082772,
              24.962069198744167
            ],
            [
              83.8656371321105,
              24.96157739385302
            ],
            [
              83.86587214396526,
              24.961367444254524
            ],
            [
              83.86637642043652,
              24.961444338809923
            ],
            [
              83.86706923801457,
              24.961482347919596
            ],
            [
              83.86746280521191,
              24.960818108309837
            ],
            [
              83.8675465120267,
              24.95997495615509
            ],
            [
              83.8670931502691,
              24.959334398244344
            ],
            [
              83.86659515571665,
              24.95915383889118
            ],
            [
              83.8655084376663,
              24.959355814214636
            ],
            [
              83.86516340015555,
              24.959212680763947
            ],
            [
              83.8648275586984,
              24.958257358917102
            ],
            [
              83.86468155371861,
              24.957588110257852
            ],
            [
              83.8643447582506,
              24.9567049170063
            ],
            [
              83.86484679791683,
              24.956533596852697
            ],
            [
              83.86538844340559,
              24.956362575359815
            ],
            [
              83.86585743674742,
              24.956046578306047
            ],
            [
              83.86582401492727,
              24.95548667725806
            ],
            [
              83.86556165296538,
              24.954599690694746
            ],
            [
              83.8649140475956,
              24.954065650950806
            ],
            [
              83.8648062264053,
              24.953080773925098
            ],
            [
              83.86489094292652,
              24.952589654740475
            ],
            [
              83.86122239129112,
              24.952555484713017
            ],
            [
              83.86043209123339,
              24.952381197389617
            ],
            [
              83.85977688881125,
              24.952090721226973
            ],
            [
              83.85951393935116,
              24.951700197382543
            ],
            [
              83.85959881577249,
              24.950753229968456
            ],
            [
              83.8602492391573,
              24.94794775528457
            ],
            [
              83.86093566522209,
              24.945900749375426
            ],
            [
              83.86056706759639,
              24.943446816866373
            ],
            [
              83.86084930298733,
              24.941680375133174
            ],
            [
              83.86170076214623,
              24.9408037592565
            ],
            [
              83.86275168772237,
              24.941129458307778
            ],
            [
              83.86393430991247,
              24.94206564198145
            ],
            [
              83.86710888695626,
              24.94197323311026
            ],
            [
              83.8694067576901,
              24.94191782033566
            ],
            [
              83.87099585137658,
              24.941485800214537
            ],
            [
              83.87099972221715,
              24.941138336791127
            ],
            [
              83.87078596540032,
              24.940775237252634
            ],
            [
              83.8703921933871,
              24.940568596701407
            ],
            [
              83.87035298372159,
              24.940085274152878
            ],
            [
              83.8705312058807,
              24.939644667140563
            ],
            [
              83.87009734475127,
              24.939035948646104
            ],
            [
              83.87068497769441,
              24.937836387150185
            ],
            [
              83.87228968140555,
              24.936443175994917
            ],
            [
              83.87291381110204,
              24.93596606468185
            ],
            [
              83.87288131185167,
              24.934878180117764
            ],
            [
              83.87289346605746,
              24.933790647627408
            ],
            [
              83.87320384656455,
              24.933473072638304
            ],
            [
              83.87425634688739,
              24.933654348193976
            ],
            [
              83.87474817181052,
              24.93305410364636
            ],
            [
              83.87453343044018,
              24.93233003490491
            ],
            [
              83.87480832929015,
              24.931646639905342
            ],
            [
              83.87429024481463,
              24.930599295357396
            ],
            [
              83.8744270321813,
              24.929874053813545
            ],
            [
              83.87323862214582,
              24.92990366910868
            ],
            [
              83.87240205795266,
              24.929895908280983
            ],
            [
              83.87077447325291,
              24.929357350284576
            ],
            [
              83.87033838070833,
              24.928951655389202
            ],
            [
              83.86995218957779,
              24.928063532794415
            ],
            [
              83.86942976444284,
              24.927413377949875
            ],
            [
              83.86789220890087,
              24.926794350124613
            ],
            [
              83.86753931023308,
              24.92602842102242
            ],
            [
              83.86920051528067,
              24.92621981474484
            ],
            [
              83.87016933124659,
              24.925908406629233
            ],
            [
              83.87136858394751,
              24.926682130907615
            ],
            [
              83.87286750205082,
              24.92677275171727
            ],
            [
              83.87459090285542,
              24.92671194818445
            ],
            [
              83.87552363529299,
              24.92607513163348
            ],
            [
              83.87553037894584,
              24.921444877735663
            ],
            [
              83.87536853666762,
              24.919976670119944
            ],
            [
              83.87529423521384,
              24.919086993630106
            ],
            [
              83.87490528086549,
              24.91800030760879
            ],
            [
              83.87470002480622,
              24.916870150213786
            ],
            [
              83.87377851412316,
              24.916500582955607
            ],
            [
              83.87223700779055,
              24.91624269674293
            ],
            [
              83.87039603997316,
              24.916207609870153
            ],
            [
              83.86882246378492,
              24.91527684315324
            ],
            [
              83.86883737581863,
              24.91394113903183
            ],
            [
              83.86865761574376,
              24.9127435681394
            ],
            [
              83.86936411825684,
              24.911973849622473
            ],
            [
              83.87003747113931,
              24.91151530920495
            ],
            [
              83.87101289062086,
              24.91104145896049
            ],
            [
              83.87264250371655,
              24.911376897792017
            ],
            [
              83.87396398299165,
              24.911389070767733
            ],
            [
              83.87458327436202,
              24.911331635918657
            ],
            [
              83.8749076084004,
              24.910206331960463
            ],
            [
              83.874918759188,
              24.909200039845636
            ],
            [
              83.87536594592633,
              24.908599431825582
            ],
            [
              83.87690911683715,
              24.908252657876325
            ],
            [
              83.87881620874433,
              24.907665395917384
            ],
            [
              83.8787545941973,
              24.906527577899034
            ],
            [
              83.8791515507382,
              24.905538392944184
            ],
            [
              83.87874251455166,
              24.90447855278298
            ],
            [
              83.87777754157852,
              24.903124806357507
            ],
            [
              83.87728663563196,
              24.90231253377486
            ],
            [
              83.87780539114897,
              24.90150493932581
            ],
            [
              83.87917059771715,
              24.901129363305458
            ],
            [
              83.88138115400203,
              24.900838254661398
            ],
            [
              83.88249072519318,
              24.90030689817593
            ],
            [
              83.8824155353056,
              24.899489348233093
            ],
            [
              83.881923335785,
              24.8978962697667
            ],
            [
              83.88181734625958,
              24.895841861125394
            ],
            [
              83.88149242023144,
              24.89479188289654
            ],
            [
              83.88120031055891,
              24.894346863796365
            ],
            [
              83.88106083633127,
              24.89308197564994
            ],
            [
              83.88054972637565,
              24.893208184737148
            ],
            [
              83.8797335889737,
              24.893173617711934
            ],
            [
              83.87860034717482,
              24.893163219326933
            ],
            [
              83.87650685304959,
              24.89272870034042
            ],
            [
              83.8762612662273,
              24.89210817512761
            ],
            [
              83.87585117631697,
              24.890709909368216
            ],
            [
              83.87552722226593,
              24.889569641977854
            ],
            [
              83.87507445968465,
              24.887552658947744
            ],
            [
              83.8745393799823,
              24.88627061270985
            ],
            [
              83.87437979337375,
              24.88504609806045
            ],
            [
              83.87304807060944,
              24.885539230197345
            ],
            [
              83.8717913535781,
              24.885965451865648
            ],
            [
              83.86894404806367,
              24.887013177800842
            ],
            [
              83.86731547970867,
              24.887503565670034
            ],
            [
              83.86661512077383,
              24.88773180992719
            ],
            [
              83.86628663382388,
              24.887457953601235
            ],
            [
              83.86588796958563,
              24.88681794375819
            ],
            [
              83.86575412599818,
              24.885503354729238
            ],
            [
              83.86558680309842,
              24.88408931400762
            ],
            [
              83.86545000495201,
              24.883045550690824
            ],
            [
              83.86524008214482,
              24.88233957239495
            ],
            [
              83.86426248424867,
              24.880814113840955
            ],
            [
              83.8636110942766,
              24.879765543198655
            ],
            [
              83.86325465175501,
              24.878453478819516
            ],
            [
              83.86320051478444,
              24.87797908033387
            ],
            [
              83.86324688581938,
              24.876932479846946
            ],
            [
              83.86300574296283,
              24.875486112908618
            ],
            [
              83.86357112194139,
              24.874480493765855
            ],
            [
              83.86439160808763,
              24.873680303179196
            ],
            [
              83.86529479134228,
              24.87344496213602
            ],
            [
              83.86676727382338,
              24.87318780992687
            ],
            [
              83.86801702891127,
              24.872933090743054
            ],
            [
              83.86949317562045,
              24.87234198191037
            ],
            [
              83.87096862074537,
              24.871818566400982
            ],
            [
              83.87295371157201,
              24.87129082509511
            ],
            [
              83.87561727028834,
              24.870254803814763
            ],
            [
              83.8759195452966,
              24.869318913836015
            ],
            [
              83.87503153009554,
              24.865064006660322
            ],
            [
              83.87478333097242,
              24.863789028301408
            ],
            [
              83.87389657610768,
              24.861659783776567
            ],
            [
              83.87357165187618,
              24.859720704255153
            ],
            [
              83.87350462318292,
              24.85773435496371
            ],
            [
              83.87359655856574,
              24.855690786102038
            ],
            [
              83.87402906683232,
              24.854160381027427
            ],
            [
              83.87443068203626,
              24.85318920983176
            ],
            [
              83.8751154821504,
              24.852103363833443
            ],
            [
              83.87547482623036,
              24.85137103572791
            ],
            [
              83.87465797556608,
              24.85141769388733
            ],
            [
              83.87372007601897,
              24.851684358298925
            ],
            [
              83.87234830456268,
              24.852696164625186
            ],
            [
              83.87146575830506,
              24.853319855604358
            ],
            [
              83.86980050634713,
              24.853579774077453
            ],
            [
              83.86832430304409,
              24.853299871320985
            ],
            [
              83.86825869997723,
              24.853863380901878
            ],
            [
              83.86845997919471,
              24.85444746378825
            ],
            [
              83.86905902792846,
              24.855305963610032
            ],
            [
              83.86947294196699,
              24.85590543696839
            ],
            [
              83.86970279120379,
              24.85703583936378
            ],
            [
              83.8703870451422,
              24.857786841876383
            ],
            [
              83.8707048089026,
              24.859030799802408
            ],
            [
              83.87108951781293,
              24.860027279674853
            ],
            [
              83.87118960810187,
              24.861711559917396
            ],
            [
              83.87130290542216,
              24.862651299137507
            ],
            [
              83.87050828536623,
              24.863361461915577
            ],
            [
              83.86965714960083,
              24.86337165171019
            ],
            [
              83.86914752815363,
              24.86337604321637
            ],
            [
              83.86673567558327,
              24.863132552383917
            ],
            [
              83.86544789211447,
              24.862371503308122
            ],
            [
              83.86518953663874,
              24.86112798163156
            ],
            [
              83.8648992352749,
              24.860100854043566
            ],
            [
              83.8637232480415,
              24.85773870510049
            ],
            [
              83.86314986687037,
              24.855030022924772
            ],
            [
              83.86307248419517,
              24.85354003871515
            ],
            [
              83.86281760070804,
              24.851994266319835
            ],
            [
              83.86210060497412,
              24.85151821020793
            ],
            [
              83.8606212396013,
              24.851531541678785
            ],
            [
              83.85965386902467,
              24.851328533911577
            ],
            [
              83.85918292723696,
              24.85052527365483
            ],
            [
              83.8589794947577,
              24.849693041254497
            ],
            [
              83.85917948579112,
              24.848178530015087
            ],
            [
              83.85916637398122,
              24.847587152849563
            ],
            [
              83.85936679979922,
              24.8455897808033
            ],
            [
              83.8594208235821,
              24.8438528232833
            ],
            [
              83.85943985439137,
              24.842147038822674
            ],
            [
              83.85934826485995,
              24.84104953882293
            ],
            [
              83.85907609060024,
              24.840176013655412
            ],
            [
              83.85879728497707,
              24.839451294242135
            ],
            [
              83.85847000266793,
              24.837746887984377
            ],
            [
              83.8579468741521,
              24.836315923039162
            ],
            [
              83.85763833878461,
              24.835595442265195
            ],
            [
              83.85717653735495,
              24.83486912098852
            ],
            [
              83.85515812891273,
              24.8344440577198
            ],
            [
              83.85222525437591,
              24.833956326606543
            ],
            [
              83.84964679935464,
              24.832749840872918
            ],
            [
              83.84849909917122,
              24.83231936680019
            ],
            [
              83.84558308960554,
              24.830793741193446
            ],
            [
              83.84168469502158,
              24.829087233800035
            ],
            [
              83.83885686228756,
              24.827643461681895
            ],
            [
              83.83677196414128,
              24.825687732200354
            ],
            [
              83.83501912195155,
              24.82411420605422
            ],
            [
              83.83355570616659,
              24.82231318240176
            ],
            [
              83.83231587027606,
              24.82042849624144
            ],
            [
              83.830796800266,
              24.81787779571567
            ],
            [
              83.83008659938889,
              24.816399896404235
            ],
            [
              83.82918178209874,
              24.81377370338129
            ],
            [
              83.82863747041024,
              24.811633940016577
            ],
            [
              83.8283050883652,
              24.810416771982617
            ],
            [
              83.82849895378668,
              24.809899638963852
            ],
            [
              83.82851572712968,
              24.80843307335903
            ],
            [
              83.8285627952573,
              24.807336897271714
            ],
            [
              83.82848702236309,
              24.80574756004773
            ],
            [
              83.82786884670031,
              24.804446488134566
            ],
            [
              83.8277194469871,
              24.8036643471443
            ],
            [
              83.82729360691486,
              24.802414679201977
            ],
            [
              83.82668306244044,
              24.800450235373454
            ],
            [
              83.82595347232625,
              24.79807845504924
            ],
            [
              83.82592676900609,
              24.79738775776402
            ],
            [
              83.82604095565851,
              24.796481749404307
            ],
            [
              83.82594811207893,
              24.794653105059478
            ],
            [
              83.8256016228907,
              24.79251513609797
            ],
            [
              83.82546531432614,
              24.791466786115148
            ],
            [
              83.82589285490917,
              24.789530287033784
            ],
            [
              83.82570513935416,
              24.78691998030882
            ],
            [
              83.82535177086747,
              24.78495347397306
            ],
            [
              83.82466903867511,
              24.783254655128406
            ],
            [
              83.82387223391643,
              24.78158628760491
            ],
            [
              83.82332249370863,
              24.78080024418718
            ],
            [
              83.82278126324154,
              24.77970297889349
            ],
            [
              83.82246408877596,
              24.778476936795055
            ],
            [
              83.82259830067268,
              24.776686584053994
            ],
            [
              83.82284249690285,
              24.774351152676577
            ],
            [
              83.82248832172907,
              24.773332320797092
            ],
            [
              83.82208532132293,
              24.7726831728098
            ],
            [
              83.82142184631532,
              24.772338314721697
            ],
            [
              83.82071164274329,
              24.772182670239452
            ],
            [
              83.82008278072192,
              24.771838145995552
            ],
            [
              83.81956638058755,
              24.77159858774742
            ],
            [
              83.81945850729497,
              24.771087547366722
            ],
            [
              83.81982374432322,
              24.768550191925005
            ],
            [
              83.81983463819265,
              24.76760262113145
            ],
            [
              83.82039455182104,
              24.767066388949097
            ],
            [
              83.82136747937601,
              24.76585719992776
            ],
            [
              83.82233787278358,
              24.76573102738008
            ],
            [
              83.82326424784392,
              24.76557287613714
            ],
            [
              83.82309802268541,
              24.76411358626973
            ],
            [
              83.82318114918857,
              24.762895854074838
            ],
            [
              83.82313086509224,
              24.761234577321943
            ],
            [
              83.82288524682893,
              24.759801655682764
            ],
            [
              83.82264227230749,
              24.75813852006883
            ],
            [
              83.82233423370837,
              24.756104740671518
            ],
            [
              83.82213278740423,
              24.754270562772902
            ],
            [
              83.82297093532726,
              24.752454304206605
            ],
            [
              83.82297603685974,
              24.752443248717846
            ],
            [
              83.82267026920164,
              24.751533358716365
            ],
            [
              83.82272628275288,
              24.750541114066955
            ],
            [
              83.82247443107981,
              24.750002652080227
            ],
            [
              83.82221090400303,
              24.749641400312825
            ],
            [
              83.82124797739208,
              24.748030418176118
            ],
            [
              83.81924553560573,
              24.74634556281512
            ],
            [
              83.8160635977665,
              24.744134188334225
            ],
            [
              83.81514856663158,
              24.743630638606845
            ],
            [
              83.81396013862982,
              24.745697220155638
            ],
            [
              83.8132739173809,
              24.74737691529381
            ],
            [
              83.81260245185887,
              24.74846900028475
            ],
            [
              83.81210026397062,
              24.749450659308486
            ],
            [
              83.81161002008241,
              24.75000448599607
            ],
            [
              83.81101514761644,
              24.750492344996072
            ],
            [
              83.80987355957022,
              24.751302605290036
            ],
            [
              83.80807715627576,
              24.75313105128674
            ],
            [
              83.80758376109753,
              24.753469213790265
            ],
            [
              83.80684393198572,
              24.75457670814684
            ],
            [
              83.80656841778978,
              24.75530509378086
            ],
            [
              83.8053131928601,
              24.758194707787915
            ],
            [
              83.80495160838184,
              24.75950431600718
            ],
            [
              83.80471672857944,
              24.761808001401516
            ],
            [
              83.80420562042045,
              24.762394232046802
            ],
            [
              83.80436685813247,
              24.762973424394787
            ],
            [
              83.80532014043052,
              24.764318382200493
            ],
            [
              83.80443034117528,
              24.76598399309034
            ],
            [
              83.80347788981888,
              24.767924230778082
            ],
            [
              83.80259224706849,
              24.769224373309235
            ],
            [
              83.80146302972207,
              24.76896986360271
            ],
            [
              83.79963479642211,
              24.76886190497974
            ],
            [
              83.79793479673067,
              24.768782282835197
            ],
            [
              83.79683807683796,
              24.76828431108996
            ],
            [
              83.7962129607913,
              24.76761047779285
            ],
            [
              83.79619491094232,
              24.766635582385035
            ],
            [
              83.79600164739207,
              24.765843956306657
            ],
            [
              83.79550949727883,
              24.76522997800317
            ],
            [
              83.79448925455954,
              24.764123488127225
            ],
            [
              83.79369549329299,
              24.763506567208996
            ],
            [
              83.79176738440148,
              24.763487934754888
            ],
            [
              83.79074814510034,
              24.763541163921484
            ],
            [
              83.78982162810618,
              24.763288465683424
            ],
            [
              83.78876283418644,
              24.76252004580601
            ],
            [
              83.7871462763068,
              24.76125429176541
            ],
            [
              83.78658779998287,
              24.76039590137739
            ],
            [
              83.78626024368756,
              24.760090347065162
            ],
            [
              83.78512094993856,
              24.759779739340875
            ],
            [
              83.78502870823024,
              24.760244534307358
            ],
            [
              83.78484534231782,
              24.760718386200395
            ],
            [
              83.78418658256717,
              24.76195925073411
            ],
            [
              83.78377073535415,
              24.762518689269154
            ],
            [
              83.78303323826881,
              24.76341196762808
            ],
            [
              83.78244372784678,
              24.76460325212121
            ],
            [
              83.78172539721633,
              24.766069816298874
            ],
            [
              83.78102200826403,
              24.76750467139374
            ],
            [
              83.78037813898754,
              24.768664380139327
            ],
            [
              83.77930844940171,
              24.770392414325766
            ],
            [
              83.77865477142058,
              24.771407651254496
            ],
            [
              83.77839702769757,
              24.772030381979306
            ],
            [
              83.77838667102067,
              24.772504340616596
            ],
            [
              83.77842552585166,
              24.772600625746097
            ],
            [
              83.77862351184535,
              24.77309124017156
            ],
            [
              83.7791470769424,
              24.773673837695664
            ],
            [
              83.7791168818707,
              24.774238037364526
            ],
            [
              83.77886413637397,
              24.774774989776493
            ],
            [
              83.77835437568788,
              24.77525310011151
            ],
            [
              83.77759278578665,
              24.775397135115693
            ],
            [
              83.77719188923493,
              24.77578953020829
            ],
            [
              83.77694898657872,
              24.776380732154877
            ],
            [
              83.77682951783245,
              24.777188583889085
            ],
            [
              83.77665538121127,
              24.778357571124822
            ],
            [
              83.7763722205556,
              24.77964826328398
            ],
            [
              83.77646434188968,
              24.78155761385345
            ],
            [
              83.77631539043578,
              24.782180428233048
            ],
            [
              83.77603306700996,
              24.782717374017192
            ],
            [
              83.77564203306174,
              24.78306018062784
            ],
            [
              83.77525570089571,
              24.783651275356444
            ],
            [
              83.77504256211982,
              24.784210817601572
            ],
            [
              83.77484426620738,
              24.784693726294737
            ],
            [
              83.77491780678812,
              24.785384296080675
            ],
            [
              83.77527826567734,
              24.785957800285505
            ],
            [
              83.77551998884557,
              24.786540206927295
            ],
            [
              83.77604309220854,
              24.78770054931311
            ],
            [
              83.77661505673647,
              24.7895018483623
            ],
            [
              83.77713194106276,
              24.791984719385
            ],
            [
              83.77714612815602,
              24.792643697803193
            ],
            [
              83.77699730156796,
              24.793234939336163
            ],
            [
              83.77680421318922,
              24.79344925074963
            ],
            [
              83.77661112481047,
              24.793663560161793
            ],
            [
              83.7758338242732,
              24.794520697062275
            ],
            [
              83.77563089035897,
              24.794737186099013
            ],
            [
              83.7752993221876,
              24.794985282856604
            ],
            [
              83.77474995298401,
              24.79538666562102
            ],
            [
              83.77410670534167,
              24.79573379198722
            ],
            [
              83.77367614821588,
              24.79599085395383
            ],
            [
              83.77307739772284,
              24.796356076080823
            ],
            [
              83.77283500710632,
              24.79645524260012
            ],
            [
              83.77251338957336,
              24.79659041468367
            ],
            [
              83.7717514933466,
              24.796869844609464
            ],
            [
              83.77108365522169,
              24.79704095814564
            ],
            [
              83.76964927208839,
              24.79722957835624
            ],
            [
              83.76687930792666,
              24.797566323315912
            ],
            [
              83.76619673563445,
              24.79766519529259
            ],
            [
              83.76548451534457,
              24.797691792357075
            ],
            [
              83.76466848843543,
              24.797628094763414
            ],
            [
              83.76417394970184,
              24.797650358344185
            ],
            [
              83.76290245268915,
              24.798024126743083
            ],
            [
              83.7618435707345,
              24.79853798214151
            ],
            [
              83.76121512373477,
              24.79883097723486
            ],
            [
              83.76037380835204,
              24.799272743752606
            ],
            [
              83.75951247670818,
              24.800003314385233
            ],
            [
              83.75867085410167,
              24.800815232346338
            ],
            [
              83.75821533638738,
              24.801279849195957
            ],
            [
              83.75766582435168,
              24.801717352739203
            ],
            [
              83.75712661419561,
              24.80180268397986
            ],
            [
              83.75656782615629,
              24.80168044994811
            ],
            [
              83.7556977125822,
              24.801336761089004
            ],
            [
              83.75524306623376,
              24.80104301271989
            ],
            [
              83.75421012492959,
              24.80038327569438
            ],
            [
              83.75343408922026,
              24.79995833629381
            ],
            [
              83.7528260528421,
              24.79965999599484
            ],
            [
              83.7526409019772,
              24.799656990162728
            ],
            [
              83.75224237518118,
              24.79965051938718
            ],
            [
              83.75212349123818,
              24.799871597911515
            ],
            [
              83.75147980431966,
              24.800480533246397
            ],
            [
              83.75045999099505,
              24.801360005819497
            ],
            [
              83.74999930706957,
              24.801617485055267
            ],
            [
              83.74972437138868,
              24.801878070651473
            ],
            [
              83.74925758341085,
              24.8020541662421
            ],
            [
              83.74876301323623,
              24.802189240076043
            ],
            [
              83.74801323707926,
              24.80234530275982
            ],
            [
              83.74611672283459,
              24.802623635980456
            ],
            [
              83.74546785443351,
              24.80285414234839
            ],
            [
              83.74480570444095,
              24.803108717110483
            ],
            [
              83.74369345177865,
              24.80367830676844
            ],
            [
              83.74222221975242,
              24.804310103898125
            ],
            [
              83.74101722591851,
              24.804891825834893
            ],
            [
              83.73982554421879,
              24.805594454331736
            ],
            [
              83.73889866161034,
              24.806151710608276
            ],
            [
              83.73640838072578,
              24.80717125801822
            ],
            [
              83.73538852068879,
              24.807486670655713
            ],
            [
              83.73407716991849,
              24.807669151172345
            ],
            [
              83.73087241037946,
              24.807579406021166
            ],
            [
              83.72912376062716,
              24.807592893891446
            ],
            [
              83.72790610234436,
              24.808867590082137
            ],
            [
              83.72646361730555,
              24.811106794105342
            ],
            [
              83.7254036951018,
              24.814317082689673
            ],
            [
              83.72518083655456,
              24.81525231811157
            ],
            [
              83.72534082471005,
              24.816716031610024
            ],
            [
              83.72640159133013,
              24.817973393345248
            ],
            [
              83.72754198102375,
              24.819165580021277
            ],
            [
              83.72788773179683,
              24.819527025697766
            ],
            [
              83.72868239227694,
              24.820357760932477
            ],
            [
              83.72942483279127,
              24.821107162119556
            ],
            [
              83.72949197916381,
              24.821353031617758
            ],
            [
              83.72924072037885,
              24.822103242108973
            ],
            [
              83.72816884878522,
              24.82388248364572
            ],
            [
              83.7277033660595,
              24.8246825161588
            ],
            [
              83.72655144559087,
              24.825699717129915
            ],
            [
              83.72533484372687,
              24.826560502717967
            ],
            [
              83.72479616627179,
              24.827084571189943
            ],
            [
              83.72413390039657,
              24.827550005126565
            ],
            [
              83.72353067270012,
              24.827767174311486
            ],
            [
              83.72320426535008,
              24.8277087149099
            ],
            [
              83.72270494039265,
              24.827921292122088
            ],
            [
              83.72238374506786,
              24.8282826511034
            ],
            [
              83.72170168571367,
              24.82892420561441
            ],
            [
              83.72114662658109,
              24.82939765333189
            ],
            [
              83.71796904826593,
              24.830746139330703
            ],
            [
              83.71721391994652,
              24.831024923193485
            ],
            [
              83.71681667055485,
              24.831472846771515
            ],
            [
              83.71672496783567,
              24.832226173025916
            ],
            [
              83.71687158636477,
              24.833472174150447
            ],
            [
              83.71672605389887,
              24.833738482652283
            ],
            [
              83.7165937491255,
              24.83406516773055
            ],
            [
              83.71603557373717,
              24.83503555964744
            ],
            [
              83.71558563006926,
              24.835931179692658
            ],
            [
              83.71565211079019,
              24.836306149229628
            ],
            [
              83.7158111961388,
              24.836439097104055
            ],
            [
              83.7167122872171,
              24.83645049973368
            ],
            [
              83.71726875580642,
              24.836377495820386
            ],
            [
              83.71766630164213,
              24.83634089438939
            ],
            [
              83.71798438969432,
              24.836497973042594
            ],
            [
              83.71809054810305,
              24.836703560882768
            ],
            [
              83.71814515129928,
              24.83725131437336
            ],
            [
              83.71823811884634,
              24.83748106175014
            ],
            [
              83.71852974612355,
              24.837674462013133
            ],
            [
              83.71996117559617,
              24.83809674896487
            ],
            [
              83.72120716943796,
              24.838724915698037
            ],
            [
              83.72218834712052,
              24.839510501353796
            ],
            [
              83.72265314982158,
              24.840273354101114
            ],
            [
              83.72256094404588,
              24.840987152349886
            ],
            [
              83.72229666328253,
              24.841943136878463
            ],
            [
              83.72213810524501,
              24.842717557656314
            ],
            [
              83.72237642200166,
              24.84434203734043
            ],
            [
              83.72293375656689,
              24.845285182260557
            ],
            [
              83.72361112312201,
              24.84580861797014
            ],
            [
              83.72518824765564,
              24.846037159317795
            ],
            [
              83.72660636140083,
              24.846241647142094
            ],
            [
              83.72724267674413,
              24.846519404052536
            ],
            [
              83.72761531409364,
              24.8470421359484
            ],
            [
              83.72768194573155,
              24.84746554683099
            ],
            [
              83.72736448560168,
              24.848276386679053
            ],
            [
              83.72674267355866,
              24.84959557534981
            ],
            [
              83.72664985782689,
              24.850685576918863
            ],
            [
              83.72726016963765,
              24.85161658917443
            ],
            [
              83.72833399237209,
              24.852099642776825
            ],
            [
              83.73043045992092,
              24.852401315360552
            ],
            [
              83.73308108110052,
              24.8525925746134
            ],
            [
              83.73408772242813,
              24.852894677194623
            ],
            [
              83.73471077684121,
              24.85320864718746
            ],
            [
              83.73545382731162,
              24.854308866150717
            ],
            [
              83.73602501030523,
              24.85577217989075
            ],
            [
              83.7363451986186,
              24.857054923994042
            ],
            [
              83.73676999035689,
              24.85796182933621
            ],
            [
              83.73723423789909,
              24.858421108191752
            ],
            [
              83.73765957311814,
              24.85868719428164
            ],
            [
              83.73824260758528,
              24.858674584931453
            ],
            [
              83.73942159609005,
              24.85810489771259
            ],
            [
              83.73995154461551,
              24.857862425958466
            ],
            [
              83.74064058567608,
              24.857777135785003
            ],
            [
              83.74130353786417,
              24.858139393855474
            ],
            [
              83.74236444641811,
              24.85888846933192
            ],
            [
              83.7432406505698,
              24.85985754911955
            ],
            [
              83.74350611890594,
              24.860280741711307
            ],
            [
              83.74377158903872,
              24.860703933669864
            ],
            [
              83.74421016183177,
              24.861973698100698
            ],
            [
              83.74483272306975,
              24.86385082377538
            ],
            [
              83.7450317304479,
              24.86409258692084
            ],
            [
              83.745230757589,
              24.864322261634143
            ],
            [
              83.74536330131424,
              24.864346331595694
            ],
            [
              83.74601259012685,
              24.864224697226263
            ],
            [
              83.74765495660463,
              24.86308594917731
            ],
            [
              83.74796602611951,
              24.862816701166782
            ],
            [
              83.74811290336342,
              24.862904953038854
            ],
            [
              83.74830068359715,
              24.863103616308443
            ],
            [
              83.74886424438562,
              24.863465127672878
            ],
            [
              83.74897747073896,
              24.863988858115825
            ],
            [
              83.74894750294105,
              24.864291252357386
            ],
            [
              83.74865964858805,
              24.86520281801049
            ],
            [
              83.74837201072903,
              24.865924840397117
            ],
            [
              83.74818358819988,
              24.86635805262005
            ],
            [
              83.7481533562973,
              24.86685910319188
            ],
            [
              83.74826684316207,
              24.867161623262486
            ],
            [
              83.74857320640321,
              24.867491318821624
            ],
            [
              83.74906271726614,
              24.867649590243015
            ],
            [
              83.74969598462569,
              24.867622951965537
            ],
            [
              83.7499993088662,
              24.86739499412509
            ],
            [
              83.75131671697646,
              24.86604188933417
            ],
            [
              83.75272103709045,
              24.864494208690555
            ],
            [
              83.75386631092425,
              24.863909867611085
            ],
            [
              83.754761542292,
              24.864365477041233
            ],
            [
              83.75564992310743,
              24.864969792662876
            ],
            [
              83.75653750711716,
              24.865646529640042
            ],
            [
              83.75669541207948,
              24.866094797353888
            ],
            [
              83.75677411437982,
              24.866542348658996
            ],
            [
              83.75676605469509,
              24.867210145953347
            ],
            [
              83.75658937673995,
              24.868327561976848
            ],
            [
              83.75633118026605,
              24.869218578246915
            ],
            [
              83.75599479263319,
              24.8700320342866
            ],
            [
              83.75606543255388,
              24.871147475316025
            ],
            [
              83.75719643215783,
              24.871754298131513
            ],
            [
              83.75826666791933,
              24.871245797916362
            ],
            [
              83.75989097556496,
              24.8715595558697
            ],
            [
              83.76086640492798,
              24.871939169662586
            ],
            [
              83.76118678009092,
              24.87246571830999
            ],
            [
              83.76125614530223,
              24.873283224657634
            ],
            [
              83.76081919666319,
              24.87381602502796
            ],
            [
              83.76059313921519,
              24.874098139658397
            ],
            [
              83.75936990958101,
              24.874158321204256
            ],
            [
              83.75774536927176,
              24.87384455680873
            ],
            [
              83.75693974934516,
              24.87294315505522
            ],
            [
              83.75530977961833,
              24.873076092895683
            ],
            [
              83.75513400357175,
              24.874116750595125
            ],
            [
              83.7545303940913,
              24.876565774972207
            ],
            [
              83.7538707441102,
              24.87708735137842
            ],
            [
              83.75368959793482,
              24.878574831882112
            ],
            [
              83.75456344131399,
              24.880817270096195
            ],
            [
              83.75510553057052,
              24.88305642910265
            ],
            [
              83.75624158679119,
              24.883663265962497
            ],
            [
              83.75883635342137,
              24.88480329533135
            ],
            [
              83.75921888481544,
              24.886742989371633
            ],
            [
              83.76082714585513,
              24.88884365724383
            ],
            [
              83.76210647617711,
              24.890715295677428
            ],
            [
              83.76176916777109,
              24.8916056110604
            ],
            [
              83.76036740066915,
              24.89293223414747
            ],
            [
              83.76019519183254,
              24.89367065476628
            ],
            [
              83.76083688179617,
              24.894647162924393
            ],
            [
              83.76065220344512,
              24.896432372684
            ],
            [
              83.76039373927328,
              24.897765632817244
            ],
            [
              83.76177858840346,
              24.89785585605048
            ],
            [
              83.7640655437083,
              24.897431366191977
            ],
            [
              83.76485556259335,
              24.898021210954337
            ],
            [
              83.76487519078229,
              24.898034894302494
            ],
            [
              83.76469227312917,
              24.89967128322297
            ],
            [
              83.76475242432063,
              24.901680072650286
            ],
            [
              83.76391620867379,
              24.90331000981347
            ],
            [
              83.76381791142214,
              24.904500471229856
            ],
            [
              83.76387163426938,
              24.906220431011675
            ],
            [
              83.76459671214592,
              24.907269882644144
            ],
            [
              83.76620583377162,
              24.90891902384123
            ],
            [
              83.76463422219892,
              24.91076756716689
            ],
            [
              83.76372062297855,
              24.912247891907345
            ],
            [
              83.7637882526447,
              24.913214298784712
            ],
            [
              83.76476043010642,
              24.913891674145333
            ],
            [
              83.76597684961244,
              24.91442695935591
            ],
            [
              83.76840973713348,
              24.915492895260325
            ],
            [
              83.77109742459835,
              24.915965753202705
            ],
            [
              83.77338020004214,
              24.915910973168675
            ],
            [
              83.77401696993299,
              24.91732961903342
            ],
            [
              83.77409889269364,
              24.918354778236328
            ],
            [
              83.77430226498576,
              24.92083419316287
            ],
            [
              83.77599231134386,
              24.922781914028747
            ],
            [
              83.77890155390051,
              24.92504362208963
            ],
            [
              83.7810190788579,
              24.925582852274722
            ],
            [
              83.77880640524393,
              24.929744864082238
            ],
            [
              83.77928957669589,
              24.930345188285532
            ],
            [
              83.78228955538447,
              24.93164199830038
            ],
            [
              83.78284905758444,
              24.932910802776743
            ],
            [
              83.78365805517649,
              24.933586530365993
            ],
            [
              83.78535708558573,
              24.934793997204054
            ],
            [
              83.78574813211038,
              24.93606578315169
            ],
            [
              83.78564228541708,
              24.937924020094986
            ],
            [
              83.7860427337095,
              24.938821251672305
            ],
            [
              83.78693879961214,
              24.938829869664378
            ],
            [
              83.78783673760385,
              24.938689488363018
            ],
            [
              83.7888265382148,
              24.937877607216297
            ],
            [
              83.78998230976103,
              24.93684615163998
            ],
            [
              83.79202150162565,
              24.936495556142354
            ],
            [
              83.79275308959306,
              24.937021448200152
            ],
            [
              83.79257494379073,
              24.938287782941163
            ],
            [
              83.79263421283656,
              24.939998595765495
            ],
            [
              83.7932825027226,
              24.940451444113076
            ],
            [
              83.79425934783055,
              24.940758626293906
            ],
            [
              83.79571787318707,
              24.941368049812784
            ],
            [
              83.79603861396433,
              24.941890068325037
            ],
            [
              83.7969200418194,
              24.943166444194237
            ],
            [
              83.7969044174217,
              24.94450650537874
            ],
            [
              83.79648206191445,
              24.94591497639
            ],
            [
              83.79598067891672,
              24.946875843827364
            ],
            [
              83.79605100532535,
              24.948067885049557
            ],
            [
              83.79676397211523,
              24.949784800174847
            ],
            [
              83.79814170389344,
              24.95054240833847
            ],
            [
              83.80123687166274,
              24.95094691794539
            ],
            [
              83.80327421389622,
              24.951188042179144
            ],
            [
              83.80498221128863,
              24.951651629719265
            ],
            [
              83.80570209241122,
              24.952778256767044
            ],
            [
              83.80561092508799,
              24.953815574966242
            ],
            [
              83.80461938174537,
              24.954776461392466
            ],
            [
              83.80304852924905,
              24.955298348961723
            ],
            [
              83.80083647457433,
              24.956021451165583
            ],
            [
              83.79991801097668,
              24.957944569059958
            ],
            [
              83.80087955687702,
              24.959145742735934
            ],
            [
              83.80193814598088,
              24.959679727052865
            ],
            [
              83.80356729913913,
              24.959695620401558
            ],
            [
              83.80479462419268,
              24.959333007216053
            ],
            [
              83.80594529240979,
              24.958748352062308
            ],
            [
              83.80790455307876,
              24.95846952091219
            ],
            [
              83.80945442182833,
              24.958484636641252
            ],
            [
              83.81099481335167,
              24.959321224195698
            ],
            [
              83.81171648571495,
              24.960741148210445
            ],
            [
              83.81153766437954,
              24.96208016872908
            ],
            [
              83.81086776102777,
              24.963486515951946
            ],
            [
              83.80961656504216,
              24.965930017618884
            ],
            [
              83.8091867436366,
              24.967564522400416
            ],
            [
              83.80871091501375,
              24.969753773184614
            ],
            [
              83.80870740709256,
              24.96977011963985
            ],
            [
              83.80824000466707,
              24.971947552626638
            ],
            [
              83.80845497510785,
              24.97479358138864
            ],
            [
              83.80809572714762,
              24.977615980141515
            ],
            [
              83.80848303937564,
              24.979258396004433
            ],
            [
              83.80896570327947,
              24.979931178055075
            ],
            [
              83.80897339824821,
              24.979939706041307
            ],
            [
              83.81025192188307,
              24.981356548684563
            ],
            [
              83.81211181540687,
              24.98286425500289
            ],
            [
              83.81316484124416,
              24.98433702030523
            ],
            [
              83.81317171155946,
              24.984346608144403
            ],
            [
              83.81388161599253,
              24.985337162662663
            ],
            [
              83.81493297006507,
              24.98608754785535
            ],
            [
              83.81632486468204,
              24.985654164185842
            ],
            [
              83.8184461850215,
              24.985525636333143
            ],
            [
              83.8191706080262,
              24.986724270655568
            ],
            [
              83.81980077799466,
              24.98881133160245
            ],
            [
              83.82600980567769,
              24.988130779913796
            ],
            [
              83.82753888830995,
              24.990005163397157
            ],
            [
              83.82875053416852,
              24.991054951668225
            ],
            [
              83.83062086162434,
              24.99166873700493
            ],
            [
              83.83175410072833,
              24.992198641862036
            ],
            [
              83.83183168372783,
              24.99279527611018
            ],
            [
              83.8322984788922,
              24.99488517888668
            ],
            [
              83.83268704786327,
              24.996450716154268
            ],
            [
              83.83332991282329,
              24.997422901598938
            ],
            [
              83.83471010508708,
              24.998031859713212
            ],
            [
              83.8367323708951,
              24.999685147773615
            ],
            [
              83.8372169832448,
              25.00000107425283
            ],
            [
              83.83741503032392,
              25.000446572325643
            ],
            [
              83.83748927877708,
              25.00069568808327
            ],
            [
              83.83792632443419,
              25.000909042060808
            ],
            [
              83.83856517392489,
              25.000945182726856
            ],
            [
              83.83909008290159,
              25.001053502079138
            ],
            [
              83.83955049284093,
              25.001401130131352
            ],
            [
              83.83945136015605,
              25.001712502790845
            ],
            [
              83.83862382133653,
              25.0022270569678
            ],
            [
              83.83794513156299,
              25.002502379333848
            ],
            [
              83.83681561058599,
              25.002813750016518
            ],
            [
              83.8360376794314,
              25.00324698525557
            ],
            [
              83.83579951718495,
              25.003887913667885
            ],
            [
              83.83587850155631,
              25.004397932220925
            ],
            [
              83.83605636169436,
              25.00509318062699
            ],
            [
              83.83583802975781,
              25.00562573940552
            ],
            [
              83.83515435613106,
              25.005752095354715
            ],
            [
              83.83455009896531,
              25.005900980070628
            ],
            [
              83.8337278215784,
              25.005973139594907
            ],
            [
              83.8326227329805,
              25.00670430639004
            ],
            [
              83.83197854570037,
              25.00703365159882
            ],
            [
              83.83145350916287,
              25.00705169294573
            ],
            [
              83.83119606996875,
              25.006853155759387
            ],
            [
              83.83119643109151,
              25.006338508611933
            ],
            [
              83.83111769465516,
              25.005571121375947
            ],
            [
              83.83051347342202,
              25.005534966602546
            ],
            [
              83.83009208540034,
              25.00588249730645
            ],
            [
              83.82996787714264,
              25.00654145583255
            ],
            [
              83.8299873418382,
              25.007074116607903
            ],
            [
              83.82978840363033,
              25.008324348970305
            ],
            [
              83.82998598538215,
              25.008983493034577
            ],
            [
              83.83099053273682,
              25.01046857825375
            ],
            [
              83.8307079964103,
              25.010779918160672
            ],
            [
              83.83020769767911,
              25.01079794186163
            ],
            [
              83.82978678217127,
              25.01064896213571
            ],
            [
              83.8294849140998,
              25.010193094644315
            ],
            [
              83.82906442169845,
              25.009515935627476
            ],
            [
              83.82848043501711,
              25.008671735014648
            ],
            [
              83.82789615189168,
              25.008324226856054
            ],
            [
              83.82729703398766,
              25.008048749020052
            ],
            [
              83.82687589030775,
              25.008305975659546
            ],
            [
              83.82690698728794,
              25.00871168579177
            ],
            [
              83.82693470390772,
              25.00907330510516
            ],
            [
              83.82723650191058,
              25.00964212068713
            ],
            [
              83.82747350982189,
              25.010666744888386
            ],
            [
              83.82695319662616,
              25.0109601070208
            ],
            [
              83.82676948126907,
              25.011564841374717
            ],
            [
              83.82670960496213,
              25.01215165019572
            ],
            [
              83.82660985513468,
              25.013176306373506
            ],
            [
              83.8268916799955,
              25.013889485191836
            ],
            [
              83.8281940035955,
              25.014625420797724
            ],
            [
              83.82853549276088,
              25.014905321275464
            ],
            [
              83.82845603677397,
              25.015289008311097
            ],
            [
              83.82801483640871,
              25.015803455956785
            ],
            [
              83.82765288272284,
              25.016259331112483
            ],
            [
              83.82724578869397,
              25.0175051238376
            ],
            [
              83.82692854326149,
              25.017798398812054
            ],
            [
              83.82630409286645,
              25.018200048137505
            ],
            [
              83.82567974757434,
              25.018475311904925
            ],
            [
              83.82545633566485,
              25.01909814406513
            ],
            [
              83.82556767825105,
              25.019335159002352
            ],
            [
              83.82567901993896,
              25.019572174295984
            ],
            [
              83.82634263418542,
              25.019630988070066
            ],
            [
              83.82704619202099,
              25.01948208336877
            ],
            [
              83.82748695221179,
              25.019703298260595
            ],
            [
              83.8278283227995,
              25.020290092607546
            ],
            [
              83.82816976525251,
              25.020809321155593
            ],
            [
              83.82835282214447,
              25.021341860619902
            ],
            [
              83.82826817838682,
              25.021833870079398
            ],
            [
              83.82797074619626,
              25.02207308405695
            ],
            [
              83.82716307182261,
              25.022402541892717
            ],
            [
              83.82662281692589,
              25.022768102156498
            ],
            [
              83.8255373942462,
              25.02346302759524
            ],
            [
              83.82515565157296,
              25.0240316031357
            ],
            [
              83.82519483159406,
              25.024510108340984
            ],
            [
              83.82587796533335,
              25.025241499305704
            ],
            [
              83.82637808889307,
              25.02567940662287
            ],
            [
              83.82720465034552,
              25.026704149319258
            ],
            [
              83.82784364356671,
              25.02676287665081
            ],
            [
              83.82820542926757,
              25.026505639839545
            ],
            [
              83.82852796038722,
              25.025733813841494
            ],
            [
              83.82860779366649,
              25.02505676821061
            ],
            [
              83.82891026720243,
              25.024546758129777
            ],
            [
              83.82945528137354,
              25.0245287836584
            ],
            [
              83.82979684240412,
              25.024799566894607
            ],
            [
              83.82993532579,
              25.025187808174042
            ],
            [
              83.82989523038562,
              25.025909993075004
            ],
            [
              83.82953277184656,
              25.027137708072335
            ],
            [
              83.82989402664315,
              25.02773808860359
            ],
            [
              83.83089930073487,
              25.028306898294925
            ],
            [
              83.83127998159947,
              25.02933158893457
            ],
            [
              83.82968922782635,
              25.030139376239507
            ],
            [
              83.82956994592965,
              25.030726183365882
            ],
            [
              83.8297528132771,
              25.031312929082006
            ],
            [
              83.83022800589274,
              25.031904277257006
            ],
            [
              83.83075255195007,
              25.032838754176684
            ],
            [
              83.83072354984111,
              25.034137929121968
            ],
            [
              83.83071164357034,
              25.03467123280807
            ],
            [
              83.83117209662878,
              25.035037006397513
            ],
            [
              83.83181614916161,
              25.03505504525701
            ],
            [
              83.832539690919,
              25.034779785304433
            ],
            [
              83.83291788165363,
              25.034463145779203
            ],
            [
              83.8335261488988,
              25.03395387802437
            ],
            [
              83.83400685717028,
              25.03382761377195
            ],
            [
              83.8350793342284,
              25.033428667366923
            ],
            [
              83.83653771765114,
              25.03241360886734
            ],
            [
              83.83772524015112,
              25.031680321843567
            ]
          ]
        ]
      }
    }
  ]
}