{
  "type": "FeatureCollection",
  "features": [
    {
      "type": "Feature",
      "properties": {
        "object_id": "10-236-01496",
        "stname": "BIHAR",
        "dtname": "Gaya",
        "sdtname": "Paraiya",
        "st_area_sh": 0.0,
        "st_length_": 0.0,
        "remarks": "",
        "dist_lgd": 196,
        "state_lgd": 10,
        "subdt_lgd": 1496,
        "ac_no": null,
        "st_length(shape)": 75593.31264449215,
        "st_area(shape)": 167300846.5298876
      },
      "geometry": {
        "type": "Polygon",
        "coordinates": [
          [
            [
              84.90455752400104,
              24.85716632376024
            ],
            [
              84.90489141162247,
              24.85448582702609
            ],
            [
              84.90497682164303,
              24.854153738664543
            ],
            [
              84.9051965459683,
              24.85329940181212
            ],
            [
              84.90563306970417,
              24.851102221132628
            ],
            [
              84.90654712706535,
              24.84968700022755
            ],
            [
              84.90832977355956,
              24.849050091249683
            ],
            [
              84.91024627621765,
              24.84835933332014
            ],
            [
              84.91096935534263,
              24.84803155290521
            ],
            [
              84.91137703237814,
              24.84731470420568
            ],
            [
              84.91165191685508,
              24.846245554232738
            ],
            [
              84.91178210699428,
              24.845686142047953
            ],
            [
              84.91231719028988,
              24.845393912341684
            ],
            [
              84.91437069591025,
              24.845177414803196
            ],
            [
              84.91488025896695,
              24.8451560026515
            ],
            [
              84.91513165788912,
              24.845468067664655
            ],
            [
              84.91536046777514,
              24.846885851602202
            ],
            [
              84.91586732690283,
              24.84783493265968
            ],
            [
              84.91648876255177,
              24.848535913064236
            ],
            [
              84.91729184833092,
              24.849774567782312
            ],
            [
              84.91799634221103,
              24.85084583106703
            ],
            [
              84.91838133319234,
              24.85119875170752
            ],
            [
              84.91859892581543,
              24.851235321029783
            ],
            [
              84.91881652113341,
              24.851271888710976
            ],
            [
              84.91952958943291,
              24.850998183907425
            ],
            [
              84.92076776523677,
              24.850472790181826
            ],
            [
              84.92208599081397,
              24.84959101298924
            ],
            [
              84.92365612106475,
              24.84883161685106
            ],
            [
              84.92521561795756,
              24.848388196221016
            ],
            [
              84.9253331391563,
              24.846912399787886
            ],
            [
              84.92552248335693,
              24.84449333275241
            ],
            [
              84.92576424874596,
              24.842887010110136
            ],
            [
              84.92577018840664,
              24.8405849178486
            ],
            [
              84.92527440101482,
              24.8391169432566
            ],
            [
              84.92501454355595,
              24.838231626169524
            ],
            [
              84.92513689589428,
              24.836850684328656
            ],
            [
              84.92498082978331,
              24.835988202031672
            ],
            [
              84.92414340680075,
              24.834690883922832
            ],
            [
              84.9238597889026,
              24.833439894317824
            ],
            [
              84.92370628388854,
              24.83157088866452
            ],
            [
              84.92399211343891,
              24.828199682039674
            ],
            [
              84.92409842006963,
              24.827288124204276
            ],
            [
              84.92433896374988,
              24.826115008897542
            ],
            [
              84.92498393795421,
              24.82533559896215
            ],
            [
              84.92645997866217,
              24.824521765855497
            ],
            [
              84.92780164308171,
              24.824000982032366
            ],
            [
              84.92835137520467,
              24.823735973398346
            ],
            [
              84.93092815666458,
              24.823763991668205
            ],
            [
              84.93305833439274,
              24.824346306333116
            ],
            [
              84.93464998019292,
              24.82474683008195
            ],
            [
              84.93633186266172,
              24.824651169193405
            ],
            [
              84.93830161385655,
              24.824154125340524
            ],
            [
              84.93980104310124,
              24.823845837755567
            ],
            [
              84.94069612894192,
              24.823870268621985
            ],
            [
              84.94034396958762,
              24.82229878378649
            ],
            [
              84.93968269096088,
              24.82169701474865
            ],
            [
              84.93982859443102,
              24.82070437627973
            ],
            [
              84.93898459937382,
              24.820020914819107
            ],
            [
              84.93827042704484,
              24.820786800014194
            ],
            [
              84.93765262597955,
              24.820654600933967
            ],
            [
              84.93760991827432,
              24.81991872185895
            ],
            [
              84.93661684959233,
              24.81948785829648
            ],
            [
              84.93505898763337,
              24.819439445714618
            ],
            [
              84.93434778693135,
              24.819094880681753
            ],
            [
              84.9339273008182,
              24.817193750357674
            ],
            [
              84.9328297059664,
              24.815917527826993
            ],
            [
              84.9332081841619,
              24.81403700880115
            ],
            [
              84.9333328972728,
              24.81171271111513
            ],
            [
              84.93304696890777,
              24.809387431301946
            ],
            [
              84.93253098738836,
              24.80811789307732
            ],
            [
              84.9315488458135,
              24.807321448283144
            ],
            [
              84.93068427484471,
              24.807003636246918
            ],
            [
              84.9305667428662,
              24.80652942125017
            ],
            [
              84.93155132875694,
              24.80637350571797
            ],
            [
              84.93334654268199,
              24.806323216603563
            ],
            [
              84.93458352821808,
              24.806077514617407
            ],
            [
              84.93442404042425,
              24.804637231901896
            ],
            [
              84.93487206439241,
              24.803419470014397
            ],
            [
              84.93574717170118,
              24.800539136784536
            ],
            [
              84.93206759234734,
              24.79785697618713
            ],
            [
              84.92980557966469,
              24.79707008662389
            ],
            [
              84.92839478269752,
              24.797330047326817
            ],
            [
              84.92617875297763,
              24.79759156098606
            ],
            [
              84.92419115495302,
              24.79751506264647
            ],
            [
              84.92355201889974,
              24.79611885181075
            ],
            [
              84.92237999323677,
              24.794252129306244
            ],
            [
              84.92073582923014,
              24.791440793652075
            ],
            [
              84.92020500844053,
              24.79024801982373
            ],
            [
              84.92009806310763,
              24.789557195747527
            ],
            [
              84.92067890209225,
              24.788687258012498
            ],
            [
              84.92154665938536,
              24.787736806269788
            ],
            [
              84.92163782940355,
              24.78690637111871
            ],
            [
              84.92043814281632,
              24.78808647408925
            ],
            [
              84.91957221000158,
              24.78832819923041
            ],
            [
              84.91825171707661,
              24.78843811291441
            ],
            [
              84.91514685109551,
              24.788350016745184
            ],
            [
              84.91407836794713,
              24.788510168049253
            ],
            [
              84.91401622698734,
              24.787738176395493
            ],
            [
              84.91397359743553,
              24.78702937980919
            ],
            [
              84.91306343606774,
              24.787189833757644
            ],
            [
              84.9114663788163,
              24.78714561519447
            ],
            [
              84.91011161426495,
              24.787165066177263
            ],
            [
              84.90996925644525,
              24.786767495638408
            ],
            [
              84.91021584039747,
              24.78518816115946
            ],
            [
              84.90999775459933,
              24.781922442132092
            ],
            [
              84.9099972704074,
              24.781915192359254
            ],
            [
              84.90994900302886,
              24.781508825968366
            ],
            [
              84.90988383564489,
              24.780010082711172
            ],
            [
              84.90966158885031,
              24.776290112850223
            ],
            [
              84.90979884962911,
              24.77491372125927
            ],
            [
              84.91064439338189,
              24.774875061772125
            ],
            [
              84.91188508716348,
              24.774981656319046
            ],
            [
              84.91379386700504,
              24.774823480154428
            ],
            [
              84.91372820375105,
              24.77350527834149
            ],
            [
              84.91385564684211,
              24.77205661260079
            ],
            [
              84.9136819629718,
              24.7704989433899
            ],
            [
              84.91407962738515,
              24.76785465315231
            ],
            [
              84.91399842507336,
              24.764915984104974
            ],
            [
              84.91402709121238,
              24.76346536812639
            ],
            [
              84.91402723404453,
              24.763458088725812
            ],
            [
              84.91397830101435,
              24.761422255140364
            ],
            [
              84.91408815329551,
              24.759160958989828
            ],
            [
              84.91522128011007,
              24.75872572571157
            ],
            [
              84.9159051163319,
              24.758163082162316
            ],
            [
              84.9163576103169,
              24.757161910655526
            ],
            [
              84.91615370801877,
              24.756192025202772
            ],
            [
              84.91615253481902,
              24.756186437258688
            ],
            [
              84.91440653060523,
              24.754742743917067
            ],
            [
              84.91238657256916,
              24.75404756263499
            ],
            [
              84.91080530770043,
              24.753858867827212
            ],
            [
              84.91015392491484,
              24.753451128032367
            ],
            [
              84.90753207497715,
              24.752348290741473
            ],
            [
              84.90643109527338,
              24.751876387655635
            ],
            [
              84.90538432889696,
              24.75144965059653
            ],
            [
              84.90458853114968,
              24.7514612706999
            ],
            [
              84.90415332883556,
              24.751528033246768
            ],
            [
              84.90358589540993,
              24.751156556706533
            ],
            [
              84.90332883620319,
              24.75112894706267
            ],
            [
              84.90251350728502,
              24.751615033835396
            ],
            [
              84.90164763735234,
              24.751337229058922
            ],
            [
              84.90071946027155,
              24.750937759655304
            ],
            [
              84.89980481810713,
              24.75102135227745
            ],
            [
              84.89905217003623,
              24.751471105039528
            ],
            [
              84.89765660310637,
              24.75204101490924
            ],
            [
              84.89608886956071,
              24.752308150924705
            ],
            [
              84.8952346947947,
              24.75197658089098
            ],
            [
              84.89405371203004,
              24.75182032678949
            ],
            [
              84.89330283364023,
              24.751683113797068
            ],
            [
              84.89283897686516,
              24.75137958813767
            ],
            [
              84.89254900158979,
              24.750801186086463
            ],
            [
              84.89326799697353,
              24.750004684235208
            ],
            [
              84.89138399715907,
              24.743914283249893
            ],
            [
              84.8908114666925,
              24.74194216976229
            ],
            [
              84.89200324271532,
              24.741322697676054
            ],
            [
              84.89264478355864,
              24.740999770092643
            ],
            [
              84.89438396416949,
              24.740249663125976
            ],
            [
              84.89383235905919,
              24.738831109345398
            ],
            [
              84.89422572144062,
              24.73800286740635
            ],
            [
              84.89483726843493,
              24.736715196167914
            ],
            [
              84.8913750301759,
              24.734232195903022
            ],
            [
              84.89016556273188,
              24.733551267220783
            ],
            [
              84.88929161155487,
              24.73328999726166
            ],
            [
              84.88526423416747,
              24.733233223068673
            ],
            [
              84.88403736905131,
              24.730560288982048
            ],
            [
              84.88351480108426,
              24.729656431752456
            ],
            [
              84.88322323040092,
              24.728557080407352
            ],
            [
              84.8823413668629,
              24.727866527603894
            ],
            [
              84.88145951140974,
              24.727175970151503
            ],
            [
              84.87896583669006,
              24.727888319021513
            ],
            [
              84.87596924824336,
              24.72767991125327
            ],
            [
              84.87572868120694,
              24.725795445108822
            ],
            [
              84.87645041375734,
              24.724115920299838
            ],
            [
              84.87573926964919,
              24.723388947987146
            ],
            [
              84.87507314461149,
              24.723379507989577
            ],
            [
              84.87453424257761,
              24.723012254076064
            ],
            [
              84.87422280475344,
              24.72173535940015
            ],
            [
              84.87388684382033,
              24.720655960865436
            ],
            [
              84.87344491312471,
              24.720528410736385
            ],
            [
              84.87300298332744,
              24.720400858844595
            ],
            [
              84.8728103881238,
              24.720323741763394
            ],
            [
              84.8726962140478,
              24.720499419344833
            ],
            [
              84.87241874332116,
              24.720729108761
            ],
            [
              84.8723097839654,
              24.72077829586796
            ],
            [
              84.87202849719543,
              24.720651262386856
            ],
            [
              84.87159756457386,
              24.721172523149114
            ],
            [
              84.8713026773105,
              24.72160487935866
            ],
            [
              84.8709267682967,
              24.72062541911959
            ],
            [
              84.8697198709327,
              24.721173517022525
            ],
            [
              84.86925850967751,
              24.719811495844528
            ],
            [
              84.86852996699893,
              24.719911790803636
            ],
            [
              84.8680151182551,
              24.719070158787627
            ],
            [
              84.86599091118771,
              24.719626709937046
            ],
            [
              84.86557355839828,
              24.71746309407298
            ],
            [
              84.86437564239051,
              24.714901086824796
            ],
            [
              84.86393897043257,
              24.713871354177023
            ],
            [
              84.86261034505937,
              24.711467990254775
            ],
            [
              84.86188246174423,
              24.710319628941708
            ],
            [
              84.86150013067449,
              24.709289305923676
            ],
            [
              84.86128587080111,
              24.70825505886341
            ],
            [
              84.86068340128274,
              24.70654698334335
            ],
            [
              84.86012348136617,
              24.705426016901267
            ],
            [
              84.85941308465634,
              24.70346047259681
            ],
            [
              84.85792517181359,
              24.703582946912405
            ],
            [
              84.85669009879071,
              24.703453365962027
            ],
            [
              84.85575123984285,
              24.70340122097612
            ],
            [
              84.85487138134457,
              24.703475665189973
            ],
            [
              84.85393741282515,
              24.70349579602596
            ],
            [
              84.8525590621077,
              24.703343187771843
            ],
            [
              84.84788064868442,
              24.702879209250124
            ],
            [
              84.8468779320963,
              24.70271415539503
            ],
            [
              84.84586205069769,
              24.702056737056107
            ],
            [
              84.84498157685341,
              24.700772329680422
            ],
            [
              84.84589514014117,
              24.699438581329588
            ],
            [
              84.84655975061928,
              24.698686491988994
            ],
            [
              84.84694663884247,
              24.69823616725582
            ],
            [
              84.84671729176392,
              24.697368694061762
            ],
            [
              84.8460039988856,
              24.696333046251677
            ],
            [
              84.84400100283872,
              24.693813200867453
            ],
            [
              84.84166173414333,
              24.68984341083829
            ],
            [
              84.84083963282623,
              24.68891116522798
            ],
            [
              84.83931353888896,
              24.68866776126542
            ],
            [
              84.83776948762917,
              24.689367792051645
            ],
            [
              84.83724494516508,
              24.68964170318992
            ],
            [
              84.83633365820825,
              24.69027112559807
            ],
            [
              84.83490408016343,
              24.690691577267668
            ],
            [
              84.83413275611775,
              24.690865504308434
            ],
            [
              84.83280777071808,
              24.69106492302485
            ],
            [
              84.83107398718545,
              24.69088397297783
            ],
            [
              84.83037284132642,
              24.6907195618941
            ],
            [
              84.83036926962481,
              24.69179844374435
            ],
            [
              84.83047620866952,
              24.692304429741018
            ],
            [
              84.83047447581932,
              24.6928550657319
            ],
            [
              84.83017244874611,
              24.69303025073952
            ],
            [
              84.82962316308583,
              24.693258999178852
            ],
            [
              84.8288517941244,
              24.6934058160019
            ],
            [
              84.82841209214902,
              24.69335494901378
            ],
            [
              84.82794143872053,
              24.693755443958203
            ],
            [
              84.82763872084284,
              24.69408407507688
            ],
            [
              84.82749932656523,
              24.69443574317052
            ],
            [
              84.82763546265329,
              24.695063660851922
            ],
            [
              84.82787856383717,
              24.69626960438507
            ],
            [
              84.82789001376378,
              24.697289933690513
            ],
            [
              84.82766592272795,
              24.697790408021397
            ],
            [
              84.82733221566788,
              24.698543318908083
            ],
            [
              84.82697550724498,
              24.698822148306892
            ],
            [
              84.82655990527202,
              24.69897004076767
            ],
            [
              84.82568115080323,
              24.69869208904536
            ],
            [
              84.82488614537004,
              24.698536399704114
            ],
            [
              84.82344173344492,
              24.69819003829233
            ],
            [
              84.82379748426375,
              24.69899897677858
            ],
            [
              84.82480541018222,
              24.70047781303823
            ],
            [
              84.82564615333808,
              24.70168994173557
            ],
            [
              84.82593630109002,
              24.7020970522308
            ],
            [
              84.82697775303319,
              24.703914557807845
            ],
            [
              84.82742803267102,
              24.70518422270891
            ],
            [
              84.82783396517824,
              24.70790273122231
            ],
            [
              84.82824888982145,
              24.71086046199792
            ],
            [
              84.82911933756886,
              24.713602829937177
            ],
            [
              84.83005290094808,
              24.7151672336246
            ],
            [
              84.83091344117618,
              24.71643803719145
            ],
            [
              84.83203934014595,
              24.718178981266288
            ],
            [
              84.83220003617386,
              24.71888362308498
            ],
            [
              84.83291296703112,
              24.719968908082073
            ],
            [
              84.8334878025747,
              24.720972571653807
            ],
            [
              84.83418752460403,
              24.721592977398288
            ],
            [
              84.83616546214604,
              24.7227314389
            ],
            [
              84.8370699560427,
              24.72419188125203
            ],
            [
              84.83756458820106,
              24.725560898663232
            ],
            [
              84.83839323643996,
              24.727567393155947
            ],
            [
              84.83902715597638,
              24.728656970955235
            ],
            [
              84.83973043533422,
              24.72971056314235
            ],
            [
              84.83995182333936,
              24.73001359095083
            ],
            [
              84.84074389667146,
              24.732651857235293
            ],
            [
              84.84071109918044,
              24.735111880768763
            ],
            [
              84.84105114385481,
              24.7369273492106
            ],
            [
              84.84207562213072,
              24.738018010094127
            ],
            [
              84.84287828480336,
              24.738936459613186
            ],
            [
              84.84370372964997,
              24.74043278178338
            ],
            [
              84.84429789604012,
              24.741639654003045
            ],
            [
              84.84479210778694,
              24.7431892076341
            ],
            [
              84.84495114732147,
              24.744430930882988
            ],
            [
              84.84530653342429,
              24.74602848224299
            ],
            [
              84.84432160168217,
              24.74652224626632
            ],
            [
              84.84362854515227,
              24.74684984230944
            ],
            [
              84.84298554185168,
              24.74697449539807
            ],
            [
              84.84173893715548,
              24.74730058017276
            ],
            [
              84.84018550658581,
              24.74770260823792
            ],
            [
              84.8398789331389,
              24.747728809732514
            ],
            [
              84.83896477426812,
              24.747649625188174
            ],
            [
              84.83854900161525,
              24.747824517707482
            ],
            [
              84.83810147261883,
              24.748608657723306
            ],
            [
              84.83804525425171,
              24.749168283637133
            ],
            [
              84.83723744692742,
              24.74982508517008
            ],
            [
              84.83673796117158,
              24.749895926778073
            ],
            [
              84.83625415101741,
              24.749704939792494
            ],
            [
              84.83592894561322,
              24.750000157367225
            ],
            [
              84.8358079820703,
              24.7501099671128
            ],
            [
              84.83630100265107,
              24.750481493281725
            ],
            [
              84.83629160806983,
              24.753322126821484
            ],
            [
              84.83607493442328,
              24.75455379972389
            ],
            [
              84.83568242364473,
              24.755157589681964
            ],
            [
              84.83472143020828,
              24.755755247077207
            ],
            [
              84.8344823768331,
              24.756300795912168
            ],
            [
              84.83442051435105,
              24.757040867701676
            ],
            [
              84.83647576180473,
              24.760400329978957
            ],
            [
              84.83831674309687,
              24.76428280114844
            ],
            [
              84.83940697984816,
              24.766475061896795
            ],
            [
              84.84027205926341,
              24.767982347234216
            ],
            [
              84.84029177099569,
              24.76801669310165
            ],
            [
              84.83812504171694,
              24.769924601842373
            ],
            [
              84.83576558697878,
              24.77180940881807
            ],
            [
              84.83520024662778,
              24.77233137515256
            ],
            [
              84.83326566896785,
              24.77277741378344
            ],
            [
              84.8317467642478,
              24.773116266673785
            ],
            [
              84.82992754194848,
              24.77306150003772
            ],
            [
              84.82873942117055,
              24.773536613769334
            ],
            [
              84.8271818071466,
              24.773613458044842
            ],
            [
              84.82421806200503,
              24.77428216999076
            ],
            [
              84.8225952796988,
              24.77460704609228
            ],
            [
              84.82162057168291,
              24.77483897071001
            ],
            [
              84.81864234480062,
              24.775381091631115
            ],
            [
              84.81758911684243,
              24.775432225235235
            ],
            [
              84.81597214034784,
              24.77550878123517
            ],
            [
              84.81448182900328,
              24.776109374837745
            ],
            [
              84.813659504904,
              24.77658539040404
            ],
            [
              84.8135739475597,
              24.777014002680254
            ],
            [
              84.81362976168492,
              24.77802525909113
            ],
            [
              84.81418513882114,
              24.78036047127281
            ],
            [
              84.81488122806344,
              24.783513144934247
            ],
            [
              84.81508303279539,
              24.78518390226452
            ],
            [
              84.81551574587785,
              24.785893780227692
            ],
            [
              84.81619621072244,
              24.790680412202423
            ],
            [
              84.815275348623,
              24.791025294354196
            ],
            [
              84.8133250729035,
              24.791610930338933
            ],
            [
              84.81256168996494,
              24.79214128503953
            ],
            [
              84.8155648477913,
              24.794492782274585
            ],
            [
              84.8167046374103,
              24.795191177711835
            ],
            [
              84.81961576822566,
              24.798467543405717
            ],
            [
              84.82041300776898,
              24.799566719755127
            ],
            [
              84.82065964202684,
              24.801192399839273
            ],
            [
              84.82094307487205,
              24.803621646292317
            ],
            [
              84.82102790997084,
              24.806271537977505
            ],
            [
              84.82134226372642,
              24.80976162012985
            ],
            [
              84.8210483026261,
              24.81182358172862
            ],
            [
              84.82087507959154,
              24.81330807906859
            ],
            [
              84.82097377839013,
              24.814806924683186
            ],
            [
              84.82155771566418,
              24.81756206707472
            ],
            [
              84.82209208030756,
              24.818949286927985
            ],
            [
              84.82206430260234,
              24.81983390289365
            ],
            [
              84.82217946482514,
              24.820872486656828
            ],
            [
              84.82246870527861,
              24.82160902292817
            ],
            [
              84.82252773537257,
              24.82315294979866
            ],
            [
              84.82223832962907,
              24.825309730188785
            ],
            [
              84.82225419028373,
              24.826456241039164
            ],
            [
              84.82223922794434,
              24.826501292674457
            ],
            [
              84.82283556107099,
              24.82711244439563
            ],
            [
              84.82332590107892,
              24.828368664381014
            ],
            [
              84.8237505095609,
              24.830049004905174
            ],
            [
              84.82358862326524,
              24.83109568991269
            ],
            [
              84.82341245824811,
              24.831979871828196
            ],
            [
              84.82356818299925,
              24.83272969592333
            ],
            [
              84.82382198581313,
              24.83370987069239
            ],
            [
              84.82429372979637,
              24.83462299135797
            ],
            [
              84.82432567119294,
              24.835417489132542
            ],
            [
              84.82496223896281,
              24.837306099127265
            ],
            [
              84.82568385922383,
              24.83893762807218
            ],
            [
              84.82609854401684,
              24.8391690410593
            ],
            [
              84.82947723805613,
              24.839128945636208
            ],
            [
              84.83231103919691,
              24.83927680070532
            ],
            [
              84.83283862515316,
              24.839788280708913
            ],
            [
              84.83297300683145,
              24.84103451875803
            ],
            [
              84.83321916588055,
              24.842845231712303
            ],
            [
              84.83349147668419,
              24.84424521936395
            ],
            [
              84.8338085658098,
              24.84558217689441
            ],
            [
              84.83457058780071,
              24.845530125810555
            ],
            [
              84.83582306208896,
              24.845253790785872
            ],
            [
              84.83619724094753,
              24.845791986893808
            ],
            [
              84.83714153560115,
              24.845948007692037
            ],
            [
              84.83856220595162,
              24.8456720909675
            ],
            [
              84.83889510722288,
              24.84523968096388
            ],
            [
              84.84009248244487,
              24.84514374081613
            ],
            [
              84.84214649740997,
              24.84481983537841
            ],
            [
              84.84340326295035,
              24.844732966183464
            ],
            [
              84.84355908831279,
              24.845500729121234
            ],
            [
              84.8443691701714,
              24.84738519913114
            ],
            [
              84.84537351989671,
              24.848868397996544
            ],
            [
              84.84686253137907,
              24.85038003476324
            ],
            [
              84.84860174971918,
              24.85260099729117
            ],
            [
              84.85034999073801,
              24.85505673075414
            ],
            [
              84.85093611540974,
              24.855866232984983
            ],
            [
              84.85236673819526,
              24.85562175087041
            ],
            [
              84.85434327167052,
              24.854801050694288
            ],
            [
              84.85627117484783,
              24.853709288870522
            ],
            [
              84.85926232489379,
              24.85271953421335
            ],
            [
              84.86129882630411,
              24.8516822283638
            ],
            [
              84.86388523680556,
              24.850411467324548
            ],
            [
              84.8650286133975,
              24.85018420567522
            ],
            [
              84.8650533413223,
              24.8501842969709
            ],
            [
              84.8650731410895,
              24.8501843678881
            ],
            [
              84.8663605652322,
              24.851401885218035
            ],
            [
              84.86732679584674,
              24.854112650397155
            ],
            [
              84.86766258699825,
              24.855928042199476
            ],
            [
              84.86719169731285,
              24.857822664258943
            ],
            [
              84.86760924593501,
              24.85878968371705
            ],
            [
              84.87279622259007,
              24.858098689188328
            ],
            [
              84.87597256572171,
              24.85802547634275
            ],
            [
              84.87957527982995,
              24.857686879205847
            ],
            [
              84.88262368579714,
              24.857387469983866
            ],
            [
              84.88823781586139,
              24.856065089330194
            ],
            [
              84.89022824537578,
              24.855487586275167
            ],
            [
              84.89061287703096,
              24.855935422134483
            ],
            [
              84.89082435572023,
              24.85635116020727
            ],
            [
              84.89068672573384,
              24.857759163864245
            ],
            [
              84.89025709656775,
              24.859180010205932
            ],
            [
              84.8899131936292,
              24.8600548463292
            ],
            [
              84.8894467299432,
              24.86056372268122
            ],
            [
              84.88904563306714,
              24.86239541063754
            ],
            [
              84.88941224990765,
              24.863908385850937
            ],
            [
              84.88998253728096,
              24.86515109223412
            ],
            [
              84.89086950324975,
              24.866407991338857
            ],
            [
              84.89123289424006,
              24.867573290031157
            ],
            [
              84.89123717201743,
              24.867587011798467
            ],
            [
              84.89186794385711,
              24.868486788345308
            ],
            [
              84.89247200339354,
              24.868334725191403
            ],
            [
              84.89384970373068,
              24.867539129865698
            ],
            [
              84.89563790810158,
              24.866812118325672
            ],
            [
              84.89685681324598,
              24.866187611079653
            ],
            [
              84.89852216761184,
              24.865144363252153
            ],
            [
              84.89956711939138,
              24.864785670329077
            ],
            [
              84.90094346686573,
              24.864472914804065
            ],
            [
              84.90267673117214,
              24.863903697685622
            ],
            [
              84.9036985441466,
              24.863623519986078
            ],
            [
              84.90405266991303,
              24.862550087654235
            ],
            [
              84.90436005903022,
              24.86055114938553
            ],
            [
              84.90455752400104,
              24.85716632376024
            ]
          ]
        ]
      }
    }
  ]
}