{
  "type": "FeatureCollection",
  "features": [
    {
      "type": "Feature",
      "properties": {
        "object_id": "10-231-01426",
        "stname": "BIHAR",
        "dtname": "Bhojpur",
        "sdtname": "Udwant Nagar",
        "st_area_sh": 0.0,
        "st_length_": 0.0,
        "remarks": "",
        "dist_lgd": 193,
        "state_lgd": 10,
        "subdt_lgd": 1426,
        "ac_no": null,
        "st_length(shape)": 92445.60417460876,
        "st_area(shape)": 217797556.82002312
      },
      "geometry": {
        "type": "Polygon",
        "coordinates": [
          [
            [
              84.53442276587035,
              25.59462637785338
            ],
            [
              84.53544045288265,
              25.593417311900513
            ],
            [
              84.53707830532613,
              25.592540643943398
            ],
            [
              84.53925021878243,
              25.592253360085728
            ],
            [
              84.54145804508713,
              25.59262515626876
            ],
            [
              84.54250565228664,
              25.593090517024724
            ],
            [
              84.54391560663409,
              25.592867156758988
            ],
            [
              84.54431606031638,
              25.592476471961817
            ],
            [
              84.54524100885205,
              25.59051316634357
            ],
            [
              84.54446477192008,
              25.589205106329146
            ],
            [
              84.54325867944658,
              25.587620426156086
            ],
            [
              84.54400014618713,
              25.586955273626153
            ],
            [
              84.54504706617546,
              25.58668046509057
            ],
            [
              84.54587746073928,
              25.585975835614356
            ],
            [
              84.54727521506683,
              25.58526950860879
            ],
            [
              84.54767024292482,
              25.584955482607874
            ],
            [
              84.54811384718178,
              25.584009793290477
            ],
            [
              84.54872587477476,
              25.583186782059645
            ],
            [
              84.55055784596458,
              25.583114334897864
            ],
            [
              84.55316516026268,
              25.583244165132886
            ],
            [
              84.55512614030708,
              25.583253512100605
            ],
            [
              84.55647875788489,
              25.583458475135743
            ],
            [
              84.55690859366351,
              25.584015707219233
            ],
            [
              84.55747139896879,
              25.584808149150433
            ],
            [
              84.55772407170201,
              25.58587449263792
            ],
            [
              84.55872465838462,
              25.58583859072551
            ],
            [
              84.558821060191,
              25.58465657879883
            ],
            [
              84.55869579102296,
              25.583942912966837
            ],
            [
              84.55848615567668,
              25.582321667844724
            ],
            [
              84.55936081921767,
              25.581693925270336
            ],
            [
              84.56040820543161,
              25.58130620599021
            ],
            [
              84.56118897795744,
              25.581427280943174
            ],
            [
              84.56285148466385,
              25.580527871837514
            ],
            [
              84.56385394343552,
              25.580176068607216
            ],
            [
              84.56443287709338,
              25.57816584298862
            ],
            [
              84.56635526281826,
              25.57706908239877
            ],
            [
              84.56801588036764,
              25.576485665893543
            ],
            [
              84.56936828773968,
              25.5758601072439
            ],
            [
              84.57071258601965,
              25.5766426779542
            ],
            [
              84.57208438801865,
              25.576964980149256
            ],
            [
              84.57416082313665,
              25.57586883167267
            ],
            [
              84.57544642280101,
              25.57555869878524
            ],
            [
              84.57688121556609,
              25.57526745312864
            ],
            [
              84.57879776044497,
              25.575158845675396
            ],
            [
              84.580543104397,
              25.57540597501253
            ],
            [
              84.58190239376242,
              25.576165912394863
            ],
            [
              84.5829405596683,
              25.577434355988878
            ],
            [
              84.58600044520651,
              25.575710540762778
            ],
            [
              84.58871046119607,
              25.574264843627567
            ],
            [
              84.58947249396677,
              25.575062711053764
            ],
            [
              84.59064369228136,
              25.575663684668626
            ],
            [
              84.59173200573964,
              25.575943920723265
            ],
            [
              84.59307985505991,
              25.576067312863362
            ],
            [
              84.59377459593101,
              25.576426940981754
            ],
            [
              84.59447095376957,
              25.57650679499211
            ],
            [
              84.59682640291985,
              25.57620129214021
            ],
            [
              84.59782745223481,
              25.57604781804646
            ],
            [
              84.59935181242359,
              25.57573861097872
            ],
            [
              84.59983083455725,
              25.575506023087303
            ],
            [
              84.59992202074511,
              25.574736891892748
            ],
            [
              84.60243963197387,
              25.574334977056395
            ],
            [
              84.60619958269785,
              25.574748698788156
            ],
            [
              84.6079320843346,
              25.575541630720735
            ],
            [
              84.6090891485565,
              25.576007078171585
            ],
            [
              84.6101057279461,
              25.575749757385594
            ],
            [
              84.6106181458488,
              25.574831197117796
            ],
            [
              84.61415836955258,
              25.57537463193029
            ],
            [
              84.61690853664209,
              25.575711471791067
            ],
            [
              84.61900851031545,
              25.575720571396957
            ],
            [
              84.61958918490838,
              25.57506862623488
            ],
            [
              84.61909340829635,
              25.573753069795025
            ],
            [
              84.61860316261146,
              25.571381589358552
            ],
            [
              84.61918995832474,
              25.57144251515229
            ],
            [
              84.62106256929805,
              25.57113460972811
            ],
            [
              84.6230668157998,
              25.570393969223115
            ],
            [
              84.6242889728455,
              25.569807889844768
            ],
            [
              84.6267766333444,
              25.5689112823053
            ],
            [
              84.62777783986454,
              25.568716909839633
            ],
            [
              84.62778154002518,
              25.568978756092775
            ],
            [
              84.62799457010492,
              25.5691511258161
            ],
            [
              84.62891095320433,
              25.568997118395224
            ],
            [
              84.6301763003506,
              25.568727089352247
            ],
            [
              84.6312238177186,
              25.568216966833862
            ],
            [
              84.63218286540412,
              25.567512433687234
            ],
            [
              84.63255783657675,
              25.567116674349954
            ],
            [
              84.63292827844374,
              25.566725692369697
            ],
            [
              84.63389763968705,
              25.564951468057068
            ],
            [
              84.63534585328246,
              25.561956007825106
            ],
            [
              84.63587447499623,
              25.56073513339787
            ],
            [
              84.63597003867444,
              25.559552966004823
            ],
            [
              84.63580682556712,
              25.557376731776632
            ],
            [
              84.63554858327915,
              25.556310461073902
            ],
            [
              84.63525222906691,
              25.554887425360743
            ],
            [
              84.63465201701487,
              25.552555911596265
            ],
            [
              84.63440499198984,
              25.55026200918569
            ],
            [
              84.63674868758295,
              25.550190657307134
            ],
            [
              84.63853476025164,
              25.550198080374813
            ],
            [
              84.64014774283648,
              25.550006245919903
            ],
            [
              84.64106281170065,
              25.550091230786865
            ],
            [
              84.64201771905101,
              25.550171980092095
            ],
            [
              84.6422379509244,
              25.549897544239187
            ],
            [
              84.64259649011385,
              25.54784538175346
            ],
            [
              84.64273202612728,
              25.54662277904317
            ],
            [
              84.64312720400392,
              25.54619108877289
            ],
            [
              84.6440435475775,
              25.545996287975687
            ],
            [
              84.64512956763686,
              25.545725411992166
            ],
            [
              84.64561205906418,
              25.54572745687672
            ],
            [
              84.64574288341393,
              25.54544813974804
            ],
            [
              84.6456180256743,
              25.544540400783998
            ],
            [
              84.64566414518097,
              25.543276822078496
            ],
            [
              84.64597388968083,
              25.543002740034463
            ],
            [
              84.64710600319573,
              25.542456722753503
            ],
            [
              84.64719949266399,
              25.54166730590883
            ],
            [
              84.64716193230532,
              25.540204671131715
            ],
            [
              84.64712918422163,
              25.53779431887869
            ],
            [
              84.64665395297844,
              25.537318411903634
            ],
            [
              84.64595977984266,
              25.536841690861543
            ],
            [
              84.64596731041969,
              25.535343173390487
            ],
            [
              84.64601218126813,
              25.534866929217912
            ],
            [
              84.64605657870442,
              25.534395689258396
            ],
            [
              84.64615196631286,
              25.5332089870653
            ],
            [
              84.6461115205655,
              25.532342176866504
            ],
            [
              84.64637350792992,
              25.531670821106548
            ],
            [
              84.64833474040093,
              25.531439648076926
            ],
            [
              84.65003237572652,
              25.531171319335392
            ],
            [
              84.6519081604477,
              25.53110222981761
            ],
            [
              84.65286501534565,
              25.53074953163931
            ],
            [
              84.65452115389502,
              25.53083303298152
            ],
            [
              84.65656371264535,
              25.53123852499016
            ],
            [
              84.6565279812566,
              25.529383294155522
            ],
            [
              84.65601326007351,
              25.527837541202747
            ],
            [
              84.65701209863457,
              25.528044773935832
            ],
            [
              84.65840706818474,
              25.527612599315393
            ],
            [
              84.6600126576348,
              25.527858233040185
            ],
            [
              84.66101665522051,
              25.528020260882425
            ],
            [
              84.6621895100285,
              25.52825971202036
            ],
            [
              84.66345101597861,
              25.528661958117766
            ],
            [
              84.6628782762046,
              25.529842299897922
            ],
            [
              84.66278562396619,
              25.530473795709476
            ],
            [
              84.66295569571075,
              25.531304945140974
            ],
            [
              84.66356476604977,
              25.531898695397025
            ],
            [
              84.66456139924682,
              25.5325752716777
            ],
            [
              84.6648223616335,
              25.533126900222218
            ],
            [
              84.66533949928466,
              25.53419871478857
            ],
            [
              84.6672951792689,
              25.534084686260694
            ],
            [
              84.66842913433014,
              25.534129776971046
            ],
            [
              84.6698712268052,
              25.533228325925904
            ],
            [
              84.67091887892046,
              25.532600600060405
            ],
            [
              84.67200356767658,
              25.532564277697265
            ],
            [
              84.67283296061883,
              25.53284289774434
            ],
            [
              84.67422525857938,
              25.532970225886082
            ],
            [
              84.67557297405067,
              25.53305229095067
            ],
            [
              84.67661654781456,
              25.53329562121331
            ],
            [
              84.67714207303555,
              25.5326251097461
            ],
            [
              84.6774542905974,
              25.530771271078134
            ],
            [
              84.67758879624319,
              25.529665954355135
            ],
            [
              84.67729003544432,
              25.52867635864962
            ],
            [
              84.67713897025455,
              25.528337316251992
            ],
            [
              84.6769898499174,
              25.528002638069122
            ],
            [
              84.67612130390347,
              25.527565921393137
            ],
            [
              84.67568660464593,
              25.526932250771665
            ],
            [
              84.67586445400417,
              25.5261431167892
            ],
            [
              84.67639124764635,
              25.525197340956215
            ],
            [
              84.67683457612054,
              25.524012001253745
            ],
            [
              84.67722836430345,
              25.52279030668522
            ],
            [
              84.67749476239588,
              25.52220006202569
            ],
            [
              84.67932199497258,
              25.521850705963857
            ],
            [
              84.68237338693979,
              25.521388627234888
            ],
            [
              84.68467875860627,
              25.52195276216477
            ],
            [
              84.68637492338975,
              25.52195939091439
            ],
            [
              84.68841734379953,
              25.522400563900337
            ],
            [
              84.68799357793728,
              25.520467074790222
            ],
            [
              84.68769545673888,
              25.519319465046348
            ],
            [
              84.6877017350644,
              25.517974450040512
            ],
            [
              84.68796183417008,
              25.51765950912438
            ],
            [
              84.68953988666338,
              25.517385692819463
            ],
            [
              84.69049275124482,
              25.51676648714056
            ],
            [
              84.69105392520953,
              25.51587946498137
            ],
            [
              84.69109734707543,
              25.51510780925237
            ],
            [
              84.69091749716904,
              25.514199903101932
            ],
            [
              84.69073768319524,
              25.51328739007995
            ],
            [
              84.69046420278508,
              25.512203121657127
            ],
            [
              84.68968586110041,
              25.510561646938434
            ],
            [
              84.68927943002824,
              25.509196956769173
            ],
            [
              84.68912286625061,
              25.507562380205513
            ],
            [
              84.68904363394425,
              25.505327861595035
            ],
            [
              84.68919953386686,
              25.50443024564403
            ],
            [
              84.68935543199282,
              25.50353263028125
            ],
            [
              84.68912090971993,
              25.502624433096795
            ],
            [
              84.68792998889326,
              25.50202855238346
            ],
            [
              84.68743109692382,
              25.501195833205404
            ],
            [
              84.68761890231036,
              25.500415483729935
            ],
            [
              84.68762900296743,
              25.500000007914736
            ],
            [
              84.68766202144401,
              25.498641902358546
            ],
            [
              84.68770274836406,
              25.497364799004078
            ],
            [
              84.68757923180911,
              25.496118621818297
            ],
            [
              84.6876970090277,
              25.494336334220915
            ],
            [
              84.68789264143533,
              25.49289276227051
            ],
            [
              84.68826562014466,
              25.491820073699092
            ],
            [
              84.6880652617003,
              25.491079070625144
            ],
            [
              84.68781037012835,
              25.490270193840804
            ],
            [
              84.68614420368544,
              25.490331472219367
            ],
            [
              84.6836981154213,
              25.490186713747207
            ],
            [
              84.68173944404715,
              25.49004820936669
            ],
            [
              84.68007416334315,
              25.489906356726742
            ],
            [
              84.67877612021546,
              25.489932881232175
            ],
            [
              84.67801478633406,
              25.49002922195561
            ],
            [
              84.6782933601919,
              25.488969717068652
            ],
            [
              84.67882193339662,
              25.48655257772449
            ],
            [
              84.67905760820807,
              25.482987995625823
            ],
            [
              84.67915739037487,
              25.481878074891444
            ],
            [
              84.67934416090223,
              25.481274004673427
            ],
            [
              84.67982749405095,
              25.481072778901186
            ],
            [
              84.68153566841148,
              25.48051075419464
            ],
            [
              84.68368773538819,
              25.479679601043006
            ],
            [
              84.68435526000108,
              25.479411382881267
            ],
            [
              84.6846884541231,
              25.479412650388415
            ],
            [
              84.68483324727558,
              25.479277799069028
            ],
            [
              84.68490869857291,
              25.479111062784607
            ],
            [
              84.6853574762276,
              25.478842077007847
            ],
            [
              84.68571610524859,
              25.478712554610617
            ],
            [
              84.68579350229685,
              25.478103490042173
            ],
            [
              84.68575885697126,
              25.476997618758986
            ],
            [
              84.68565133581828,
              25.476591007726288
            ],
            [
              84.68513420894689,
              25.476589034650647
            ],
            [
              84.68391155603112,
              25.476484967636505
            ],
            [
              84.68353921692227,
              25.476348139143116
            ],
            [
              84.68343160773438,
              25.475977626170483
            ],
            [
              84.68284317529066,
              25.475266832311522
            ],
            [
              84.6825681066591,
              25.47456168108973
            ],
            [
              84.68084298737737,
              25.47132796428098
            ],
            [
              84.67979905338905,
              25.469171025043426
            ],
            [
              84.6790996808044,
              25.46775563323831
            ],
            [
              84.67855751519109,
              25.46570445497546
            ],
            [
              84.67829786524304,
              25.464895512100096
            ],
            [
              84.67796549936769,
              25.46472726112205
            ],
            [
              84.67778219993062,
              25.464591164603227
            ],
            [
              84.67785853966176,
              25.46422136238819
            ],
            [
              84.67811864325903,
              25.4638838639643
            ],
            [
              84.67806652839612,
              25.463346568244603
            ],
            [
              84.67770239719403,
              25.46253727373757
            ],
            [
              84.67699568537348,
              25.46165441996526
            ],
            [
              84.67670944080147,
              25.461188361763465
            ],
            [
              84.67619050472307,
              25.460550031757617
            ],
            [
              84.6756414840658,
              25.459943086212824
            ],
            [
              84.67538647032296,
              25.45920186235653
            ],
            [
              84.67538924701552,
              25.458628655216348
            ],
            [
              84.67563068182454,
              25.458024867284664
            ],
            [
              84.67596649094234,
              25.457452948232046
            ],
            [
              84.67656225723204,
              25.456584237603163
            ],
            [
              84.67767979827642,
              25.4547019817473
            ],
            [
              84.67824199182901,
              25.453562260654017
            ],
            [
              84.67852326871751,
              25.452958645220644
            ],
            [
              84.67878469643148,
              25.45235028734258
            ],
            [
              84.67878732220706,
              25.45178168562123
            ],
            [
              84.67871693740791,
              25.450905795243365
            ],
            [
              84.67887117365063,
              25.44983223978252
            ],
            [
              84.67909963588865,
              25.448822101116857
            ],
            [
              84.67941598659908,
              25.448146336395357
            ],
            [
              84.67960480708192,
              25.447109029101927
            ],
            [
              84.67889902142444,
              25.44707009409174
            ],
            [
              84.67827418026226,
              25.446765265111203
            ],
            [
              84.67764525895205,
              25.446257327847867
            ],
            [
              84.67738844588371,
              25.445890752109836
            ],
            [
              84.67683507917708,
              25.44518006766907
            ],
            [
              84.67602892565125,
              25.444301306353246
            ],
            [
              84.67551075134422,
              25.443495907280425
            ],
            [
              84.67499669671109,
              25.44288909801322
            ],
            [
              84.6747013324423,
              25.44228315691227
            ],
            [
              84.6745846170324,
              25.441723030107447
            ],
            [
              84.67416651504801,
              25.44184327408915
            ],
            [
              84.67374348041442,
              25.44195897037769
            ],
            [
              84.67330183628138,
              25.441790224954463
            ],
            [
              84.67311995887738,
              25.441356189905584
            ],
            [
              84.67255135584527,
              25.44071307732228
            ],
            [
              84.6722187959338,
              25.440612500728403
            ],
            [
              84.67192619398452,
              25.440475913744088
            ],
            [
              84.67177805640426,
              25.440276779175072
            ],
            [
              84.67155752629023,
              25.439603382293008
            ],
            [
              84.67130168070742,
              25.439065305696264
            ],
            [
              84.67097478916544,
              25.438797701136956
            ],
            [
              84.66975911705774,
              25.438355099348495
            ],
            [
              84.66883631100401,
              25.437981389987815
            ],
            [
              84.66847029962803,
              25.4376143096243
            ],
            [
              84.66817444577741,
              25.437107636601382
            ],
            [
              84.66799323402505,
              25.43653830337101
            ],
            [
              84.66770181695361,
              25.436167042364538
            ],
            [
              84.66731550634715,
              25.435863095185866
            ],
            [
              84.66661626222155,
              25.43552629523624
            ],
            [
              84.66624993643522,
              25.43522248029603
            ],
            [
              84.66584492919273,
              25.43468381788049
            ],
            [
              84.66566308682305,
              25.434249771016276
            ],
            [
              84.66507403813507,
              25.433741965124977
            ],
            [
              84.66411601632556,
              25.433471870357295
            ],
            [
              84.66164682968052,
              25.433227300355256
            ],
            [
              84.65980295671149,
              25.43318371235725
            ],
            [
              84.65910273072728,
              25.433050044777982
            ],
            [
              84.65862138016041,
              25.432881164374407
            ],
            [
              84.65805180335451,
              25.43247265763977
            ],
            [
              84.65735467476144,
              25.43170258964369
            ],
            [
              84.65644011703867,
              25.43069235489691
            ],
            [
              84.65551941304271,
              25.429916835900222
            ],
            [
              84.65515394963903,
              25.429446020804935
            ],
            [
              84.65365238689553,
              25.42953923785509
            ],
            [
              84.65258372138914,
              25.42953483178715
            ],
            [
              84.65133118242217,
              25.42952976127974
            ],
            [
              84.65025864607524,
              25.429326829662756
            ],
            [
              84.64874944765182,
              25.428950509165475
            ],
            [
              84.64779215437603,
              25.42854493002347
            ],
            [
              84.64712733998034,
              25.428307474765127
            ],
            [
              84.64620870390618,
              25.428136737972125
            ],
            [
              84.64425068201403,
              25.42806093420163
            ],
            [
              84.64290369777136,
              25.428059913597412
            ],
            [
              84.64172092017273,
              25.428023488244214
            ],
            [
              84.64087666280744,
              25.42788456587977
            ],
            [
              84.64002861994159,
              25.427515450044137
            ],
            [
              84.63922167320332,
              25.42687575621784
            ],
            [
              84.63863314194496,
              25.42630006270242
            ],
            [
              84.63745378513092,
              25.425591106784303
            ],
            [
              84.63687002662162,
              25.42505154619072
            ],
            [
              84.63651127003988,
              25.425230599227195
            ],
            [
              84.63474121882426,
              25.425354035945784
            ],
            [
              84.63293080899787,
              25.425581147981674
            ],
            [
              84.63150730536101,
              25.42597238105412
            ],
            [
              84.63128082390821,
              25.42653109316399
            ],
            [
              84.63116579463609,
              25.42763630613048
            ],
            [
              84.63111942000785,
              25.428940487360215
            ],
            [
              84.63096956484878,
              25.430050145936704
            ],
            [
              84.6306119113982,
              25.430982946179316
            ],
            [
              84.62997981184851,
              25.432122099726126
            ],
            [
              84.62890409366884,
              25.433489594647806
            ],
            [
              84.62730563324891,
              25.43502645384251
            ],
            [
              84.62675149399116,
              25.435493452958127
            ],
            [
              84.62527264694627,
              25.435992721302974
            ],
            [
              84.62394446174754,
              25.43618563590396
            ],
            [
              84.62339077164746,
              25.436553343648672
            ],
            [
              84.62301677963846,
              25.436786410925787
            ],
            [
              84.62246463014908,
              25.43685176135178
            ],
            [
              84.62194758771933,
              25.4368811636372
            ],
            [
              84.62137702905483,
              25.436675598970677
            ],
            [
              84.62131288036038,
              25.437532867296827
            ],
            [
              84.62119746930425,
              25.438705846797625
            ],
            [
              84.62137489016614,
              25.439947822186344
            ],
            [
              84.62185237887563,
              25.44085248784213
            ],
            [
              84.62306292609462,
              25.44226579733114
            ],
            [
              84.62416626926591,
              25.443277034997532
            ],
            [
              84.62463985389718,
              25.443983094753495
            ],
            [
              84.6248218606586,
              25.44434949783887
            ],
            [
              84.62470933588949,
              25.444953782664175
            ],
            [
              84.62402383239447,
              25.445830951756136
            ],
            [
              84.62383639711379,
              25.446498149760075
            ],
            [
              84.623678051977,
              25.448275730280816
            ],
            [
              84.62392422719579,
              25.45065525496945
            ],
            [
              84.62463205292725,
              25.453176726905525
            ],
            [
              84.62510242428473,
              25.454519164341413
            ],
            [
              84.62524760730604,
              25.45529154735431
            ],
            [
              84.62524579270917,
              25.455625581312
            ],
            [
              84.6245992230969,
              25.45569052812855
            ],
            [
              84.62360278842755,
              25.45608790970869
            ],
            [
              84.62238083260445,
              25.456854530353997
            ],
            [
              84.62167620577365,
              25.457555544978796
            ],
            [
              84.62140030979371,
              25.45802380313554
            ],
            [
              84.62115973467243,
              25.45839736188508
            ],
            [
              84.62062210824625,
              25.458530410048994
            ],
            [
              84.6204527533573,
              25.458592912308745
            ],
            [
              84.61860182771498,
              25.45888283120348
            ],
            [
              84.6172735329218,
              25.459048610063885
            ],
            [
              84.61638789017137,
              25.459175700925407
            ],
            [
              84.61533493979256,
              25.45897258810111
            ],
            [
              84.61470678205036,
              25.459303797392703
            ],
            [
              84.61334310531312,
              25.4595686619737
            ],
            [
              84.61193687807578,
              25.459427226770515
            ],
            [
              84.61134953169521,
              25.459560062915333
            ],
            [
              84.61090794864765,
              25.459386629785897
            ],
            [
              84.61046730703447,
              25.459050735910736
            ],
            [
              84.61016953707737,
              25.458950098393068
            ],
            [
              84.60931864475542,
              25.459081827126358
            ],
            [
              84.60692018337099,
              25.459473046282454
            ],
            [
              84.60582968071834,
              25.459806711760752
            ],
            [
              84.60486994043174,
              25.459834095347862
            ],
            [
              84.60409439969415,
              25.4598306831466
            ],
            [
              84.60350277823117,
              25.45982807228939
            ],
            [
              84.6031015151668,
              25.459560050749158
            ],
            [
              84.60188813825467,
              25.4586836119032
            ],
            [
              84.60070979474028,
              25.45777122723882
            ],
            [
              84.600085571619,
              25.457366806867885
            ],
            [
              84.59941959300671,
              25.456393453996462
            ],
            [
              84.59890633517924,
              25.455687120676426
            ],
            [
              84.59787297885343,
              25.453705678633785
            ],
            [
              84.59728648317746,
              25.452764308007797
            ],
            [
              84.59637695063037,
              25.450882776788735
            ],
            [
              84.59570096837906,
              25.449945430883982
            ],
            [
              84.59536938134309,
              25.449673208315485
            ],
            [
              84.59511440532948,
              25.449004052754848
            ],
            [
              84.59501070291475,
              25.447961077184953
            ],
            [
              84.59571269408849,
              25.44776560520583
            ],
            [
              84.59726018230256,
              25.447501705079315
            ],
            [
              84.5981520333099,
              25.447140095822522
            ],
            [
              84.59837254725426,
              25.446802525975666
            ],
            [
              84.59863537903506,
              25.446000345320723
            ],
            [
              84.5987320009287,
              25.44559904330101
            ],
            [
              84.59885538902455,
              25.442986427943634
            ],
            [
              84.59849749392714,
              25.44113891504883
            ],
            [
              84.59844491014368,
              25.440736969767162
            ],
            [
              84.5981471949838,
              25.440636308827795
            ],
            [
              84.59726314404806,
              25.440497040018993
            ],
            [
              84.5964522177731,
              25.440628805168227
            ],
            [
              84.59586288431917,
              25.440224530013896
            ],
            [
              84.59557514944207,
              25.439185161325078
            ],
            [
              84.59499277074507,
              25.437503587665788
            ],
            [
              84.59401152658718,
              25.435120740661905
            ],
            [
              84.59334228439545,
              25.432942278905895
            ],
            [
              84.59290410955606,
              25.432168593242626
            ],
            [
              84.59252551098629,
              25.43141312370372
            ],
            [
              84.59201423304572,
              25.431289032817922
            ],
            [
              84.59170595190147,
              25.431305709269676
            ],
            [
              84.5910143093198,
              25.431442481885423
            ],
            [
              84.5907069588302,
              25.432208402744102
            ],
            [
              84.59043744627864,
              25.432401187924015
            ],
            [
              84.58903946557562,
              25.432638688658624
            ],
            [
              84.58662083521645,
              25.433164833603403
            ],
            [
              84.58495356294742,
              25.433545434907458
            ],
            [
              84.58371956071637,
              25.433783563729776
            ],
            [
              84.58318223073424,
              25.433880474299333
            ],
            [
              84.58264458634171,
              25.4340224189623
            ],
            [
              84.58221577823582,
              25.43426418691764
            ],
            [
              84.5820490581056,
              25.434750885232475
            ],
            [
              84.582208783953,
              25.4355323633175
            ],
            [
              84.58214475742945,
              25.437238139129423
            ],
            [
              84.5821819009698,
              25.437703160014298
            ],
            [
              84.5802472469531,
              25.437888473132592
            ],
            [
              84.57879476815674,
              25.4380759219177
            ],
            [
              84.57799035197266,
              25.43792774695822
            ],
            [
              84.57670476488471,
              25.437578846029762
            ],
            [
              84.57654252105955,
              25.437474003006052
            ],
            [
              84.57653582411912,
              25.437492575251827
            ],
            [
              84.57625582194,
              25.437740844708784
            ],
            [
              84.57589785497736,
              25.437916436863542
            ],
            [
              84.57441292184642,
              25.438151391653335
            ],
            [
              84.57300337982569,
              25.438656445147558
            ],
            [
              84.57149625022238,
              25.439070606999188
            ],
            [
              84.57076309199985,
              25.43922409401725
            ],
            [
              84.57001051489588,
              25.439359386099564
            ],
            [
              84.56945445324344,
              25.43956868506972
            ],
            [
              84.56954290406125,
              25.44034155012711
            ],
            [
              84.5697796873937,
              25.441702166876116
            ],
            [
              84.57005742761497,
              25.443087559031344
            ],
            [
              84.57018612026255,
              25.443807027976767
            ],
            [
              84.5707070173632,
              25.44624654903967
            ],
            [
              84.57072171200463,
              25.446623693189075
            ],
            [
              84.57069349592153,
              25.44725175392559
            ],
            [
              84.57066365209116,
              25.448005422322865
            ],
            [
              84.57073301730246,
              25.448724268933237
            ],
            [
              84.57076765094993,
              25.449083692251293
            ],
            [
              84.5708648738165,
              25.450692542208806
            ],
            [
              84.57086578291155,
              25.452092845743007
            ],
            [
              84.57086556372263,
              25.45210928084247
            ],
            [
              84.57085450995308,
              25.452936443148804
            ],
            [
              84.57092576611804,
              25.453511727908836
            ],
            [
              84.57198299068098,
              25.455631327182736
            ],
            [
              84.57224418932455,
              25.456783136750655
            ],
            [
              84.57254175536411,
              25.458168764166793
            ],
            [
              84.57270052720068,
              25.45956509079345
            ],
            [
              84.57280050789517,
              25.46094844194994
            ],
            [
              84.57309834881922,
              25.46231611076329
            ],
            [
              84.57318552582598,
              25.462738727609945
            ],
            [
              84.5733210501613,
              25.463395712392813
            ],
            [
              84.57347932792446,
              25.464698345774806
            ],
            [
              84.57383186457118,
              25.46640762810917
            ],
            [
              84.57388010500028,
              25.467233977627224
            ],
            [
              84.57397568394985,
              25.46757892889324
            ],
            [
              84.57404975812987,
              25.46784626915448
            ],
            [
              84.57398826844869,
              25.468007167100637
            ],
            [
              84.57347216026682,
              25.468180943031587
            ],
            [
              84.57204367726828,
              25.4685960300617
            ],
            [
              84.57067374466338,
              25.4690655007049
            ],
            [
              84.56889191833105,
              25.469741402628237
            ],
            [
              84.56855283934557,
              25.46997107403284
            ],
            [
              84.56836517679116,
              25.470704974683418
            ],
            [
              84.56771689768489,
              25.471882594264354
            ],
            [
              84.56708956010455,
              25.473359848996928
            ],
            [
              84.56680175336224,
              25.474037558795256
            ],
            [
              84.56653736659771,
              25.474591122012466
            ],
            [
              84.56605531714152,
              25.475160202287128
            ],
            [
              84.56489973873308,
              25.475847523277782
            ],
            [
              84.56396545310834,
              25.47625006090746
            ],
            [
              84.56265927304085,
              25.476875564958757
            ],
            [
              84.56147017220093,
              25.477113651053283
            ],
            [
              84.5608727152819,
              25.477448032338096
            ],
            [
              84.56072966036953,
              25.47779651197428
            ],
            [
              84.56058660635549,
              25.478144990600523
            ],
            [
              84.56072991638935,
              25.4792416949379
            ],
            [
              84.56072236155784,
              25.479798070064156
            ],
            [
              84.56086457924036,
              25.480978600248747
            ],
            [
              84.56118251907056,
              25.48231061036563
            ],
            [
              84.56146924424125,
              25.48303180886573
            ],
            [
              84.56183769544154,
              25.483556530958005
            ],
            [
              84.56237733589062,
              25.484383828182462
            ],
            [
              84.56323571297551,
              25.48521913065292
            ],
            [
              84.56393698190374,
              25.485980967841627
            ],
            [
              84.56431718127132,
              25.486388898884435
            ],
            [
              84.5644398893425,
              25.48652055540159
            ],
            [
              84.56475196407222,
              25.48682917028472
            ],
            [
              84.56454757398889,
              25.487329569325674
            ],
            [
              84.5641918653909,
              25.48732564460997
            ],
            [
              84.56379754091377,
              25.487249418334677
            ],
            [
              84.5625447540118,
              25.487809914636145
            ],
            [
              84.56210288440163,
              25.48832558504532
            ],
            [
              84.56258170441437,
              25.489565862839058
            ],
            [
              84.5624560750219,
              25.490085075716376
            ],
            [
              84.56235111137252,
              25.49018789275564
            ],
            [
              84.56207555226081,
              25.49045781240486
            ],
            [
              84.56209211809295,
              25.490691300731932
            ],
            [
              84.56251984642391,
              25.491216737815293
            ],
            [
              84.56294623985836,
              25.49180830728932
            ],
            [
              84.56345337836211,
              25.49231655821945
            ],
            [
              84.56416065522296,
              25.4926296681997
            ],
            [
              84.56506863458289,
              25.492729500736345
            ],
            [
              84.56597625371842,
              25.492847283075882
            ],
            [
              84.5668019851276,
              25.493179676172314
            ],
            [
              84.56746764932953,
              25.493653813755074
            ],
            [
              84.56805211840623,
              25.494288607100355
            ],
            [
              84.56860238862001,
              25.49452806065432
            ],
            [
              84.57082060843254,
              25.495554739297763
            ],
            [
              84.57134705712167,
              25.496099117244448
            ],
            [
              84.57151558825551,
              25.496677460771107
            ],
            [
              84.57153598809728,
              25.49674746931207
            ],
            [
              84.57234731681751,
              25.4979911548126
            ],
            [
              84.57281080258834,
              25.49880407180016
            ],
            [
              84.57306083157967,
              25.49932744232544
            ],
            [
              84.57315177342578,
              25.499490612191458
            ],
            [
              84.5731726511713,
              25.49971630001923
            ],
            [
              84.57315264209666,
              25.499964527032088
            ],
            [
              84.57313065583008,
              25.5000441271128
            ],
            [
              84.57305618639134,
              25.500315347041855
            ],
            [
              84.57300242491655,
              25.50051114227128
            ],
            [
              84.57313676257739,
              25.50138747166615
            ],
            [
              84.57332025964382,
              25.501629229945156
            ],
            [
              84.57301890271377,
              25.503425789394804
            ],
            [
              84.57280237459433,
              25.50405487997673
            ],
            [
              84.57266794081377,
              25.504429460812588
            ],
            [
              84.57264798473972,
              25.504600883114033
            ],
            [
              84.57264796497678,
              25.504695738898427
            ],
            [
              84.57268770105506,
              25.504826632687966
            ],
            [
              84.5728616822677,
              25.505002710688366
            ],
            [
              84.5731400719709,
              25.50527356916773
            ],
            [
              84.5736621305932,
              25.50575676717849
            ],
            [
              84.57387584159592,
              25.506059225158562
            ],
            [
              84.57445241897284,
              25.506804154773423
            ],
            [
              84.57486495319905,
              25.507472271227876
            ],
            [
              84.57562047228565,
              25.508785958278615
            ],
            [
              84.57595339062489,
              25.509472067860123
            ],
            [
              84.57622178207895,
              25.509860355999198
            ],
            [
              84.57632623189195,
              25.5099731873855
            ],
            [
              84.57666056956934,
              25.510217526793788
            ],
            [
              84.57718264525967,
              25.5116179608933
            ],
            [
              84.57724853488911,
              25.512696728187827
            ],
            [
              84.57757298840343,
              25.518008678768954
            ],
            [
              84.57698925325035,
              25.521319900934984
            ],
            [
              84.57607238955225,
              25.524659177963613
            ],
            [
              84.57592818569462,
              25.526656715209572
            ],
            [
              84.57475830520852,
              25.52787841985911
            ],
            [
              84.57322776011904,
              25.528658123109533
            ],
            [
              84.56903866262427,
              25.529360215340947
            ],
            [
              84.5636084787841,
              25.531436485950394
            ],
            [
              84.5580625577994,
              25.535275965982702
            ],
            [
              84.55424013823055,
              25.537921978142066
            ],
            [
              84.55363619906841,
              25.538549248998308
            ],
            [
              84.55428422125648,
              25.54120997296106
            ],
            [
              84.55033037097506,
              25.542298998013973
            ],
            [
              84.54999199806542,
              25.542548896600678
            ],
            [
              84.54646636210354,
              25.545152580337433
            ],
            [
              84.54254643759715,
              25.547614350130544
            ],
            [
              84.53819974685547,
              25.55034388573412
            ],
            [
              84.53725815433422,
              25.550935129782417
            ],
            [
              84.53451734589335,
              25.552142589750968
            ],
            [
              84.53444279740286,
              25.552175430958115
            ],
            [
              84.52595744507805,
              25.556896026235183
            ],
            [
              84.52479849169909,
              25.557547259909427
            ],
            [
              84.52302375127768,
              25.557729212235586
            ],
            [
              84.52142859396307,
              25.557892732208614
            ],
            [
              84.51810911866392,
              25.558132303603323
            ],
            [
              84.51615136536802,
              25.557964715676615
            ],
            [
              84.51074411102547,
              25.55750171525808
            ],
            [
              84.50833348016393,
              25.557295236067702
            ],
            [
              84.50368845083155,
              25.55914595785989
            ],
            [
              84.50348945692812,
              25.55922523909128
            ],
            [
              84.50049157041586,
              25.559442456867558
            ],
            [
              84.50000014075148,
              25.559366218040388
            ],
            [
              84.49999996108843,
              25.55936618967622
            ],
            [
              84.49806040586353,
              25.559065444757348
            ],
            [
              84.49813320892743,
              25.567861065964816
            ],
            [
              84.49816401575178,
              25.57158483863215
            ],
            [
              84.49810769767166,
              25.578545340045366
            ],
            [
              84.49806982829256,
              25.583222615086694
            ],
            [
              84.50000000330922,
              25.58203895195663
            ],
            [
              84.50090926097182,
              25.581761750796097
            ],
            [
              84.50101837843108,
              25.581742307142335
            ],
            [
              84.50554658275907,
              25.58093528131506
            ],
            [
              84.50921180613632,
              25.580869053962957
            ],
            [
              84.51127775072841,
              25.580831683978772
            ],
            [
              84.51216429179412,
              25.58098860364108
            ],
            [
              84.51400297968733,
              25.58131404117066
            ],
            [
              84.51414308004072,
              25.581685455685868
            ],
            [
              84.513643588895,
              25.58353539300157
            ],
            [
              84.51381160798911,
              25.583624469292744
            ],
            [
              84.5198455127008,
              25.586823135862105
            ],
            [
              84.52100682864896,
              25.58741184291616
            ],
            [
              84.52100886782463,
              25.5874128791814
            ],
            [
              84.52206102139779,
              25.587946236173053
            ],
            [
              84.52231423132358,
              25.58873173615424
            ],
            [
              84.52267196113094,
              25.589395452853463
            ],
            [
              84.52314914171829,
              25.590145036218402
            ],
            [
              84.5237059462775,
              25.590894614076724
            ],
            [
              84.52431246090956,
              25.59167589712531
            ],
            [
              84.52493892981902,
              25.592484228633516
            ],
            [
              84.52559523716899,
              25.593274473994523
            ],
            [
              84.52592842230786,
              25.593604202815364
            ],
            [
              84.52626160924336,
              25.593933932347657
            ],
            [
              84.52662967237144,
              25.594290693870306
            ],
            [
              84.52684363310581,
              25.59434954693458
            ],
            [
              84.52705766660375,
              25.594322574001104
            ],
            [
              84.52719699260935,
              25.594318161823896
            ],
            [
              84.52730152506739,
              25.594340779293827
            ],
            [
              84.52735623606145,
              25.594390530096998
            ],
            [
              84.52740096856935,
              25.59448983963163
            ],
            [
              84.52736593157832,
              25.594688430907922
            ],
            [
              84.52726602185074,
              25.595099005278954
            ],
            [
              84.52722596866715,
              25.595405901974512
            ],
            [
              84.52720097034943,
              25.595595454397866
            ],
            [
              84.5272256991726,
              25.595762476010975
            ],
            [
              84.52735994520526,
              25.595956619841104
            ],
            [
              84.52786230826497,
              25.59640382666247
            ],
            [
              84.52872789971993,
              25.596955004960666
            ],
            [
              84.5290263137691,
              25.597180893359543
            ],
            [
              84.52910084878485,
              25.597307330822805
            ],
            [
              84.52910582724817,
              25.59737501220315
            ],
            [
              84.529056030937,
              25.597420109067695
            ],
            [
              84.52885188519546,
              25.597474146698463
            ],
            [
              84.52864276907539,
              25.597532703302974
            ],
            [
              84.5284883738309,
              25.597645431916455
            ],
            [
              84.52846342222556,
              25.597731109674754
            ],
            [
              84.52847825161427,
              25.597866556172505
            ],
            [
              84.52849195271897,
              25.597895587693376
            ],
            [
              84.53338858938264,
              25.597771548071183
            ],
            [
              84.53350587342615,
              25.596458768074065
            ],
            [
              84.53442276587035,
              25.59462637785338
            ]
          ]
        ]
      }
    }
  ]
}