{
  "type": "FeatureCollection",
  "features": [
    {
      "type": "Feature",
      "properties": {
        "object_id": "10-204-01042",
        "stname": "BIHAR",
        "dtname": "Purbi Champaran",
        "sdtname": "Turkaulia",
        "st_area_sh": 0.0,
        "st_length_": 0.0,
        "remarks": "",
        "dist_lgd": 213,
        "state_lgd": 10,
        "subdt_lgd": 1042,
        "ac_no": null,
        "st_length(shape)": 99475.78497366334,
        "st_area(shape)": 174748315.94966665
      },
      "geometry": {
        "type": "Polygon",
        "coordinates": [
          [
            [
              84.8248781548556,
              26.693563807670515
            ],
            [
              84.82557297208345,
              26.693155298921283
            ],
            [
              84.82695700195013,
              26.692500546383414
            ],
            [
              84.82857320858848,
              26.691566775323192
            ],
            [
              84.82918213519712,
              26.69127524829512
            ],
            [
              84.82968477763285,
              26.69121800029396
            ],
            [
              84.83031268384678,
              26.691219909658003
            ],
            [
              84.83133792119908,
              26.691123650863865
            ],
            [
              84.83212194382959,
              26.691067292861185
            ],
            [
              84.833253733951,
              26.690682541602257
            ],
            [
              84.83558786967286,
              26.689827486800745
            ],
            [
              84.83575081059068,
              26.689245814014946
            ],
            [
              84.835808362956,
              26.68860520025753
            ],
            [
              84.83577583406124,
              26.687855953063913
            ],
            [
              84.83765449069637,
              26.686543782031233
            ],
            [
              84.83865840473877,
              26.685368888624573
            ],
            [
              84.84070043887297,
              26.68329889578846
            ],
            [
              84.84140116971035,
              26.684013900940563
            ],
            [
              84.84300036225723,
              26.68496620171124
            ],
            [
              84.84562070122861,
              26.685542305209626
            ],
            [
              84.84822258880405,
              26.685630878716257
            ],
            [
              84.85019801016496,
              26.68532957569178
            ],
            [
              84.85374887082004,
              26.684125639052862
            ],
            [
              84.85554620387084,
              26.683011535834957
            ],
            [
              84.85663451193925,
              26.682057830944558
            ],
            [
              84.8575680896915,
              26.680819480846495
            ],
            [
              84.8591577017059,
              26.678711906654403
            ],
            [
              84.86054393334331,
              26.677312302665236
            ],
            [
              84.86138598714118,
              26.67638045165202
            ],
            [
              84.86134901607738,
              26.67541016606484
            ],
            [
              84.86130680514046,
              26.674530017227482
            ],
            [
              84.86108800158841,
              26.673888656934817
            ],
            [
              84.86009685619946,
              26.672866069793436
            ],
            [
              84.85953410209815,
              26.67143854895418
            ],
            [
              84.85906217665521,
              26.6699119769346
            ],
            [
              84.85863267235491,
              26.669175205198457
            ],
            [
              84.8582274504151,
              26.66868672505815
            ],
            [
              84.85794339324082,
              26.668036064111188
            ],
            [
              84.85801474013562,
              26.66773392869586
            ],
            [
              84.85828778576116,
              26.667220288706023
            ],
            [
              84.85901796157691,
              26.666653656770286
            ],
            [
              84.85915087810298,
              26.665981608908037
            ],
            [
              84.85931630016762,
              26.664614768233815
            ],
            [
              84.85965505665789,
              26.663943329715636
            ],
            [
              84.86047608179328,
              26.663268620702834
            ],
            [
              84.8620013196361,
              26.662293580216748
            ],
            [
              84.86365856041834,
              26.66085855893693
            ],
            [
              84.8642093462651,
              26.659880785156933
            ],
            [
              84.86460384771033,
              26.657575852037585
            ],
            [
              84.86524538316375,
              26.6549692980607
            ],
            [
              84.86607326603801,
              26.652214253285937
            ],
            [
              84.86682859288511,
              26.648619713132078
            ],
            [
              84.86683614322509,
              26.6463318207393
            ],
            [
              84.86639625709506,
              26.642738486873284
            ],
            [
              84.86538664144554,
              26.639802530100745
            ],
            [
              84.86350787970751,
              26.636999520770026
            ],
            [
              84.86041137524506,
              26.63351183835837
            ],
            [
              84.85848920870913,
              26.631733007847323
            ],
            [
              84.85726163841548,
              26.630953417044992
            ],
            [
              84.85569660790054,
              26.63049782236416
            ],
            [
              84.85225952426612,
              26.629761699631256
            ],
            [
              84.85041835792104,
              26.629282768259348
            ],
            [
              84.85039395159306,
              26.62766259009692
            ],
            [
              84.85112365130172,
              26.625742227133014
            ],
            [
              84.8519914544089,
              26.624517183791184
            ],
            [
              84.85299934888633,
              26.62345956865446
            ],
            [
              84.85404522593059,
              26.62301122313196
            ],
            [
              84.8549559945595,
              26.62244063989822
            ],
            [
              84.85621668573765,
              26.622322269821126
            ],
            [
              84.8574469437906,
              26.622280553245837
            ],
            [
              84.85917357224201,
              26.622452253162564
            ],
            [
              84.86076326420647,
              26.623029783702993
            ],
            [
              84.86289334940818,
              26.62417724708817
            ],
            [
              84.86520723081533,
              26.625902931301116
            ],
            [
              84.86777518722585,
              26.629759154850152
            ],
            [
              84.87007621913116,
              26.63393505715366
            ],
            [
              84.87265572607961,
              26.637452800258796
            ],
            [
              84.8747883373439,
              26.639462096073682
            ],
            [
              84.87605691213702,
              26.640038601995094
            ],
            [
              84.87832150028957,
              26.640130245180938
            ],
            [
              84.88002317084744,
              26.64033773462752
            ],
            [
              84.88079565282149,
              26.640587943712227
            ],
            [
              84.8814318145529,
              26.64109954925804
            ],
            [
              84.88190633433037,
              26.641876922962613
            ],
            [
              84.88323420781367,
              26.644357844228963
            ],
            [
              84.88454574273862,
              26.647262933617043
            ],
            [
              84.88522144561385,
              26.649561651909742
            ],
            [
              84.88514730226355,
              26.650770861345666
            ],
            [
              84.88487394402429,
              26.651442538740223
            ],
            [
              84.88427914971173,
              26.652113376399196
            ],
            [
              84.88313945531415,
              26.65359958694067
            ],
            [
              84.8819056480175,
              26.654616283653557
            ],
            [
              84.88158700211152,
              26.6553329731395
            ],
            [
              84.88146993366367,
              26.655801969317853
            ],
            [
              84.88149316858849,
              26.65637515731252
            ],
            [
              84.8814187503537,
              26.657679126155568
            ],
            [
              84.88157433406933,
              26.659254517332638
            ],
            [
              84.88232171801269,
              26.661133666136543
            ],
            [
              84.88250028242993,
              26.66184719422136
            ],
            [
              84.88313116116915,
              26.662444510323795
            ],
            [
              84.88528843298458,
              26.663244235218986
            ],
            [
              84.88816807335768,
              26.664312134061753
            ],
            [
              84.88955356657993,
              26.6645592850011
            ],
            [
              84.89205358520215,
              26.664994386206075
            ],
            [
              84.89344021569158,
              26.66487594382599
            ],
            [
              84.89425953223132,
              26.664675010306876
            ],
            [
              84.89494368825338,
              26.664347282191738
            ],
            [
              84.89546697666931,
              26.66404619587723
            ],
            [
              84.89573923626898,
              26.663717432772128
            ],
            [
              84.89581097842255,
              26.663266405008567
            ],
            [
              84.89565414964191,
              26.66200240462802
            ],
            [
              84.89452343390559,
              26.66056907601713
            ],
            [
              84.89358808916712,
              26.659325789709953
            ],
            [
              84.89299954533233,
              26.658015550351948
            ],
            [
              84.8926862048764,
              26.6570220399952
            ],
            [
              84.89266824126564,
              26.656326966252852
            ],
            [
              84.89305911980533,
              26.655001239290367
            ],
            [
              84.89420072491953,
              26.652878600097335
            ],
            [
              84.89574937285866,
              26.649037674037434
            ],
            [
              84.89661923490449,
              26.64708136879962
            ],
            [
              84.89871510776857,
              26.646513446163624
            ],
            [
              84.9005362704289,
              26.64549351301052
            ],
            [
              84.90099077394522,
              26.644637280389748
            ],
            [
              84.90108843429135,
              26.64390187424562
            ],
            [
              84.90085967201604,
              26.643165817007688
            ],
            [
              84.90008893996014,
              26.642306489283566
            ],
            [
              84.89891416185911,
              26.6405436057578
            ],
            [
              84.8960674339614,
              26.637120470045527
            ],
            [
              84.89353416419895,
              26.633025604962466
            ],
            [
              84.89091127580878,
              26.63037456221573
            ],
            [
              84.88797213013295,
              26.627709138995463
            ],
            [
              84.88993027329772,
              26.62616170519531
            ],
            [
              84.89125208584778,
              26.625754365257617
            ],
            [
              84.89393888128556,
              26.623965067308177
            ],
            [
              84.89658014291827,
              26.622252308258393
            ],
            [
              84.89954436237026,
              26.62001232786918
            ],
            [
              84.8997286742087,
              26.618839464791403
            ],
            [
              84.89968713790658,
              26.617652500750133
            ],
            [
              84.89824848328412,
              26.61361910169442
            ],
            [
              84.89635278201479,
              26.609688376697537
            ],
            [
              84.89491247988207,
              26.606250538077546
            ],
            [
              84.89225958686312,
              26.600512719714857
            ],
            [
              84.89135949291473,
              26.597766787202907
            ],
            [
              84.89145536830839,
              26.596006991239047
            ],
            [
              84.89150706455635,
              26.593922311379377
            ],
            [
              84.89078251668585,
              26.59285545990518
            ],
            [
              84.89001168042539,
              26.5921585442871
            ],
            [
              84.88914834374178,
              26.59215632239397
            ],
            [
              84.88833180030134,
              26.591621746184174
            ],
            [
              84.88757537391636,
              26.591127982888185
            ],
            [
              84.88557282073893,
              26.59104157485551
            ],
            [
              84.88503983321286,
              26.58817915612893
            ],
            [
              84.88403590120417,
              26.58817659837272
            ],
            [
              84.88308197571237,
              26.588255374667277
            ],
            [
              84.88230935809271,
              26.588131505056992
            ],
            [
              84.88217479225978,
              26.58784237610142
            ],
            [
              84.88171941468269,
              26.587394406689207
            ],
            [
              84.88112824776725,
              26.58706347013624
            ],
            [
              84.88049819637641,
              26.586326234752505
            ],
            [
              84.88013633072546,
              26.584894811904
            ],
            [
              84.87790835700558,
              26.584726542102555
            ],
            [
              84.87513189802434,
              26.584962943016063
            ],
            [
              84.86796591303542,
              26.584492587678394
            ],
            [
              84.862183020072,
              26.584679999005992
            ],
            [
              84.857807759311,
              26.585692480807083
            ],
            [
              84.85718894135279,
              26.58465734401416
            ],
            [
              84.85853220118028,
              26.583726890042588
            ],
            [
              84.85985393378034,
              26.5832386390229
            ],
            [
              84.86104313702818,
              26.58185197693974
            ],
            [
              84.86374312781916,
              26.577472918032985
            ],
            [
              84.86460394832166,
              26.576717108251444
            ],
            [
              84.86574652271806,
              26.575736410848364
            ],
            [
              84.86652210118488,
              26.57491717177761
            ],
            [
              84.86689158993936,
              26.573979526836002
            ],
            [
              84.86721157972501,
              26.57282967833188
            ],
            [
              84.8671735154115,
              26.570699549373252
            ],
            [
              84.86725637511496,
              26.568411817148707
            ],
            [
              84.86817025640632,
              26.568287910808298
            ],
            [
              84.86789973235179,
              26.56660839409649
            ],
            [
              84.8724144017634,
              26.565677283289762
            ],
            [
              84.87810827617376,
              26.564789736812376
            ],
            [
              84.88095631291682,
              26.563984891835524
            ],
            [
              84.88286982418498,
              26.56349795312342
            ],
            [
              84.88305112576889,
              26.563290798332908
            ],
            [
              84.88314364505663,
              26.562596084345838
            ],
            [
              84.88287972900932,
              26.56038418073961
            ],
            [
              84.88200668602906,
              26.555643468941554
            ],
            [
              84.87990775170647,
              26.556089348776123
            ],
            [
              84.87876333576376,
              26.556167603142597
            ],
            [
              84.87790162323421,
              26.555754722708873
            ],
            [
              84.87608063844029,
              26.554026040037517
            ],
            [
              84.87513129974636,
              26.55123470622097
            ],
            [
              84.87459995703558,
              26.546431668350284
            ],
            [
              84.87465316514816,
              26.545506763096927
            ],
            [
              84.87488067966353,
              26.544974842925253
            ],
            [
              84.87524834214302,
              26.544565078007658
            ],
            [
              84.87602672874347,
              26.544359579826747
            ],
            [
              84.87707405656693,
              26.54477294890952
            ],
            [
              84.87862261108125,
              26.545354630714506
            ],
            [
              84.88122059817174,
              26.545686349123695
            ],
            [
              84.87908495060178,
              26.54044148605549
            ],
            [
              84.87842243858817,
              26.53895054309964
            ],
            [
              84.87706887957592,
              26.5401608969065
            ],
            [
              84.87564710878924,
              26.540721270066356
            ],
            [
              84.87380279384907,
              26.54163706525248
            ],
            [
              84.87257116317036,
              26.542364840082673
            ],
            [
              84.87241770397037,
              26.541723597342138
            ],
            [
              84.86871771579163,
              26.5423545880898
            ],
            [
              84.86452818710552,
              26.54235688809801
            ],
            [
              84.86160570697486,
              26.543048388854977
            ],
            [
              84.86157431534724,
              26.546410281121602
            ],
            [
              84.86115512640139,
              26.547203459838695
            ],
            [
              84.85711986719565,
              26.547521796970937
            ],
            [
              84.85197408907614,
              26.548297231051656
            ],
            [
              84.84882540866535,
              26.549028524327674
            ],
            [
              84.84788002435528,
              26.552509676903256
            ],
            [
              84.84724172643014,
              26.55421820038954
            ],
            [
              84.84673604858705,
              26.555344969794994
            ],
            [
              84.84623251681917,
              26.555835417661555
            ],
            [
              84.8459603569325,
              26.556164036228942
            ],
            [
              84.84581909056584,
              26.556389323691448
            ],
            [
              84.84586817900455,
              26.55669631671066
            ],
            [
              84.84597740605825,
              26.55702150734515
            ],
            [
              84.84629117321396,
              26.557694792055518
            ],
            [
              84.8448634277323,
              26.558444406003513
            ],
            [
              84.83881787636295,
              26.559492054203705
            ],
            [
              84.83166538676454,
              26.5599225542828
            ],
            [
              84.8265303749537,
              26.56027741103981
            ],
            [
              84.82538734960303,
              26.561338996934428
            ],
            [
              84.82520359382178,
              26.562195838767405
            ],
            [
              84.8252462997304,
              26.562854876078912
            ],
            [
              84.82564950944398,
              26.563754083278916
            ],
            [
              84.8267801892477,
              26.56605444103613
            ],
            [
              84.82809222004268,
              26.56818836430736
            ],
            [
              84.82799967380546,
              26.56880178897785
            ],
            [
              84.82745069806396,
              26.569332672222465
            ],
            [
              84.82640463417013,
              26.5699252422144
            ],
            [
              84.82489793126656,
              26.570209594152757
            ],
            [
              84.82285112977318,
              26.56999586567428
            ],
            [
              84.82094182890873,
              26.569254531293222
            ],
            [
              84.81834976890251,
              26.56856978574769
            ],
            [
              84.81648439385881,
              26.5681534951317
            ],
            [
              84.81543764275378,
              26.567577133012072
            ],
            [
              84.81439711607536,
              26.566712031611967
            ],
            [
              84.81335168190053,
              26.565806312982495
            ],
            [
              84.81253611403048,
              26.565149494974566
            ],
            [
              84.81166934308757,
              26.564776805613413
            ],
            [
              84.81071574368426,
              26.564814470317618
            ],
            [
              84.80938958238987,
              26.56513977772422
            ],
            [
              84.80766158490597,
              26.56558570498181
            ],
            [
              84.80569632079595,
              26.56635577022947
            ],
            [
              84.80433021501416,
              26.56664030377194
            ],
            [
              84.80301117735998,
              26.566428561235757
            ],
            [
              84.80187424977348,
              26.565851930114484
            ],
            [
              84.80014604208378,
              26.565029621778745
            ],
            [
              84.79843133697112,
              26.56462257761192
            ],
            [
              84.79470389358235,
              26.56305379185114
            ],
            [
              84.79189217213296,
              26.560874214130695
            ],
            [
              84.78906912023287,
              26.560332596971406
            ],
            [
              84.7867891672957,
              26.560735825249996
            ],
            [
              84.78583426084361,
              26.56109826136563
            ],
            [
              84.78432287771741,
              26.562569004959915
            ],
            [
              84.78324420587708,
              26.56547726890071
            ],
            [
              84.78382085781416,
              26.566005638222638
            ],
            [
              84.7859075939135,
              26.56731117622666
            ],
            [
              84.78804451170129,
              26.56856710703555
            ],
            [
              84.78578034036701,
              26.569648767352486
            ],
            [
              84.7859905416519,
              26.57036194824214
            ],
            [
              84.78681628743414,
              26.573237088624936
            ],
            [
              84.78792794361506,
              26.576649418118166
            ],
            [
              84.78908459281534,
              26.580282920989998
            ],
            [
              84.78998805005614,
              26.580179715915236
            ],
            [
              84.7909769218091,
              26.58010806318767
            ],
            [
              84.79181012630309,
              26.58004084824494
            ],
            [
              84.79448520860791,
              26.580173295369914
            ],
            [
              84.79559431087849,
              26.58029128568634
            ],
            [
              84.79655806214286,
              26.58021054207936
            ],
            [
              84.79747653382533,
              26.580224576171666
            ],
            [
              84.79767770075341,
              26.579647012683942
            ],
            [
              84.79793955426884,
              26.57834747675512
            ],
            [
              84.79818596304959,
              26.57760301660654
            ],
            [
              84.79853209740331,
              26.577941668115336
            ],
            [
              84.79976559388284,
              26.579584988884438
            ],
            [
              84.80027717186076,
              26.580217071881048
            ],
            [
              84.80129106528763,
              26.580122809883417
            ],
            [
              84.8016621719079,
              26.58073674505221
            ],
            [
              84.80180496181728,
              26.581122653277767
            ],
            [
              84.8019477562182,
              26.581508561006142
            ],
            [
              84.80273986638124,
              26.583020766264923
            ],
            [
              84.80300538861628,
              26.583634692323272
            ],
            [
              84.80258335021432,
              26.584320314230375
            ],
            [
              84.80231684432407,
              26.58511898327372
            ],
            [
              84.80268671935407,
              26.587569597185222
            ],
            [
              84.80301614414519,
              26.59056181537314
            ],
            [
              84.80334140075335,
              26.592096231655415
            ],
            [
              84.8032702218435,
              26.593562886987243
            ],
            [
              84.8034937927548,
              26.597267986720624
            ],
            [
              84.80354852171516,
              26.59803975628371
            ],
            [
              84.80387435324513,
              26.598825097016043
            ],
            [
              84.80471781560136,
              26.598753277639155
            ],
            [
              84.80547556789972,
              26.5990379772818
            ],
            [
              84.80587161624386,
              26.599800840699075
            ],
            [
              84.80637777827891,
              26.601349052961453
            ],
            [
              84.80685889797877,
              26.602752746329625
            ],
            [
              84.80695928111852,
              26.602811331874317
            ],
            [
              84.80837465410377,
              26.603191169717
            ],
            [
              84.80998602421265,
              26.603417517287685
            ],
            [
              84.81221491331581,
              26.603323745878548
            ],
            [
              84.81286738036792,
              26.603477458307033
            ],
            [
              84.81287038343592,
              26.603488425308598
            ],
            [
              84.81300273402336,
              26.603983050925223
            ],
            [
              84.81306733636701,
              26.60530523427936
            ],
            [
              84.81265439969552,
              26.607489284224275
            ],
            [
              84.81243303414827,
              26.608305993116332
            ],
            [
              84.81170901179219,
              26.610453756871657
            ],
            [
              84.81108964855662,
              26.61368902677726
            ],
            [
              84.81102352895846,
              26.615272999756723
            ],
            [
              84.81078662525172,
              26.61682979509521
            ],
            [
              84.81058045291088,
              26.617448001045847
            ],
            [
              84.81018849729116,
              26.618246553712133
            ],
            [
              84.81010811424292,
              26.618291615081393
            ],
            [
              84.80988712688638,
              26.618327651153727
            ],
            [
              84.80966631110806,
              26.618291488994064
            ],
            [
              84.80925466531568,
              26.618142370961703
            ],
            [
              84.80874294001403,
              26.61733883426619
            ],
            [
              84.80829644318189,
              26.61686923522532
            ],
            [
              84.80747829714697,
              26.616449230751
            ],
            [
              84.80654453973162,
              26.61629990632385
            ],
            [
              84.8047221553625,
              26.61629895221972
            ],
            [
              84.80239225789217,
              26.61673109793508
            ],
            [
              84.80084549372019,
              26.617249231978057
            ],
            [
              84.79936896343041,
              26.617884679971755
            ],
            [
              84.79866090683187,
              26.618119022287235
            ],
            [
              84.79775706690877,
              26.61822677566126
            ],
            [
              84.79657164287333,
              26.61812687103389
            ],
            [
              84.79538622332943,
              26.61802695668194
            ],
            [
              84.79460179735536,
              26.61782978037919
            ],
            [
              84.79378578841253,
              26.617708821929078
            ],
            [
              84.79326104472584,
              26.617845081176732
            ],
            [
              84.79288877029569,
              26.61814615519247
            ],
            [
              84.79218981542762,
              26.618726443653003
            ],
            [
              84.79097983414725,
              26.620034334993772
            ],
            [
              84.78986060337184,
              26.62132105978151
            ],
            [
              84.78935555165448,
              26.62173738511716
            ],
            [
              84.78866072813841,
              26.62210112024109
            ],
            [
              84.78787446421126,
              26.6219986387102
            ],
            [
              84.78731927572126,
              26.621628999012376
            ],
            [
              84.78685332766821,
              26.62105768369363
            ],
            [
              84.78653484795055,
              26.620389387717786
            ],
            [
              84.78636626830769,
              26.61949779939795
            ],
            [
              84.78653783035729,
              26.61788950262812
            ],
            [
              84.78654906468822,
              26.617045839044913
            ],
            [
              84.78678942601049,
              26.616295990320637
            ],
            [
              84.7871074547739,
              26.61490205893009
            ],
            [
              84.78741319458423,
              26.613363536858554
            ],
            [
              84.78798170419155,
              26.611996062368643
            ],
            [
              84.78863157690911,
              26.611356365900694
            ],
            [
              84.78932176422,
              26.61070826723964
            ],
            [
              84.7898636279994,
              26.61020226100286
            ],
            [
              84.79060855864368,
              26.609839295202907
            ],
            [
              84.79143715657693,
              26.609563361682213
            ],
            [
              84.79203421015242,
              26.609058204148358
            ],
            [
              84.79246236069156,
              26.608460171115638
            ],
            [
              84.79259268917129,
              26.607686039018976
            ],
            [
              84.79231374790251,
              26.60704995525584
            ],
            [
              84.79166233367593,
              26.60594330038115
            ],
            [
              84.79130059289078,
              26.605436792753377
            ],
            [
              84.79034851882683,
              26.60456462730195
            ],
            [
              84.789847389154,
              26.6042590147753
            ],
            [
              84.78920537220358,
              26.604174492940125
            ],
            [
              84.78847254276447,
              26.60416057503581
            ],
            [
              84.78677550302191,
              26.604475418211667
            ],
            [
              84.78580638162876,
              26.60470942817303
            ],
            [
              84.78501323660653,
              26.60473597792455
            ],
            [
              84.78419505643565,
              26.604514396746165
            ],
            [
              84.78346751088706,
              26.604080690826542
            ],
            [
              84.78302117126003,
              26.603543334998893
            ],
            [
              84.78199900973928,
              26.601114832910522
            ],
            [
              84.78083551268159,
              26.59973309834873
            ],
            [
              84.77964626182303,
              26.599213383698014
            ],
            [
              84.77882311217202,
              26.599059383603695
            ],
            [
              84.77809531329846,
              26.59893249988146
            ],
            [
              84.77713118923329,
              26.59885796481609
            ],
            [
              84.77608660486472,
              26.599143978296354
            ],
            [
              84.774757721675,
              26.600373161032334
            ],
            [
              84.77365397066858,
              26.6018991677898
            ],
            [
              84.77298286986253,
              26.602597125293723
            ],
            [
              84.77217483436614,
              26.603107923394518
            ],
            [
              84.77149863112929,
              26.603291367712664
            ],
            [
              84.77062758869718,
              26.6034266320965
            ],
            [
              84.76908022355231,
              26.603492623676356
            ],
            [
              84.76811117761766,
              26.6035044991045
            ],
            [
              84.76734933259489,
              26.603961842309683
            ],
            [
              84.76667439059266,
              26.604596532825802
            ],
            [
              84.76603110611941,
              26.605926638992266
            ],
            [
              84.76586538671243,
              26.606704695312455
            ],
            [
              84.76597315490208,
              26.607461330349917
            ],
            [
              84.76608182679696,
              26.608224286989238
            ],
            [
              84.76662997339344,
              26.610240947644908
            ],
            [
              84.7672063827854,
              26.61106224378366
            ],
            [
              84.76758212111929,
              26.611618664823336
            ],
            [
              84.76766952090823,
              26.612287884282935
            ],
            [
              84.76749646316368,
              26.613702085772676
            ],
            [
              84.76763872037208,
              26.614390214816314
            ],
            [
              84.76802865029082,
              26.61499198270225
            ],
            [
              84.76853629274947,
              26.615478271940656
            ],
            [
              84.76922415162713,
              26.615732738197945
            ],
            [
              84.76993322691517,
              26.615928870044886
            ],
            [
              84.77156278790855,
              26.616292850932393
            ],
            [
              84.7729945281983,
              26.616762016249353
            ],
            [
              84.77383078606596,
              26.617131596994817
            ],
            [
              84.77435544441269,
              26.617518857803375
            ],
            [
              84.7747665431311,
              26.61806678992078
            ],
            [
              84.77506347316343,
              26.618806972962258
            ],
            [
              84.77508208266286,
              26.62017906006154
            ],
            [
              84.7749160479472,
              26.620975172349638
            ],
            [
              84.77508628498175,
              26.62177654729489
            ],
            [
              84.77465777870975,
              26.62394034818923
            ],
            [
              84.7740011479663,
              26.625180026978068
            ],
            [
              84.77321881237191,
              26.626169546965336
            ],
            [
              84.77254209889196,
              26.626889966837002
            ],
            [
              84.77206319892913,
              26.627247975941945
            ],
            [
              84.7701520987392,
              26.6281881950087
            ],
            [
              84.76958176195858,
              26.628341698149562
            ],
            [
              84.76889597818922,
              26.628493386231302
            ],
            [
              84.76816370480726,
              26.628712027623273
            ],
            [
              84.76675162504583,
              26.62903280021593
            ],
            [
              84.7661119041893,
              26.629397283830368
            ],
            [
              84.76545589058846,
              26.629824683146296
            ],
            [
              84.76460256562873,
              26.630844621308885
            ],
            [
              84.7642045499741,
              26.631172284997827
            ],
            [
              84.76137401331107,
              26.63393899824837
            ],
            [
              84.7605268750487,
              26.63515304086146
            ],
            [
              84.76026480593761,
              26.635717481250467
            ],
            [
              84.76007318540601,
              26.636274006309613
            ],
            [
              84.76002458115926,
              26.637220855108833
            ],
            [
              84.76026483737863,
              26.639061208748014
            ],
            [
              84.76052745715698,
              26.639755753272798
            ],
            [
              84.76083032684998,
              26.64044641774294
            ],
            [
              84.7612652120588,
              26.64106245004209
            ],
            [
              84.76127035401547,
              26.64106968938445
            ],
            [
              84.76222799943086,
              26.64241781217979
            ],
            [
              84.76301122435741,
              26.64345446967446
            ],
            [
              84.7653714992574,
              26.64550867360881
            ],
            [
              84.76628475262638,
              26.646317224693902
            ],
            [
              84.76706214389348,
              26.647398895878144
            ],
            [
              84.7672742675731,
              26.648110684845843
            ],
            [
              84.7677411247212,
              26.649151374143376
            ],
            [
              84.76818487270863,
              26.64957349123928
            ],
            [
              84.76883618901884,
              26.64965140629732
            ],
            [
              84.77023427482477,
              26.64954700489263
            ],
            [
              84.77161633288938,
              26.6494919759933
            ],
            [
              84.77255908962724,
              26.64956090683323
            ],
            [
              84.7734069321688,
              26.649862994018136
            ],
            [
              84.77403584090261,
              26.650319583303293
            ],
            [
              84.77480288537424,
              26.651680827379728
            ],
            [
              84.77597340007091,
              26.653472556619104
            ],
            [
              84.7763460535901,
              26.654714808392598
            ],
            [
              84.77634467377783,
              26.655563131305932
            ],
            [
              84.77575915636723,
              26.656492559210175
            ],
            [
              84.77349831957929,
              26.658866799091285
            ],
            [
              84.77262807125791,
              26.65971503735588
            ],
            [
              84.77169148684438,
              26.660616378184482
            ],
            [
              84.77090728904237,
              26.661687064052078
            ],
            [
              84.77076096336407,
              26.662497009799775
            ],
            [
              84.77063066093545,
              26.66325757113145
            ],
            [
              84.77078734778229,
              26.66388843539945
            ],
            [
              84.77090503067774,
              26.66396302278423
            ],
            [
              84.77380904503943,
              26.66606580004503
            ],
            [
              84.7748682521842,
              26.66679762516912
            ],
            [
              84.77536517774148,
              26.66714989064931
            ],
            [
              84.77617866601166,
              26.66741226136494
            ],
            [
              84.77799167466415,
              26.667756421123784
            ],
            [
              84.78113622731621,
              26.667496842389298
            ],
            [
              84.78222611192794,
              26.66756521728297
            ],
            [
              84.78352188860613,
              26.66776016919237
            ],
            [
              84.78486769875072,
              26.668126552136844
            ],
            [
              84.78568102622243,
              26.668664126850647
            ],
            [
              84.78698612292175,
              26.66969382302305
            ],
            [
              84.78786889555481,
              26.671422772894907
            ],
            [
              84.78880669538893,
              26.674195680611337
            ],
            [
              84.78911847187794,
              26.6757392920057
            ],
            [
              84.7891470499821,
              26.677382281065313
            ],
            [
              84.78900660018405,
              26.678413453323806
            ],
            [
              84.78914764556511,
              26.679173747197513
            ],
            [
              84.78936814333983,
              26.68024212620171
            ],
            [
              84.78917369581004,
              26.680947557895315
            ],
            [
              84.7886511826402,
              26.682514276953693
            ],
            [
              84.78845524660198,
              26.68329639634632
            ],
            [
              84.78786733787611,
              26.684866604289244
            ],
            [
              84.78781058590972,
              26.685204154663904
            ],
            [
              84.78775383214669,
              26.68554170564429
            ],
            [
              84.78762107821571,
              26.686433107359072
            ],
            [
              84.78716053981728,
              26.68842946798489
            ],
            [
              84.78688544872783,
              26.689147174630417
            ],
            [
              84.7863528331043,
              26.689933064876968
            ],
            [
              84.78585763231237,
              26.69060221226817
            ],
            [
              84.78596230670422,
              26.690946481017487
            ],
            [
              84.78696871357153,
              26.693034644991304
            ],
            [
              84.78809052880003,
              26.695186250248312
            ],
            [
              84.79204198686783,
              26.69454024292139
            ],
            [
              84.79534396657847,
              26.694275546980965
            ],
            [
              84.79708829273932,
              26.694010417839703
            ],
            [
              84.7979132039866,
              26.693778370145314
            ],
            [
              84.79876283956548,
              26.693623114700962
            ],
            [
              84.7993258757378,
              26.693548201608134
            ],
            [
              84.80017471181608,
              26.69360952631821
            ],
            [
              84.80141433480587,
              26.693947384670004
            ],
            [
              84.80355191734692,
              26.6946310550178
            ],
            [
              84.8059400382241,
              26.695500490179096
            ],
            [
              84.80736958303129,
              26.69609154583291
            ],
            [
              84.80828219590146,
              26.69656375637837
            ],
            [
              84.8088031864269,
              26.6969533969824
            ],
            [
              84.80945075227083,
              26.698404023699506
            ],
            [
              84.81100420709502,
              26.700773416974652
            ],
            [
              84.81258854510037,
              26.700345131728742
            ],
            [
              84.8163735192949,
              26.699900960400015
            ],
            [
              84.81918488680806,
              26.699173918984616
            ],
            [
              84.8226434922801,
              26.698678996987653
            ],
            [
              84.82378443623425,
              26.698556047223875
            ],
            [
              84.82425216115492,
              26.698431078938796
            ],
            [
              84.82474056080184,
              26.698139231602077
            ],
            [
              84.82499262088406,
              26.697905347267696
            ],
            [
              84.82517027171465,
              26.697436578789816
            ],
            [
              84.82458333586419,
              26.69585084036419
            ],
            [
              84.82461401512776,
              26.69434821400761
            ],
            [
              84.82472157580662,
              26.693798069297802
            ],
            [
              84.8248781548556,
              26.693563807670515
            ]
          ]
        ]
      }
    }
  ]
}