{
  "type": "FeatureCollection",
  "features": [
    {
      "type": "Feature",
      "properties": {
        "object_id": "10-224-01341",
        "stname": "BIHAR",
        "dtname": "Bhagalpur",
        "sdtname": "Shahkund",
        "st_area_sh": 0.0,
        "st_length_": 0.0,
        "remarks": "",
        "dist_lgd": 192,
        "state_lgd": 10,
        "subdt_lgd": 1341,
        "ac_no": null,
        "st_length(shape)": 93276.90256650816,
        "st_area(shape)": 208798734.37786233
      },
      "geometry": {
        "type": "Polygon",
        "coordinates": [
          [
            [
              86.85917992255361,
              25.214602755199863
            ],
            [
              86.85969576932574,
              25.21458809287305
            ],
            [
              86.86044007114933,
              25.214589012874992
            ],
            [
              86.8609052978552,
              25.214493652849477
            ],
            [
              86.86132489194125,
              25.214331198315158
            ],
            [
              86.8618966220089,
              25.214036115652743
            ],
            [
              86.86238465334655,
              25.21379164816487
            ],
            [
              86.86284045313182,
              25.2137415792408
            ],
            [
              86.86310460004617,
              25.213833445939795
            ],
            [
              86.86343978842815,
              25.21403735424752
            ],
            [
              86.864259014238,
              25.214073544941552
            ],
            [
              86.8649063384351,
              25.213867896645183
            ],
            [
              86.86522178723703,
              25.21371106616891
            ],
            [
              86.86604039680262,
              25.213327605668102
            ],
            [
              86.86630141398652,
              25.213175858946958
            ],
            [
              86.86699548022281,
              25.21275764910155
            ],
            [
              86.86756584664784,
              25.21273786794801
            ],
            [
              86.8678573472626,
              25.211890847298253
            ],
            [
              86.86788791244014,
              25.21120460217003
            ],
            [
              86.86765880072019,
              25.210764872109994
            ],
            [
              86.86733095606566,
              25.210357816299194
            ],
            [
              86.86704500075118,
              25.21012178104304
            ],
            [
              86.86687399565704,
              25.209947642217095
            ],
            [
              86.86670769324344,
              25.209755416097217
            ],
            [
              86.86659605870479,
              25.209562606114826
            ],
            [
              86.8665231981487,
              25.209310757114356
            ],
            [
              86.86651136913305,
              25.209161898805807
            ],
            [
              86.86661730925111,
              25.20892165275701
            ],
            [
              86.86682725990607,
              25.208662138083525
            ],
            [
              86.86704313944188,
              25.208479216886868
            ],
            [
              86.8674168682445,
              25.208226995023722
            ],
            [
              86.86746605819282,
              25.208190346629706
            ],
            [
              86.86809858623886,
              25.207998424960135
            ],
            [
              86.86868359160978,
              25.207964904023942
            ],
            [
              86.86942396779558,
              25.208042533793822
            ],
            [
              86.87006140782962,
              25.20821605439301
            ],
            [
              86.87053321828819,
              25.20825150638942
            ],
            [
              86.87115179459958,
              25.20813188765964
            ],
            [
              86.87176457677738,
              25.207940182906675
            ],
            [
              86.87218331656561,
              25.207719033693255
            ],
            [
              86.87272395863623,
              25.20732502405068
            ],
            [
              86.87348379233109,
              25.206630805857305
            ],
            [
              86.87412042118642,
              25.205996519737372
            ],
            [
              86.87464576225278,
              25.205210143668815
            ],
            [
              86.87576093264312,
              25.202878481223532
            ],
            [
              86.87724956683303,
              25.199157376990456
            ],
            [
              86.8776353483318,
              25.19869281864028
            ],
            [
              86.87801748536545,
              25.198332096109965
            ],
            [
              86.87863927225565,
              25.198077109912642
            ],
            [
              86.87942349790544,
              25.198104543829626
            ],
            [
              86.87997293987256,
              25.19838284520942
            ],
            [
              86.88095660319352,
              25.199224808983196
            ],
            [
              86.88175882209839,
              25.20060131814792
            ],
            [
              86.88243133864937,
              25.2015505550599
            ],
            [
              86.88318261678944,
              25.202074676333122
            ],
            [
              86.88400779034482,
              25.202561963193638
            ],
            [
              86.88467536616169,
              25.20276670562533
            ],
            [
              86.8854513488704,
              25.202546027379583
            ],
            [
              86.88575774984079,
              25.202082399616625
            ],
            [
              86.88570614522096,
              25.201194018036713
            ],
            [
              86.88514196818825,
              25.199814861711392
            ],
            [
              86.88500968317784,
              25.198823628717825
            ],
            [
              86.88504037411951,
              25.198150912670634
            ],
            [
              86.88534624418554,
              25.197651183964197
            ],
            [
              86.88581040998105,
              25.197113539139433
            ],
            [
              86.88631261134402,
              25.19682375510341
            ],
            [
              86.88689737866137,
              25.196781141897468
            ],
            [
              86.88763891008065,
              25.19694894395945
            ],
            [
              86.88833510083259,
              25.197437617712623
            ],
            [
              86.88920846990125,
              25.19856505409456
            ],
            [
              86.88972799886771,
              25.199200095844947
            ],
            [
              86.89012058869803,
              25.199619893383748
            ],
            [
              86.89102423099176,
              25.200038588104512
            ],
            [
              86.89176927482379,
              25.200098023093062
            ],
            [
              86.8932508491539,
              25.20032969182141
            ],
            [
              86.89443597315204,
              25.201385985385034
            ],
            [
              86.89510731290994,
              25.201874907119358
            ],
            [
              86.89573812786878,
              25.202292092022528
            ],
            [
              86.89636698360196,
              25.202569378393957
            ],
            [
              86.89730553802093,
              25.202631131072376
            ],
            [
              86.89823618187549,
              25.20247638802649
            ],
            [
              86.89881826323013,
              25.20222170880749
            ],
            [
              86.89970856733854,
              25.20201770104916
            ],
            [
              86.9000698643559,
              25.201585048256852
            ],
            [
              86.90020138040848,
              25.201032977927138
            ],
            [
              86.90029417098741,
              25.200553687123563
            ],
            [
              86.90015168021706,
              25.200289011098043
            ],
            [
              86.89975785610154,
              25.20015350125006
            ],
            [
              86.89937000937594,
              25.20008564304143
            ],
            [
              86.89901609471357,
              25.199963281147635
            ],
            [
              86.89882120880594,
              25.199861659070567
            ],
            [
              86.89862053325632,
              25.199701408074507
            ],
            [
              86.89848209478619,
              25.19936900001452
            ],
            [
              86.89842014696418,
              25.199189200734008
            ],
            [
              86.89822552695789,
              25.19910563006355
            ],
            [
              86.89781595717209,
              25.199268204084323
            ],
            [
              86.89725277726933,
              25.199450431965225
            ],
            [
              86.89676667281796,
              25.199455787660067
            ],
            [
              86.89625476156509,
              25.199393818785584
            ],
            [
              86.89516939368264,
              25.19873802735118
            ],
            [
              86.89422812814816,
              25.198107783780397
            ],
            [
              86.89383014393455,
              25.197651929334477
            ],
            [
              86.89370192290248,
              25.19697642690098
            ],
            [
              86.89368434017742,
              25.1956635326001
            ],
            [
              86.89340197992068,
              25.194958219926797
            ],
            [
              86.89250036512452,
              25.194683948986537
            ],
            [
              86.89171674404092,
              25.194336130892065
            ],
            [
              86.89120127995113,
              25.19363345477301
            ],
            [
              86.89126234742412,
              25.192635454726986
            ],
            [
              86.89120979867498,
              25.191679376255173
            ],
            [
              86.89066036479268,
              25.191401205061663
            ],
            [
              86.88964749903849,
              25.19134023680548
            ],
            [
              86.88855195863373,
              25.191032002919414
            ],
            [
              86.88815155885035,
              25.190025611265785
            ],
            [
              86.88794454388974,
              25.189387154682354
            ],
            [
              86.88727536637673,
              25.188686149777485
            ],
            [
              86.88621073610258,
              25.18809323700242
            ],
            [
              86.88538480526745,
              25.187533747111786
            ],
            [
              86.88412770914705,
              25.187015185320373
            ],
            [
              86.88303221814964,
              25.186706909600165
            ],
            [
              86.8823231078273,
              25.18636273576907
            ],
            [
              86.8820069206102,
              25.186081900713322
            ],
            [
              86.8818866209223,
              25.185618457398377
            ],
            [
              86.88210929172166,
              25.184835365630384
            ],
            [
              86.88370153579983,
              25.184073181359224
            ],
            [
              86.8850135207807,
              25.18313370162015
            ],
            [
              86.88633522104139,
              25.182550512996954
            ],
            [
              86.88750473411655,
              25.182465370071387
            ],
            [
              86.88859593565846,
              25.182453284136585
            ],
            [
              86.89050134232615,
              25.182116300119784
            ],
            [
              86.89120374402994,
              25.181968622287165
            ],
            [
              86.89193469868505,
              25.181355848297105
            ],
            [
              86.89266865101828,
              25.180603135885345
            ],
            [
              86.89305760895988,
              25.180382233754898
            ],
            [
              86.89371869085555,
              25.180483180263156
            ],
            [
              86.89434316191183,
              25.180440148362095
            ],
            [
              86.89492463061548,
              25.180149471061544
            ],
            [
              86.89526728399743,
              25.179437129975835
            ],
            [
              86.89517742192632,
              25.178657529179684
            ],
            [
              86.8952472686346,
              25.177943798142564
            ],
            [
              86.89594388788292,
              25.177367459166003
            ],
            [
              86.89660548271664,
              25.177504495105516
            ],
            [
              86.89754237615061,
              25.177457936300204
            ],
            [
              86.89789544190506,
              25.1775262420532
            ],
            [
              86.89837001558145,
              25.177769110888253
            ],
            [
              86.89857249404986,
              25.17843927703669
            ],
            [
              86.89831401909822,
              25.179507100367985
            ],
            [
              86.8971621570201,
              25.180905226698698
            ],
            [
              86.89682098226507,
              25.181725791086762
            ],
            [
              86.89682806907435,
              25.18225813925019
            ],
            [
              86.89702535258547,
              25.182540282191706
            ],
            [
              86.89730054967615,
              25.182717671307575
            ],
            [
              86.89784567793325,
              25.182675491339104
            ],
            [
              86.89826620177563,
              25.181854060247286
            ],
            [
              86.89868724843751,
              25.1810687290079
            ],
            [
              86.89906737504155,
              25.180563627350555
            ],
            [
              86.8995357153082,
              25.180346354975338
            ],
            [
              86.89981048659743,
              25.180487633604333
            ],
            [
              86.90020253025203,
              25.180871399139956
            ],
            [
              86.90048936591553,
              25.18154498860475
            ],
            [
              86.9008442687247,
              25.182109654340675
            ],
            [
              86.90147542594163,
              25.182562833860693
            ],
            [
              86.90222562161182,
              25.183014755713376
            ],
            [
              86.90292836737036,
              25.18325508214137
            ],
            [
              86.90460737343363,
              25.183060358825383
            ],
            [
              86.90577218562487,
              25.182623157786622
            ],
            [
              86.90723598858371,
              25.18118532577579
            ],
            [
              86.90765730474018,
              25.178956043725293
            ],
            [
              86.90796159556794,
              25.178352468726512
            ],
            [
              86.90866204523265,
              25.17806029709231
            ],
            [
              86.90952050675916,
              25.17808232278823
            ],
            [
              86.91026104194678,
              25.17818232328363
            ],
            [
              86.91084865243202,
              25.178351724864072
            ],
            [
              86.9112772871631,
              25.1781348103153
            ],
            [
              86.91223166181253,
              25.1764544502985
            ],
            [
              86.91229365994018,
              25.175533242973362
            ],
            [
              86.9119666821599,
              25.17446749291125
            ],
            [
              86.91128924014627,
              25.173161939699856
            ],
            [
              86.91088392478166,
              25.172173781700597
            ],
            [
              86.91047814229309,
              25.171144909789184
            ],
            [
              86.91050700695979,
              25.17034139226048
            ],
            [
              86.91081419665099,
              25.1699499162196
            ],
            [
              86.91151151029703,
              25.169797669912946
            ],
            [
              86.91233124275674,
              25.169896791825025
            ],
            [
              86.91369716618053,
              25.169664802618755
            ],
            [
              86.91459138963853,
              25.169406609207623
            ],
            [
              86.91544795571981,
              25.169293211807716
            ],
            [
              86.91575102573711,
              25.16933034996376
            ],
            [
              86.9163054380827,
              25.169247413296837
            ],
            [
              86.91685103166714,
              25.169241266826575
            ],
            [
              86.91732604192477,
              25.169520186180232
            ],
            [
              86.91763836908105,
              25.16987319064149
            ],
            [
              86.91811338383025,
              25.170152106923535
            ],
            [
              86.919233661143,
              25.170098872046413
            ],
            [
              86.92040168930293,
              25.169909771701672
            ],
            [
              86.92087087218933,
              25.169760039208093
            ],
            [
              86.92144981393204,
              25.169293254898037
            ],
            [
              86.92202628890102,
              25.16864594963198
            ],
            [
              86.92268065229668,
              25.16789406038911
            ],
            [
              86.92337116839096,
              25.16724542406853
            ],
            [
              86.92407016817478,
              25.16684947205279
            ],
            [
              86.92480712088104,
              25.166696770636495
            ],
            [
              86.92570236482523,
              25.166510623680555
            ],
            [
              86.92644470742317,
              25.166393985232524
            ],
            [
              86.92694969536014,
              25.166320594965274
            ],
            [
              86.927530919722,
              25.166029705938758
            ],
            [
              86.92791352118469,
              25.16534847993336
            ],
            [
              86.92828427297042,
              25.16417105179914
            ],
            [
              86.9288921162108,
              25.16292328524768
            ],
            [
              86.92958414057644,
              25.162026459763748
            ],
            [
              86.92999556807825,
              25.16164271296006
            ],
            [
              86.93054166382092,
              25.161320667827415
            ],
            [
              86.93053826908749,
              25.161072544629167
            ],
            [
              86.93037512155715,
              25.16075398204653
            ],
            [
              86.9302885563031,
              25.160222513241443
            ],
            [
              86.93051580581547,
              25.159434792019955
            ],
            [
              86.93046594572395,
              25.158690818389648
            ],
            [
              86.92987500428568,
              25.158273366302772
            ],
            [
              86.92893089737994,
              25.157783167050653
            ],
            [
              86.92806956663439,
              25.157544719089636
            ],
            [
              86.92701139794207,
              25.157416822773772
            ],
            [
              86.92595814932258,
              25.157284368057876
            ],
            [
              86.92482942515124,
              25.15744152974987
            ],
            [
              86.92412245641253,
              25.157237435634162
            ],
            [
              86.92437163559761,
              25.155149862027077
            ],
            [
              86.92439469355435,
              25.1542967328338
            ],
            [
              86.9245418097501,
              25.153442195838274
            ],
            [
              86.92496438893782,
              25.152796692106584
            ],
            [
              86.9259726157919,
              25.152537097730658
            ],
            [
              86.92636293198622,
              25.152424419722642
            ],
            [
              86.92639044109518,
              25.151539663788604
            ],
            [
              86.925128655769,
              25.147749916992517
            ],
            [
              86.9249537492916,
              25.145202480095648
            ],
            [
              86.92483764922767,
              25.14351147291424
            ],
            [
              86.92470807084119,
              25.142732355642828
            ],
            [
              86.92500823570685,
              25.141839996704196
            ],
            [
              86.92539120997037,
              25.14119487724786
            ],
            [
              86.92608215096777,
              25.14058692893821
            ],
            [
              86.92655068527051,
              25.14040107393775
            ],
            [
              86.9277179983715,
              25.14017580763362
            ],
            [
              86.92806655368493,
              25.140280186673248
            ],
            [
              86.9284170646307,
              25.14016790314576
            ],
            [
              86.9287255838285,
              25.139880091611126
            ],
            [
              86.92938844169348,
              25.13976431899492
            ],
            [
              86.92989375661722,
              25.13972702464523
            ],
            [
              86.93051607890334,
              25.13953942803826
            ],
            [
              86.93109484816954,
              25.139072601287936
            ],
            [
              86.93120403929063,
              25.138358449126862
            ],
            [
              86.9312690602492,
              25.13658432321565
            ],
            [
              86.92948485966956,
              25.13593215929333
            ],
            [
              86.92786306101853,
              25.134461422235468
            ],
            [
              86.92732015609174,
              25.133565068281943
            ],
            [
              86.92705193891084,
              25.132079028641193
            ],
            [
              86.92722689389728,
              25.13181526527783
            ],
            [
              86.92754737326477,
              25.131685342156437
            ],
            [
              86.92782374804675,
              25.131226449003854
            ],
            [
              86.92785356043609,
              25.130869652636452
            ],
            [
              86.92740995078924,
              25.129611178594544
            ],
            [
              86.92743497605642,
              25.12889793973649
            ],
            [
              86.92767851741478,
              25.12821380304585
            ],
            [
              86.92820587969055,
              25.127982173772903
            ],
            [
              86.92877339306622,
              25.127781736614327
            ],
            [
              86.9295170696624,
              25.12741682398566
            ],
            [
              86.93003870427988,
              25.126761140724614
            ],
            [
              86.93071076358835,
              25.12623455830265
            ],
            [
              86.93233127585188,
              25.125805539680478
            ],
            [
              86.93476572464486,
              25.124351958945976
            ],
            [
              86.93705689843827,
              25.122936097979807
            ],
            [
              86.93849299825206,
              25.122080472015558
            ],
            [
              86.94009466475924,
              25.122093754660263
            ],
            [
              86.94180146290074,
              25.12181264231789
            ],
            [
              86.9426158961986,
              25.121546138595516
            ],
            [
              86.94413604688194,
              25.121041411087692
            ],
            [
              86.94513253814515,
              25.121030021798987
            ],
            [
              86.94580366590067,
              25.121162265340573
            ],
            [
              86.9461424628151,
              25.12199317382881
            ],
            [
              86.9470056809211,
              25.1220329176795
            ],
            [
              86.94683329960795,
              25.12103767782815
            ],
            [
              86.94640848271683,
              25.120433294950047
            ],
            [
              86.94629226138034,
              25.119915688269252
            ],
            [
              86.9453310810943,
              25.119610861596527
            ],
            [
              86.94433159305132,
              25.119396686928496
            ],
            [
              86.94308814683167,
              25.11947399488319
            ],
            [
              86.9421250836768,
              25.11939023619204
            ],
            [
              86.9420142342657,
              25.118904180232065
            ],
            [
              86.94225493964271,
              25.118382527909084
            ],
            [
              86.94274531917652,
              25.11798882819502
            ],
            [
              86.94338672617084,
              25.11775589278916
            ],
            [
              86.94409607634338,
              25.117779337310843
            ],
            [
              86.94470262061985,
              25.117898816945736
            ],
            [
              86.94516991165422,
              25.117992754315576
            ],
            [
              86.94551924221373,
              25.117794679057212
            ],
            [
              86.94580181267621,
              25.11743499992038
            ],
            [
              86.94589963831237,
              25.1169780972485
            ],
            [
              86.94589158401752,
              25.116396093890618
            ],
            [
              86.94609989614538,
              25.116037263059667
            ],
            [
              86.94609445594801,
              25.115649234011947
            ],
            [
              86.94580345838983,
              25.11503883714964
            ],
            [
              86.94540287535013,
              25.11439364039688
            ],
            [
              86.94464722690617,
              25.11388336935215
            ],
            [
              86.9440722503271,
              25.113533450848276
            ],
            [
              86.94292765741628,
              25.112865165093215
            ],
            [
              86.9417340991359,
              25.111520485943338
            ],
            [
              86.94107701294662,
              25.110246460163456
            ],
            [
              86.9403071253071,
              25.108698430248094
            ],
            [
              86.94014949702589,
              25.10769394612752
            ],
            [
              86.94050145156432,
              25.107333466131127
            ],
            [
              86.94117205470366,
              25.107068627672387
            ],
            [
              86.9419472675562,
              25.106477725246517
            ],
            [
              86.94298233517266,
              25.105725847618753
            ],
            [
              86.94319519996237,
              25.10554905509794
            ],
            [
              86.94286598178381,
              25.105393038660488
            ],
            [
              86.94161134884392,
              25.104486382982778
            ],
            [
              86.9427555563775,
              25.102910565327086
            ],
            [
              86.94281932508457,
              25.101642191344474
            ],
            [
              86.94241218524161,
              25.10038302585996
            ],
            [
              86.94202032574164,
              25.099967901146222
            ],
            [
              86.94010252232303,
              25.100948263159157
            ],
            [
              86.93746602265969,
              25.102326113155787
            ],
            [
              86.9360038564313,
              25.102602016929712
            ],
            [
              86.93528999222445,
              25.10252557685209
            ],
            [
              86.93458100407301,
              25.1022324818149
            ],
            [
              86.93408927886288,
              25.1022054737465
            ],
            [
              86.93352010001067,
              25.10217421121452
            ],
            [
              86.93225652164718,
              25.101985341619127
            ],
            [
              86.93192382159856,
              25.10193561237217
            ],
            [
              86.93154426722134,
              25.099263501152
            ],
            [
              86.93153595870326,
              25.099205011121356
            ],
            [
              86.93037091474666,
              25.099024842940924
            ],
            [
              86.92965746286657,
              25.099657035017593
            ],
            [
              86.92879491670044,
              25.099639284695623
            ],
            [
              86.92887880407659,
              25.098813262234692
            ],
            [
              86.92801635223356,
              25.09881356892198
            ],
            [
              86.92695989303525,
              25.097337932822533
            ],
            [
              86.9263301865975,
              25.09706281034239
            ],
            [
              86.92454056019352,
              25.0963954246118
            ],
            [
              86.92404089926622,
              25.09634793268685
            ],
            [
              86.92307323943206,
              25.096255956332524
            ],
            [
              86.92205736611828,
              25.096906286840156
            ],
            [
              86.92104158622926,
              25.09816593065858
            ],
            [
              86.92015950440066,
              25.09862206491982
            ],
            [
              86.91981753014505,
              25.09858954299411
            ],
            [
              86.91975929775506,
              25.098584004715452
            ],
            [
              86.91911850071682,
              25.098523063296113
            ],
            [
              86.91875159911038,
              25.09828850936325
            ],
            [
              86.91808705331096,
              25.09748068479364
            ],
            [
              86.91815086513718,
              25.09563009372551
            ],
            [
              86.91812582190367,
              25.094962059125255
            ],
            [
              86.91772412764797,
              25.094978985216976
            ],
            [
              86.91488905898433,
              25.095098410661798
            ],
            [
              86.91405149137296,
              25.095432615967944
            ],
            [
              86.91265907303817,
              25.096401439706575
            ],
            [
              86.91187093073377,
              25.096949803755287
            ],
            [
              86.90992811642104,
              25.097695045912925
            ],
            [
              86.90731606889973,
              25.098778870136154
            ],
            [
              86.90704774481931,
              25.09882526371382
            ],
            [
              86.90598274443927,
              25.099009403660506
            ],
            [
              86.9025923318771,
              25.099899203818428
            ],
            [
              86.90241898757,
              25.09996979331582
            ],
            [
              86.89974227841621,
              25.10105977006393
            ],
            [
              86.89917056092499,
              25.099903720297963
            ],
            [
              86.89860172972077,
              25.098753480972853
            ],
            [
              86.89659438313296,
              25.09980095163702
            ],
            [
              86.89622253001271,
              25.099485060158205
            ],
            [
              86.89454155304571,
              25.09601869312268
            ],
            [
              86.89394175601534,
              25.095883434347204
            ],
            [
              86.8937633272437,
              25.09592647328032
            ],
            [
              86.89228170440457,
              25.09628385081461
            ],
            [
              86.89100245942254,
              25.096592401320677
            ],
            [
              86.88994676379224,
              25.09721990635171
            ],
            [
              86.8901797436578,
              25.097869855897606
            ],
            [
              86.890104977775,
              25.097897008912934
            ],
            [
              86.88947099176323,
              25.098127253680225
            ],
            [
              86.88973377144174,
              25.098835838323232
            ],
            [
              86.88956028789575,
              25.098971263854317
            ],
            [
              86.88779071907543,
              25.099878721028453
            ],
            [
              86.88608555407113,
              25.100077457392395
            ],
            [
              86.88554518329175,
              25.099486146166964
            ],
            [
              86.88588717641197,
              25.098818117981367
            ],
            [
              86.8851088877279,
              25.09801023996437
            ],
            [
              86.88367134611808,
              25.097242932602388
            ],
            [
              86.8818323249499,
              25.097852423395008
            ],
            [
              86.8803006632545,
              25.098127814180863
            ],
            [
              86.87959179637562,
              25.0979743459195
            ],
            [
              86.87943812517321,
              25.09771710970194
            ],
            [
              86.87930922860802,
              25.096873062401663
            ],
            [
              86.87883331284861,
              25.096439729186315
            ],
            [
              86.8780551211826,
              25.0964984247301
            ],
            [
              86.87704394515944,
              25.096773758364563
            ],
            [
              86.87615663693249,
              25.096949846057623
            ],
            [
              86.87516032443405,
              25.097035617280092
            ],
            [
              86.87480811028249,
              25.096506424783033
            ],
            [
              86.87446635970738,
              25.095992948694853
            ],
            [
              86.87377739320696,
              25.094634289119707
            ],
            [
              86.8736105356345,
              25.09332724600422
            ],
            [
              86.87360394469526,
              25.093275612828965
            ],
            [
              86.87359002170669,
              25.093254356075352
            ],
            [
              86.87328174056243,
              25.09278369160358
            ],
            [
              86.87250347882781,
              25.09312213766705
            ],
            [
              86.87185416037079,
              25.093532939738648
            ],
            [
              86.87060501613728,
              25.093866903636037
            ],
            [
              86.86872151578612,
              25.094322668316455
            ],
            [
              86.86598032735787,
              25.09533818617083
            ],
            [
              86.86341415769645,
              25.09664704633199
            ],
            [
              86.86338781280412,
              25.096660483052638
            ],
            [
              86.86269877174354,
              25.09671908900462
            ],
            [
              86.86144459784278,
              25.09715231303419
            ],
            [
              86.86049278339188,
              25.097955627288492
            ],
            [
              86.85885681741055,
              25.09911555060608
            ],
            [
              86.85746229701799,
              25.100653906698913
            ],
            [
              86.85742900904681,
              25.10069062808183
            ],
            [
              86.857684288691,
              25.101471729088686
            ],
            [
              86.85769159828246,
              25.101494093996205
            ],
            [
              86.85865797622073,
              25.103678881619526
            ],
            [
              86.85788457257517,
              25.10400831369131
            ],
            [
              86.85782089369962,
              25.104025265375423
            ],
            [
              86.85663042472555,
              25.104342154628384
            ],
            [
              86.8544739712753,
              25.104454658177037
            ],
            [
              86.85460265134648,
              25.105930711124337
            ],
            [
              86.85393342173117,
              25.106129186299192
            ],
            [
              86.85384407888628,
              25.106779144627914
            ],
            [
              86.8533680831768,
              25.10695514063935
            ],
            [
              86.8525500260751,
              25.107934456691595
            ],
            [
              86.8508137353445,
              25.10870598862483
            ],
            [
              86.85065119327868,
              25.108778213722935
            ],
            [
              86.84991751044005,
              25.108701432612378
            ],
            [
              86.84883693327296,
              25.107933879967227
            ],
            [
              86.84867734127457,
              25.107836961765408
            ],
            [
              86.84825703572278,
              25.107581713179545
            ],
            [
              86.84704782160367,
              25.106028775355927
            ],
            [
              86.84493137192966,
              25.104669767654435
            ],
            [
              86.84445566727432,
              25.10414150136439
            ],
            [
              86.84408912768895,
              25.103017576855446
            ],
            [
              86.8436165249163,
              25.102853481898567
            ],
            [
              86.84346456230958,
              25.102800717956814
            ],
            [
              86.84302820835525,
              25.103233922073304
            ],
            [
              86.84305284105865,
              25.10398324611672
            ],
            [
              86.84270511219535,
              25.106461239191947
            ],
            [
              86.84247321839294,
              25.10610507007734
            ],
            [
              86.84235825559614,
              25.10592849692201
            ],
            [
              86.84085608109994,
              25.106343399669328
            ],
            [
              86.83880369657705,
              25.106852966834882
            ],
            [
              86.83722714337195,
              25.107168591997397
            ],
            [
              86.83671168557034,
              25.106717019667343
            ],
            [
              86.83612706108512,
              25.105850308384916
            ],
            [
              86.83547775340786,
              25.105592839003158
            ],
            [
              86.83509748307338,
              25.105726030644608
            ],
            [
              86.83474394839835,
              25.105849856921616
            ],
            [
              86.83461494403535,
              25.10634180938609
            ],
            [
              86.83476339692426,
              25.106951201149204
            ],
            [
              86.83085673873799,
              25.107952212317045
            ],
            [
              86.83070749084006,
              25.109446208651516
            ],
            [
              86.82967127607498,
              25.109743766724126
            ],
            [
              86.82850106141562,
              25.110393366643567
            ],
            [
              86.82774756892833,
              25.11037054866341
            ],
            [
              86.82752961158927,
              25.10997781063483
            ],
            [
              86.82698953635561,
              25.109345738611964
            ],
            [
              86.82636487216156,
              25.109268787038655
            ],
            [
              86.8251838319047,
              25.110605954659043
            ],
            [
              86.8250456530477,
              25.110762397994925
            ],
            [
              86.82411387821418,
              25.110075938320904
            ],
            [
              86.8234065995567,
              25.109208915717012
            ],
            [
              86.82328148220394,
              25.10905553782298
            ],
            [
              86.82373895914382,
              25.10585100306898
            ],
            [
              86.82345667883716,
              25.10502487939364
            ],
            [
              86.82155305083374,
              25.105240878597296
            ],
            [
              86.82108214857192,
              25.105024020387376
            ],
            [
              86.8192727664182,
              25.105221951207884
            ],
            [
              86.81877724133446,
              25.104689153918006
            ],
            [
              86.81823747961282,
              25.10348837277937
            ],
            [
              86.81748491778019,
              25.101465872871216
            ],
            [
              86.81707476319114,
              25.098829686681178
            ],
            [
              86.816663750711,
              25.097845620089497
            ],
            [
              86.81617403503219,
              25.095841318737275
            ],
            [
              86.8157190688835,
              25.093557188604077
            ],
            [
              86.81524381428409,
              25.092378871394445
            ],
            [
              86.81423243973327,
              25.092847939643008
            ],
            [
              86.81338977238605,
              25.092910730610335
            ],
            [
              86.81308769770209,
              25.09231936603163
            ],
            [
              86.81012826806716,
              25.092850691828016
            ],
            [
              86.80833886714034,
              25.09286798836967
            ],
            [
              86.80725817409059,
              25.093061566124703
            ],
            [
              86.80684655075606,
              25.093476635362897
            ],
            [
              86.80649941388249,
              25.093810508298905
            ],
            [
              86.80574487575622,
              25.09583678827802
            ],
            [
              86.80547081144114,
              25.096419036744955
            ],
            [
              86.80546907769265,
              25.09642271869167
            ],
            [
              86.80468279579917,
              25.098093129029987
            ],
            [
              86.80569831966831,
              25.099253674178012
            ],
            [
              86.80682413958634,
              25.098211528867484
            ],
            [
              86.80820771131222,
              25.09703406511062
            ],
            [
              86.80982857122376,
              25.09721080892738
            ],
            [
              86.81021500579773,
              25.097504357730045
            ],
            [
              86.81067087475328,
              25.097919821899126
            ],
            [
              86.81094798615382,
              25.098687263309362
            ],
            [
              86.81099213296014,
              25.099711880404943
            ],
            [
              86.81064496195057,
              25.10006382499698
            ],
            [
              86.8103421973605,
              25.100754304972263
            ],
            [
              86.80980634959859,
              25.10157552539273
            ],
            [
              86.80796619385818,
              25.10371872334625
            ],
            [
              86.80792587028171,
              25.10483362915321
            ],
            [
              86.80835695561689,
              25.10512724100617
            ],
            [
              86.80900656872133,
              25.104892823383377
            ],
            [
              86.80943760285254,
              25.105285681053683
            ],
            [
              86.80924399973912,
              25.105795589394376
            ],
            [
              86.80779612121533,
              25.106368177987502
            ],
            [
              86.80544102420463,
              25.107170575160737
            ],
            [
              86.80511854159407,
              25.107567603320284
            ],
            [
              86.80486017533853,
              25.108623701368654
            ],
            [
              86.80433953335945,
              25.10882205585206
            ],
            [
              86.80315244205083,
              25.109492623398552
            ],
            [
              86.80274278333181,
              25.109724026610117
            ],
            [
              86.80183502226248,
              25.11059023702567
            ],
            [
              86.80084808727726,
              25.111217105727402
            ],
            [
              86.80075121116039,
              25.111242357276787
            ],
            [
              86.7995689159571,
              25.111550520277756
            ],
            [
              86.7988973785698,
              25.111616740737034
            ],
            [
              86.79833938284455,
              25.11167176377748
            ],
            [
              86.79771455066555,
              25.11194220070556
            ],
            [
              86.79779100358441,
              25.113708719722236
            ],
            [
              86.79780246159585,
              25.113973465711336
            ],
            [
              86.79739121914702,
              25.11373403664196
            ],
            [
              86.79596911328872,
              25.112613877700507
            ],
            [
              86.79472489631455,
              25.11300057996815
            ],
            [
              86.79462977909901,
              25.113030142167165
            ],
            [
              86.79406994991224,
              25.113204132287063
            ],
            [
              86.79396123759321,
              25.112612817023784
            ],
            [
              86.79365963811803,
              25.111470619040805
            ],
            [
              86.79270840218221,
              25.110544797167858
            ],
            [
              86.79160394060837,
              25.110544177344774
            ],
            [
              86.79098820297328,
              25.110543828389247
            ],
            [
              86.79075055725814,
              25.110074245595413
            ],
            [
              86.78971563427044,
              25.108340470781553
            ],
            [
              86.7890469553224,
              25.107572705190485
            ],
            [
              86.78786264968949,
              25.106849805804224
            ],
            [
              86.78708495928339,
              25.106041417935966
            ],
            [
              86.78635202114815,
              25.10499828517604
            ],
            [
              86.78611480123443,
              25.10401420476585
            ],
            [
              86.78624460330143,
              25.102831702122796
            ],
            [
              86.78633466569686,
              25.10157237886822
            ],
            [
              86.7847130062847,
              25.102519274090263
            ],
            [
              86.7832645339745,
              25.103836402706005
            ],
            [
              86.78323784143414,
              25.103858232737448
            ],
            [
              86.78237666519883,
              25.104562543632884
            ],
            [
              86.78168734655881,
              25.104954827252733
            ],
            [
              86.78125599801729,
              25.105013254338093
            ],
            [
              86.77991243455921,
              25.10531027981354
            ],
            [
              86.7795977205792,
              25.105404493668775
            ],
            [
              86.77952841824997,
              25.105425240718077
            ],
            [
              86.77972972531525,
              25.105578154619273
            ],
            [
              86.78227057057049,
              25.107508132189725
            ],
            [
              86.78308233138038,
              25.10702663467607
            ],
            [
              86.78348760811741,
              25.1073292842488
            ],
            [
              86.78312815174807,
              25.109111038683608
            ],
            [
              86.78255688880436,
              25.110610591128676
            ],
            [
              86.78251847774115,
              25.110714845762327
            ],
            [
              86.78208728281152,
              25.111518005043866
            ],
            [
              86.78151602256278,
              25.112227868857403
            ],
            [
              86.7809397003074,
              25.112522606598734
            ],
            [
              86.77950643557666,
              25.11288938002992
            ],
            [
              86.77816162525697,
              25.113589183933982
            ],
            [
              86.7769713557089,
              25.11475219624759
            ],
            [
              86.7760602484151,
              25.116440230983663
            ],
            [
              86.7754853976002,
              25.118061735102906
            ],
            [
              86.77509539761286,
              25.120597332963783
            ],
            [
              86.77431118094621,
              25.122523265371267
            ],
            [
              86.77403867610647,
              25.123342847917932
            ],
            [
              86.7736262344067,
              25.123667513758907
            ],
            [
              86.77322380982069,
              25.124005562839876
            ],
            [
              86.77221805962184,
              25.124864351341152
            ],
            [
              86.77177557915726,
              25.12557286073004
            ],
            [
              86.77104244339266,
              25.12722744034308
            ],
            [
              86.7704849758768,
              25.127855920254706
            ],
            [
              86.76928281802424,
              25.128477506682728
            ],
            [
              86.76851978183537,
              25.12932914501118
            ],
            [
              86.76752358701621,
              25.13096839627958
            ],
            [
              86.76707275671109,
              25.131803412613667
            ],
            [
              86.76612098178612,
              25.13262993514926
            ],
            [
              86.76374482826513,
              25.133755308222
            ],
            [
              86.76229588074617,
              25.134478582769145
            ],
            [
              86.76404708620544,
              25.136956242983956
            ],
            [
              86.76458453027361,
              25.13751026821045
            ],
            [
              86.76515047608915,
              25.137969323981586
            ],
            [
              86.76562151309824,
              25.139566484781998
            ],
            [
              86.76625441574177,
              25.139420105376697
            ],
            [
              86.76716624977261,
              25.140976688992993
            ],
            [
              86.7684769079418,
              25.140290847963325
            ],
            [
              86.76868654777968,
              25.140401566747464
            ],
            [
              86.76881385971667,
              25.140670982930732
            ],
            [
              86.76895791535229,
              25.141098264359034
            ],
            [
              86.76914329259262,
              25.14205297726901
            ],
            [
              86.76872662611608,
              25.142440841944506
            ],
            [
              86.76926880340748,
              25.143775555807828
            ],
            [
              86.77028796635182,
              25.146387010627265
            ],
            [
              86.77039734611914,
              25.146805487322144
            ],
            [
              86.77054319928361,
              25.147368153331865
            ],
            [
              86.7703043147917,
              25.147704464121276
            ],
            [
              86.76957044779844,
              25.148113678404357
            ],
            [
              86.76882050365651,
              25.148423696738746
            ],
            [
              86.7675236400168,
              25.148626505350137
            ],
            [
              86.7668209616319,
              25.148746544353088
            ],
            [
              86.76657064158641,
              25.14895663915848
            ],
            [
              86.767070704959,
              25.150901046296102
            ],
            [
              86.76728116136545,
              25.151074854810798
            ],
            [
              86.7678436666334,
              25.151245058405554
            ],
            [
              86.76832001088923,
              25.15166443322783
            ],
            [
              86.76960119443565,
              25.153393199836785
            ],
            [
              86.76990161442288,
              25.15362923522594
            ],
            [
              86.77032353963708,
              25.15365647667926
            ],
            [
              86.77076484959683,
              25.153651997964232
            ],
            [
              86.77097496284685,
              25.153794210096308
            ],
            [
              86.77104578602383,
              25.153906301387664
            ],
            [
              86.77110299972426,
              25.15412680914538
            ],
            [
              86.77110626510031,
              25.154384051023307
            ],
            [
              86.77075151500476,
              25.155371430282106
            ],
            [
              86.77038483438386,
              25.156602615099207
            ],
            [
              86.76937756603219,
              25.157763689200916
            ],
            [
              86.76893341380288,
              25.15834139008806
            ],
            [
              86.76888297339971,
              25.15868032539147
            ],
            [
              86.76882340162162,
              25.15947517334307
            ],
            [
              86.76895351181075,
              25.162768104748274
            ],
            [
              86.76562585735097,
              25.163203771194297
            ],
            [
              86.76612123241605,
              25.16475561704755
            ],
            [
              86.76678787668,
              25.16732996296885
            ],
            [
              86.76718226403919,
              25.17113917235987
            ],
            [
              86.768683628255,
              25.171015436667926
            ],
            [
              86.76968620470595,
              25.17266128166683
            ],
            [
              86.77042097989595,
              25.17271695117915
            ],
            [
              86.77070065059674,
              25.17326463200456
            ],
            [
              86.77364612759868,
              25.17319375560022
            ],
            [
              86.77553352034995,
              25.179771815861
            ],
            [
              86.77623529413138,
              25.181149910611722
            ],
            [
              86.77655771116495,
              25.183136697276495
            ],
            [
              86.77713972334931,
              25.184863482944746
            ],
            [
              86.7783001876946,
              25.186819083631335
            ],
            [
              86.78068664579018,
              25.192006456598268
            ],
            [
              86.78211704669181,
              25.195700995988066
            ],
            [
              86.78305597211498,
              25.19976622491914
            ],
            [
              86.78417851318224,
              25.19986740733978
            ],
            [
              86.78454917603476,
              25.201727276811933
            ],
            [
              86.78468491327084,
              25.20266449985775
            ],
            [
              86.78398439443585,
              25.203777350195132
            ],
            [
              86.78187054538458,
              25.206931001753805
            ],
            [
              86.78232782559346,
              25.206989383274415
            ],
            [
              86.78315755899722,
              25.206290353959574
            ],
            [
              86.78336654486152,
              25.205940785778843
            ],
            [
              86.78364383862005,
              25.205901815395176
            ],
            [
              86.78399769668857,
              25.20602895290362
            ],
            [
              86.78427874271006,
              25.206278804384013
            ],
            [
              86.78481135563864,
              25.20681472222943
            ],
            [
              86.78513892900195,
              25.207610095852985
            ],
            [
              86.78581629735372,
              25.208604844841503
            ],
            [
              86.78672288163003,
              25.208496161376182
            ],
            [
              86.78712384016552,
              25.208424300079912
            ],
            [
              86.78745431508719,
              25.208262915982246
            ],
            [
              86.78778302032775,
              25.20797066085098
            ],
            [
              86.78819408940177,
              25.20712252928629
            ],
            [
              86.78848724201833,
              25.206753964071343
            ],
            [
              86.78866358939344,
              25.206576207637358
            ],
            [
              86.78890640670967,
              25.206555602949575
            ],
            [
              86.78915513943205,
              25.20660265536765
            ],
            [
              86.7894690736744,
              25.206712180933238
            ],
            [
              86.78980766397636,
              25.206803392965536
            ],
            [
              86.79015582942088,
              25.20687648982257
            ],
            [
              86.79041898908676,
              25.206891852064125
            ],
            [
              86.79070102415334,
              25.20682575239129
            ],
            [
              86.79092814520666,
              25.206742155264564
            ],
            [
              86.79116861073346,
              25.20653200317746
            ],
            [
              86.79135769801593,
              25.206178135278574
            ],
            [
              86.79163784841708,
              25.205967621343312
            ],
            [
              86.79193490870514,
              25.20591938283312
            ],
            [
              86.79223335689029,
              25.205979452170304
            ],
            [
              86.79274202971655,
              25.20618169931321
            ],
            [
              86.79346282173084,
              25.206684080041722
            ],
            [
              86.79462675177649,
              25.207308270399544
            ],
            [
              86.79522472163359,
              25.2075095367597
            ],
            [
              86.79568191380753,
              25.207567974896676
            ],
            [
              86.79590974273326,
              25.207534010882448
            ],
            [
              86.7960819713328,
              25.20742388216796
            ],
            [
              86.7961666249719,
              25.207053030722605
            ],
            [
              86.79628942377293,
              25.205774649306623
            ],
            [
              86.79647721119318,
              25.20532591592295
            ],
            [
              86.79665403737033,
              25.205184161361995
            ],
            [
              86.79721417737419,
              25.20514223382197
            ],
            [
              86.799206890406,
              25.205383125366012
            ],
            [
              86.79999959615205,
              25.205293555719994
            ],
            [
              86.8007121155809,
              25.205141710388027
            ],
            [
              86.8010958471242,
              25.204884973890536
            ],
            [
              86.80150138616932,
              25.204781449120777
            ],
            [
              86.80176654279005,
              25.20495465169241
            ],
            [
              86.80206903968221,
              25.205335031299807
            ],
            [
              86.80226557669332,
              25.205572160903728
            ],
            [
              86.8025290911937,
              25.205619003191273
            ],
            [
              86.8029436196799,
              25.20543868483139
            ],
            [
              86.80352041085581,
              25.20514387402338
            ],
            [
              86.80425678594534,
              25.204914937292795
            ],
            [
              86.80462407831895,
              25.204924681797635
            ],
            [
              86.80493802064612,
              25.20503417798711
            ],
            [
              86.80532801973516,
              25.20526924776766
            ],
            [
              86.80563135295883,
              25.20571279987618
            ],
            [
              86.80604993284692,
              25.205852800653155
            ],
            [
              86.80648810499137,
              25.2059745226592
            ],
            [
              86.80708796400549,
              25.205936618654142
            ],
            [
              86.8076473152885,
              25.205835988279162
            ],
            [
              86.80804566781136,
              25.205561081861298
            ],
            [
              86.80870533396218,
              25.20515248386126
            ],
            [
              86.80952955260838,
              25.204809811356444
            ],
            [
              86.81031512483278,
              25.204544306597537
            ],
            [
              86.81120599218487,
              25.20437700674143
            ],
            [
              86.81188717478337,
              25.20409904092854
            ],
            [
              86.81236192093628,
              25.203588627235185
            ],
            [
              86.81307028475862,
              25.202719221752417
            ],
            [
              86.81348939914432,
              25.20252079309584
            ],
            [
              86.81394502465645,
              25.202452812660475
            ],
            [
              86.8143476459735,
              25.202511754724565
            ],
            [
              86.81472050161366,
              25.202570992620355
            ],
            [
              86.81522919599949,
              25.20277316739707
            ],
            [
              86.81649732343158,
              25.20339150290978
            ],
            [
              86.81773475183711,
              25.204321550015962
            ],
            [
              86.81830044792099,
              25.20471712018087
            ],
            [
              86.81860480971567,
              25.204853826249444
            ],
            [
              86.81911004918094,
              25.204785303361636
            ],
            [
              86.81965149075211,
              25.204445542863684
            ],
            [
              86.82032976101245,
              25.203941984912166
            ],
            [
              86.82090314218357,
              25.203777932156154
            ],
            [
              86.82139505783651,
              25.20383595999784
            ],
            [
              86.82192360678674,
              25.20403788233363
            ],
            [
              86.82222351832749,
              25.20421071776846
            ],
            [
              86.82248688460587,
              25.204239470277106
            ],
            [
              86.82340712956272,
              25.204040207734423
            ],
            [
              86.82437451271578,
              25.204029895829223
            ],
            [
              86.82503775416139,
              25.20390996734036
            ],
            [
              86.82566847120384,
              25.203569381849665
            ],
            [
              86.82611804656251,
              25.203420167829787
            ],
            [
              86.82650422691326,
              25.203352908848085
            ],
            [
              86.82668254878536,
              25.203332970108857
            ],
            [
              86.82682252606956,
              25.20341268196792
            ],
            [
              86.82695122500536,
              25.203776815376184
            ],
            [
              86.82697973663419,
              25.204832461313607
            ],
            [
              86.82708739612772,
              25.20510205131888
            ],
            [
              86.82731807720447,
              25.20528908215331
            ],
            [
              86.82779110757522,
              25.205423949875488
            ],
            [
              86.82874011658744,
              25.20552666375415
            ],
            [
              86.82927072537463,
              25.205886513174455
            ],
            [
              86.8294195286065,
              25.206268462595663
            ],
            [
              86.8294752870362,
              25.206746211824306
            ],
            [
              86.82958357535041,
              25.207065443389432
            ],
            [
              86.82979938481763,
              25.20725266464678
            ],
            [
              86.83002782369947,
              25.207268294242652
            ],
            [
              86.83032316281543,
              25.20708910807991
            ],
            [
              86.83047825425427,
              25.206798707320186
            ],
            [
              86.8305777202141,
              25.206432063342405
            ],
            [
              86.83058827182543,
              25.2060980960547
            ],
            [
              86.8305663529325,
              25.205552225779112
            ],
            [
              86.83085807992268,
              25.205088903693312
            ],
            [
              86.83125659324399,
              25.204827383828704
            ],
            [
              86.83181482792111,
              25.20464543465435
            ],
            [
              86.83249925703102,
              25.204624616689
            ],
            [
              86.83307947258484,
              25.20460028909615
            ],
            [
              86.83337844358947,
              25.204696380255502
            ],
            [
              86.83343542462626,
              25.20488535833895
            ],
            [
              86.83333596315799,
              25.2052519126924
            ],
            [
              86.83318532466802,
              25.205876267260916
            ],
            [
              86.83269168514802,
              25.207221751689797
            ],
            [
              86.83262552332903,
              25.20747966096252
            ],
            [
              86.83269664474673,
              25.20760525906361
            ],
            [
              86.83299464736749,
              25.207633661279772
            ],
            [
              86.83334647883672,
              25.207598313137872
            ],
            [
              86.83371074298948,
              25.20736880314345
            ],
            [
              86.8340592165562,
              25.20708073164479
            ],
            [
              86.83424796697042,
              25.206713183897765
            ],
            [
              86.83432670879667,
              25.206279166070253
            ],
            [
              86.83428314679358,
              25.205593719964774
            ],
            [
              86.83415044765982,
              25.204543779909837
            ],
            [
              86.83422918499448,
              25.20410966981698
            ],
            [
              86.83452539098467,
              25.203998261106143
            ],
            [
              86.8348079794135,
              25.20397711709998
            ],
            [
              86.83588781187719,
              25.203843718119778
            ],
            [
              86.83652105228725,
              25.203697050111025
            ],
            [
              86.8370480651184,
              25.203786194214498
            ],
            [
              86.8373622499907,
              25.20390916023604
            ],
            [
              86.83757906018113,
              25.204177607061986
            ],
            [
              86.83782818995886,
              25.204639715058306
            ],
            [
              86.83811868535881,
              25.205227719334417
            ],
            [
              86.83792534275686,
              25.205243358130932
            ],
            [
              86.83750662901976,
              25.205473442706886
            ],
            [
              86.83707628659134,
              25.205956357023002
            ],
            [
              86.83657143789326,
              25.20644016429077
            ],
            [
              86.83617376898833,
              25.206764786981132
            ],
            [
              86.83588085262868,
              25.207133436691645
            ],
            [
              86.8359728131643,
              25.207340038369644
            ],
            [
              86.83630805364858,
              25.20755754706428
            ],
            [
              86.8371277007683,
              25.20762546938071
            ],
            [
              86.83791463843194,
              25.207477167384027
            ],
            [
              86.83843778132078,
              25.20726393778762
            ],
            [
              86.83935554333416,
              25.20648698186101
            ],
            [
              86.83960282797233,
              25.206421129865323
            ],
            [
              86.83993602029773,
              25.20648067877781
            ],
            [
              86.8401129416963,
              25.20673604888616
            ],
            [
              86.84017208318134,
              25.207082879803004
            ],
            [
              86.84012312320174,
              25.20751659891658
            ],
            [
              86.8397074799063,
              25.209132077869075
            ],
            [
              86.83978479790281,
              25.20973585877603
            ],
            [
              86.8399631476227,
              25.210099445792576
            ],
            [
              86.84035311167742,
              25.21032088570942
            ],
            [
              86.84068559343544,
              25.210330886610777
            ],
            [
              86.84109019823265,
              25.21015505105753
            ],
            [
              86.84131533760241,
              25.209913426100478
            ],
            [
              86.84155195744152,
              25.209414552743848
            ],
            [
              86.84151591164243,
              25.207785861933868
            ],
            [
              86.84130438444416,
              25.206402866762517
            ],
            [
              86.84146044067363,
              25.206193599205562
            ],
            [
              86.8417374882938,
              25.206127440633466
            ],
            [
              86.84221453503214,
              25.206185416962935
            ],
            [
              86.84245389293622,
              25.20628219204288
            ],
            [
              86.84283863328757,
              25.206485612332308
            ],
            [
              86.8435821122544,
              25.20681148819976
            ],
            [
              86.84396998143788,
              25.206870546005753
            ],
            [
              86.84421278977098,
              25.20684985521371
            ],
            [
              86.84436847230128,
              25.2066089917683
            ],
            [
              86.84453724777686,
              25.20624166692366
            ],
            [
              86.84474665135778,
              25.20593705267883
            ],
            [
              86.84505757714224,
              25.205807371069298
            ],
            [
              86.84539488734491,
              25.205803694047106
            ],
            [
              86.8456597008092,
              25.205940806911123
            ],
            [
              86.84585757002189,
              25.206277077230656
            ],
            [
              86.84586257004477,
              25.206660582704213
            ],
            [
              86.84534212210175,
              25.20746036823872
            ],
            [
              86.84505511216511,
              25.208280235998927
            ],
            [
              86.84521896487293,
              25.20867560636414
            ],
            [
              86.84547014999606,
              25.208912019107565
            ],
            [
              86.84599901964486,
              25.20913200228248
            ],
            [
              86.84719684312617,
              25.209674043055855
            ],
            [
              86.84848375163587,
              25.210567201047198
            ],
            [
              86.8491510184323,
              25.21074953067602
            ],
            [
              86.84948194700317,
              25.21063766315005
            ],
            [
              86.84972813210342,
              25.210490563629808
            ],
            [
              86.84986264583407,
              25.210155162404586
            ],
            [
              86.84978512481831,
              25.209533330635733
            ],
            [
              86.84961673382166,
              25.208799593151166
            ],
            [
              86.84946512335453,
              25.20782652633506
            ],
            [
              86.84949277260066,
              25.20728472929289
            ],
            [
              86.84959440619527,
              25.207094079810066
            ],
            [
              86.85006549979825,
              25.207070924729045
            ],
            [
              86.85059204820035,
              25.207114887599808
            ],
            [
              86.85117571328487,
              25.207361271196472
            ],
            [
              86.85153155393522,
              25.20762815314412
            ],
            [
              86.8517800099765,
              25.20804059859731
            ],
            [
              86.85208107225912,
              25.208294605677764
            ],
            [
              86.85256008361303,
              25.208496961135218
            ],
            [
              86.85264858832976,
              25.208816409992377
            ],
            [
              86.85242284169888,
              25.20900840920983
            ],
            [
              86.85190055759942,
              25.209284771619036
            ],
            [
              86.85107177281661,
              25.21002929791355
            ],
            [
              86.8509021151954,
              25.21071699392311
            ],
            [
              86.85116272095091,
              25.211670856106156
            ],
            [
              86.85141414682253,
              25.2134415131124
            ],
            [
              86.85160690731618,
              25.213768878778453
            ],
            [
              86.85213432977905,
              25.213876016604065
            ],
            [
              86.85269489558434,
              25.21386990326904
            ],
            [
              86.8535870897481,
              25.213797034925136
            ],
            [
              86.85455269603352,
              25.21364221098517
            ],
            [
              86.85549834983819,
              25.213487528263194
            ],
            [
              86.85623289955106,
              25.213497563039002
            ],
            [
              86.85681501234677,
              25.213617651941465
            ],
            [
              86.85766733388833,
              25.213910717617317
            ],
            [
              86.85917992255361,
              25.214602755199863
            ]
          ]
        ]
      }
    }
  ]
}