{
  "type": "FeatureCollection",
  "features": [
    {
      "type": "Feature",
      "properties": {
        "object_id": "10-227-01367",
        "stname": "BIHAR",
        "dtname": "Lakhisarai",
        "sdtname": "Surajgarha",
        "st_area_sh": 0.0,
        "st_length_": 0.0,
        "remarks": "",
        "dist_lgd": 204,
        "state_lgd": 10,
        "subdt_lgd": 1367,
        "ac_no": null,
        "st_length(shape)": 140312.1609931406,
        "st_area(shape)": 462726462.37366486
      },
      "geometry": {
        "type": "Polygon",
        "coordinates": [
          [
            [
              86.36076659525018,
              25.279921674706127
            ],
            [
              86.36140707608146,
              25.278752664112968
            ],
            [
              86.36127821275393,
              25.27764227090107
            ],
            [
              86.36153651343243,
              25.2762431346178
            ],
            [
              86.36235782333377,
              25.273990891668106
            ],
            [
              86.36352754571634,
              25.271043632250763
            ],
            [
              86.36435676977533,
              25.26851607218103
            ],
            [
              86.36499739164212,
              25.264896189174355
            ],
            [
              86.36474432724343,
              25.264137900626643
            ],
            [
              86.36519112321459,
              25.263257732389643
            ],
            [
              86.3667993923391,
              25.26203469475341
            ],
            [
              86.36763339274046,
              25.260572270156203
            ],
            [
              86.36814472996986,
              25.25893841834792
            ],
            [
              86.36878509312184,
              25.258121465107948
            ],
            [
              86.3722545637172,
              25.25520127638357
            ],
            [
              86.37228541186406,
              25.25505645932753
            ],
            [
              86.37237860398996,
              25.254618979103654
            ],
            [
              86.37135848433982,
              25.252339373135417
            ],
            [
              86.37091468784341,
              25.251347615107953
            ],
            [
              86.37044836609121,
              25.250638725347386
            ],
            [
              86.3700020570069,
              25.250305495308154
            ],
            [
              86.36948659201876,
              25.250000685926615
            ],
            [
              86.36946045373895,
              25.24888946828604
            ],
            [
              86.36946046721367,
              25.248559948178197
            ],
            [
              86.37277576265178,
              25.2486909191341
            ],
            [
              86.37374861384997,
              25.245445621905116
            ],
            [
              86.37558482688459,
              25.24554496417458
            ],
            [
              86.37663203613042,
              25.24446167038618
            ],
            [
              86.37832439115881,
              25.244691854660562
            ],
            [
              86.37988763492464,
              25.245007717873246
            ],
            [
              86.38023502242817,
              25.24521082720705
            ],
            [
              86.3803442503802,
              25.24499419267676
            ],
            [
              86.38052287678119,
              25.244818126104786
            ],
            [
              86.380845513902,
              25.244615029114936
            ],
            [
              86.38156501863048,
              25.24423587412024
            ],
            [
              86.3823392262682,
              25.243739367866784
            ],
            [
              86.38256255732934,
              25.243459454985633
            ],
            [
              86.38272634985,
              25.243152561348612
            ],
            [
              86.38272631481571,
              25.242962921996398
            ],
            [
              86.3825823040959,
              25.242597398629023
            ],
            [
              86.38227467243358,
              25.242249794682664
            ],
            [
              86.3816641953328,
              25.24176690987701
            ],
            [
              86.38098925602557,
              25.2414464831242
            ],
            [
              86.38083042220521,
              25.241225291633754
            ],
            [
              86.38076585040427,
              25.240918347664635
            ],
            [
              86.38083035303492,
              25.240376699638116
            ],
            [
              86.38094453519577,
              25.239749380802383
            ],
            [
              86.38081545896752,
              25.238769938379367
            ],
            [
              86.3807509230992,
              25.238083802645114
            ],
            [
              86.38090961678235,
              25.237646038662568
            ],
            [
              86.3872101720131,
              25.22951153262938
            ],
            [
              86.39060419220944,
              25.225129027357635
            ],
            [
              86.39086290341801,
              25.2247949529175
            ],
            [
              86.38978109196576,
              25.224316660182367
            ],
            [
              86.38414917885213,
              25.223743886401817
            ],
            [
              86.38325100819675,
              25.223197769403637
            ],
            [
              86.38211607127691,
              25.22179141271922
            ],
            [
              86.38182679668745,
              25.221432952059875
            ],
            [
              86.38154387857692,
              25.21966368889767
            ],
            [
              86.38064085073079,
              25.218693285198263
            ],
            [
              86.37973775371442,
              25.218111004804705
            ],
            [
              86.37935069660799,
              25.2174068990213
            ],
            [
              86.37857659407311,
              25.216057382361925
            ],
            [
              86.37803078579134,
              25.214734829030075
            ],
            [
              86.3775793257672,
              25.213854714206516
            ],
            [
              86.3769986116484,
              25.213176266125704
            ],
            [
              86.37609577963505,
              25.21212147034519
            ],
            [
              86.37429472306741,
              25.210952446910888
            ],
            [
              86.37275169229376,
              25.210130997654773
            ],
            [
              86.37178920226407,
              25.209517082823083
            ],
            [
              86.37059015617562,
              25.208207126980653
            ],
            [
              86.3705043077772,
              25.208113337094403
            ],
            [
              86.36954179259467,
              25.206565113243546
            ],
            [
              86.36867364094115,
              25.205278628116588
            ],
            [
              86.3673887581324,
              25.204195348686213
            ],
            [
              86.36636191818563,
              25.20302620035576
            ],
            [
              86.36610398581644,
              25.201830088908068
            ],
            [
              86.365895669197,
              25.201010852340413
            ],
            [
              86.36568735617081,
              25.200191615950104
            ],
            [
              86.36549418065549,
              25.19665291040016
            ],
            [
              86.36531247662631,
              25.19541627671415
            ],
            [
              86.36517186423322,
              25.1944592836601
            ],
            [
              86.36512423555685,
              25.193940896039813
            ],
            [
              86.36488447610583,
              25.191331239061114
            ],
            [
              86.36496899320105,
              25.188334195602632
            ],
            [
              86.36507082173006,
              25.186878554335877
            ],
            [
              86.36517264756415,
              25.18542291193537
            ],
            [
              86.36523731278987,
              25.182615421888023
            ],
            [
              86.36507876643043,
              25.180539078706808
            ],
            [
              86.36514350082642,
              25.17796629131555
            ],
            [
              86.3647915157453,
              25.17562822295379
            ],
            [
              86.3647917223578,
              25.17296512304192
            ],
            [
              86.36488613259921,
              25.170888868308953
            ],
            [
              86.36507963240636,
              25.16977849236083
            ],
            [
              86.36482190485303,
              25.168288974023834
            ],
            [
              86.36520897184099,
              25.165860698637932
            ],
            [
              86.36607710283323,
              25.1624664080483
            ],
            [
              86.36636492305026,
              25.160859571238845
            ],
            [
              86.36758513704002,
              25.15773164079308
            ],
            [
              86.3685821726823,
              25.154193030104068
            ],
            [
              86.36925669427296,
              25.151620209659935
            ],
            [
              86.37015443822855,
              25.147670812754807
            ],
            [
              86.37082898587035,
              25.145097983286753
            ],
            [
              86.37098772985914,
              25.14383871176109
            ],
            [
              86.36915797571143,
              25.142818515162787
            ],
            [
              86.36732830241212,
              25.14150046733566
            ],
            [
              86.36559775640775,
              25.140128187152563
            ],
            [
              86.36241955466177,
              25.13775828887025
            ],
            [
              86.36110570208339,
              25.136647830143488
            ],
            [
              86.35999009870508,
              25.136124119627222
            ],
            [
              86.35644016690804,
              25.134101521348637
            ],
            [
              86.35459581334034,
              25.133230178352246
            ],
            [
              86.3536041810645,
              25.132742540343106
            ],
            [
              86.34848772844744,
              25.13009666576494
            ],
            [
              86.34470025603811,
              25.12787524834984
            ],
            [
              86.34261327559699,
              25.12649805719139
            ],
            [
              86.33995143356117,
              25.124303813393684
            ],
            [
              86.33651645108617,
              25.121233711214295
            ],
            [
              86.33404804058551,
              25.119535824619263
            ],
            [
              86.32965152209168,
              25.116609706894227
            ],
            [
              86.32704942520876,
              25.11494334068698
            ],
            [
              86.32316869419822,
              25.112396310264984
            ],
            [
              86.32220220307225,
              25.111899458608377
            ],
            [
              86.32124076407142,
              25.111082131373298
            ],
            [
              86.3205372673213,
              25.11005719307247
            ],
            [
              86.31992795174214,
              25.10914971869573
            ],
            [
              86.31861526607538,
              25.10698719667983
            ],
            [
              86.31761962641505,
              25.105230964250822
            ],
            [
              86.31710466628012,
              25.104003057115072
            ],
            [
              86.31650096427319,
              25.101863285615615
            ],
            [
              86.31496063473362,
              25.099091296334468
            ],
            [
              86.31390090566768,
              25.09689720891669
            ],
            [
              86.31454552324082,
              25.096576986138505
            ],
            [
              86.3152839635572,
              25.096753331996805
            ],
            [
              86.31605243724846,
              25.096487313815746
            ],
            [
              86.31634005893784,
              25.096108273048564
            ],
            [
              86.31650387211977,
              25.095611805085458
            ],
            [
              86.31563688288622,
              25.094762909317048
            ],
            [
              86.31573113322753,
              25.094559794076147
            ],
            [
              86.31733710805483,
              25.09464621128366
            ],
            [
              86.31820477102482,
              25.094122996811183
            ],
            [
              86.31845779859256,
              25.093685184330496
            ],
            [
              86.3189389263773,
              25.092922595181395
            ],
            [
              86.31868661386848,
              25.0918708197544
            ],
            [
              86.31855826976721,
              25.090728767294074
            ],
            [
              86.31827398531915,
              25.089435640648734
            ],
            [
              86.31823674296409,
              25.08926623365293
            ],
            [
              86.318494905302,
              25.088508038676885
            ],
            [
              86.31942708797065,
              25.08765973959636
            ],
            [
              86.32000234212916,
              25.086870125849043
            ],
            [
              86.3202604945856,
              25.085931316082004
            ],
            [
              86.32054828156497,
              25.085317561304247
            ],
            [
              86.3202610524394,
              25.084735217704477
            ],
            [
              86.31949292280288,
              25.084649157985233
            ],
            [
              86.31907169557964,
              25.08432402161
            ],
            [
              86.3189561129453,
              25.08419219872129
            ],
            [
              86.31804630012385,
              25.08315454880471
            ],
            [
              86.31714975721579,
              25.081926511210735
            ],
            [
              86.31650581068418,
              25.081194959661314
            ],
            [
              86.31484129624307,
              25.07961451923708
            ],
            [
              86.31342915719284,
              25.07885565587997
            ],
            [
              86.31031704629896,
              25.078123115317613
            ],
            [
              86.3072346364033,
              25.077652264100944
            ],
            [
              86.30402456961758,
              25.077517456120958
            ],
            [
              86.30299731105589,
              25.077474300872737
            ],
            [
              86.30074444501946,
              25.07731933728084
            ],
            [
              86.29870058191536,
              25.077178718745415
            ],
            [
              86.29680747677716,
              25.07697461178525
            ],
            [
              86.29273289831147,
              25.07802410768649
            ],
            [
              86.28990695383618,
              25.079277330294662
            ],
            [
              86.28644131096223,
              25.081089844288307
            ],
            [
              86.28592499976111,
              25.08135483906266
            ],
            [
              86.28514766508786,
              25.082628422133133
            ],
            [
              86.28396549025882,
              25.08350326385925
            ],
            [
              86.28275318683343,
              25.084337579281694
            ],
            [
              86.28122430362721,
              25.085250901915064
            ],
            [
              86.27923931341188,
              25.086749498046043
            ],
            [
              86.27757869316754,
              25.08791184708254
            ],
            [
              86.275072037792,
              25.089274183738212
            ],
            [
              86.27375677036706,
              25.089666911775186
            ],
            [
              86.2719523343373,
              25.090830238646383
            ],
            [
              86.26900583056099,
              25.092362437132948
            ],
            [
              86.26714173561659,
              25.092925794808053
            ],
            [
              86.26592066912562,
              25.093918068783907
            ],
            [
              86.2632725910766,
              25.096197295653408
            ],
            [
              86.26183377475739,
              25.097240644213837
            ],
            [
              86.26071925384899,
              25.097347506950722
            ],
            [
              86.25885647763144,
              25.09686832128225
            ],
            [
              86.25675555623542,
              25.097582109871087
            ],
            [
              86.25462019612638,
              25.098932478122492
            ],
            [
              86.25291110368764,
              25.09967072114859
            ],
            [
              86.25148758118614,
              25.100181329720296
            ],
            [
              86.25052853260229,
              25.099285152218133
            ],
            [
              86.24986257105799,
              25.098472672082373
            ],
            [
              86.25022248826309,
              25.097617252355047
            ],
            [
              86.25020962708315,
              25.09603323384907
            ],
            [
              86.25000001329647,
              25.09508684893079
            ],
            [
              86.24984428585036,
              25.0943837607031
            ],
            [
              86.24960115142883,
              25.092525992959192
            ],
            [
              86.24765455970032,
              25.091574341698763
            ],
            [
              86.24714049698235,
              25.091662467011957
            ],
            [
              86.24659375265603,
              25.09147650180585
            ],
            [
              86.24544977598947,
              25.09099225810485
            ],
            [
              86.24212073992078,
              25.09061291231721
            ],
            [
              86.23947265199027,
              25.09046806476423
            ],
            [
              86.23823935942829,
              25.09058462685223
            ],
            [
              86.23739873035844,
              25.09083396387926
            ],
            [
              86.23676607744657,
              25.09105933497
            ],
            [
              86.23563155914167,
              25.091752836821716
            ],
            [
              86.23421813370395,
              25.09228121925849
            ],
            [
              86.23266138924917,
              25.092869265617583
            ],
            [
              86.2318654917889,
              25.093131786156558
            ],
            [
              86.23075994594853,
              25.093739405165273
            ],
            [
              86.22988956108323,
              25.093993398896107
            ],
            [
              86.22880715584455,
              25.094384095061336
            ],
            [
              86.22757900613756,
              25.095159531947747
            ],
            [
              86.22634698020013,
              25.0954429028858
            ],
            [
              86.2248470856281,
              25.09569650910097
            ],
            [
              86.22394369486263,
              25.09553993178558
            ],
            [
              86.2222392161712,
              25.095014043842735
            ],
            [
              86.22009925129797,
              25.09456314985631
            ],
            [
              86.2185006570291,
              25.094244146136617
            ],
            [
              86.21760090533881,
              25.09455241461359
            ],
            [
              86.21591631355113,
              25.094644650948666
            ],
            [
              86.21480171179435,
              25.09473312711871
            ],
            [
              86.21420540382056,
              25.09517927522622
            ],
            [
              86.21372711920374,
              25.095507346399717
            ],
            [
              86.21248113973499,
              25.09591260613038
            ],
            [
              86.21058701141571,
              25.09647555697367
            ],
            [
              86.20959739316272,
              25.096698565006726
            ],
            [
              86.20810035343668,
              25.097340072338028
            ],
            [
              86.20734864500356,
              25.0975616218121
            ],
            [
              86.20665432993397,
              25.097511911104153
            ],
            [
              86.20590173666028,
              25.097629555760797
            ],
            [
              86.2047365480749,
              25.09823734767022
            ],
            [
              86.20413671870519,
              25.09887312481668
            ],
            [
              86.2028250032189,
              25.1003889122282
            ],
            [
              86.20224778893648,
              25.101390117031155
            ],
            [
              86.20135516986956,
              25.102627956826
            ],
            [
              86.20096843974984,
              25.10326226725038
            ],
            [
              86.2006154009449,
              25.104415442238462
            ],
            [
              86.1989674146067,
              25.107341580170036
            ],
            [
              86.19748607833014,
              25.110036476092223
            ],
            [
              86.19625784058826,
              25.112770412821387
            ],
            [
              86.1958139371923,
              25.11370745895985
            ],
            [
              86.19548849463283,
              25.11458511888658
            ],
            [
              86.19516265771298,
              25.1154086182446
            ],
            [
              86.1944560491987,
              25.117001790811553
            ],
            [
              86.19378618088125,
              25.11822465873646
            ],
            [
              86.19293156144917,
              25.120559007127728
            ],
            [
              86.19260590059912,
              25.121414092298572
            ],
            [
              86.19237215357228,
              25.12196162762107
            ],
            [
              86.19165611274751,
              25.12298169427094
            ],
            [
              86.1911380031192,
              25.123955320394348
            ],
            [
              86.19057806164305,
              25.125299348715565
            ],
            [
              86.19022272943916,
              25.126154601600703
            ],
            [
              86.190284850636,
              25.126506291141276
            ],
            [
              86.19032489124315,
              25.12785099897068
            ],
            [
              86.19038967774142,
              25.128536578854447
            ],
            [
              86.19032857523412,
              25.130274612614937
            ],
            [
              86.19031998195013,
              25.13304128111032
            ],
            [
              86.19014975389871,
              25.134766446885216
            ],
            [
              86.19007207118621,
              25.136274429330197
            ],
            [
              86.18777447533685,
              25.144485066306174
            ],
            [
              86.18694840436449,
              25.146047385752837
            ],
            [
              86.18691901867494,
              25.14674713795572
            ],
            [
              86.18634330907058,
              25.14929626081636
            ],
            [
              86.18546796280998,
              25.15155846934952
            ],
            [
              86.18472021774389,
              25.154302781669113
            ],
            [
              86.18352295031974,
              25.159243326116712
            ],
            [
              86.18280348062552,
              25.16115698861287
            ],
            [
              86.18179887308375,
              25.164715323656512
            ],
            [
              86.18082655009492,
              25.1646852528002
            ],
            [
              86.17907378516036,
              25.165070916966457
            ],
            [
              86.17894243080454,
              25.1641104008355
            ],
            [
              86.17915685776454,
              25.16295364680337
            ],
            [
              86.1791479033578,
              25.161762232611718
            ],
            [
              86.17889389033817,
              25.16031949476676
            ],
            [
              86.17862185441898,
              25.158448214024048
            ],
            [
              86.17812736060117,
              25.157327507330592
            ],
            [
              86.17789336923259,
              25.15590276085146
            ],
            [
              86.17798734379107,
              25.15389376621485
            ],
            [
              86.17786282561462,
              25.151854522180212
            ],
            [
              86.1772338611853,
              25.1500034754039
            ],
            [
              86.17591238909671,
              25.148382495341064
            ],
            [
              86.17477945272498,
              25.146755729150495
            ],
            [
              86.17346311630489,
              25.145811630070664
            ],
            [
              86.17252341563562,
              25.14482908999505
            ],
            [
              86.1711431092858,
              25.142608124357743
            ],
            [
              86.17023922175197,
              25.141765202706615
            ],
            [
              86.16903467797401,
              25.141158892607052
            ],
            [
              86.16823601010942,
              25.14509942506569
            ],
            [
              86.16818780920623,
              25.146607122131442
            ],
            [
              86.16783703864735,
              25.14811674729284
            ],
            [
              86.16753926958853,
              25.150736334226867
            ],
            [
              86.16763877327762,
              25.15210776738974
            ],
            [
              86.16731783487101,
              25.153617209856755
            ],
            [
              86.16696521378263,
              25.154878594615372
            ],
            [
              86.16706127512755,
              25.155785156036124
            ],
            [
              86.16676651362832,
              25.156170606035694
            ],
            [
              86.16595450218847,
              25.156338133078318
            ],
            [
              86.16395021795749,
              25.156255750249528
            ],
            [
              86.16208559480371,
              25.156267284239195
            ],
            [
              86.1597335709296,
              25.15608767261635
            ],
            [
              86.15850175070634,
              25.156505898132156
            ],
            [
              86.15838564704914,
              25.157576246347567
            ],
            [
              86.15820377772998,
              25.158461991954308
            ],
            [
              86.15753155492814,
              25.158772984103873
            ],
            [
              86.15633468186438,
              25.158541168879903
            ],
            [
              86.15442225665939,
              25.15881009293983
            ],
            [
              86.1521343221909,
              25.159261796309565
            ],
            [
              86.149155016432,
              25.159446942844763
            ],
            [
              86.14678049694656,
              25.15959676361831
            ],
            [
              86.14566229025056,
              25.159274029273853
            ],
            [
              86.14481898060791,
              25.15925206116206
            ],
            [
              86.14424608542535,
              25.15889899668502
            ],
            [
              86.1440002937872,
              25.158516815823553
            ],
            [
              86.14333991706901,
              25.15841248571735
            ],
            [
              86.14282371636067,
              25.158361393106706
            ],
            [
              86.14257328312745,
              25.158705968797587
            ],
            [
              86.14157943380947,
              25.158436589173665
            ],
            [
              86.14067467311321,
              25.158139712382475
            ],
            [
              86.13907240832806,
              25.157409099098484
            ],
            [
              86.13677259363993,
              25.15621782833768
            ],
            [
              86.13678005594498,
              25.155874792975492
            ],
            [
              86.13656937406142,
              25.15554658220247
            ],
            [
              86.13623647997669,
              25.155467282178886
            ],
            [
              86.1347125896068,
              25.155268818857508
            ],
            [
              86.13269323883186,
              25.15514544597704
            ],
            [
              86.13100015077819,
              25.154880220857216
            ],
            [
              86.129126856187,
              25.155067402775803
            ],
            [
              86.12789008265328,
              25.15479936083363
            ],
            [
              86.12617524458996,
              25.15494494282596
            ],
            [
              86.12579457989506,
              25.156513306377928
            ],
            [
              86.12545519727904,
              25.157598540002265
            ],
            [
              86.125549779997,
              25.15834264632424
            ],
            [
              86.1255513259976,
              25.158559284669042
            ],
            [
              86.12618708977533,
              25.158695438398322
            ],
            [
              86.12745052440833,
              25.158521025225024
            ],
            [
              86.12760131830687,
              25.158795415765994
            ],
            [
              86.12763878613907,
              25.159178869057108
            ],
            [
              86.12826976189632,
              25.159337591882817
            ],
            [
              86.12923621439472,
              25.15925056995171
            ],
            [
              86.13080473576288,
              25.15943534329536
            ],
            [
              86.13306394031196,
              25.159805551809853
            ],
            [
              86.1326629790815,
              25.160588740139364
            ],
            [
              86.13227135673677,
              25.163380262368644
            ],
            [
              86.13169013956141,
              25.165319958909024
            ],
            [
              86.13139542836787,
              25.166409420062113
            ],
            [
              86.13130471918541,
              25.16758799573094
            ],
            [
              86.13128280658069,
              25.169370823947318
            ],
            [
              86.13122900378336,
              25.170165490030417
            ],
            [
              86.13067839131143,
              25.170841272009337
            ],
            [
              86.13071182031808,
              25.171360134331355
            ],
            [
              86.1308681424489,
              25.171715748914398
            ],
            [
              86.13108022570431,
              25.172238034331766
            ],
            [
              86.1313605593618,
              25.17327890662889
            ],
            [
              86.13157475186148,
              25.174099068711424
            ],
            [
              86.13137686288587,
              25.175553588689926
            ],
            [
              86.13138846193284,
              25.177169242043206
            ],
            [
              86.131483928593,
              25.178021746220836
            ],
            [
              86.13134175672458,
              25.178952304920347
            ],
            [
              86.13113437974289,
              25.179774979881657
            ],
            [
              86.13089788117638,
              25.179997547228524
            ],
            [
              86.13059634458328,
              25.18013470215374
            ],
            [
              86.13035248701793,
              25.180027814294643
            ],
            [
              86.13034972559676,
              25.179644189182767
            ],
            [
              86.1303160037393,
              25.179093830679157
            ],
            [
              86.13031324231811,
              25.178710205066242
            ],
            [
              86.12920282401561,
              25.17880256320937
            ],
            [
              86.12830124155882,
              25.178970390036568
            ],
            [
              86.12718429609747,
              25.178841595106846
            ],
            [
              86.1267463278706,
              25.1786410406754
            ],
            [
              86.1266176648674,
              25.17729684529806
            ],
            [
              86.12660172695762,
              25.177143521222373
            ],
            [
              86.12633561812271,
              25.176007734832424
            ],
            [
              86.1261373788041,
              25.175336378113
            ],
            [
              86.12597914056683,
              25.1747054492591
            ],
            [
              86.1257105038727,
              25.174598798096532
            ],
            [
              86.12540796925131,
              25.174600547649835
            ],
            [
              86.12501964462196,
              25.175099343297052
            ],
            [
              86.1247219429368,
              25.175782592803888
            ],
            [
              86.12457763667125,
              25.1764152721136
            ],
            [
              86.12455025961465,
              25.176744902274827
            ],
            [
              86.12470335679357,
              25.1773488567623
            ],
            [
              86.1248933540694,
              25.178250321329863
            ],
            [
              86.12527319411092,
              25.178649793029347
            ],
            [
              86.1255752526252,
              25.179275396913738
            ],
            [
              86.12587999979712,
              25.179575939897774
            ],
            [
              86.12627677487833,
              25.180259614685543
            ],
            [
              86.12687884823961,
              25.180880127758243
            ],
            [
              86.12691594237265,
              25.180860630022373
            ],
            [
              86.127760578827,
              25.181045172260568
            ],
            [
              86.12769977635698,
              25.18225507528545
            ],
            [
              86.12761022240797,
              25.18291460879043
            ],
            [
              86.12773834103211,
              25.18348702515974
            ],
            [
              86.12783240362552,
              25.1841454586116
            ],
            [
              86.12801527995613,
              25.184749151244613
            ],
            [
              86.12817317683361,
              25.18532591460986
            ],
            [
              86.12754040893734,
              25.185632068862308
            ],
            [
              86.12654967587514,
              25.185827461161683
            ],
            [
              86.12498442078136,
              25.18613910131318
            ],
            [
              86.12245477212778,
              25.186867179320117
            ],
            [
              86.12165916033179,
              25.187296114147586
            ],
            [
              86.12036829833649,
              25.18784984816435
            ],
            [
              86.11979501598005,
              25.188155549792903
            ],
            [
              86.11950168909033,
              25.188762048992068
            ],
            [
              86.11914424135394,
              25.1894231356627
            ],
            [
              86.1187872436735,
              25.19013828866902
            ],
            [
              86.1185787698489,
              25.1908255459001
            ],
            [
              86.11846617770613,
              25.191728933200384
            ],
            [
              86.11822676141153,
              25.192253878729506
            ],
            [
              86.11773431485426,
              25.192762201279614
            ],
            [
              86.11722582708096,
              25.193112777858758
            ],
            [
              86.11644489824829,
              25.193528019962592
            ],
            [
              86.11518192534929,
              25.19381074807646
            ],
            [
              86.11364637125378,
              25.194144679162335
            ],
            [
              86.11241964357986,
              25.194648267065404
            ],
            [
              86.11118864801007,
              25.195255753252642
            ],
            [
              86.11071027086675,
              25.195669243676452
            ],
            [
              86.10975971226067,
              25.196649650089608
            ],
            [
              86.10964353943316,
              25.19706099801256
            ],
            [
              86.10980101320415,
              25.197583617794916
            ],
            [
              86.11022120287325,
              25.19807310914952
            ],
            [
              86.11116378713456,
              25.198780778865924
            ],
            [
              86.11200906588432,
              25.199051157708094
            ],
            [
              86.11318220276333,
              25.199373812746398
            ],
            [
              86.11483057537707,
              25.199562794214817
            ],
            [
              86.11568063585906,
              25.19980154932494
            ],
            [
              86.11610446370504,
              25.200101458067454
            ],
            [
              86.11631671404713,
              25.200650835698728
            ],
            [
              86.11695947031102,
              25.201743731304873
            ],
            [
              86.1178428978159,
              25.203191857776535
            ],
            [
              86.11844185671815,
              25.204393441369266
            ],
            [
              86.11892049886444,
              25.204034092279755
            ],
            [
              86.1196429500671,
              25.20375447002068
            ],
            [
              86.12105347394642,
              25.203281334684366
            ],
            [
              86.1232343220465,
              25.202984089192523
            ],
            [
              86.12552102582308,
              25.202916452017657
            ],
            [
              86.12700022860082,
              25.203015999718257
            ],
            [
              86.12787257718334,
              25.202902506798665
            ],
            [
              86.12877878596386,
              25.202666974027576
            ],
            [
              86.12994426021346,
              25.201919877309056
            ],
            [
              86.13094163901219,
              25.20194550917997
            ],
            [
              86.13163078697228,
              25.20188273689329
            ],
            [
              86.13256275494358,
              25.201768881217617
            ],
            [
              86.13388493131136,
              25.20143152065856
            ],
            [
              86.13452006986162,
              25.201454810113155
            ],
            [
              86.13527658967139,
              25.20177971594994
            ],
            [
              86.13560575305277,
              25.20202602012341
            ],
            [
              86.13591335596897,
              25.202710160637434
            ],
            [
              86.13631423814769,
              25.203939896845238
            ],
            [
              86.13629021540034,
              25.20473438380694
            ],
            [
              86.136441815986,
              25.205117078916597
            ],
            [
              86.13692347557337,
              25.205168371379788
            ],
            [
              86.1373169556341,
              25.205387152710838
            ],
            [
              86.13853929593617,
              25.205637094914614
            ],
            [
              86.13977639286338,
              25.205877874128408
            ],
            [
              86.14025685319983,
              25.205766680797353
            ],
            [
              86.14079841155201,
              25.205871692930828
            ],
            [
              86.14136992422735,
              25.2060037079629
            ],
            [
              86.14197476889132,
              25.20594589410297
            ],
            [
              86.14218219887354,
              25.20580922989989
            ],
            [
              86.14302058215519,
              25.205118132287023
            ],
            [
              86.1434107034151,
              25.20486752497029
            ],
            [
              86.14380260244093,
              25.20486523616075
            ],
            [
              86.14434399011321,
              25.204947669852793
            ],
            [
              86.14515885999229,
              25.205105204115373
            ],
            [
              86.1461530776195,
              25.20537455374531
            ],
            [
              86.14663566516656,
              25.20556112087487
            ],
            [
              86.14715402722146,
              25.20588750639244
            ],
            [
              86.14733271470789,
              25.20588639694682
            ],
            [
              86.14751027211368,
              25.205749899297174
            ],
            [
              86.14776488700456,
              25.205292482844285
            ],
            [
              86.14775889164835,
              25.204471175015623
            ],
            [
              86.14772349982279,
              25.203704102735543
            ],
            [
              86.14743604162682,
              25.201706476229393
            ],
            [
              86.14733605464411,
              25.200253737228408
            ],
            [
              86.14760381458252,
              25.19956610971935
            ],
            [
              86.14813324567838,
              25.200041306986424
            ],
            [
              86.14861949475853,
              25.200724410934168
            ],
            [
              86.14880904287675,
              25.201544693076812
            ],
            [
              86.14914254871415,
              25.202364046347398
            ],
            [
              86.14938966896062,
              25.2029131959388
            ],
            [
              86.14996455301322,
              25.203509946117318
            ],
            [
              86.15072291616596,
              25.20408300290383
            ],
            [
              86.15155892609859,
              25.205102483720975
            ],
            [
              86.1516531234393,
              25.205760806825523
            ],
            [
              86.15171529224686,
              25.206117007800994
            ],
            [
              86.15150979543908,
              25.20718792493742
            ],
            [
              86.15136463936729,
              25.207680705966197
            ],
            [
              86.15103828591613,
              25.20850416628113
            ],
            [
              86.15065239302626,
              25.20932787135426
            ],
            [
              86.15068781719117,
              25.210099453920115
            ],
            [
              86.15091868601584,
              25.21046359983526
            ],
            [
              86.15131333837802,
              25.210817735672826
            ],
            [
              86.15183229332102,
              25.21122534098645
            ],
            [
              86.15246601073652,
              25.211713422650508
            ],
            [
              86.15300780624395,
              25.21184998432077
            ],
            [
              86.15388329803164,
              25.2121425259735
            ],
            [
              86.15443165483389,
              25.212495702772774
            ],
            [
              86.1549133647269,
              25.212551451609887
            ],
            [
              86.15635957238429,
              25.212867534858617
            ],
            [
              86.15774504314867,
              25.213026078037714
            ],
            [
              86.15897740595435,
              25.21260777990208
            ],
            [
              86.15945700570474,
              25.212383700312067
            ],
            [
              86.159572841664,
              25.211945145671184
            ],
            [
              86.1594751867078,
              25.210821974152218
            ],
            [
              86.1594946828444,
              25.209449803640204
            ],
            [
              86.1598098495753,
              25.209131934010717
            ],
            [
              86.16001707923326,
              25.208968166213243
            ],
            [
              86.16019653477925,
              25.208416427650214
            ],
            [
              86.16076095256045,
              25.207591579344538
            ],
            [
              86.16090740040967,
              25.20726116461134
            ],
            [
              86.1607573458246,
              25.20709964080012
            ],
            [
              86.16054193161611,
              25.206825644292316
            ],
            [
              86.1605003854325,
              25.205237268745815
            ],
            [
              86.16030772914344,
              25.20334736719401
            ],
            [
              86.16023811599713,
              25.202002877083284
            ],
            [
              86.16111128024991,
              25.20199741827405
            ],
            [
              86.16075015301412,
              25.200135686695912
            ],
            [
              86.16035294404665,
              25.199425028785363
            ],
            [
              86.16019365388212,
              25.19868582668764
            ],
            [
              86.15955606472777,
              25.19767424410941
            ],
            [
              86.15897427981714,
              25.1968248052942
            ],
            [
              86.1594959647403,
              25.196262023658537
            ],
            [
              86.15995088687153,
              25.19606508661868
            ],
            [
              86.16066920133227,
              25.19592528917842
            ],
            [
              86.16103035102597,
              25.195783122938277
            ],
            [
              86.16196387487932,
              25.195231300234354
            ],
            [
              86.16286303008823,
              25.194729302248213
            ],
            [
              86.16364389783547,
              25.19434081782992
            ],
            [
              86.16409415411715,
              25.194175563738185
            ],
            [
              86.165090795399,
              25.19411522602381
            ],
            [
              86.16551108478106,
              25.1939186382939
            ],
            [
              86.16584179056979,
              25.193695398128643
            ],
            [
              86.16610974364598,
              25.193039327270146
            ],
            [
              86.16619174994997,
              25.192077500893248
            ],
            [
              86.16642496068253,
              25.191417099251716
            ],
            [
              86.16671174873534,
              25.191293453242164
            ],
            [
              86.16707470134777,
              25.191399501270684
            ],
            [
              86.16831651712516,
              25.192271899280286
            ],
            [
              86.16971117675662,
              25.193689430908144
            ],
            [
              86.17053674557069,
              25.19461857588188
            ],
            [
              86.17162358669022,
              25.195324930158858
            ],
            [
              86.17329137099895,
              25.196108807171363
            ],
            [
              86.17428703221883,
              25.196572044755783
            ],
            [
              86.17584530560622,
              25.197293373185477
            ],
            [
              86.17611813204287,
              25.19729170117763
            ],
            [
              86.17632500956122,
              25.197096320764643
            ],
            [
              86.17644447471422,
              25.196490840914855
            ],
            [
              86.17680059024904,
              25.19569422902273
            ],
            [
              86.17666894034751,
              25.194679562005554
            ],
            [
              86.17665935891671,
              25.19341595859445
            ],
            [
              86.17670525025129,
              25.191605815063898
            ],
            [
              86.17684943344766,
              25.190341232753802
            ],
            [
              86.17742445763743,
              25.18832468307187
            ],
            [
              86.17739782528422,
              25.184808980644924
            ],
            [
              86.1775540171593,
              25.18381055061507
            ],
            [
              86.17788302962367,
              25.183366229366964
            ],
            [
              86.17781247594127,
              25.18191341224706
            ],
            [
              86.17789342582644,
              25.180816175595613
            ],
            [
              86.17806744117509,
              25.179551316263055
            ],
            [
              86.17840140066176,
              25.1778071407271
            ],
            [
              86.17851461893028,
              25.177039099739538
            ],
            [
              86.17880640700591,
              25.175611152757078
            ],
            [
              86.17907084677104,
              25.174512759391693
            ],
            [
              86.17919531015029,
              25.17326627100924
            ],
            [
              86.17910128887938,
              25.17263502981714
            ],
            [
              86.17940177534192,
              25.1723577753053
            ],
            [
              86.1801504726222,
              25.171667081391696
            ],
            [
              86.18038523025375,
              25.171227802075716
            ],
            [
              86.18082624466774,
              25.16922117372045
            ],
            [
              86.18115968762308,
              25.1674046762536
            ],
            [
              86.18188332819517,
              25.16733697623386
            ],
            [
              86.18456580812634,
              25.167238806748063
            ],
            [
              86.18770094284096,
              25.167300217159497
            ],
            [
              86.19017163685903,
              25.167392939244632
            ],
            [
              86.19037879644839,
              25.168533488948107
            ],
            [
              86.19026275387664,
              25.169576774216704
            ],
            [
              86.19029838734899,
              25.17034375732938
            ],
            [
              86.1902732444025,
              25.170948710204478
            ],
            [
              86.19217221104792,
              25.170855403826877
            ],
            [
              86.19452297099244,
              25.170813366908874
            ],
            [
              86.19738919233181,
              25.170736367887994
            ],
            [
              86.1986237883493,
              25.17067429090829
            ],
            [
              86.19989002482768,
              25.170860255083824
            ],
            [
              86.20382258324022,
              25.17076730880419
            ],
            [
              86.20350329683544,
              25.171807422926367
            ],
            [
              86.20450068641391,
              25.172496041259997
            ],
            [
              86.20488416463229,
              25.173342039992576
            ],
            [
              86.20503906562831,
              25.17412183738543
            ],
            [
              86.20475196226687,
              25.176100443791555
            ],
            [
              86.20453741493263,
              25.177221121860455
            ],
            [
              86.20462033122999,
              25.178308311742903
            ],
            [
              86.20457568226541,
              25.179585900237498
            ],
            [
              86.20676404567116,
              25.17968904401117
            ],
            [
              86.20930605065145,
              25.179979557380324
            ],
            [
              86.20918782337694,
              25.181361357621117
            ],
            [
              86.20889537324292,
              25.182654050161165
            ],
            [
              86.20898019127374,
              25.18398022239295
            ],
            [
              86.20898019935859,
              25.183980342706136
            ],
            [
              86.2089267981082,
              25.184134140245472
            ],
            [
              86.20919415739799,
              25.187242096614522
            ],
            [
              86.20899226103786,
              25.189964865052136
            ],
            [
              86.20947890268181,
              25.190029457844858
            ],
            [
              86.21205893334809,
              25.190084844668043
            ],
            [
              86.21318167384132,
              25.19028070617645
            ],
            [
              86.21363823000804,
              25.191568482102227
            ],
            [
              86.21281771331911,
              25.191948405235962
            ],
            [
              86.2123761464412,
              25.19256510088373
            ],
            [
              86.21170552533552,
              25.193079507251223
            ],
            [
              86.21136976742167,
              25.193284715954157
            ],
            [
              86.21006424042936,
              25.19318941727419
            ],
            [
              86.2086452930476,
              25.19316702201667
            ],
            [
              86.20688817218219,
              25.193043008742155
            ],
            [
              86.20606651822611,
              25.19328298780359
            ],
            [
              86.20528335887658,
              25.193360274964736
            ],
            [
              86.2047608501983,
              25.193801451381614
            ],
            [
              86.20451555443019,
              25.193514151703248
            ],
            [
              86.20420897469508,
              25.19236075423736
            ],
            [
              86.20367882494699,
              25.191818051112026
            ],
            [
              86.20311810732643,
              25.19179003701209
            ],
            [
              86.20281613415209,
              25.19124592262564
            ],
            [
              86.20236917378924,
              25.19118109962038
            ],
            [
              86.20150654677471,
              25.191254366806177
            ],
            [
              86.20104825326622,
              25.189727263655477
            ],
            [
              86.20012772893334,
              25.186808646705845
            ],
            [
              86.19968472744593,
              25.18533113760728
            ],
            [
              86.19945359271993,
              25.184312631805682
            ],
            [
              86.19796132304805,
              25.184425938818343
            ],
            [
              86.1966504968939,
              25.184262840159906
            ],
            [
              86.19642697538995,
              25.184228211176023
            ],
            [
              86.19638834693443,
              25.18371840762878
            ],
            [
              86.1948554437673,
              25.183701098751214
            ],
            [
              86.19449253876554,
              25.18489043696294
            ],
            [
              86.19314862226959,
              25.184935106953155
            ],
            [
              86.19303551718879,
              25.185071201964327
            ],
            [
              86.1928951464425,
              25.18615986309608
            ],
            [
              86.19259798284821,
              25.18622943211415
            ],
            [
              86.19181506873875,
              25.186338245197355
            ],
            [
              86.19158895559521,
              25.18661042868139
            ],
            [
              86.19178866096433,
              25.18807143259886
            ],
            [
              86.19156653634064,
              25.188208293921658
            ],
            [
              86.18947372044344,
              25.18828924966044
            ],
            [
              86.18768433029642,
              25.188472106080166
            ],
            [
              86.18600459030955,
              25.188721962695563
            ],
            [
              86.18561232207614,
              25.191274470098833
            ],
            [
              86.18533155093915,
              25.193487698691236
            ],
            [
              86.1851943988565,
              25.19566395203016
            ],
            [
              86.18480891380177,
              25.196501377803344
            ],
            [
              86.18428590386357,
              25.196879297340907
            ],
            [
              86.18385370371915,
              25.19875048475853
            ],
            [
              86.1834224737552,
              25.200761675251112
            ],
            [
              86.18342504024197,
              25.20110016503736
            ],
            [
              86.18248792133083,
              25.20117371805531
            ],
            [
              86.18208553627068,
              25.20175392717214
            ],
            [
              86.18193411175481,
              25.202061803921904
            ],
            [
              86.18229528660132,
              25.20258755835324
            ],
            [
              86.18484518777296,
              25.203862341674363
            ],
            [
              86.18679381777885,
              25.205005324067884
            ],
            [
              86.18738945021957,
              25.2043923180926
            ],
            [
              86.18823753530626,
              25.20306006321499
            ],
            [
              86.18887000316518,
              25.202713042020054
            ],
            [
              86.18913238039842,
              25.202643676676878
            ],
            [
              86.18939607096861,
              25.202576431083823
            ],
            [
              86.19033920230395,
              25.204098298848894
            ],
            [
              86.19166177662538,
              25.205759728264454
            ],
            [
              86.19294392226746,
              25.20731321692484
            ],
            [
              86.1932789022403,
              25.207654069095
            ],
            [
              86.19391948368288,
              25.207717618663395
            ],
            [
              86.19577067612484,
              25.207791586258683
            ],
            [
              86.19697317174396,
              25.208668467874876
            ],
            [
              86.19802577896631,
              25.209410931910877
            ],
            [
              86.19990466197692,
              25.21113201425285
            ],
            [
              86.20080955921715,
              25.21201074516699
            ],
            [
              86.20118958790479,
              25.213028339060884
            ],
            [
              86.20025714202978,
              25.213070390670616
            ],
            [
              86.1989575052908,
              25.21375577435097
            ],
            [
              86.19735447603934,
              25.214343744339143
            ],
            [
              86.1966673376105,
              25.21467308411781
            ],
            [
              86.19638715576833,
              25.215013401223512
            ],
            [
              86.19539610560082,
              25.215182150978123
            ],
            [
              86.19457140366097,
              25.215697476866307
            ],
            [
              86.19289680203755,
              25.217296754047382
            ],
            [
              86.19161047204288,
              25.2184287510177
            ],
            [
              86.18999309220473,
              25.21975695138669
            ],
            [
              86.18921915136666,
              25.22041624520476
            ],
            [
              86.18845529411765,
              25.22109365088092
            ],
            [
              86.18797610040575,
              25.221371977714266
            ],
            [
              86.18677155483115,
              25.221542109138145
            ],
            [
              86.18487875422187,
              25.22188355127444
            ],
            [
              86.18331145186755,
              25.221979150122348
            ],
            [
              86.18204569868277,
              25.221928450682345
            ],
            [
              86.18114351704966,
              25.222047030256668
            ],
            [
              86.1812419544385,
              25.22259248603285
            ],
            [
              86.18148320868616,
              25.223001686985548
            ],
            [
              86.18272668814349,
              25.224036428712015
            ],
            [
              86.1840916036575,
              25.2253727406779
            ],
            [
              86.18475937081556,
              25.22575218367598
            ],
            [
              86.18671247982145,
              25.227427698672436
            ],
            [
              86.18747084297418,
              25.22796907202776
            ],
            [
              86.1889873060733,
              25.229001973149654
            ],
            [
              86.18964897906044,
              25.229218932790996
            ],
            [
              86.19037435787259,
              25.229322599293933
            ],
            [
              86.19109856797654,
              25.22929096627079
            ],
            [
              86.1917617061159,
              25.22969737527131
            ],
            [
              86.19294155430839,
              25.230181785363854
            ],
            [
              86.19345516966534,
              25.230508025200475
            ],
            [
              86.19345724028206,
              25.230783326254148
            ],
            [
              86.19326536283234,
              25.230992128146255
            ],
            [
              86.1926893127665,
              25.23094165024388
            ],
            [
              86.19193464168956,
              25.230892327044536
            ],
            [
              86.19157817491347,
              25.231002864388202
            ],
            [
              86.1914283844331,
              25.231522862389948
            ],
            [
              86.19152776684962,
              25.23218113599123
            ],
            [
              86.19177311112675,
              25.23311383882339
            ],
            [
              86.19213954021934,
              25.233657597019658
            ],
            [
              86.19202133899597,
              25.23376671062166
            ],
            [
              86.19165953263379,
              25.233827708818808
            ],
            [
              86.19108306485136,
              25.233718553829224
            ],
            [
              86.19024402310465,
              25.233669647805062
            ],
            [
              86.18948884717453,
              25.233566158903923
            ],
            [
              86.18927617103101,
              25.233648735669266
            ],
            [
              86.18924826576502,
              25.233897135205897
            ],
            [
              86.18949354356684,
              25.234166398342396
            ],
            [
              86.19098056797577,
              25.23588555322488
            ],
            [
              86.19272609698076,
              25.23764355301554
            ],
            [
              86.19342806839154,
              25.238573370783186
            ],
            [
              86.19403279896945,
              25.239115607013204
            ],
            [
              86.19437135872869,
              25.239907758119607
            ],
            [
              86.19455639281259,
              25.2407279775957
            ],
            [
              86.19453086628546,
              25.241278752991104
            ],
            [
              86.19469851796863,
              25.241787707673012
            ],
            [
              86.19635863874964,
              25.242106479197435
            ],
            [
              86.19696510217774,
              25.24223800069726
            ],
            [
              86.1993449513678,
              25.242579339216277
            ],
            [
              86.2008579047491,
              25.24311567565529
            ],
            [
              86.2010387302259,
              25.24338980492678
            ],
            [
              86.20092509334243,
              25.244103682824246
            ],
            [
              86.20080857735852,
              25.24506569517165
            ],
            [
              86.20072876743542,
              25.246298302808945
            ],
            [
              86.20061562013382,
              25.247066334185487
            ],
            [
              86.20061289105196,
              25.248618867900927
            ],
            [
              86.20049794801812,
              25.249165760383733
            ],
            [
              86.20035095309491,
              25.24951030908625
            ],
            [
              86.20064526094494,
              25.249491972017097
            ],
            [
              86.20164022686876,
              25.249926224010697
            ],
            [
              86.20197192799081,
              25.250000767175212
            ],
            [
              86.20264291830406,
              25.25015143690006
            ],
            [
              86.20376970570769,
              25.25042616534783
            ],
            [
              86.20450308132247,
              25.250596093617396
            ],
            [
              86.20531346681162,
              25.250788104061808
            ],
            [
              86.20602332902386,
              25.25098634266907
            ],
            [
              86.20705575918663,
              25.251130143292446
            ],
            [
              86.20814279793554,
              25.251305563735443
            ],
            [
              86.20901645895668,
              25.251526249390704
            ],
            [
              86.20993971776132,
              25.25172434786029
            ],
            [
              86.21052545795413,
              25.251809746196514
            ],
            [
              86.21111119814691,
              25.251895142035316
            ],
            [
              86.21208407090465,
              25.25208419140365
            ],
            [
              86.21303715108176,
              25.2522325836258
            ],
            [
              86.2141539608975,
              25.252475664128347
            ],
            [
              86.21554391515346,
              25.25279974633439
            ],
            [
              86.21635815980508,
              25.25316934195587
            ],
            [
              86.2165620180858,
              25.253399084814475
            ],
            [
              86.21656406444798,
              25.253401389772403
            ],
            [
              86.21703869022669,
              25.253936277759326
            ],
            [
              86.21742114256901,
              25.254283621595818
            ],
            [
              86.21842924904882,
              25.255023209722403
            ],
            [
              86.21889118432749,
              25.255442670799553
            ],
            [
              86.21989931326519,
              25.25625900835342
            ],
            [
              86.22036128357814,
              25.256705554386784
            ],
            [
              86.22082317843262,
              25.257102433618165
            ],
            [
              86.22150370795589,
              25.257783562166995
            ],
            [
              86.22212960014694,
              25.25850079205901
            ],
            [
              86.22237319540423,
              25.25892044666901
            ],
            [
              86.22283522141274,
              25.259439139075873
            ],
            [
              86.2234361763715,
              25.259957837391337
            ],
            [
              86.22406208742717,
              25.2605035747481
            ],
            [
              86.22479717792586,
              25.26112140306874
            ],
            [
              86.22566644079538,
              25.261910693195635
            ],
            [
              86.22583025936724,
              25.262009891202354
            ],
            [
              86.22591466776628,
              25.262009882265897
            ],
            [
              86.22599397463283,
              25.26193760496061
            ],
            [
              86.22599381563101,
              25.261711937854937
            ],
            [
              86.22604806578931,
              25.261292136096934
            ],
            [
              86.22610231504933,
              25.260872332887548
            ],
            [
              86.22623586488768,
              25.260326070742046
            ],
            [
              86.22634449905331,
              25.25955870814635
            ],
            [
              86.22647781892294,
              25.25871905173122
            ],
            [
              86.22658660580214,
              25.258272083325682
            ],
            [
              86.22672554463388,
              25.258222421060946
            ],
            [
              86.22702351042376,
              25.258447841173734
            ],
            [
              86.22764932086811,
              25.258916806187123
            ],
            [
              86.22808632610099,
              25.259187380381334
            ],
            [
              86.22835695525843,
              25.259347410826802
            ],
            [
              86.22862758531419,
              25.259507441873776
            ],
            [
              86.2293625006414,
              25.259904095844693
            ],
            [
              86.23004297177418,
              25.260400155820513
            ],
            [
              86.2306190272299,
              25.260747301626594
            ],
            [
              86.23132426311844,
              25.261238789972424
            ],
            [
              86.2320047216748,
              25.261707659716787
            ],
            [
              86.23266028881292,
              25.262203669267038
            ],
            [
              86.23284908234632,
              25.262375050695884
            ],
            [
              86.23347510658971,
              25.263069750033118
            ],
            [
              86.2342102617671,
              25.26371913818469
            ],
            [
              86.23480640714584,
              25.264287433339593
            ],
            [
              86.23554161801877,
              25.264882633696995
            ],
            [
              86.23616743744628,
              25.265328987165866
            ],
            [
              86.2369870297688,
              25.26594674137685
            ],
            [
              86.23769234111579,
              25.266514957052287
            ],
            [
              86.23870075931103,
              25.267304078074297
            ],
            [
              86.2392471362264,
              25.267673793649358
            ],
            [
              86.24014619801054,
              25.26834106572085
            ],
            [
              86.24096086666697,
              25.26895877210925
            ],
            [
              86.24172078480346,
              25.26945473659922
            ],
            [
              86.24254026842982,
              25.269923460883494
            ],
            [
              86.24340949087517,
              25.270491497911024
            ],
            [
              86.24450210726366,
              25.27108641033548
            ],
            [
              86.2452869419712,
              25.271604789191233
            ],
            [
              86.24627546068623,
              25.27225396921709
            ],
            [
              86.24770017255719,
              25.273209505266347
            ],
            [
              86.25000003934757,
              25.27423386362604
            ],
            [
              86.25201228804191,
              25.275081379137152
            ],
            [
              86.25279786924945,
              25.275412238268572
            ],
            [
              86.25673765910001,
              25.277166666970665
            ],
            [
              86.25857853439096,
              25.278043827132567
            ],
            [
              86.26013654726691,
              25.278843962616765
            ],
            [
              86.26146631529716,
              25.279567175670582
            ],
            [
              86.26277268221426,
              25.278692534885426
            ],
            [
              86.26356744959388,
              25.278228192696485
            ],
            [
              86.26385584922426,
              25.277704883039473
            ],
            [
              86.26507186538672,
              25.277940493818818
            ],
            [
              86.26763295507521,
              25.278407269122436
            ],
            [
              86.27083944476949,
              25.278905996595107
            ],
            [
              86.27372819405956,
              25.279345841602247
            ],
            [
              86.27437868212309,
              25.279419699003462
            ],
            [
              86.27576832376536,
              25.27957747060861
            ],
            [
              86.27840426198165,
              25.279728188108955
            ],
            [
              86.28231589683459,
              25.27999243695028
            ],
            [
              86.28298495217673,
              25.280110868071844
            ],
            [
              86.28577063236436,
              25.280603935065248
            ],
            [
              86.28981617997502,
              25.281161488395444
            ],
            [
              86.29098464381792,
              25.281504384297293
            ],
            [
              86.29260552708566,
              25.281980028082444
            ],
            [
              86.29339734888947,
              25.282159104656365
            ],
            [
              86.2952065379054,
              25.282568248765966
            ],
            [
              86.29705282015601,
              25.283174049674574
            ],
            [
              86.29901348579007,
              25.283703162896114
            ],
            [
              86.30047050826515,
              25.284126419646164
            ],
            [
              86.30061667134841,
              25.284168880399534
            ],
            [
              86.30270157398625,
              25.284463293229372
            ],
            [
              86.30708975611428,
              25.285309427937396
            ],
            [
              86.31167637339364,
              25.28636315636192
            ],
            [
              86.31252617066926,
              25.28660518002449
            ],
            [
              86.31312083023451,
              25.286774536195164
            ],
            [
              86.3153659429117,
              25.2875455011716
            ],
            [
              86.31536599321736,
              25.287545518228537
            ],
            [
              86.3153661073034,
              25.287545558028043
            ],
            [
              86.31677910963461,
              25.288030755956296
            ],
            [
              86.3186538603949,
              25.288434951656516
            ],
            [
              86.31865398885398,
              25.288434979272274
            ],
            [
              86.3209738108201,
              25.2889350958462
            ],
            [
              86.32231664574448,
              25.289275554221213
            ],
            [
              86.32231669515181,
              25.28927556640455
            ],
            [
              86.32594792088886,
              25.29019614784751
            ],
            [
              86.32859877113887,
              25.291068105797223
            ],
            [
              86.32914975641164,
              25.291237721328134
            ],
            [
              86.32914987768419,
              25.29123775787756
            ],
            [
              86.3309765757633,
              25.291800072210748
            ],
            [
              86.33242118711442,
              25.2920622666782
            ],
            [
              86.33320991332376,
              25.292267223023963
            ],
            [
              86.33591614381272,
              25.292970420637275
            ],
            [
              86.33713950100767,
              25.293397821353643
            ],
            [
              86.33758412305585,
              25.293553153625158
            ],
            [
              86.33872442201964,
              25.294054118946782
            ],
            [
              86.34049318684778,
              25.294831160710654
            ],
            [
              86.34305981824326,
              25.295739058398038
            ],
            [
              86.34598388300208,
              25.296759660254878
            ],
            [
              86.3469395386491,
              25.297184122176724
            ],
            [
              86.34789520238098,
              25.29760857936366
            ],
            [
              86.34943912069009,
              25.29839878135797
            ],
            [
              86.3499852469755,
              25.298719328241848
            ],
            [
              86.35084909659712,
              25.298863916144303
            ],
            [
              86.35139922577544,
              25.2989583303784
            ],
            [
              86.35148863240072,
              25.298973673669224
            ],
            [
              86.35171799115737,
              25.29901303733918
            ],
            [
              86.35258190096611,
              25.298922826067418
            ],
            [
              86.35296926619473,
              25.298688201403138
            ],
            [
              86.35354540519378,
              25.297641129396148
            ],
            [
              86.35386832258897,
              25.29642705713539
            ],
            [
              86.35386841242048,
              25.295754476004678
            ],
            [
              86.35402750944718,
              25.294729955819975
            ],
            [
              86.35367512192082,
              25.293709786831368
            ],
            [
              86.35348677035857,
              25.2923647003373
            ],
            [
              86.3534520962869,
              25.29157935662484
            ],
            [
              86.35322894309223,
              25.29014851131992
            ],
            [
              86.35319438130996,
              25.28941734959574
            ],
            [
              86.35319451156568,
              25.28856876706432
            ],
            [
              86.35345278259979,
              25.287666048910292
            ],
            [
              86.35374085344677,
              25.2872869520017
            ],
            [
              86.35415794572476,
              25.287020756683454
            ],
            [
              86.35467419763707,
              25.286916998905255
            ],
            [
              86.35582851660752,
              25.286682467970493
            ],
            [
              86.35698283108634,
              25.28644792764751
            ],
            [
              86.35858645681917,
              25.286276558282392
            ],
            [
              86.35869903818214,
              25.285865963014064
            ],
            [
              86.35896884268612,
              25.284881942668026
            ],
            [
              86.36076659525018,
              25.279921674706127
            ]
          ]
        ]
      }
    }
  ]
}