{
  "type": "FeatureCollection",
  "features": [
    {
      "type": "Feature",
      "properties": {
        "object_id": "10-203-01018",
        "stname": "BIHAR",
        "dtname": "Pashchim Champaran",
        "sdtname": "Lauriya",
        "st_area_sh": 0.0,
        "st_length_": 0.0,
        "remarks": "",
        "dist_lgd": 211,
        "state_lgd": 10,
        "subdt_lgd": 1018,
        "ac_no": null,
        "st_length(shape)": 120853.32018665274,
        "st_area(shape)": 255440417.54612216
      },
      "geometry": {
        "type": "Polygon",
        "coordinates": [
          [
            [
              84.37613531257321,
              27.07059565513491
            ],
            [
              84.37663434827311,
              27.070564119806765
            ],
            [
              84.37713339744772,
              27.070654330307324
            ],
            [
              84.37761223991835,
              27.070609192670087
            ],
            [
              84.37837331418663,
              27.070063149724728
            ],
            [
              84.37890256831436,
              27.069896149334387
            ],
            [
              84.37940164713339,
              27.07003159104949
            ],
            [
              84.3801778984384,
              27.07050533500054
            ],
            [
              84.38122140482864,
              27.071114438166514
            ],
            [
              84.3822799723729,
              27.071385187306447
            ],
            [
              84.38276388044342,
              27.071308446053596
            ],
            [
              84.38307642229708,
              27.07126332707738
            ],
            [
              84.38332336916868,
              27.07120458663215
            ],
            [
              84.38343932729882,
              27.071100851898574
            ],
            [
              84.38372158694423,
              27.070509637675027
            ],
            [
              84.3848052246715,
              27.068993391031416
            ],
            [
              84.38529406269627,
              27.06844735861433
            ],
            [
              84.38562673040555,
              27.067914873397285
            ],
            [
              84.3858887393295,
              27.067486147023356
            ],
            [
              84.38627180432286,
              27.06707096577166
            ],
            [
              84.38678588770206,
              27.06666932739294
            ],
            [
              84.3871840803248,
              27.06638502962075
            ],
            [
              84.38761255335913,
              27.066150371005392
            ],
            [
              84.3879754197333,
              27.06588406966301
            ],
            [
              84.38862059336365,
              27.065929157206764
            ],
            [
              84.3888222642466,
              27.06607801380693
            ],
            [
              84.38905416433721,
              27.06627200481145
            ],
            [
              84.38921542630375,
              27.066272012010838
            ],
            [
              84.38933132963665,
              27.066258480351443
            ],
            [
              84.38949769133906,
              27.066050897644033
            ],
            [
              84.38959842392345,
              27.06554546934141
            ],
            [
              84.38992600088001,
              27.06527472129794
            ],
            [
              84.39055605496577,
              27.064994798070476
            ],
            [
              84.39171531017868,
              27.064827733334997
            ],
            [
              84.39239571573445,
              27.064737383755883
            ],
            [
              84.39287460401914,
              27.0644259933276
            ],
            [
              84.39310642326134,
              27.064128118753736
            ],
            [
              84.39333820028276,
              27.06362270498307
            ],
            [
              84.39398316280898,
              27.062792373929238
            ],
            [
              84.39441666191733,
              27.062661371237578
            ],
            [
              84.39471407165,
              27.062674948928688
            ],
            [
              84.39514249976858,
              27.06277866105954
            ],
            [
              84.39580788459449,
              27.063103428112854
            ],
            [
              84.39636740386246,
              27.063387658209496
            ],
            [
              84.39664974435625,
              27.063726066658983
            ],
            [
              84.39686652580062,
              27.064096009643627
            ],
            [
              84.39696746679412,
              27.06484059081535
            ],
            [
              84.39734568178328,
              27.065445192305244
            ],
            [
              84.39818247235189,
              27.06585113712211
            ],
            [
              84.39908980492483,
              27.066008945092182
            ],
            [
              84.39964919842868,
              27.065756155137155
            ],
            [
              84.40043039675595,
              27.06543113738627
            ],
            [
              84.40137790827657,
              27.06500675079776
            ],
            [
              84.40196766932861,
              27.065056275968214
            ],
            [
              84.40266331659979,
              27.065358466947536
            ],
            [
              84.40297083866763,
              27.065358414151557
            ],
            [
              84.40302616321104,
              27.064907210826604
            ],
            [
              84.40311168102946,
              27.06445589769349
            ],
            [
              84.4037568510665,
              27.06443324403513
            ],
            [
              84.40434148543319,
              27.064103685144882
            ],
            [
              84.40487071800136,
              27.06385539781178
            ],
            [
              84.40540491106653,
              27.063778557010917
            ],
            [
              84.40626686793786,
              27.063778421019386
            ],
            [
              84.40662974599013,
              27.063778281828025
            ],
            [
              84.40763767640017,
              27.06310572718387
            ],
            [
              84.40847420915232,
              27.06273102518348
            ],
            [
              84.40921009466,
              27.062500656303754
            ],
            [
              84.41002159675509,
              27.062423752977697
            ],
            [
              84.41066665989263,
              27.06222507314194
            ],
            [
              84.41108488764112,
              27.061972244258403
            ],
            [
              84.41161400432662,
              27.061547935776073
            ],
            [
              84.4120071052983,
              27.061222889029025
            ],
            [
              84.41225890666571,
              27.060622720623734
            ],
            [
              84.41242504558593,
              27.060148815721867
            ],
            [
              84.41248044109625,
              27.059823949714925
            ],
            [
              84.41306492903753,
              27.05949435968006
            ],
            [
              84.41380558729436,
              27.058808289986438
            ],
            [
              84.41389126231793,
              27.05853296494771
            ],
            [
              84.41405737339038,
              27.05803202431329
            ],
            [
              84.41402699416412,
              27.057756827768046
            ],
            [
              84.41394623562007,
              27.057183731929527
            ],
            [
              84.41386036386544,
              27.05675505572971
            ],
            [
              84.41374938509692,
              27.056506948128632
            ],
            [
              84.41358308986985,
              27.056430232693536
            ],
            [
              84.41315974891073,
              27.056507028128834
            ],
            [
              84.4127161527386,
              27.056430456694308
            ],
            [
              84.41257493937258,
              27.05625455515758
            ],
            [
              84.41238840510212,
              27.055866494156756
            ],
            [
              84.41243352298727,
              27.05535662469899
            ],
            [
              84.41243352927549,
              27.055180622276982
            ],
            [
              84.4127155885966,
              27.054855649879347
            ],
            [
              84.41304816737266,
              27.05458029513855
            ],
            [
              84.4135218256658,
              27.05432746502315
            ],
            [
              84.41378884539242,
              27.05401596969093
            ],
            [
              84.41391943168863,
              27.052635182775234
            ],
            [
              84.41383844227757,
              27.051665025658014
            ],
            [
              84.4138230101193,
              27.050857260889718
            ],
            [
              84.414225650301,
              27.049007033026605
            ],
            [
              84.41448747057876,
              27.048280408124416
            ],
            [
              84.41480466929883,
              27.047639586364948
            ],
            [
              84.41539402790562,
              27.046840683808856
            ],
            [
              84.41581723681239,
              27.04636222106736
            ],
            [
              84.41640176517785,
              27.04633496172527
            ],
            [
              84.41701165478044,
              27.046416047667552
            ],
            [
              84.41777259519972,
              27.04636166901593
            ],
            [
              84.41870490902244,
              27.046280127791608
            ],
            [
              84.42042219409657,
              27.04599181395848
            ],
            [
              84.42042831701352,
              27.045990785859328
            ],
            [
              84.42196512425888,
              27.04531797095389
            ],
            [
              84.42364792211094,
              27.04423440432494
            ],
            [
              84.42418699392643,
              27.043877718176564
            ],
            [
              84.42436820478048,
              27.043498634639676
            ],
            [
              84.42435792356207,
              27.04299766768371
            ],
            [
              84.42413107380001,
              27.042781144818875
            ],
            [
              84.42364214055377,
              27.04255571560524
            ],
            [
              84.42235194780338,
              27.042393731708874
            ],
            [
              84.42119791090396,
              27.042380559615633
            ],
            [
              84.42010425875795,
              27.042141767851405
            ],
            [
              84.41950450484673,
              27.041830609141172
            ],
            [
              84.41926247984453,
              27.04151482413791
            ],
            [
              84.41922703142512,
              27.041095118139612
            ],
            [
              84.41926718791495,
              27.040643862031047
            ],
            [
              84.41938298075507,
              27.040364094974578
            ],
            [
              84.41949369182562,
              27.04008879188625
            ],
            [
              84.4199824166627,
              27.03976369576953
            ],
            [
              84.42100524832667,
              27.039447496088385
            ],
            [
              84.42345941603848,
              27.03938347016323
            ],
            [
              84.4243009371354,
              27.039396770628027
            ],
            [
              84.42462846378629,
              27.039225163866206
            ],
            [
              84.42491051502256,
              27.038963335329022
            ],
            [
              84.42501112813103,
              27.038611345195072
            ],
            [
              84.42499590707685,
              27.03825939396411
            ],
            [
              84.42479922274201,
              27.037957053175806
            ],
            [
              84.42354903286954,
              27.036928638885477
            ],
            [
              84.42057529037717,
              27.035395443989145
            ],
            [
              84.41891196710213,
              27.03433547112377
            ],
            [
              84.41840783885289,
              27.033780600235904
            ],
            [
              84.41885096879939,
              27.033072034204203
            ],
            [
              84.4192842002098,
              27.032670239703062
            ],
            [
              84.42075522023363,
              27.03181241272176
            ],
            [
              84.42330985193357,
              27.03156339298347
            ],
            [
              84.42616195714656,
              27.031530797646774
            ],
            [
              84.42718486516733,
              27.031593601374478
            ],
            [
              84.42790048288559,
              27.031651989677425
            ],
            [
              84.42851559888649,
              27.032527216049775
            ],
            [
              84.428681972267,
              27.032603822998187
            ],
            [
              84.43139267367114,
              27.032029712909104
            ],
            [
              84.43170010770407,
              27.032178483257244
            ],
            [
              84.43189674173325,
              27.032426562227403
            ],
            [
              84.43203793443806,
              27.032525851754592
            ],
            [
              84.4326223253613,
              27.032327034160417
            ],
            [
              84.4340483236197,
              27.032227161929843
            ],
            [
              84.43463293822346,
              27.03240287307835
            ],
            [
              84.43466323031315,
              27.032601476092
            ],
            [
              84.43474902571101,
              27.032854147908317
            ],
            [
              84.43488515910411,
              27.032926267278846
            ],
            [
              84.43505140582215,
              27.032926177659775
            ],
            [
              84.43600369368518,
              27.03274980078725
            ],
            [
              84.43622552276312,
              27.03287605738269
            ],
            [
              84.43680011935481,
              27.033236785729514
            ],
            [
              84.43728917926347,
              27.033597535322112
            ],
            [
              84.43757128799193,
              27.03342598290918
            ],
            [
              84.4376818158062,
              27.03287534763133
            ],
            [
              84.43762623434462,
              27.032600123000122
            ],
            [
              84.43877005290766,
              27.032550011379445
            ],
            [
              84.43902190907228,
              27.032373885170735
            ],
            [
              84.4391075194172,
              27.03224750878458
            ],
            [
              84.43929851561964,
              27.03152089221534
            ],
            [
              84.43985693624803,
              27.029796916943493
            ],
            [
              84.44069798213616,
              27.029042932955193
            ],
            [
              84.44133765268701,
              27.028618416737345
            ],
            [
              84.44211851594271,
              27.02834283598548
            ],
            [
              84.4433479232911,
              27.028193256351074
            ],
            [
              84.44444085319164,
              27.027515908825503
            ],
            [
              84.44552872378048,
              27.026689539728572
            ],
            [
              84.44603760321924,
              27.026590003376306
            ],
            [
              84.44704500991146,
              27.025948711302814
            ],
            [
              84.4492715050044,
              27.02501802118334
            ],
            [
              84.44987090677604,
              27.02480105392811
            ],
            [
              84.45037471163181,
              27.024624858750755
            ],
            [
              84.45084330881662,
              27.02459753091249
            ],
            [
              84.45142795665804,
              27.024858884802782
            ],
            [
              84.45173531163924,
              27.02488586687914
            ],
            [
              84.45230465667979,
              27.024786252906875
            ],
            [
              84.45242042706202,
              27.02474104080032
            ],
            [
              84.4528841149538,
              27.02486263466998
            ],
            [
              84.4533224721512,
              27.024921031273642
            ],
            [
              84.4537104653022,
              27.024934415874966
            ],
            [
              84.4540833658581,
              27.024907120121114
            ],
            [
              84.45502513983904,
              27.02425227531266
            ],
            [
              84.45582089985706,
              27.02385923103541
            ],
            [
              84.4565362750302,
              27.02365568790794
            ],
            [
              84.45737759131123,
              27.02349731062323
            ],
            [
              84.4578260976747,
              27.023546671659606
            ],
            [
              84.46035513816881,
              27.023053339603724
            ],
            [
              84.46084884955401,
              27.022998876014
            ],
            [
              84.46359498769947,
              27.02312805884602
            ],
            [
              84.4637270032153,
              27.024377902076413
            ],
            [
              84.46528392912975,
              27.02437692979552
            ],
            [
              84.46567211631685,
              27.02466551279899
            ],
            [
              84.46684106075844,
              27.02457898318878
            ],
            [
              84.46700721764493,
              27.02443448560914
            ],
            [
              84.46710266903379,
              27.024082421923755
            ],
            [
              84.46719833511995,
              27.02405533482381
            ],
            [
              84.46797936905553,
              27.024140558857354
            ],
            [
              84.46950605138932,
              27.02402214433491
            ],
            [
              84.47077073827386,
              27.024052871705127
            ],
            [
              84.47090116466997,
              27.02332627093934
            ],
            [
              84.47275008437425,
              27.023121969819023
            ],
            [
              84.47354655226472,
              27.023541091606123
            ],
            [
              84.47364001029194,
              27.020892201795654
            ],
            [
              84.47353777213112,
              27.019213622651666
            ],
            [
              84.47450993162654,
              27.018892524271923
            ],
            [
              84.47502873205934,
              27.018689061776243
            ],
            [
              84.47658952791603,
              27.017465072341565
            ],
            [
              84.47746575093235,
              27.01694096826805
            ],
            [
              84.47765691691642,
              27.016706175854296
            ],
            [
              84.47837795866236,
              27.01728329729867
            ],
            [
              84.47904294733122,
              27.017151891763458
            ],
            [
              84.47959707670746,
              27.017151558845875
            ],
            [
              84.48034231188066,
              27.01665462062891
            ],
            [
              84.48222591463976,
              27.015895061628715
            ],
            [
              84.48245274194396,
              27.015985156020996
            ],
            [
              84.48264968858683,
              27.01647686491924
            ],
            [
              84.48281101163883,
              27.016566986054823
            ],
            [
              84.48446843477906,
              27.01633103164105
            ],
            [
              84.48485613597758,
              27.01615481597729
            ],
            [
              84.48517771937459,
              27.015224936252597
            ],
            [
              84.48537392490736,
              27.014936008880287
            ],
            [
              84.48690030720383,
              27.01473172211432
            ],
            [
              84.48780700466786,
              27.014523402258405
            ],
            [
              84.48809885293065,
              27.01420728116933
            ],
            [
              84.48849095228078,
              27.013245858703296
            ],
            [
              84.48879317878003,
              27.013259120647383
            ],
            [
              84.48885864620131,
              27.013232054947398
            ],
            [
              84.4897047451129,
              27.012910961083424
            ],
            [
              84.49045022911945,
              27.01273435510566
            ],
            [
              84.4917146599841,
              27.012561776037256
            ],
            [
              84.49262639879352,
              27.01244377267881
            ],
            [
              84.49334151165863,
              27.012181392712417
            ],
            [
              84.49375936121638,
              27.011860648787966
            ],
            [
              84.49411662479815,
              27.011395600084434
            ],
            [
              84.49411633733725,
              27.01113388674322
            ],
            [
              84.49402011519392,
              27.010637562979692
            ],
            [
              84.49336890757982,
              27.00947391613612
            ],
            [
              84.4930454655685,
              27.00851296379937
            ],
            [
              84.49300971621348,
              27.00804820137516
            ],
            [
              84.4930094952279,
              27.007759447637067
            ],
            [
              84.49330143242389,
              27.007556149065753
            ],
            [
              84.49372461617783,
              27.007555735284292
            ],
            [
              84.49463207631153,
              27.008137115943782
            ],
            [
              84.49523704943458,
              27.008556275216435
            ],
            [
              84.49552923726051,
              27.00855601510466
            ],
            [
              84.49637046999821,
              27.008410851841365
            ],
            [
              84.49783166065623,
              27.007834862147917
            ],
            [
              84.49867425703651,
              27.00757552316044
            ],
            [
              84.4994100697807,
              27.007350593132873
            ],
            [
              84.50000003834354,
              27.00758941484929
            ],
            [
              84.50012510988223,
              27.007640045026406
            ],
            [
              84.50062819967899,
              27.00823617963205
            ],
            [
              84.50168624260715,
              27.008173894276634
            ],
            [
              84.50230594360927,
              27.00815633787248
            ],
            [
              84.50317700580432,
              27.00860840160042
            ],
            [
              84.50363483308719,
              27.009204446234655
            ],
            [
              84.50416229058436,
              27.01062633116127
            ],
            [
              84.50482703401313,
              27.010938259806323
            ],
            [
              84.5063433012795,
              27.011079479000973
            ],
            [
              84.50657557956085,
              27.010614853640675
            ],
            [
              84.50603168199567,
              27.010366234298065
            ],
            [
              84.50603269799025,
              27.009423046683708
            ],
            [
              84.50676791874464,
              27.009730557614837
            ],
            [
              84.5073822217702,
              27.010055968758564
            ],
            [
              84.50820304837794,
              27.010377021158504
            ],
            [
              84.50875701605743,
              27.01062571330719
            ],
            [
              84.50908331381304,
              27.01174058786794
            ],
            [
              84.50952034240211,
              27.013008895325367
            ],
            [
              84.5099983997452,
              27.013609487982595
            ],
            [
              84.51053645287114,
              27.014607192981025
            ],
            [
              84.51126052643119,
              27.015988650891604
            ],
            [
              84.51140110917987,
              27.016503186370883
            ],
            [
              84.51193970937983,
              27.0169729220094
            ],
            [
              84.51278589363139,
              27.017257816325767
            ],
            [
              84.51408071360383,
              27.017245303917505
            ],
            [
              84.51552723477322,
              27.01673201788112
            ],
            [
              84.51597547972695,
              27.016885782259404
            ],
            [
              84.51600037384011,
              27.017219806130075
            ],
            [
              84.51560207521617,
              27.01752634499545
            ],
            [
              84.51551072463661,
              27.018166992910373
            ],
            [
              84.5157320794041,
              27.01858237030162
            ],
            [
              84.51670845918473,
              27.019652531164954
            ],
            [
              84.51756897605664,
              27.0207181947929
            ],
            [
              84.51860042975068,
              27.0222758063192
            ],
            [
              84.51926465305493,
              27.023255506610976
            ],
            [
              84.51949573657691,
              27.023918982157408
            ],
            [
              84.52031564330977,
              27.02540872235172
            ],
            [
              84.52060709002562,
              27.02626633497479
            ],
            [
              84.52093949093526,
              27.026478682152206
            ],
            [
              84.52195237465577,
              27.02640717080689
            ],
            [
              84.52255610271382,
              27.027350797615043
            ],
            [
              84.52351197395652,
              27.029048114236815
            ],
            [
              84.52422690985348,
              27.029707504189336
            ],
            [
              84.52573436913849,
              27.028837692395832
            ],
            [
              84.52639921767017,
              27.029154032383747
            ],
            [
              84.52856686233218,
              27.028004852161164
            ],
            [
              84.52910061881613,
              27.028402292648515
            ],
            [
              84.5320240502627,
              27.027334755003682
            ],
            [
              84.53286641936926,
              27.02626139603084
            ],
            [
              84.53402127732883,
              27.025034734715405
            ],
            [
              84.53260152236163,
              27.023567224947605
            ],
            [
              84.53185199773296,
              27.022176855037557
            ],
            [
              84.53136483057462,
              27.02023166373614
            ],
            [
              84.53052361220993,
              27.020032525081145
            ],
            [
              84.52932919873344,
              27.020311543332202
            ],
            [
              84.5283117578595,
              27.019954328239166
            ],
            [
              84.5265870464129,
              27.015982143725747
            ],
            [
              84.52494855526731,
              27.011459446685794
            ],
            [
              84.5244895502931,
              27.010560075894908
            ],
            [
              84.5244808752624,
              27.010543076092603
            ],
            [
              84.52481927601983,
              27.009500882699015
            ],
            [
              84.5249909970712,
              27.009027211767876
            ],
            [
              84.52554080734758,
              27.008346227973615
            ],
            [
              84.52670509132946,
              27.007719747891784
            ],
            [
              84.52825183484018,
              27.00762610932454
            ],
            [
              84.5287855679679,
              27.007942356170837
            ],
            [
              84.52989384199182,
              27.007961106727787
            ],
            [
              84.5305087343122,
              27.007695280394692
            ],
            [
              84.53171407130259,
              27.006157333326488
            ],
            [
              84.53246537010392,
              27.005273440034973
            ],
            [
              84.5339222766963,
              27.004177826388762
            ],
            [
              84.53477935032576,
              27.00335257666632
            ],
            [
              84.53457842504446,
              27.002558202205833
            ],
            [
              84.53373863140786,
              27.00075272130986
            ],
            [
              84.53394286967591,
              27.000316721289156
            ],
            [
              84.53337696158961,
              27.00000034813943
            ],
            [
              84.53322720165197,
              26.99991662336744
            ],
            [
              84.534074888785,
              26.99889659013863
            ],
            [
              84.53530218239753,
              26.99759881681959
            ],
            [
              84.53615138678506,
              26.99714733475608
            ],
            [
              84.53703138721717,
              26.99739544624747
            ],
            [
              84.53923492676134,
              26.99945068802556
            ],
            [
              84.53902455299988,
              27.00000015123986
            ],
            [
              84.53890223389924,
              27.000319557915677
            ],
            [
              84.53893735802684,
              27.00087330461959
            ],
            [
              84.54002541726189,
              27.00087398896034
            ],
            [
              84.54094226119706,
              27.00089257821532
            ],
            [
              84.54207085870596,
              27.000721761855978
            ],
            [
              84.542589480374,
              27.000997294292578
            ],
            [
              84.54287612020474,
              27.001787162368178
            ],
            [
              84.54279478763723,
              27.00270767109669
            ],
            [
              84.54312140698968,
              27.003926216207947
            ],
            [
              84.54357936183334,
              27.00452665410139
            ],
            [
              84.54384609589572,
              27.004851760961746
            ],
            [
              84.5448385779778,
              27.00492000931191
            ],
            [
              84.54568006404041,
              27.004627156037976
            ],
            [
              84.54690457018062,
              27.004099845021234
            ],
            [
              84.54807389999942,
              27.00326116832647
            ],
            [
              84.54956620560394,
              27.001651041209318
            ],
            [
              84.55029220605026,
              27.00074442677035
            ],
            [
              84.55033758265017,
              27.000325432869886
            ],
            [
              84.55049370894824,
              27.00000035214146
            ],
            [
              84.5515214831429,
              26.997860647315086
            ],
            [
              84.55196130010263,
              26.9976191099134
            ],
            [
              84.55246834967318,
              26.997892368755885
            ],
            [
              84.55319269362613,
              26.998884194147497
            ],
            [
              84.55310897064163,
              27.000000381756433
            ],
            [
              84.5530845346693,
              27.000326720717446
            ],
            [
              84.55313853599428,
              27.000646586695755
            ],
            [
              84.55388385920236,
              27.00102155114206
            ],
            [
              84.555244166359,
              27.000697340859897
            ],
            [
              84.55675045334257,
              27.000734167249362
            ],
            [
              84.55755637420476,
              27.000833767324835
            ],
            [
              84.55799439902552,
              27.00124465532274
            ],
            [
              84.5587592417264,
              27.00277022760959
            ],
            [
              84.56047235502437,
              27.002157371899514
            ],
            [
              84.5635713621932,
              27.00069665731845
            ],
            [
              84.56404491718006,
              27.000624699750787
            ],
            [
              84.56411069092687,
              27.00033144869464
            ],
            [
              84.5640940083137,
              27.0000001088184
            ],
            [
              84.56406549578661,
              26.99943390665574
            ],
            [
              84.56492452325176,
              26.999009389032736
            ],
            [
              84.5658790578013,
              26.99944269114207
            ],
            [
              84.5664764805844,
              27.000000215272255
            ],
            [
              84.56678889757221,
              27.000291766336467
            ],
            [
              84.56734240621262,
              27.000704241106472
            ],
            [
              84.56805841559634,
              27.000585869122364
            ],
            [
              84.56826664597753,
              27.000291696701446
            ],
            [
              84.56847299438819,
              27.000000315322847
            ],
            [
              84.56898823389918,
              26.999272741025052
            ],
            [
              84.56954473213284,
              26.998052667110205
            ],
            [
              84.56937764010009,
              26.997347929107228
            ],
            [
              84.56770406435275,
              26.99669900536795
            ],
            [
              84.56702686488426,
              26.99623549480931
            ],
            [
              84.5672676439231,
              26.995564335735683
            ],
            [
              84.56911643337168,
              26.994715961255626
            ],
            [
              84.57035536555702,
              26.993923272362206
            ],
            [
              84.5707719969993,
              26.99249030837871
            ],
            [
              84.57129350495431,
              26.99120677109417
            ],
            [
              84.57179465079682,
              26.9899593190473
            ],
            [
              84.57122217333085,
              26.988823917825567
            ],
            [
              84.57061161178844,
              26.988175750201084
            ],
            [
              84.56975820418369,
              26.987684263335833
            ],
            [
              84.5694242842229,
              26.987100609188115
            ],
            [
              84.57093042208616,
              26.986250477812778
            ],
            [
              84.57117744082299,
              26.984536972889313
            ],
            [
              84.57056192956334,
              26.982178569092223
            ],
            [
              84.57017196281369,
              26.980024296345835
            ],
            [
              84.57053747921793,
              26.979547771386578
            ],
            [
              84.57046218512579,
              26.97783718572523
            ],
            [
              84.5707232921412,
              26.97628621894403
            ],
            [
              84.57211880337552,
              26.977055495400208
            ],
            [
              84.57259368517407,
              26.97767146917152
            ],
            [
              84.5735861528831,
              26.976787314396876
            ],
            [
              84.5737486868641,
              26.976553498096447
            ],
            [
              84.57387140032516,
              26.9754078903156
            ],
            [
              84.57381521968729,
              26.973846371099707
            ],
            [
              84.57367699501621,
              26.97254161580431
            ],
            [
              84.57366821757756,
              26.970628318943117
            ],
            [
              84.57383310963618,
              26.969162626632116
            ],
            [
              84.57441449210152,
              26.968795409353813
            ],
            [
              84.5768304248199,
              26.969050653683176
            ],
            [
              84.5768892698609,
              26.967625012629167
            ],
            [
              84.57660619274859,
              26.966951317815674
            ],
            [
              84.57660688534968,
              26.96514184112869
            ],
            [
              84.57702593775161,
              26.963262238673003
            ],
            [
              84.57773235941633,
              26.96217806188299
            ],
            [
              84.57903758187972,
              26.961191583382355
            ],
            [
              84.57958661241845,
              26.9603188162776
            ],
            [
              84.58033033842196,
              26.95931029039502
            ],
            [
              84.58033894787565,
              26.959298613070157
            ],
            [
              84.58033912933531,
              26.95929477534238
            ],
            [
              84.58065464640919,
              26.952578324812364
            ],
            [
              84.58029576585993,
              26.952656723036814
            ],
            [
              84.57947875529554,
              26.95272725392675
            ],
            [
              84.57873933940877,
              26.95263603908144
            ],
            [
              84.57858227796449,
              26.952641799616636
            ],
            [
              84.57638677205391,
              26.95272230374584
            ],
            [
              84.57380147636177,
              26.95339613170962
            ],
            [
              84.57101183729867,
              26.95512358838868
            ],
            [
              84.57004604955357,
              26.956187277887448
            ],
            [
              84.56975600241293,
              26.957465841768716
            ],
            [
              84.56963987719615,
              26.958982725119586
            ],
            [
              84.5694301969341,
              26.959632822369358
            ],
            [
              84.56904058861224,
              26.96027425082916
            ],
            [
              84.56858127731252,
              26.960805500829718
            ],
            [
              84.56792912197584,
              26.961153695959776
            ],
            [
              84.56705365444263,
              26.96116426094639
            ],
            [
              84.56650311383594,
              26.960846659160676
            ],
            [
              84.56606249018908,
              26.960261366968233
            ],
            [
              84.56555890272561,
              26.95893041720444
            ],
            [
              84.5651295888682,
              26.957630627213188
            ],
            [
              84.5639289500668,
              26.956642870985796
            ],
            [
              84.56278359807953,
              26.95636632433801
            ],
            [
              84.56185385882846,
              26.956438021148433
            ],
            [
              84.56111277477021,
              26.95663708583305
            ],
            [
              84.56009573184994,
              26.95708143514393
            ],
            [
              84.55830696243873,
              26.957862923836004
            ],
            [
              84.55560925067361,
              26.9594143101323
            ],
            [
              84.55484626389209,
              26.959372726109574
            ],
            [
              84.55454783277492,
              26.958758062260017
            ],
            [
              84.55379900973051,
              26.956080326947838
            ],
            [
              84.5534005422233,
              26.955489210366427
            ],
            [
              84.55268718017471,
              26.95533839519775
            ],
            [
              84.55185650443822,
              26.95521032918043
            ],
            [
              84.54983314358385,
              26.95565270393755
            ],
            [
              84.54893665098146,
              26.956034548337044
            ],
            [
              84.54817686759222,
              26.956172125129275
            ],
            [
              84.5474096542373,
              26.955992115106607
            ],
            [
              84.54688889817214,
              26.95553068131953
            ],
            [
              84.54641273896931,
              26.95496807087315
            ],
            [
              84.54569830523057,
              26.95470540311874
            ],
            [
              84.54492463568371,
              26.954698515265445
            ],
            [
              84.54392680413407,
              26.955747907927606
            ],
            [
              84.54329892397132,
              26.95698625309926
            ],
            [
              84.542033693606,
              26.95953216334086
            ],
            [
              84.54105913201555,
              26.960652853605463
            ],
            [
              84.54053368225303,
              26.961118759035244
            ],
            [
              84.53980172956963,
              26.961464117192328
            ],
            [
              84.53909466920275,
              26.961722198923603
            ],
            [
              84.53829951375091,
              26.96174985670781
            ],
            [
              84.53751450477023,
              26.961693445005395
            ],
            [
              84.53675167429559,
              26.961541341844427
            ],
            [
              84.53537412487539,
              26.960888543696072
            ],
            [
              84.53286031262195,
              26.96001221117633
            ],
            [
              84.53243456687282,
              26.959863787318987
            ],
            [
              84.5316408936412,
              26.959737782620927
            ],
            [
              84.53098351010956,
              26.95973427639427
            ],
            [
              84.52867071476557,
              26.96018354732812
            ],
            [
              84.52804665423936,
              26.960430166167068
            ],
            [
              84.52505893306287,
              26.961619488023693
            ],
            [
              84.5239981080523,
              26.962016841290318
            ],
            [
              84.52293727675348,
              26.96241418514845
            ],
            [
              84.52216460703153,
              26.962345723656348
            ],
            [
              84.52151506938556,
              26.961967881606988
            ],
            [
              84.52040288769018,
              26.96094605273673
            ],
            [
              84.51956750208666,
              26.959864424668464
            ],
            [
              84.5186686136774,
              26.959711531958057
            ],
            [
              84.51864772694871,
              26.959725102874934
            ],
            [
              84.51624325044516,
              26.961287388005683
            ],
            [
              84.51553498004762,
              26.96159316413695
            ],
            [
              84.51478152528956,
              26.961770836040998
            ],
            [
              84.51474987494717,
              26.961769764735553
            ],
            [
              84.51326051042693,
              26.96171937573625
            ],
            [
              84.5127521052986,
              26.961174701025783
            ],
            [
              84.51150938671435,
              26.959372240088474
            ],
            [
              84.50954628844248,
              26.957590828908106
            ],
            [
              84.50757271401777,
              26.956813534859943
            ],
            [
              84.50607516764192,
              26.956731742104644
            ],
            [
              84.5053795302522,
              26.95700106224308
            ],
            [
              84.50462431210128,
              26.956978334870637
            ],
            [
              84.50399941883681,
              26.957090568042332
            ],
            [
              84.50318116320744,
              26.957371375881735
            ],
            [
              84.50316479590296,
              26.957376992848094
            ],
            [
              84.50292101110115,
              26.957940075690775
            ],
            [
              84.5038107986783,
              26.95984608485647
            ],
            [
              84.50425438407063,
              26.960425716753527
            ],
            [
              84.50557641670798,
              26.96211638836393
            ],
            [
              84.50587996642564,
              26.962778299823345
            ],
            [
              84.5060489817514,
              26.96342055427179
            ],
            [
              84.5060620953579,
              26.964137797289712
            ],
            [
              84.50578919705606,
              26.964809918833623
            ],
            [
              84.50571381043741,
              26.965505183965586
            ],
            [
              84.50534461273712,
              26.96607149201129
            ],
            [
              84.50477331835239,
              26.966637067824188
            ],
            [
              84.50466089509291,
              26.966723501110838
            ],
            [
              84.50364136204266,
              26.967507320810178
            ],
            [
              84.5015219173855,
              26.968236423164235
            ],
            [
              84.49992448194331,
              26.97097613623801
            ],
            [
              84.49615109871088,
              26.97121425539009
            ],
            [
              84.49498847930722,
              26.97077215391315
            ],
            [
              84.4945203016357,
              26.970209916625134
            ],
            [
              84.49429272693317,
              26.96961156692846
            ],
            [
              84.49430522788869,
              26.968629887653346
            ],
            [
              84.49483805281967,
              26.96686989591265
            ],
            [
              84.4955576662443,
              26.964834474923098
            ],
            [
              84.49561066325283,
              26.96433165289456
            ],
            [
              84.49555656580809,
              26.96363742778554
            ],
            [
              84.49508760660221,
              26.96202171499872
            ],
            [
              84.49411105524338,
              26.960466360382167
            ],
            [
              84.4937172158565,
              26.96004923984363
            ],
            [
              84.49345594624603,
              26.959772523003824
            ],
            [
              84.49281453835339,
              26.959563471218864
            ],
            [
              84.49201306325351,
              26.95963583617368
            ],
            [
              84.49129237544379,
              26.960402366337266
            ],
            [
              84.49003850876686,
              26.96251000794798
            ],
            [
              84.488943768761,
              26.96525617508375
            ],
            [
              84.488492004208,
              26.966389384108798
            ],
            [
              84.48774572968401,
              26.967535858673653
            ],
            [
              84.48710437389367,
              26.968521130300264
            ],
            [
              84.48598315604484,
              26.969742751800243
            ],
            [
              84.48395388876746,
              26.971395959990797
            ],
            [
              84.48181718567707,
              26.972426756046357
            ],
            [
              84.4808554502322,
              26.9726426843204
            ],
            [
              84.48018737674869,
              26.972595264807072
            ],
            [
              84.47941219264222,
              26.972260567178424
            ],
            [
              84.47847618943867,
              26.971016191613124
            ],
            [
              84.47808163139959,
              26.970112106039316
            ],
            [
              84.47761966288326,
              26.969053542338
            ],
            [
              84.4773779792409,
              26.967306123223025
            ],
            [
              84.4776170092599,
              26.965294897807315
            ],
            [
              84.47740231819522,
              26.964050127400036
            ],
            [
              84.47708131780483,
              26.963427817103632
            ],
            [
              84.47654660371681,
              26.962901436327623
            ],
            [
              84.47601207019015,
              26.962686307658394
            ],
            [
              84.47505022964239,
              26.96259103266773
            ],
            [
              84.4742754767273,
              26.962639482053042
            ],
            [
              84.4725659647753,
              26.963262795135943
            ],
            [
              84.47136422194443,
              26.964053491775427
            ],
            [
              84.47042966323184,
              26.964844012324285
            ],
            [
              84.46970882630177,
              26.965706291895163
            ],
            [
              84.46888196032043,
              26.967741613861296
            ],
            [
              84.4684288438029,
              26.969441627794037
            ],
            [
              84.46837657802303,
              26.97140476187788
            ],
            [
              84.46839897212473,
              26.972867910323668
            ],
            [
              84.46840442579685,
              26.973224263852288
            ],
            [
              84.46872632629912,
              26.975043552286515
            ],
            [
              84.46725694300571,
              26.975355522780852
            ],
            [
              84.46629858073474,
              26.975307383087213
            ],
            [
              84.46300824139357,
              26.975142055894654
            ],
            [
              84.45980164210481,
              26.9745929131918
            ],
            [
              84.4567285028229,
              26.973924000365184
            ],
            [
              84.45298737899066,
              26.97313546419072
            ],
            [
              84.45183999411593,
              26.972485013360647
            ],
            [
              84.45183714196489,
              26.97248339614755
            ],
            [
              84.45058198710385,
              26.97177183134067
            ],
            [
              84.44951759578157,
              26.970799068908228
            ],
            [
              84.44929898806221,
              26.97059927587539
            ],
            [
              84.44780136982114,
              26.9685883678809
            ],
            [
              84.44759025764452,
              26.96872850335649
            ],
            [
              84.44645764286967,
              26.969384672318565
            ],
            [
              84.44578252659431,
              26.96985072496777
            ],
            [
              84.44398593555195,
              26.970918995796872
            ],
            [
              84.44353203211026,
              26.971205681661843
            ],
            [
              84.44318070818916,
              26.971247763297537
            ],
            [
              84.44264625820583,
              26.971104337246405
            ],
            [
              84.44227200478711,
              26.970673583232987
            ],
            [
              84.44168415355337,
              26.970410446914947
            ],
            [
              84.44045498695347,
              26.97005167782289
            ],
            [
              84.44006470399681,
              26.969806902262977
            ],
            [
              84.4399538132632,
              26.96958834491487
            ],
            [
              84.4397003715721,
              26.9694393636345
            ],
            [
              84.43906499317166,
              26.969260936831144
            ],
            [
              84.43852172173222,
              26.969125548119866
            ],
            [
              84.43847911284165,
              26.969114928636994
            ],
            [
              84.43846604325259,
              26.969108967987438
            ],
            [
              84.43787115461693,
              26.968837626395597
            ],
            [
              84.43740006011564,
              26.96851779568157
            ],
            [
              84.43704169070777,
              26.968038278889612
            ],
            [
              84.43687528139462,
              26.9678155107784
            ],
            [
              84.43684286658592,
              26.967772226908856
            ],
            [
              84.43612405086526,
              26.967055363322384
            ],
            [
              84.43573589062761,
              26.966628754756773
            ],
            [
              84.43542669859164,
              26.966054618392633
            ],
            [
              84.43501167243883,
              26.965262047064908
            ],
            [
              84.43470787658276,
              26.964891058794347
            ],
            [
              84.43448539532793,
              26.964489965388776
            ],
            [
              84.43426276764768,
              26.964093475952335
            ],
            [
              84.43407029281829,
              26.96347639503602
            ],
            [
              84.43401731108115,
              26.962925007210302
            ],
            [
              84.43401655110644,
              26.962514441265753
            ],
            [
              84.43379401056275,
              26.96167117576647
            ],
            [
              84.43362681612207,
              26.961275638023874
            ],
            [
              84.43340605783597,
              26.960797879923195
            ],
            [
              84.43318344902033,
              26.960401207743995
            ],
            [
              84.43293342182564,
              26.960103405637412
            ],
            [
              84.43251115165833,
              26.959631020011855
            ],
            [
              84.43243459633153,
              26.95923262623333
            ],
            [
              84.43240369159082,
              26.958890154153487
            ],
            [
              84.43237424032421,
              26.95856377829655
            ],
            [
              84.43212479433949,
              26.958017799194945
            ],
            [
              84.43190500443723,
              26.95772058090735
            ],
            [
              84.4312931672871,
              26.957172551906687
            ],
            [
              84.43082285791337,
              26.956600009602802
            ],
            [
              84.4304616848635,
              26.955876098245973
            ],
            [
              84.43018348919641,
              26.955487497623423
            ],
            [
              84.42982054107553,
              26.955065848169134
            ],
            [
              84.42960197018712,
              26.954714447329064
            ],
            [
              84.4294878580949,
              26.95419357810203
            ],
            [
              84.429407954747,
              26.953722910092463
            ],
            [
              84.42935150102132,
              26.953550356606197
            ],
            [
              84.42907730195891,
              26.95313054880682
            ],
            [
              84.4290741506689,
              26.95312572516028
            ],
            [
              84.42880070529306,
              26.952529709349903
            ],
            [
              84.4288522461325,
              26.952034365813365
            ],
            [
              84.42889266223544,
              26.95195814278407
            ],
            [
              84.4290240749817,
              26.95171093927015
            ],
            [
              84.42904680595164,
              26.95166796710917
            ],
            [
              84.42901739960082,
              26.95141478535771
            ],
            [
              84.42879927427681,
              26.95081981028675
            ],
            [
              84.42854426861881,
              26.950300879308564
            ],
            [
              84.42837714963659,
              26.94945413035016
            ],
            [
              84.42840076544711,
              26.949080050308233
            ],
            [
              84.42840586608129,
              26.948995848835743
            ],
            [
              84.42842478729612,
              26.948683482612186
            ],
            [
              84.42862140335897,
              26.948235912305922
            ],
            [
              84.42867634611838,
              26.947808326790753
            ],
            [
              84.42858914216218,
              26.946994595359488
            ],
            [
              84.42817266972175,
              26.94604403061208
            ],
            [
              84.4280050081571,
              26.94522437177635
            ],
            [
              84.4278697326551,
              26.94453157206687
            ],
            [
              84.42797621625392,
              26.943608643179484
            ],
            [
              84.42791975174845,
              26.943208012148606
            ],
            [
              84.42786784529468,
              26.942839727667835
            ],
            [
              84.42747770517016,
              26.941844563952944
            ],
            [
              84.42719416542545,
              26.941441866940544
            ],
            [
              84.42700467030787,
              26.94117273384692
            ],
            [
              84.42686549971077,
              26.940651316730754
            ],
            [
              84.42706125159434,
              26.94023082982893
            ],
            [
              84.42735538427287,
              26.93991583901336
            ],
            [
              84.42704941539216,
              26.939201899017576
            ],
            [
              84.42688341391415,
              26.938531175142856
            ],
            [
              84.42666337607689,
              26.937363151668198
            ],
            [
              84.42626155336211,
              26.936078386110516
            ],
            [
              84.42578673983552,
              26.935502004619458
            ],
            [
              84.42569622918076,
              26.93539643636324
            ],
            [
              84.42505311269244,
              26.93490197136466
            ],
            [
              84.4244453053847,
              26.934403611163212
            ],
            [
              84.42416754360391,
              26.933780458796683
            ],
            [
              84.42388840021418,
              26.93343699396746
            ],
            [
              84.42344220701257,
              26.93313563277315
            ],
            [
              84.42280808355855,
              26.93291198275986
            ],
            [
              84.42222138935492,
              26.932810965095964
            ],
            [
              84.42163960713926,
              26.932940190612683
            ],
            [
              84.42018062723521,
              26.932687963896676
            ],
            [
              84.41978069996563,
              26.932593945758637
            ],
            [
              84.41948533569686,
              26.932524452230282
            ],
            [
              84.41859853322141,
              26.932316126760238
            ],
            [
              84.41771038866297,
              26.932191608942443
            ],
            [
              84.41694933595423,
              26.93223629201399
            ],
            [
              84.41668798369875,
              26.932439068298688
            ],
            [
              84.41632878873911,
              26.932739281286402
            ],
            [
              84.41610498067259,
              26.93306453301202
            ],
            [
              84.41596781511525,
              26.933337238958735
            ],
            [
              84.41561423462613,
              26.933635062142315
            ],
            [
              84.41528077819608,
              26.93385768399983
            ],
            [
              84.41499612813367,
              26.9340097196125
            ],
            [
              84.41477348338543,
              26.9340597037471
            ],
            [
              84.41424896158262,
              26.934108773262277
            ],
            [
              84.41369173391693,
              26.934260999144023
            ],
            [
              84.41291713820699,
              26.93445882000427
            ],
            [
              84.41233307876209,
              26.93467821033007
            ],
            [
              84.41197392512498,
              26.934757325769333
            ],
            [
              84.41075418903894,
              26.934608588345238
            ],
            [
              84.40995886380551,
              26.934523355754322
            ],
            [
              84.4098402906796,
              26.934510648344343
            ],
            [
              84.40950971424829,
              26.934657977969326
            ],
            [
              84.40884689770579,
              26.93480821375286
            ],
            [
              84.40826482802925,
              26.9347298439582
            ],
            [
              84.40754226004564,
              26.934409721810034
            ],
            [
              84.40718086870513,
              26.934362459992705
            ],
            [
              84.40657298683723,
              26.934531795325384
            ],
            [
              84.40601588942727,
              26.934679477305156
            ],
            [
              84.40557462258664,
              26.934608124641677
            ],
            [
              84.40547387742586,
              26.934489000815244
            ],
            [
              84.40432301786761,
              26.932992586674604
            ],
            [
              84.40402241372574,
              26.93274574921719
            ],
            [
              84.40370797463024,
              26.933035328093585
            ],
            [
              84.40283065836417,
              26.933802581380913
            ],
            [
              84.4028306062619,
              26.933802626229923
            ],
            [
              84.40278339709877,
              26.933843912952646
            ],
            [
              84.40217196239388,
              26.934387640990195
            ],
            [
              84.40217181686681,
              26.934392154700625
            ],
            [
              84.4014498480595,
              26.93492474163065
            ],
            [
              84.39945591062394,
              26.9364895673321
            ],
            [
              84.39724203686073,
              26.938203773702266
            ],
            [
              84.39532550006669,
              26.939670687250214
            ],
            [
              84.39436136073012,
              26.940663514923752
            ],
            [
              84.39424271843393,
              26.94079908118881
            ],
            [
              84.39314135065793,
              26.94205753017044
            ],
            [
              84.3920918201654,
              26.943039750919322
            ],
            [
              84.39128212188741,
              26.944315067780877
            ],
            [
              84.391227643557,
              26.94493211831397
            ],
            [
              84.39128420687722,
              26.94619196817843
            ],
            [
              84.39131512599097,
              26.947036179946767
            ],
            [
              84.39128515819307,
              26.948335008710067
            ],
            [
              84.39138254904462,
              26.94957295489362
            ],
            [
              84.39208967229354,
              26.950343969702313
            ],
            [
              84.39267252080947,
              26.950832977092947
            ],
            [
              84.39364509981813,
              26.95210066515329
            ],
            [
              84.39379322482195,
              26.952248621994585
            ],
            [
              84.3941421313766,
              26.952597132640026
            ],
            [
              84.39519228080836,
              26.95334285711373
            ],
            [
              84.39542919439657,
              26.953657164213766
            ],
            [
              84.39319139220913,
              26.955779300132125
            ],
            [
              84.39171273920036,
              26.956906559133653
            ],
            [
              84.39094035334601,
              26.957341579932276
            ],
            [
              84.38943971766388,
              26.95761841884598
            ],
            [
              84.38833629184757,
              26.957994067945357
            ],
            [
              84.38718870934348,
              26.95850816489769
            ],
            [
              84.38608511913546,
              26.95927943563967
            ],
            [
              84.38524084290556,
              26.96029370032392
            ],
            [
              84.38511395856663,
              26.960446127846172
            ],
            [
              84.38473874574719,
              26.96119751322444
            ],
            [
              84.38301324827471,
              26.962471578113448
            ],
            [
              84.38126362834194,
              26.96390573619117
            ],
            [
              84.37984889675378,
              26.965806742041327
            ],
            [
              84.37917864305908,
              26.96710744328536
            ],
            [
              84.37876895289902,
              26.96917532292934
            ],
            [
              84.37854516729035,
              26.97114326691812
            ],
            [
              84.37768189798044,
              26.971698599121314
            ],
            [
              84.37745671459324,
              26.971843455096735
            ],
            [
              84.37444998596365,
              26.973777553089384
            ],
            [
              84.37325866538664,
              26.97411089081093
            ],
            [
              84.3702432689129,
              26.974277124982716
            ],
            [
              84.36685558543255,
              26.974643390899743
            ],
            [
              84.36518035139517,
              26.974743083725986
            ],
            [
              84.36316533588979,
              26.974398748613115
            ],
            [
              84.36283530204092,
              26.974342348851195
            ],
            [
              84.35989461395775,
              26.973841245716933
            ],
            [
              84.35933619782095,
              26.973674295172213
            ],
            [
              84.35908390597339,
              26.973971393699944
            ],
            [
              84.35661762986987,
              26.97687556198725
            ],
            [
              84.35404872394011,
              26.97770858970075
            ],
            [
              84.35107003622208,
              26.97904179363654
            ],
            [
              84.34905937305427,
              26.979941695084207
            ],
            [
              84.34851796472071,
              26.97995102306335
            ],
            [
              84.34716081334568,
              26.979974396644437
            ],
            [
              84.34642000237528,
              26.980123440835474
            ],
            [
              84.34567152428392,
              26.980274021875825
            ],
            [
              84.34496420160897,
              26.9802737320785
            ],
            [
              84.34410799395548,
              26.98034013567729
            ],
            [
              84.34287921183453,
              26.98090661727146
            ],
            [
              84.34077637073878,
              26.981941721164674
            ],
            [
              84.34064495080594,
              26.98200640903803
            ],
            [
              84.33934163636422,
              26.982606249880792
            ],
            [
              84.33900639318503,
              26.98303971123957
            ],
            [
              84.33450087940278,
              26.98477215028724
            ],
            [
              84.33092966022842,
              26.9799676848559
            ],
            [
              84.32862097827015,
              26.980933798825045
            ],
            [
              84.32679669486252,
              26.981333091680504
            ],
            [
              84.3269445359987,
              26.983067535900275
            ],
            [
              84.32746434074795,
              26.985235788932176
            ],
            [
              84.32813339429349,
              26.986970452372137
            ],
            [
              84.32351628819342,
              26.987968696345447
            ],
            [
              84.3232177070576,
              26.989135917361146
            ],
            [
              84.323217389054,
              26.98966952226257
            ],
            [
              84.32370083179717,
              26.99043684773535
            ],
            [
              84.32284350214789,
              26.991870650347305
            ],
            [
              84.32243307536929,
              26.99320453737564
            ],
            [
              84.32232044010738,
              26.994638628889142
            ],
            [
              84.32250581914437,
              26.995906127140508
            ],
            [
              84.3212602618838,
              27.000043184194112
            ],
            [
              84.32113927588306,
              27.00031972039736
            ],
            [
              84.32019941082208,
              27.002467889750637
            ],
            [
              84.32020279297912,
              27.002476614771307
            ],
            [
              84.32125303493736,
              27.00518574616342
            ],
            [
              84.322414973418,
              27.00737331433632
            ],
            [
              84.32241941918035,
              27.00737995405874
            ],
            [
              84.32418079356863,
              27.010009959995106
            ],
            [
              84.32650898244331,
              27.01293697605022
            ],
            [
              84.32651441006425,
              27.01294225891407
            ],
            [
              84.32805988425547,
              27.014446164345664
            ],
            [
              84.32852555023752,
              27.014563277267413
            ],
            [
              84.32960510871503,
              27.014493538208246
            ],
            [
              84.33169736316518,
              27.014199378971004
            ],
            [
              84.33419097320618,
              27.01375940315624
            ],
            [
              84.3363817737413,
              27.013557268681264
            ],
            [
              84.33648139780465,
              27.01488550683629
            ],
            [
              84.33560011278166,
              27.0155895498919
            ],
            [
              84.33559325324616,
              27.0155950311039
            ],
            [
              84.33189636695008,
              27.017500980918577
            ],
            [
              84.33045446671449,
              27.018407492224743
            ],
            [
              84.33008470217723,
              27.01870725195073
            ],
            [
              84.33108947680569,
              27.020097775236056
            ],
            [
              84.33217136820801,
              27.022062701364614
            ],
            [
              84.33312568356862,
              27.023885348298204
            ],
            [
              84.33373691255927,
              27.025092451837647
            ],
            [
              84.33441066519205,
              27.02749174491683
            ],
            [
              84.33441255255246,
              27.027496459748182
            ],
            [
              84.33571409461818,
              27.03074659428358
            ],
            [
              84.3359742215716,
              27.031464320254447
            ],
            [
              84.33595885678699,
              27.03190163495809
            ],
            [
              84.33586065655342,
              27.03222008437942
            ],
            [
              84.3356310902859,
              27.033194708083624
            ],
            [
              84.3346474637959,
              27.035806215220852
            ],
            [
              84.33419388105274,
              27.03623973472206
            ],
            [
              84.33320584473299,
              27.036478154971547
            ],
            [
              84.33212178389927,
              27.03651624586629
            ],
            [
              84.33160462289189,
              27.036655310928484
            ],
            [
              84.33134761039751,
              27.03687149274659
            ],
            [
              84.33127949923437,
              27.03719502016315
            ],
            [
              84.33138714704981,
              27.037968508699823
            ],
            [
              84.33096117492524,
              27.038298778868093
            ],
            [
              84.33034960637139,
              27.038381911751205
            ],
            [
              84.32945708432253,
              27.038202558153944
            ],
            [
              84.32882922931257,
              27.037822420075774
            ],
            [
              84.32882630080472,
              27.03782064777589
            ],
            [
              84.32871792265898,
              27.03707872377509
            ],
            [
              84.32853114314848,
              27.03666915181346
            ],
            [
              84.32820656925992,
              27.036121621809773
            ],
            [
              84.32795327668913,
              27.035967935772224
            ],
            [
              84.3272063697512,
              27.03559734633446
            ],
            [
              84.32592193071021,
              27.03495036377734
            ],
            [
              84.32509994437747,
              27.034772325757558
            ],
            [
              84.32421700375943,
              27.03482771502056
            ],
            [
              84.32389044818734,
              27.03500195701495
            ],
            [
              84.32338315517335,
              27.035574270770304
            ],
            [
              84.32289000793016,
              27.0363994878913
            ],
            [
              84.32216853139958,
              27.037080504088102
            ],
            [
              84.32125235131943,
              27.03770290298918
            ],
            [
              84.32075693942339,
              27.037969428054186
            ],
            [
              84.32049165344525,
              27.0381087377574
            ],
            [
              84.32006104691212,
              27.038420841337604
            ],
            [
              84.31964682564977,
              27.039103183884095
            ],
            [
              84.31928553222565,
              27.03967826275834
            ],
            [
              84.31887120226716,
              27.039941047372036
            ],
            [
              84.31845815869613,
              27.03993768286619
            ],
            [
              84.31815269197367,
              27.03985967830981
            ],
            [
              84.31774876720112,
              27.03947302083499
            ],
            [
              84.31731057080215,
              27.038621041167158
            ],
            [
              84.31702654417056,
              27.038277271318062
            ],
            [
              84.31684043839653,
              27.03826469884095
            ],
            [
              84.31667768612493,
              27.038329264693004
            ],
            [
              84.31584569525486,
              27.03899460269758
            ],
            [
              84.31552499130854,
              27.039556911365164
            ],
            [
              84.3155255177213,
              27.039746397940384
            ],
            [
              84.31561390835199,
              27.03984282296234
            ],
            [
              84.31639336484592,
              27.04032687911372
            ],
            [
              84.31743876218985,
              27.040856605280837
            ],
            [
              84.31761554075628,
              27.04126148691749
            ],
            [
              84.31766460224553,
              27.04174062509172
            ],
            [
              84.31745199257733,
              27.042841850793028
            ],
            [
              84.3170097771158,
              27.043428912745743
            ],
            [
              84.31662178665974,
              27.043642565224285
            ],
            [
              84.31610655433528,
              27.04364152190182
            ],
            [
              84.31609279843332,
              27.043641493898537
            ],
            [
              84.31540030694373,
              27.04352451530734
            ],
            [
              84.31472497686933,
              27.04311011187036
            ],
            [
              84.31420569404125,
              27.042067098064695
            ],
            [
              84.31340989539568,
              27.040788722808653
            ],
            [
              84.31326386975468,
              27.040573899929353
            ],
            [
              84.31270268411183,
              27.040021817885773
            ],
            [
              84.3120501083636,
              27.039499565733184
            ],
            [
              84.31137008369349,
              27.03928355780209
            ],
            [
              84.3109015466958,
              27.039283622612203
            ],
            [
              84.31027828836515,
              27.039422701049034
            ],
            [
              84.31027775476588,
              27.039422820267504
            ],
            [
              84.31026842396503,
              27.039424902190095
            ],
            [
              84.30972474019889,
              27.039829545753907
            ],
            [
              84.30927576311821,
              27.040276601316663
            ],
            [
              84.30915572214512,
              27.040662279083012
            ],
            [
              84.30899358521947,
              27.041967463328568
            ],
            [
              84.30897343960092,
              27.043022729166225
            ],
            [
              84.30842253607481,
              27.044573104979534
            ],
            [
              84.3076823170942,
              27.045822107864637
            ],
            [
              84.30700878724362,
              27.046598691641798
            ],
            [
              84.30646289002858,
              27.046944059348345
            ],
            [
              84.30642875764109,
              27.046965651645326
            ],
            [
              84.30642048505561,
              27.046970887304692
            ],
            [
              84.30546360500486,
              27.04716458572704
            ],
            [
              84.30502032414141,
              27.04716060218446
            ],
            [
              84.30415469405887,
              27.04690942109656
            ],
            [
              84.30370744264185,
              27.047059744663294
            ],
            [
              84.30370559031574,
              27.047060368717545
            ],
            [
              84.30369756836026,
              27.04706306415178
            ],
            [
              84.30298619697834,
              27.047735142136208
            ],
            [
              84.30294662798669,
              27.047914834929767
            ],
            [
              84.3032505262507,
              27.048480067129432
            ],
            [
              84.30376592117024,
              27.04989297036224
            ],
            [
              84.30388870559821,
              27.050657735721614
            ],
            [
              84.30352060384256,
              27.051512337748715
            ],
            [
              84.3020916016178,
              27.05269395694823
            ],
            [
              84.30107177931005,
              27.05340972574112
            ],
            [
              84.30072403697201,
              27.05369501323137
            ],
            [
              84.30071714689377,
              27.053700665388266
            ],
            [
              84.30065331081302,
              27.05468290513325
            ],
            [
              84.30081458984759,
              27.056364206849214
            ],
            [
              84.30081450630425,
              27.056372561282256
            ],
            [
              84.30082330620078,
              27.05637120367695
            ],
            [
              84.30080178885478,
              27.05856880039228
            ],
            [
              84.30024290200076,
              27.06129761726558
            ],
            [
              84.30185445895923,
              27.061125551214452
            ],
            [
              84.30333675104323,
              27.061090837344008
            ],
            [
              84.30670818130514,
              27.06065471873212
            ],
            [
              84.30826251827494,
              27.060346141678583
            ],
            [
              84.31012933601296,
              27.060034504663957
            ],
            [
              84.31019739058225,
              27.06098318539879
            ],
            [
              84.31039657492853,
              27.061293767019478
            ],
            [
              84.31104695699085,
              27.0612791420029
            ],
            [
              84.31143080172187,
              27.061453402927572
            ],
            [
              84.31204593658741,
              27.0624937502538
            ],
            [
              84.31245204157115,
              27.064269955811927
            ],
            [
              84.3126955640649,
              27.065046048719513
            ],
            [
              84.31351860232485,
              27.06518809980059
            ],
            [
              84.3138706296268,
              27.06542941671848
            ],
            [
              84.31399152399942,
              27.066699411144704
            ],
            [
              84.31447522366078,
              27.06754776194188
            ],
            [
              84.31513748324781,
              27.068524756157302
            ],
            [
              84.31628269599618,
              27.068674029267154
            ],
            [
              84.31730965272395,
              27.06859768131694
            ],
            [
              84.31816571035877,
              27.068534031988115
            ],
            [
              84.31898633664218,
              27.068143668112146
            ],
            [
              84.31999417722066,
              27.068144844793252
            ],
            [
              84.32324779702634,
              27.067584284039693
            ],
            [
              84.32418639995431,
              27.06731794210695
            ],
            [
              84.32567017964844,
              27.067224377233064
            ],
            [
              84.32809041170376,
              27.066954612354927
            ],
            [
              84.32906555360594,
              27.066846829250963
            ],
            [
              84.3323682510705,
              27.066977223907692
            ],
            [
              84.33306628696204,
              27.067292733265678
            ],
            [
              84.33309815379842,
              27.06732741721893
            ],
            [
              84.3342306176563,
              27.068559961274776
            ],
            [
              84.33494040530837,
              27.068379432041407
            ],
            [
              84.33512843976531,
              27.06788674737838
            ],
            [
              84.3369192258943,
              27.068236486694857
            ],
            [
              84.33780469526987,
              27.068298376372873
            ],
            [
              84.34039723407815,
              27.06777451360568
            ],
            [
              84.34157400733741,
              27.067237364826465
            ],
            [
              84.34216621809522,
              27.066486140144455
            ],
            [
              84.34371546071905,
              27.065753001788583
            ],
            [
              84.34544388669934,
              27.064666795921664
            ],
            [
              84.34650314055651,
              27.064001098967353
            ],
            [
              84.34791775266869,
              27.06341875718195
            ],
            [
              84.34887573674895,
              27.06348136707649
            ],
            [
              84.35063474497476,
              27.06359631298255
            ],
            [
              84.35087837706294,
              27.064164832352873
            ],
            [
              84.3513727549981,
              27.06628548927323
            ],
            [
              84.35192159958555,
              27.068019188621115
            ],
            [
              84.35223364556917,
              27.068679223117634
            ],
            [
              84.35332407366165,
              27.06868966121258
            ],
            [
              84.35369475627711,
              27.06869320803685
            ],
            [
              84.3548274501037,
              27.068958146854275
            ],
            [
              84.35540379930852,
              27.069952481947478
            ],
            [
              84.35576516819113,
              27.070229966688224
            ],
            [
              84.35650797970966,
              27.07014468885977
            ],
            [
              84.35780004185419,
              27.069632127029067
            ],
            [
              84.35854676194253,
              27.069379989970507
            ],
            [
              84.36118072476353,
              27.06880689193473
            ],
            [
              84.36251129858258,
              27.06880028864083
            ],
            [
              84.36684538685914,
              27.068727238826234
            ],
            [
              84.36757620856358,
              27.06893490696897
            ],
            [
              84.36881624657505,
              27.06904319361055
            ],
            [
              84.36931521400297,
              27.069187681758244
            ],
            [
              84.36974868616186,
              27.069517065724163
            ],
            [
              84.36986467303808,
              27.069855542065024
            ],
            [
              84.37027793489969,
              27.070523411991655
            ],
            [
              84.37069129916928,
              27.07098364917187
            ],
            [
              84.37130115822912,
              27.07152072400989
            ],
            [
              84.37159861736916,
              27.072089278390024
            ],
            [
              84.37161365426871,
              27.07275708061687
            ],
            [
              84.37171444344696,
              27.073190319772234
            ],
            [
              84.37194632736788,
              27.0735738470953
            ],
            [
              84.37232438784676,
              27.07376793791279
            ],
            [
              84.37318636178607,
              27.073962005197753
            ],
            [
              84.37371565813463,
              27.074020672209137
            ],
            [
              84.3741139603518,
              27.07403415173953
            ],
            [
              84.37438113458867,
              27.07403417333622
            ],
            [
              84.37462811379962,
              27.073916872091868
            ],
            [
              84.37482971102074,
              27.073560377108105
            ],
            [
              84.3751926339888,
              27.072193065001713
            ],
            [
              84.37554044729374,
              27.071186811312224
            ],
            [
              84.37577235007932,
              27.070848411781554
            ],
            [
              84.37613531257321,
              27.07059565513491
            ]
          ]
        ]
      }
    }
  ]
}