{
  "type": "FeatureCollection",
  "features": [
    {
      "type": "Feature",
      "properties": {
        "object_id": "10-215-01190",
        "stname": "BIHAR",
        "dtname": "Darbhanga",
        "sdtname": "Hanumannagar",
        "st_area_sh": 0.0,
        "st_length_": 0.0,
        "remarks": "",
        "dist_lgd": 195,
        "state_lgd": 10,
        "subdt_lgd": 1190,
        "ac_no": null,
        "st_length(shape)": 114393.83215098479,
        "st_area(shape)": 181536916.32106537
      },
      "geometry": {
        "type": "Polygon",
        "coordinates": [
          [
            [
              85.84984010883979,
              26.15522733983258
            ],
            [
              85.85126641611868,
              26.154463285077
            ],
            [
              85.85158173735981,
              26.15452511489482
            ],
            [
              85.85193409344517,
              26.15496588523468
            ],
            [
              85.85235398667022,
              26.15493255225514
            ],
            [
              85.85371605093155,
              26.15433117493395
            ],
            [
              85.85419476224816,
              26.15115207388522
            ],
            [
              85.85501172520183,
              26.151500647737002
            ],
            [
              85.85525201376053,
              26.153503401174504
            ],
            [
              85.85666488763266,
              26.15400738511311
            ],
            [
              85.85999061340954,
              26.15405652985313
            ],
            [
              85.86090082238803,
              26.15213919231794
            ],
            [
              85.86046780118343,
              26.150611109931532
            ],
            [
              85.8626002947684,
              26.152962327975956
            ],
            [
              85.86472852135579,
              26.154483134645318
            ],
            [
              85.86752142579493,
              26.153992833111953
            ],
            [
              85.86924881871265,
              26.153457400938507
            ],
            [
              85.86849587509602,
              26.151014614634803
            ],
            [
              85.86749599808249,
              26.14916417701751
            ],
            [
              85.86628550835567,
              26.148144924197197
            ],
            [
              85.8645137305781,
              26.147836535228937
            ],
            [
              85.86344493391765,
              26.14713711880864
            ],
            [
              85.86280127664354,
              26.14547912721873
            ],
            [
              85.86158987063516,
              26.144270303021596
            ],
            [
              85.86088446137175,
              26.144205563093355
            ],
            [
              85.85840971685005,
              26.14524045495562
            ],
            [
              85.85406516140381,
              26.148318486778397
            ],
            [
              85.85353399027125,
              26.147115752790242
            ],
            [
              85.85508742623082,
              26.14583213383669
            ],
            [
              85.8581206892973,
              26.143517753369192
            ],
            [
              85.8597381697467,
              26.141082937006107
            ],
            [
              85.8615775664107,
              26.140948840803123
            ],
            [
              85.86242354135477,
              26.14017802093209
            ],
            [
              85.86277421579395,
              26.139346168617113
            ],
            [
              85.86205924306603,
              26.138387898274274
            ],
            [
              85.86141726833645,
              26.137050319345924
            ],
            [
              85.86069826486788,
              26.135329400973433
            ],
            [
              85.8606210196349,
              26.133921712982954
            ],
            [
              85.86040235711833,
              26.13321869289827
            ],
            [
              85.85826683710917,
              26.131178820820818
            ],
            [
              85.85875249689448,
              26.129389629633728
            ],
            [
              85.85817966998388,
              26.127857653991256
            ],
            [
              85.85768136730925,
              26.127218896747042
            ],
            [
              85.85661911757062,
              26.126772100113154
            ],
            [
              85.85675385408346,
              26.125751607343783
            ],
            [
              85.85611788279493,
              26.12556022307583
            ],
            [
              85.8540641103749,
              26.12576288995005
            ],
            [
              85.851727489913,
              26.125389105150113
            ],
            [
              85.85115989119733,
              26.12487694516176
            ],
            [
              85.85065774732657,
              26.12347560537061
            ],
            [
              85.84965672496106,
              26.122265787156383
            ],
            [
              85.85014707485047,
              26.121365646932038
            ],
            [
              85.85121486988936,
              26.121938874120183
            ],
            [
              85.85467707221576,
              26.120516308875708
            ],
            [
              85.8548151172238,
              26.12013216863845
            ],
            [
              85.85247813294416,
              26.119695159319836
            ],
            [
              85.85190871783503,
              26.118808527288603
            ],
            [
              85.85076955344346,
              26.1179693207486
            ],
            [
              85.8507490017864,
              26.113943863139895
            ],
            [
              85.85388956322365,
              26.112229346964686
            ],
            [
              85.85382425031258,
              26.113123224778096
            ],
            [
              85.8567169629697,
              26.112790629314265
            ],
            [
              85.85670507286858,
              26.11049363780951
            ],
            [
              85.85583881306705,
              26.10731114191761
            ],
            [
              85.85526184402471,
              26.104953319293394
            ],
            [
              85.85440760368168,
              26.10310658303515
            ],
            [
              85.85186634430308,
              26.103690294733823
            ],
            [
              85.84995488029544,
              26.103314718670855
            ],
            [
              85.85007726227819,
              26.0998708100346
            ],
            [
              85.84616235755759,
              26.095699000349963
            ],
            [
              85.84663452015576,
              26.091233778882742
            ],
            [
              85.84877839539539,
              26.08133701631606
            ],
            [
              85.84849000205321,
              26.07967745126893
            ],
            [
              85.84961424003802,
              26.078652864936625
            ],
            [
              85.85059363995461,
              26.076672094652753
            ],
            [
              85.85199969112215,
              26.076029881901423
            ],
            [
              85.85546741000275,
              26.07690449636277
            ],
            [
              85.85884180111184,
              26.074218570670414
            ],
            [
              85.85983894994182,
              26.07472884495657
            ],
            [
              85.86162120297394,
              26.077271124315697
            ],
            [
              85.86303317134427,
              26.07779313083245
            ],
            [
              85.86326137396915,
              26.081298797078176
            ],
            [
              85.87570355179558,
              26.08186814213073
            ],
            [
              85.87725641283336,
              26.081604207725256
            ],
            [
              85.87782669032521,
              26.08262608793001
            ],
            [
              85.8785439546554,
              26.084996821874352
            ],
            [
              85.87862247998764,
              26.086589579921732
            ],
            [
              85.88089158666605,
              26.087536348923397
            ],
            [
              85.8810335932445,
              26.08791935782502
            ],
            [
              85.87877417579473,
              26.0878660697963
            ],
            [
              85.87952235384876,
              26.08943781481058
            ],
            [
              85.88084765725203,
              26.090524113145
            ],
            [
              85.882506586867,
              26.092308527838632
            ],
            [
              85.88351444361521,
              26.09477267585317
            ],
            [
              85.88420112120825,
              26.096981000861135
            ],
            [
              85.88652102132782,
              26.097092608245983
            ],
            [
              85.88755803739012,
              26.097530307107043
            ],
            [
              85.89044413215852,
              26.099751406800486
            ],
            [
              85.89078907534618,
              26.10067954326208
            ],
            [
              85.8911144172943,
              26.101670934624874
            ],
            [
              85.89164917270485,
              26.10256667031226
            ],
            [
              85.89236053240865,
              26.102852289722517
            ],
            [
              85.89289694161762,
              26.103138715932136
            ],
            [
              85.89351997087788,
              26.103736201636796
            ],
            [
              85.8945338301688,
              26.10357368331051
            ],
            [
              85.89506227491444,
              26.103318649666452
            ],
            [
              85.89672820240548,
              26.10175415783905
            ],
            [
              85.89631644881521,
              26.100492403173885
            ],
            [
              85.89737524093832,
              26.098529067142188
            ],
            [
              85.89988643190773,
              26.098887824758254
            ],
            [
              85.90052195403864,
              26.099015884965805
            ],
            [
              85.9005194657053,
              26.098564548385692
            ],
            [
              85.89965483095612,
              26.09587429628572
            ],
            [
              85.89919857123344,
              26.090171972095938
            ],
            [
              85.90061440056286,
              26.08952020686606
            ],
            [
              85.90217978411572,
              26.08970726608038
            ],
            [
              85.90416429822392,
              26.089761417334678
            ],
            [
              85.90373451275097,
              26.088865331062493
            ],
            [
              85.90266532801834,
              26.08803976065251
            ],
            [
              85.90258687724626,
              26.086501233195754
            ],
            [
              85.90132360161502,
              26.085825436867598
            ],
            [
              85.90041263984834,
              26.08194842721807
            ],
            [
              85.89962167773226,
              26.07989867697502
            ],
            [
              85.89857699365069,
              26.077145957949035
            ],
            [
              85.89610138944126,
              26.077730155808283
            ],
            [
              85.8936895242945,
              26.07168007075002
            ],
            [
              85.89251481356712,
              26.071617662921533
            ],
            [
              85.89182992362146,
              26.069729775287943
            ],
            [
              85.89167292595756,
              26.06658942262599
            ],
            [
              85.89145740305294,
              26.065561447974503
            ],
            [
              85.88985107428942,
              26.06421919229795
            ],
            [
              85.88931533073206,
              26.063102395893644
            ],
            [
              85.88845270461586,
              26.06159889033281
            ],
            [
              85.88894317577787,
              26.05989529710139
            ],
            [
              85.89000766411817,
              26.059922210158973
            ],
            [
              85.89071337431717,
              26.05921501930052
            ],
            [
              85.89223468292893,
              26.0587254220735
            ],
            [
              85.89069379912883,
              26.055622789788654
            ],
            [
              85.88987105192304,
              26.055017173050253
            ],
            [
              85.8891267959135,
              26.055052101760865
            ],
            [
              85.88774919169605,
              26.05624513278754
            ],
            [
              85.88735177521775,
              26.054834259774776
            ],
            [
              85.88663864223955,
              26.05416500564432
            ],
            [
              85.8846503057998,
              26.054205357833954
            ],
            [
              85.88375958936464,
              26.053951976745882
            ],
            [
              85.88356463159181,
              26.053014179171345
            ],
            [
              85.8820090738115,
              26.052700616323108
            ],
            [
              85.88123140137175,
              26.053024413190812
            ],
            [
              85.88042797782603,
              26.05416063720282
            ],
            [
              85.88022905219458,
              26.056205858663642
            ],
            [
              85.87902628618257,
              26.05646382032048
            ],
            [
              85.87711933710754,
              26.056792607022746
            ],
            [
              85.8719794591228,
              26.059942250093762
            ],
            [
              85.86837489179017,
              26.060535392037085
            ],
            [
              85.866968556755,
              26.06200810906168
            ],
            [
              85.8660187787849,
              26.05620401302321
            ],
            [
              85.86551239935754,
              26.053972292898656
            ],
            [
              85.8662888536818,
              26.053391273266108
            ],
            [
              85.86634608085696,
              26.049997255219584
            ],
            [
              85.867398538959,
              26.04871564170131
            ],
            [
              85.86752974329616,
              26.04705426580423
            ],
            [
              85.86581609460227,
              26.043230126090958
            ],
            [
              85.86495278486812,
              26.04055309281581
            ],
            [
              85.86479785871933,
              26.03767896894499
            ],
            [
              85.86358197910079,
              26.035386988154222
            ],
            [
              85.86371461355586,
              26.03302613411985
            ],
            [
              85.86263860072873,
              26.03072915469962
            ],
            [
              85.86277520933064,
              26.02913541839367
            ],
            [
              85.86403967702624,
              26.028299675974996
            ],
            [
              85.86458276071778,
              26.027069905983765
            ],
            [
              85.86776906167437,
              26.027886685338515
            ],
            [
              85.86903385186517,
              26.027114050910377
            ],
            [
              85.86900975455765,
              26.02251994072122
            ],
            [
              85.86963338299418,
              26.020477384150823
            ],
            [
              85.87180869387886,
              26.017150997853996
            ],
            [
              85.87356515178762,
              26.015866254791092
            ],
            [
              85.87603052238936,
              26.0145152602835
            ],
            [
              85.87622801520793,
              26.011260585065095
            ],
            [
              85.87599597677676,
              26.00800773464989
            ],
            [
              85.87604960080934,
              26.004943177901346
            ],
            [
              85.87306017193548,
              26.00051550732449
            ],
            [
              85.87178995232713,
              26.001542012707056
            ],
            [
              85.87143032078626,
              26.002864359631655
            ],
            [
              85.8712954531194,
              26.00366768134498
            ],
            [
              85.87132535534025,
              26.00448005060016
            ],
            [
              85.87152009572083,
              26.0053782192417
            ],
            [
              85.87175982732407,
              26.006754719856044
            ],
            [
              85.87185962296562,
              26.007698012331883
            ],
            [
              85.87188963298428,
              26.008447180800854
            ],
            [
              85.87189460875267,
              26.009160221795963
            ],
            [
              85.87171477591423,
              26.009701808350172
            ],
            [
              85.8713251577109,
              26.010374299280443
            ],
            [
              85.87083067287621,
              26.010915864895797
            ],
            [
              85.87017141905217,
              26.011258772624895
            ],
            [
              85.86935721662134,
              26.011556676867613
            ],
            [
              85.86829339033939,
              26.011908601281252
            ],
            [
              85.86782379512631,
              26.012301286025092
            ],
            [
              85.86710451677324,
              26.01287890780203
            ],
            [
              85.86641522508272,
              26.013569350386696
            ],
            [
              85.86589076436533,
              26.014273361278
            ],
            [
              85.86537622374362,
              26.015171476003374
            ],
            [
              85.86471674803566,
              26.016250017866916
            ],
            [
              85.86453691340063,
              26.01699474095394
            ],
            [
              85.86449186468575,
              26.017834149813105
            ],
            [
              85.8643419403564,
              26.018948924141988
            ],
            [
              85.86438679144192,
              26.01959428964431
            ],
            [
              85.8645966432822,
              26.019770283124263
            ],
            [
              85.86508114873234,
              26.01974330111254
            ],
            [
              85.86533582021708,
              26.01985156817309
            ],
            [
              85.86557558775293,
              26.020190131759524
            ],
            [
              85.86562050261884,
              26.020840012691647
            ],
            [
              85.86559041265005,
              26.021724592046827
            ],
            [
              85.86538057338625,
              26.022211940607004
            ],
            [
              85.86484116739744,
              26.022563979995954
            ],
            [
              85.8637571631576,
              26.02296554670419
            ],
            [
              85.86314709479026,
              26.02305253108987
            ],
            [
              85.86309281768247,
              26.023060270117913
            ],
            [
              85.8626581929851,
              26.023073734104287
            ],
            [
              85.86204382438251,
              26.022897713288284
            ],
            [
              85.86134949943141,
              26.022640433364607
            ],
            [
              85.86045039093489,
              26.02239661290471
            ],
            [
              85.85911176012607,
              26.021981203961392
            ],
            [
              85.85802790859977,
              26.021818614154302
            ],
            [
              85.8542117565767,
              26.02124045837166
            ],
            [
              85.85267827669118,
              26.021064241064654
            ],
            [
              85.85102495256356,
              26.02086087059981
            ],
            [
              85.84913186988327,
              26.02070261502393
            ],
            [
              85.84773828823018,
              26.020742974692297
            ],
            [
              85.84684911689735,
              26.02095943421613
            ],
            [
              85.84615970303591,
              26.02125711525751
            ],
            [
              85.84564513007487,
              26.021609008169023
            ],
            [
              85.8450905192016,
              26.02226331061073
            ],
            [
              85.84477573515302,
              26.022764234777085
            ],
            [
              85.84467063316308,
              26.02325166700917
            ],
            [
              85.84477549260787,
              26.023707460779313
            ],
            [
              85.84489518413632,
              26.024118230085616
            ],
            [
              85.8454744393911,
              26.025020943334994
            ],
            [
              85.84592872461678,
              26.026185390330234
            ],
            [
              85.84604347720784,
              26.026713492889563
            ],
            [
              85.84617290108406,
              26.02842853339907
            ],
            [
              85.84592774904641,
              26.030125413629253
            ],
            [
              85.84597765764694,
              26.030274334234523
            ],
            [
              85.84681680090333,
              26.030572390397705
            ],
            [
              85.84803567370835,
              26.030924661389623
            ],
            [
              85.84866494805647,
              26.031326397245415
            ],
            [
              85.84921498111503,
              26.03199194602802
            ],
            [
              85.84928423673186,
              26.0320757458551
            ],
            [
              85.84946392943309,
              26.03291522038352
            ],
            [
              85.84926892494786,
              26.033542515648012
            ],
            [
              85.84884415566744,
              26.034395413308733
            ],
            [
              85.84816953077055,
              26.035094816306614
            ],
            [
              85.84734513425789,
              26.03563619198144
            ],
            [
              85.84636579901998,
              26.036394277902474
            ],
            [
              85.84536160290659,
              26.036709933713748
            ],
            [
              85.84476215891412,
              26.036709836855977
            ],
            [
              85.84372305606543,
              26.036456847356494
            ],
            [
              85.84145524026603,
              26.035761347000893
            ],
            [
              85.8406803220609,
              26.035505487629393
            ],
            [
              85.84043285416642,
              26.03514136193229
            ],
            [
              85.84019417538873,
              26.03477802935148
            ],
            [
              85.83980716858788,
              26.03451814574159
            ],
            [
              85.83917850239924,
              26.034208649159304
            ],
            [
              85.83861435590926,
              26.033961236631033
            ],
            [
              85.83856005544527,
              26.033937422784422
            ],
            [
              85.83791068398762,
              26.03358974394785
            ],
            [
              85.83745632959166,
              26.032831121694354
            ],
            [
              85.83740187910902,
              26.032740206349896
            ],
            [
              85.83733204857042,
              26.032514558670965
            ],
            [
              85.83700530614875,
              26.03182024409742
            ],
            [
              85.83594144393416,
              26.03132801080823
            ],
            [
              85.8355269621604,
              26.031079722864085
            ],
            [
              85.834313265448,
              26.030298617803364
            ],
            [
              85.83328965763965,
              26.029133964626308
            ],
            [
              85.83321974804927,
              26.028917253804643
            ],
            [
              85.83314500192945,
              26.028411766944064
            ],
            [
              85.83303030593228,
              26.02788374790615
            ],
            [
              85.83299557436844,
              26.02724279339791
            ],
            [
              85.82978860587214,
              26.027205752804665
            ],
            [
              85.82764060287379,
              26.02737207496192
            ],
            [
              85.82560225362886,
              26.027926495248824
            ],
            [
              85.82353873987795,
              26.028878032680662
            ],
            [
              85.82260160120387,
              26.029410233373717
            ],
            [
              85.82247450755746,
              26.029482408977263
            ],
            [
              85.82175501181212,
              26.029739367972127
            ],
            [
              85.82115548068307,
              26.029901687694736
            ],
            [
              85.82007137762851,
              26.030072779773445
            ],
            [
              85.81933200755583,
              26.03020785789876
            ],
            [
              85.81864258830451,
              26.030234635706254
            ],
            [
              85.81784329072089,
              26.03035621497958
            ],
            [
              85.81752863243645,
              26.030342536308623
            ],
            [
              85.81731888030917,
              26.030112304002714
            ],
            [
              85.81698952019677,
              26.029511912049085
            ],
            [
              85.81654018468828,
              26.028997211936826
            ],
            [
              85.81633043256102,
              26.02895649025236
            ],
            [
              85.8162404402342,
              26.029051275827566
            ],
            [
              85.8152449487959,
              26.031772290235775
            ],
            [
              85.81472984133723,
              26.03285971665991
            ],
            [
              85.81405488855526,
              26.03401029299453
            ],
            [
              85.81311014294737,
              26.035016269209738
            ],
            [
              85.81299889827751,
              26.035104133343395
            ],
            [
              85.81219058610004,
              26.035742557250177
            ],
            [
              85.81164591418707,
              26.03604017576418
            ],
            [
              85.81076157668879,
              26.036215817680695
            ],
            [
              85.80936272731488,
              26.036215129987763
            ],
            [
              85.80761929587608,
              26.03622341297473
            ],
            [
              85.8060706632083,
              26.03614137328041
            ],
            [
              85.80345157109855,
              26.035960599373038
            ],
            [
              85.80277866288215,
              26.035914146087958
            ],
            [
              85.8023945872841,
              26.03590690511428
            ],
            [
              85.800565532924,
              26.035872404947945
            ],
            [
              85.79994467129853,
              26.035862747353303
            ],
            [
              85.79816267608291,
              26.03583501112452
            ],
            [
              85.79769925588909,
              26.03580497692121
            ],
            [
              85.7966890491481,
              26.035739501362794
            ],
            [
              85.79552952623727,
              26.035864125164828
            ],
            [
              85.79518521456528,
              26.03590112912384
            ],
            [
              85.79404119208463,
              26.036331227353347
            ],
            [
              85.79329137819845,
              26.03661311627658
            ],
            [
              85.79235439493294,
              26.037082133259606
            ],
            [
              85.79147223674751,
              26.03752369826589
            ],
            [
              85.79138867635811,
              26.037565968303372
            ],
            [
              85.78912845132285,
              26.03870929560612
            ],
            [
              85.7872641219182,
              26.039809406282178
            ],
            [
              85.78601469471539,
              26.04044499498292
            ],
            [
              85.78518517600898,
              26.040706259356526
            ],
            [
              85.78431591134283,
              26.040683145845932
            ],
            [
              85.78366668271732,
              26.040411880366634
            ],
            [
              85.78309763232417,
              26.039838379702974
            ],
            [
              85.78228426173332,
              26.038632894679786
            ],
            [
              85.78155090677977,
              26.037287506382288
            ],
            [
              85.7809965249769,
              26.037056934984864
            ],
            [
              85.78050200600627,
              26.037029558218318
            ],
            [
              85.78006221240273,
              26.037286498259437
            ],
            [
              85.77959684555967,
              26.03812113867209
            ],
            [
              85.77911658824249,
              26.03903248460651
            ],
            [
              85.77866073276167,
              26.040539558194528
            ],
            [
              85.77798487896946,
              26.042172883282586
            ],
            [
              85.77723437068556,
              26.04355331473792
            ],
            [
              85.77653931630246,
              26.044288490914475
            ],
            [
              85.77578929041387,
              26.04503267768428
            ],
            [
              85.7751245308154,
              26.045370667399016
            ],
            [
              85.77502774542839,
              26.045388203813207
            ],
            [
              85.77499383582303,
              26.04539434736859
            ],
            [
              85.77433005718487,
              26.045514613130642
            ],
            [
              85.77298106790248,
              26.045486546664655
            ],
            [
              85.77105802730578,
              26.045051905810784
            ],
            [
              85.76986926872402,
              26.04464940584096
            ],
            [
              85.76880551520557,
              26.044269541110854
            ],
            [
              85.76746720868856,
              26.043546409182824
            ],
            [
              85.76645861981343,
              26.042882239935405
            ],
            [
              85.76606052600538,
              26.04261135969105
            ],
            [
              85.76581456997552,
              26.04244400102268
            ],
            [
              85.76566465462935,
              26.04244389367727
            ],
            [
              85.76558965159133,
              26.042534079138097
            ],
            [
              85.76559095325018,
              26.042556391633003
            ],
            [
              85.76561913879051,
              26.0430395672853
            ],
            [
              85.76575257723776,
              26.04464182319912
            ],
            [
              85.76591599695765,
              26.046235035649747
            ],
            [
              85.76619821078897,
              26.04891160022385
            ],
            [
              85.76610824810652,
              26.048979177284206
            ],
            [
              85.76588343033363,
              26.048924891759537
            ],
            [
              85.76481493730378,
              26.048260648063152
            ],
            [
              85.76467999238179,
              26.048233400622184
            ],
            [
              85.764709496649,
              26.0487750029542
            ],
            [
              85.76490353095372,
              26.049677796807075
            ],
            [
              85.76538139515903,
              26.051537601184005
            ],
            [
              85.76559003786691,
              26.052869102306136
            ],
            [
              85.76579859074326,
              26.054295401894098
            ],
            [
              85.7658927072356,
              26.05514849561899
            ],
            [
              85.76569283118654,
              26.05520249418989
            ],
            [
              85.76507828292091,
              26.055147853230267
            ],
            [
              85.76498837593401,
              26.05506654986915
            ],
            [
              85.76491385259632,
              26.05463326725085
            ],
            [
              85.76496498380399,
              26.05336962379364
            ],
            [
              85.76502072426739,
              26.052552752364488
            ],
            [
              85.76445119866545,
              26.052552303650874
            ],
            [
              85.76371137674019,
              26.0528450856981
            ],
            [
              85.76318170399752,
              26.052971102018052
            ],
            [
              85.76266691274586,
              26.053079005911325
            ],
            [
              85.7623272184144,
              26.053065170097877
            ],
            [
              85.76202242812334,
              26.053001796014662
            ],
            [
              85.76178269831674,
              26.05292029021266
            ],
            [
              85.76165798071429,
              26.052784875889174
            ],
            [
              85.76158827414318,
              26.05244634262408
            ],
            [
              85.76149890255218,
              26.05188662218332
            ],
            [
              85.76131475061389,
              26.051186959399462
            ],
            [
              85.76116528712029,
              26.0507626021448
            ],
            [
              85.76138565823251,
              26.050194071920345
            ],
            [
              85.7610891279505,
              26.04683608935006
            ],
            [
              85.76071444783199,
              26.046786197375962
            ],
            [
              85.7602648167778,
              26.04674513966637
            ],
            [
              85.76019012096361,
              26.046501451630316
            ],
            [
              85.7600054506974,
              26.046374912629734
            ],
            [
              85.75960064916913,
              26.046433282358283
            ],
            [
              85.7591360369109,
              26.04641033139289
            ],
            [
              85.7587463037232,
              26.04642350376417
            ],
            [
              85.75853627581316,
              26.04662646430658
            ],
            [
              85.75834105573223,
              26.047046056219223
            ],
            [
              85.75813071520847,
              26.047506144785263
            ],
            [
              85.75783065544569,
              26.04784890361685
            ],
            [
              85.75728579758145,
              26.04805160181496
            ],
            [
              85.75650634917235,
              26.04813219820719
            ],
            [
              85.75576684974229,
              26.048158692676168
            ],
            [
              85.75533243614895,
              26.047982323722607
            ],
            [
              85.75488313297984,
              26.047607289631472
            ],
            [
              85.75441428786002,
              26.046830680311466
            ],
            [
              85.7539959954328,
              26.04549898307596
            ],
            [
              85.75386276359805,
              26.04389220701806
            ],
            [
              85.75390862618656,
              26.042967002928542
            ],
            [
              85.75417943860035,
              26.042005908980574
            ],
            [
              85.7552506652036,
              26.0399488841367
            ],
            [
              85.75619654718032,
              26.038306893320144
            ],
            [
              85.75731253324096,
              26.03635812564271
            ],
            [
              85.75809807671926,
              26.03512210796592
            ],
            [
              85.75859383267002,
              26.033872399004444
            ],
            [
              85.75872946210825,
              26.03316843788011
            ],
            [
              85.7586551381966,
              26.03257715521708
            ],
            [
              85.75811592804058,
              26.032184115349512
            ],
            [
              85.75738176729818,
              26.03200752460912
            ],
            [
              85.75643259299596,
              26.03210146986677
            ],
            [
              85.75453869374708,
              26.032691150262426
            ],
            [
              85.75312932959278,
              26.033217995021786
            ],
            [
              85.7523145648166,
              26.03373632905289
            ],
            [
              85.75130953326999,
              26.034601966364512
            ],
            [
              85.75038967818197,
              26.03524659117128
            ],
            [
              85.75005433259483,
              26.035598944985015
            ],
            [
              85.7500013921802,
              26.035654570100043
            ],
            [
              85.74966444489691,
              26.03600864111641
            ],
            [
              85.74927404785421,
              26.036671744309174
            ],
            [
              85.7491526082042,
              26.037260764892014
            ],
            [
              85.74903308735566,
              26.03784047134796
            ],
            [
              85.74883706597753,
              26.03894602621225
            ],
            [
              85.74858109912213,
              26.039992828085186
            ],
            [
              85.74809490214429,
              26.04145917360134
            ],
            [
              85.74769810280856,
              26.04239297964847
            ],
            [
              85.74736936612697,
              26.043313966314436
            ],
            [
              85.74649691783146,
              26.04511092429141
            ],
            [
              85.7463394584335,
              26.045357135755108
            ],
            [
              85.74528979319368,
              26.04699841930804
            ],
            [
              85.74516510523563,
              26.04721063924179
            ],
            [
              85.74454632770163,
              26.047946790830395
            ],
            [
              85.74401278232176,
              26.048427308385826
            ],
            [
              85.7435080593878,
              26.048881862334216
            ],
            [
              85.74251443015709,
              26.049505483193904
            ],
            [
              85.74193996022785,
              26.04960523817321
            ],
            [
              85.7413202861752,
              26.049465830721427
            ],
            [
              85.74076037434345,
              26.0491277963192
            ],
            [
              85.74046031188573,
              26.048834683774572
            ],
            [
              85.73993676565328,
              26.04797328534128
            ],
            [
              85.73942944479151,
              26.047138568168922
            ],
            [
              85.73853838789492,
              26.045329508307606
            ],
            [
              85.737777229185,
              26.043493262383578
            ],
            [
              85.73777183659834,
              26.043478059823144
            ],
            [
              85.7371209963952,
              26.041643391059555
            ],
            [
              85.73667846742164,
              26.04066265466611
            ],
            [
              85.7362598983133,
              26.03973500209794
            ],
            [
              85.73573431470183,
              26.038647741922023
            ],
            [
              85.73500924041858,
              26.037912654678664
            ],
            [
              85.73414463531381,
              26.03754774706987
            ],
            [
              85.73330522974938,
              26.037417496848235
            ],
            [
              85.73156207139843,
              26.037811433669436
            ],
            [
              85.73063823587539,
              26.03823634629972
            ],
            [
              85.72991930876363,
              26.03876039203233
            ],
            [
              85.72917566001523,
              26.03958231937265
            ],
            [
              85.72887132786497,
              26.040051903189713
            ],
            [
              85.72869729095679,
              26.040927736227356
            ],
            [
              85.7285977639115,
              26.041428603299483
            ],
            [
              85.72856312397582,
              26.04180773065432
            ],
            [
              85.72839961083119,
              26.043351336768463
            ],
            [
              85.72835987744783,
              26.043617639851107
            ],
            [
              85.72829637823538,
              26.045274003195523
            ],
            [
              85.72797250413441,
              26.046271633602164
            ],
            [
              85.72797226158927,
              26.046271933029626
            ],
            [
              85.72743350598077,
              26.04694447183861
            ],
            [
              85.72742417787488,
              26.046947981818647
            ],
            [
              85.72704892822448,
              26.04708916460484
            ],
            [
              85.72628952122939,
              26.047098723618678
            ],
            [
              85.72626463430275,
              26.047097495248305
            ],
            [
              85.72304688422638,
              26.046938485744608
            ],
            [
              85.72147820565309,
              26.047074935038022
            ],
            [
              85.7201995634406,
              26.0475361211106
            ],
            [
              85.71972037691523,
              26.04809154934627
            ],
            [
              85.71951580716882,
              26.048434680945363
            ],
            [
              85.71940622258563,
              26.048849959890344
            ],
            [
              85.71945658573374,
              26.04935088431639
            ],
            [
              85.71980183794183,
              26.049987008022878
            ],
            [
              85.7201368861866,
              26.05035686370545
            ],
            [
              85.72178691709037,
              26.051885718294628
            ],
            [
              85.72301677718967,
              26.052796539998596
            ],
            [
              85.72395194316336,
              26.05379781630161
            ],
            [
              85.72421715637796,
              26.054276025176797
            ],
            [
              85.72420746265772,
              26.054632568367587
            ],
            [
              85.72355382330414,
              26.05570713683266
            ],
            [
              85.72291010674122,
              26.056492633064945
            ],
            [
              85.72290992438326,
              26.0564928566072
            ],
            [
              85.72234130787638,
              26.057693730758807
            ],
            [
              85.72220673036534,
              26.05809548868711
            ],
            [
              85.72213722411857,
              26.05863711000497
            ],
            [
              85.72216236257347,
              26.05882664439316
            ],
            [
              85.72264765764277,
              26.059575493647273
            ],
            [
              85.7232577601461,
              26.0601843510863
            ],
            [
              85.72483783205216,
              26.061496585830724
            ],
            [
              85.72775806729291,
              26.06393613430133
            ],
            [
              85.7282822396511,
              26.064605330200276
            ],
            [
              85.72882860039681,
              26.06530284303458
            ],
            [
              85.729676179732,
              26.06667906418825
            ],
            [
              85.729684308587,
              26.066692264138123
            ],
            [
              85.72973459537829,
              26.06704876308975
            ],
            [
              85.72980110843855,
              26.06879528894378
            ],
            [
              85.72988176008307,
              26.06958051183151
            ],
            [
              85.72990703328529,
              26.070089353069427
            ],
            [
              85.7299326433557,
              26.07060495081285
            ],
            [
              85.72977794358232,
              26.070844258022262
            ],
            [
              85.72975856781997,
              26.070850066181173
            ],
            [
              85.72905354842541,
              26.07106141018534
            ],
            [
              85.72805918976269,
              26.071152385375903
            ],
            [
              85.72687464158464,
              26.070900490154763
            ],
            [
              85.72372997664318,
              26.069169638733335
            ],
            [
              85.72370892642114,
              26.069158488650952
            ],
            [
              85.72084541440066,
              26.06764163503983
            ],
            [
              85.71998061705641,
              26.067254078867357
            ],
            [
              85.71981074383956,
              26.067285781021884
            ],
            [
              85.71969602628282,
              26.067552131393356
            ],
            [
              85.71970639014626,
              26.068012462222267
            ],
            [
              85.71998220527784,
              26.069226306601966
            ],
            [
              85.72038347013881,
              26.071076418736432
            ],
            [
              85.72079474941863,
              26.07293554697422
            ],
            [
              85.72087900330743,
              26.073576053979313
            ],
            [
              85.72088023040611,
              26.07358537925373
            ],
            [
              85.72094620088394,
              26.07482192568963
            ],
            [
              85.72065779137209,
              26.076591254852218
            ],
            [
              85.72022945937327,
              26.0783787277866
            ],
            [
              85.71981618313862,
              26.080260964390924
            ],
            [
              85.71955769291559,
              26.081812822957733
            ],
            [
              85.71955755457503,
              26.08181364109075
            ],
            [
              85.71935325881479,
              26.082571976135984
            ],
            [
              85.7189242818256,
              26.083601241635893
            ],
            [
              85.71857484256998,
              26.084106936654166
            ],
            [
              85.71752146908466,
              26.085565346967645
            ],
            [
              85.71725682001207,
              26.085863381118966
            ],
            [
              85.71664451483969,
              26.086679207785398
            ],
            [
              85.71604360389836,
              26.087479839981746
            ],
            [
              85.71565910160056,
              26.08791333913263
            ],
            [
              85.71492492738348,
              26.088586249615197
            ],
            [
              85.71371105639791,
              26.089408401855724
            ],
            [
              85.71349657643732,
              26.09000425619657
            ],
            [
              85.71336755859956,
              26.091177692055293
            ],
            [
              85.71333775878665,
              26.091507231632075
            ],
            [
              85.7132831897264,
              26.092036378277005
            ],
            [
              85.71321525283642,
              26.092695150742845
            ],
            [
              85.71321325857649,
              26.09271448883301
            ],
            [
              85.71637524932484,
              26.093866228900477
            ],
            [
              85.71823026320004,
              26.09402720126213
            ],
            [
              85.71990131378311,
              26.094441456139357
            ],
            [
              85.72087992408059,
              26.095444644140077
            ],
            [
              85.72186497889192,
              26.098036405793604
            ],
            [
              85.72237697907799,
              26.098580802215356
            ],
            [
              85.72349338285521,
              26.09899686334441
            ],
            [
              85.72585716118483,
              26.098903380730658
            ],
            [
              85.73022140321052,
              26.09906036581221
            ],
            [
              85.73423895213043,
              26.099990184911924
            ],
            [
              85.7359578963929,
              26.101072029055455
            ],
            [
              85.7359588486071,
              26.10107354969345
            ],
            [
              85.73745238310691,
              26.10345889004577
            ],
            [
              85.73853034617649,
              26.105468022111484
            ],
            [
              85.73886293124075,
              26.107308190343264
            ],
            [
              85.73915056370988,
              26.10915304770171
            ],
            [
              85.73963921578343,
              26.110053994254883
            ],
            [
              85.74066574221816,
              26.11047020331636
            ],
            [
              85.7428449607743,
              26.11041760475196
            ],
            [
              85.7447934443548,
              26.110162732844717
            ],
            [
              85.74687905127186,
              26.10923041174464
            ],
            [
              85.74769707244094,
              26.108803365751232
            ],
            [
              85.74954397093583,
              26.10935841464715
            ],
            [
              85.7500000168595,
              26.11000599982078
            ],
            [
              85.75167642858821,
              26.112386440796172
            ],
            [
              85.75349823264565,
              26.112908121249724
            ],
            [
              85.75758153375276,
              26.112695216990026
            ],
            [
              85.76005591715175,
              26.110371306831784
            ],
            [
              85.76358145968884,
              26.108382126107358
            ],
            [
              85.76732212627859,
              26.107601588889096
            ],
            [
              85.7689491845656,
              26.107022613276925
            ],
            [
              85.77014148700118,
              26.1064902698468
            ],
            [
              85.7709105931064,
              26.104082113782056
            ],
            [
              85.77160807204247,
              26.10355158491803
            ],
            [
              85.772383649611,
              26.102591973886252
            ],
            [
              85.77429134338938,
              26.102201420392397
            ],
            [
              85.7744955798608,
              26.10092358000543
            ],
            [
              85.77484306528068,
              26.099265990078823
            ],
            [
              85.77561919980471,
              26.09957910394014
            ],
            [
              85.77675939456392,
              26.101935189200372
            ],
            [
              85.77655572582773,
              26.103339513062327
            ],
            [
              85.7756414690406,
              26.10455682522448
            ],
            [
              85.77642489608809,
              26.105384331249027
            ],
            [
              85.77954155335563,
              26.107029232757046
            ],
            [
              85.77976069467427,
              26.109068263240527
            ],
            [
              85.7825696511092,
              26.115615279091944
            ],
            [
              85.78468083665565,
              26.119258491969532
            ],
            [
              85.78660277591781,
              26.121932035293405
            ],
            [
              85.78823603707184,
              26.123776235168645
            ],
            [
              85.79586298356567,
              26.126523012810566
            ],
            [
              85.79797641130708,
              26.127304761686528
            ],
            [
              85.79950870092486,
              26.127822495374833
            ],
            [
              85.80169542221027,
              26.128211285707422
            ],
            [
              85.8030090142772,
              26.128996010604666
            ],
            [
              85.80396137310713,
              26.13056735115151
            ],
            [
              85.80542784226571,
              26.13194720400879
            ],
            [
              85.808768197107,
              26.13206058616189
            ],
            [
              85.8089182130645,
              26.13206457506449
            ],
            [
              85.81189614170609,
              26.13060431711624
            ],
            [
              85.81270569625362,
              26.130519927273564
            ],
            [
              85.81386511495991,
              26.13040260870123
            ],
            [
              85.81532278961188,
              26.130988060802796
            ],
            [
              85.81577761113181,
              26.133026157108493
            ],
            [
              85.81650326662508,
              26.136281600375423
            ],
            [
              85.81670324867528,
              26.13637347323739
            ],
            [
              85.81926944259125,
              26.137552374329047
            ],
            [
              85.81976690983265,
              26.138060445683905
            ],
            [
              85.82197153903327,
              26.139008430925934
            ],
            [
              85.82643194391348,
              26.139058373101797
            ],
            [
              85.82777843228612,
              26.139368805394476
            ],
            [
              85.82851936902067,
              26.139550950245283
            ],
            [
              85.82885649956029,
              26.139978254822644
            ],
            [
              85.82931179898395,
              26.14003959393747
            ],
            [
              85.83011604538645,
              26.13987392777057
            ],
            [
              85.82998942515219,
              26.14055590991318
            ],
            [
              85.82975623867412,
              26.14295322766872
            ],
            [
              85.83122910563418,
              26.14351587039834
            ],
            [
              85.83151142007685,
              26.143988580609843
            ],
            [
              85.83169068158675,
              26.144840871176694
            ],
            [
              85.83256961931187,
              26.146633439043327
            ],
            [
              85.83359383977124,
              26.148457028137546
            ],
            [
              85.8336565367882,
              26.149007364074222
            ],
            [
              85.83342797663384,
              26.14931061578156
            ],
            [
              85.83346685841425,
              26.15008215832618
            ],
            [
              85.8338888716634,
              26.15047313397129
            ],
            [
              85.83433571794023,
              26.152836084727852
            ],
            [
              85.8346167639617,
              26.153056018920523
            ],
            [
              85.8358922450027,
              26.15310048000158
            ],
            [
              85.83691549617991,
              26.148732375848812
            ],
            [
              85.83834547307671,
              26.14768850604136
            ],
            [
              85.83844517529346,
              26.146645609080128
            ],
            [
              85.83770762610585,
              26.146143173071454
            ],
            [
              85.83807879111664,
              26.143366240647016
            ],
            [
              85.8391965558415,
              26.14292391688466
            ],
            [
              85.83996191507369,
              26.142984026281425
            ],
            [
              85.84108528169267,
              26.143638282794758
            ],
            [
              85.84092947968642,
              26.14546208560971
            ],
            [
              85.84072468086964,
              26.147502791123948
            ],
            [
              85.84186979390503,
              26.149474726775527
            ],
            [
              85.84279615908389,
              26.151704808113653
            ],
            [
              85.84323439231378,
              26.1543159956431
            ],
            [
              85.84644796522407,
              26.15493004294799
            ],
            [
              85.84701285821407,
              26.155870886624506
            ],
            [
              85.84984010883979,
              26.15522733983258
            ]
          ],
          [
            [
              85.84453842540779,
              26.117548385956965
            ],
            [
              85.8494886789175,
              26.11676069413455
            ],
            [
              85.84956640115588,
              26.11829470431191
            ],
            [
              85.85021082469292,
              26.120142409695152
            ],
            [
              85.8448351793703,
              26.120868627137675
            ],
            [
              85.84453842540779,
              26.117548385956965
            ]
          ]
        ]
      }
    }
  ]
}